<?xml version="1.0" encoding="UTF-8"?>
<!-- track-length = 29862 filtered ascend = 1378 plain-ascend = 1366 cost=34411 energy=0.4kwh time=4h 9m 51.74507337105024s -->
<gpx 
 xmlns="http://www.topografix.com/GPX/1/1" 
 xmlns:xsi="http://www.w3.org/2001/XMLSchema-instance" 
 xsi:schemaLocation="http://www.topografix.com/GPX/1/1 http://www.topografix.com/GPX/1/1/gpx.xsd" 
 version="1.1" 
 creator="BRouter-Web 0.18.1">
 <trk>
  <name>Tabernas -&gt; Bacares (29.9km)</name>
  <trkseg>
   <trkpt lat="37.07120386611708" lon="-2.38482298708691"/>
   <trkpt lat="37.071259" lon="-2.384779"><ele>463</ele></trkpt>
   <trkpt lat="37.071287" lon="-2.384831"><ele>463</ele></trkpt>
   <trkpt lat="37.071318" lon="-2.384935"><ele>463</ele></trkpt>
   <trkpt lat="37.071339" lon="-2.385053"><ele>463</ele></trkpt>
   <trkpt lat="37.071379" lon="-2.385187"><ele>463.5</ele></trkpt>
   <trkpt lat="37.071445" lon="-2.385372"><ele>463.5</ele></trkpt>
   <trkpt lat="37.071504" lon="-2.385479"><ele>463.25</ele></trkpt>
   <trkpt lat="37.071571" lon="-2.385564"><ele>463.5</ele></trkpt>
   <trkpt lat="37.071681" lon="-2.38567"><ele>464</ele></trkpt>
   <trkpt lat="37.071776" lon="-2.385738"><ele>464.25</ele></trkpt>
   <trkpt lat="37.07188" lon="-2.385782"><ele>464.5</ele></trkpt>
   <trkpt lat="37.071984" lon="-2.385806"><ele>464.75</ele></trkpt>
   <trkpt lat="37.07211" lon="-2.385812"><ele>464.75</ele></trkpt>
   <trkpt lat="37.072271" lon="-2.385795"><ele>465</ele></trkpt>
   <trkpt lat="37.072805" lon="-2.385684"><ele>466</ele></trkpt>
   <trkpt lat="37.0733" lon="-2.38564"><ele>467.5</ele></trkpt>
   <trkpt lat="37.074976" lon="-2.385553"><ele>471.75</ele></trkpt>
   <trkpt lat="37.075416" lon="-2.385539"><ele>472.75</ele></trkpt>
   <trkpt lat="37.075739" lon="-2.38553"><ele>473.5</ele></trkpt>
   <trkpt lat="37.076004" lon="-2.385577"><ele>474.5</ele></trkpt>
   <trkpt lat="37.076651" lon="-2.385735"><ele>475.75</ele></trkpt>
   <trkpt lat="37.077869" lon="-2.385937"><ele>479.5</ele></trkpt>
   <trkpt lat="37.079938" lon="-2.386301"><ele>484.75</ele></trkpt>
   <trkpt lat="37.080326" lon="-2.386394"><ele>486</ele></trkpt>
   <trkpt lat="37.080495" lon="-2.386442"><ele>488.5</ele></trkpt>
   <trkpt lat="37.081301" lon="-2.386668"><ele>488.5</ele></trkpt>
   <trkpt lat="37.082305" lon="-2.386852"><ele>491</ele></trkpt>
   <trkpt lat="37.082422" lon="-2.386873"><ele>491.5</ele></trkpt>
   <trkpt lat="37.083363" lon="-2.386954"><ele>493</ele></trkpt>
   <trkpt lat="37.083719" lon="-2.386991"><ele>494.25</ele></trkpt>
   <trkpt lat="37.084499" lon="-2.387088"><ele>496</ele></trkpt>
   <trkpt lat="37.085286" lon="-2.387186"><ele>498</ele></trkpt>
   <trkpt lat="37.086385" lon="-2.387345"><ele>500.75</ele></trkpt>
   <trkpt lat="37.087095" lon="-2.387499"><ele>502.5</ele></trkpt>
   <trkpt lat="37.088799" lon="-2.387998"><ele>505.75</ele></trkpt>
   <trkpt lat="37.089083" lon="-2.388089"><ele>506</ele></trkpt>
   <trkpt lat="37.089518" lon="-2.388213"><ele>507</ele></trkpt>
   <trkpt lat="37.08979" lon="-2.388377"><ele>507.25</ele></trkpt>
   <trkpt lat="37.090065" lon="-2.388685"><ele>508.5</ele></trkpt>
   <trkpt lat="37.090175" lon="-2.388869"><ele>509.5</ele></trkpt>
   <trkpt lat="37.090277" lon="-2.38904"><ele>509.75</ele></trkpt>
   <trkpt lat="37.090527" lon="-2.389508"><ele>511</ele></trkpt>
   <trkpt lat="37.090964" lon="-2.39026"><ele>517.25</ele></trkpt>
   <trkpt lat="37.091107" lon="-2.390691"><ele>512</ele></trkpt>
   <trkpt lat="37.091198" lon="-2.391118"><ele>510</ele></trkpt>
   <trkpt lat="37.091195" lon="-2.391833"><ele>509.25</ele></trkpt>
   <trkpt lat="37.091169" lon="-2.392378"><ele>510.5</ele></trkpt>
   <trkpt lat="37.091185" lon="-2.39286"><ele>511.25</ele></trkpt>
   <trkpt lat="37.091191" lon="-2.39304"><ele>511.75</ele></trkpt>
   <trkpt lat="37.091266" lon="-2.393541"><ele>515.25</ele></trkpt>
   <trkpt lat="37.091435" lon="-2.394006"><ele>516.5</ele></trkpt>
   <trkpt lat="37.091665" lon="-2.394508"><ele>519</ele></trkpt>
   <trkpt lat="37.092085" lon="-2.395337"><ele>521</ele></trkpt>
   <trkpt lat="37.09231" lon="-2.39572"><ele>521.75</ele></trkpt>
   <trkpt lat="37.09305" lon="-2.39674"><ele>525.25</ele></trkpt>
   <trkpt lat="37.093386" lon="-2.397139"><ele>526.25</ele></trkpt>
   <trkpt lat="37.093728" lon="-2.397525"><ele>528</ele></trkpt>
   <trkpt lat="37.094019" lon="-2.397834"><ele>528.5</ele></trkpt>
   <trkpt lat="37.09459" lon="-2.398399"><ele>529.5</ele></trkpt>
   <trkpt lat="37.095203" lon="-2.398834"><ele>531.75</ele></trkpt>
   <trkpt lat="37.095521" lon="-2.399049"><ele>533.25</ele></trkpt>
   <trkpt lat="37.095897" lon="-2.399265"><ele>534</ele></trkpt>
   <trkpt lat="37.096247" lon="-2.399452"><ele>535</ele></trkpt>
   <trkpt lat="37.097261" lon="-2.399948"><ele>538</ele></trkpt>
   <trkpt lat="37.098212" lon="-2.400401"><ele>540.5</ele></trkpt>
   <trkpt lat="37.099297" lon="-2.400969"><ele>543.25</ele></trkpt>
   <trkpt lat="37.09979" lon="-2.401223"><ele>548.75</ele></trkpt>
   <trkpt lat="37.100791" lon="-2.401737"><ele>548.75</ele></trkpt>
   <trkpt lat="37.101376" lon="-2.402011"><ele>550</ele></trkpt>
   <trkpt lat="37.102746" lon="-2.402621"><ele>554.75</ele></trkpt>
   <trkpt lat="37.103515" lon="-2.402992"><ele>556.75</ele></trkpt>
   <trkpt lat="37.103963" lon="-2.40319"><ele>558.25</ele></trkpt>
   <trkpt lat="37.104808" lon="-2.403549"><ele>560.25</ele></trkpt>
   <trkpt lat="37.105503" lon="-2.40392"><ele>562.75</ele></trkpt>
   <trkpt lat="37.108391" lon="-2.405683"><ele>570.5</ele></trkpt>
   <trkpt lat="37.11269" lon="-2.408297"><ele>584</ele></trkpt>
   <trkpt lat="37.114506" lon="-2.409361"><ele>589</ele></trkpt>
   <trkpt lat="37.116255" lon="-2.410397"><ele>594.25</ele></trkpt>
   <trkpt lat="37.116611" lon="-2.410728"><ele>596</ele></trkpt>
   <trkpt lat="37.116963" lon="-2.41113"><ele>598</ele></trkpt>
   <trkpt lat="37.117689" lon="-2.412023"><ele>602.25</ele></trkpt>
   <trkpt lat="37.118016" lon="-2.412363"><ele>604</ele></trkpt>
   <trkpt lat="37.118351" lon="-2.412615"><ele>604.5</ele></trkpt>
   <trkpt lat="37.118679" lon="-2.412803"><ele>603.75</ele></trkpt>
   <trkpt lat="37.119834" lon="-2.413437"><ele>606</ele></trkpt>
   <trkpt lat="37.120257" lon="-2.413657"><ele>607</ele></trkpt>
   <trkpt lat="37.121381" lon="-2.414263"><ele>611.25</ele></trkpt>
   <trkpt lat="37.121765" lon="-2.414479"><ele>613.25</ele></trkpt>
   <trkpt lat="37.122114" lon="-2.414793"><ele>614.25</ele></trkpt>
   <trkpt lat="37.123093" lon="-2.41585"><ele>616.75</ele></trkpt>
   <trkpt lat="37.124311" lon="-2.417203"><ele>621.25</ele></trkpt>
   <trkpt lat="37.124421" lon="-2.417324"><ele>621.25</ele></trkpt>
   <trkpt lat="37.124735" lon="-2.417653"><ele>622.5</ele></trkpt>
   <trkpt lat="37.125703" lon="-2.418685"><ele>625.75</ele></trkpt>
   <trkpt lat="37.126256" lon="-2.419405"><ele>630.75</ele></trkpt>
   <trkpt lat="37.126563" lon="-2.419865"><ele>632</ele></trkpt>
   <trkpt lat="37.126756" lon="-2.420249"><ele>633.25</ele></trkpt>
   <trkpt lat="37.12701" lon="-2.421204"><ele>639</ele></trkpt>
   <trkpt lat="37.127151" lon="-2.421636"><ele>641.25</ele></trkpt>
   <trkpt lat="37.127348" lon="-2.422025"><ele>641.5</ele></trkpt>
   <trkpt lat="37.127952" lon="-2.422459"><ele>643.25</ele></trkpt>
   <trkpt lat="37.128397" lon="-2.422717"><ele>644.5</ele></trkpt>
   <trkpt lat="37.128747" lon="-2.422949"><ele>644.75</ele></trkpt>
   <trkpt lat="37.129536" lon="-2.422909"><ele>647.5</ele></trkpt>
   <trkpt lat="37.12987" lon="-2.423072"><ele>649</ele></trkpt>
   <trkpt lat="37.131529" lon="-2.424009"><ele>654.5</ele></trkpt>
   <trkpt lat="37.131874" lon="-2.424128"><ele>656</ele></trkpt>
   <trkpt lat="37.132297" lon="-2.424133"><ele>655.25</ele></trkpt>
   <trkpt lat="37.133741" lon="-2.424195"><ele>657.75</ele></trkpt>
   <trkpt lat="37.134263" lon="-2.424142"><ele>656.5</ele></trkpt>
   <trkpt lat="37.135312" lon="-2.423832"><ele>657.5</ele></trkpt>
   <trkpt lat="37.135562" lon="-2.423806"><ele>659.25</ele></trkpt>
   <trkpt lat="37.135922" lon="-2.423929"><ele>659.75</ele></trkpt>
   <trkpt lat="37.137292" lon="-2.424654"><ele>665.5</ele></trkpt>
   <trkpt lat="37.137566" lon="-2.424776"><ele>666.25</ele></trkpt>
   <trkpt lat="37.138207" lon="-2.425132"><ele>672.75</ele></trkpt>
   <trkpt lat="37.138879" lon="-2.425491"><ele>681.5</ele></trkpt>
   <trkpt lat="37.139174" lon="-2.425635"><ele>683.5</ele></trkpt>
   <trkpt lat="37.13955" lon="-2.425806"><ele>681.5</ele></trkpt>
   <trkpt lat="37.139993" lon="-2.425874"><ele>677</ele></trkpt>
   <trkpt lat="37.140578" lon="-2.425789"><ele>674.75</ele></trkpt>
   <trkpt lat="37.141065" lon="-2.425707"><ele>674.5</ele></trkpt>
   <trkpt lat="37.14131" lon="-2.425659"><ele>674.5</ele></trkpt>
   <trkpt lat="37.141576" lon="-2.425594"><ele>674</ele></trkpt>
   <trkpt lat="37.142467" lon="-2.425285"><ele>677</ele></trkpt>
   <trkpt lat="37.142715" lon="-2.42521"><ele>677.75</ele></trkpt>
   <trkpt lat="37.142882" lon="-2.425152"><ele>679</ele></trkpt>
   <trkpt lat="37.143433" lon="-2.424872"><ele>682.75</ele></trkpt>
   <trkpt lat="37.143794" lon="-2.4247"><ele>684.5</ele></trkpt>
   <trkpt lat="37.143977" lon="-2.42462"><ele>686.75</ele></trkpt>
   <trkpt lat="37.144056" lon="-2.424578"><ele>687.5</ele></trkpt>
   <trkpt lat="37.144118" lon="-2.424528"><ele>687.25</ele></trkpt>
   <trkpt lat="37.144168" lon="-2.424464"><ele>685.75</ele></trkpt>
   <trkpt lat="37.144553" lon="-2.423801"><ele>685</ele></trkpt>
   <trkpt lat="37.14461" lon="-2.423718"><ele>684.75</ele></trkpt>
   <trkpt lat="37.144666" lon="-2.423651"><ele>684.25</ele></trkpt>
   <trkpt lat="37.144872" lon="-2.423471"><ele>683.25</ele></trkpt>
   <trkpt lat="37.145092" lon="-2.423286"><ele>683</ele></trkpt>
   <trkpt lat="37.145242" lon="-2.423163"><ele>683</ele></trkpt>
   <trkpt lat="37.145261" lon="-2.423147"><ele>683</ele></trkpt>
   <trkpt lat="37.145489" lon="-2.422965"><ele>683.25</ele></trkpt>
   <trkpt lat="37.146017" lon="-2.422529"><ele>684.5</ele></trkpt>
   <trkpt lat="37.146636" lon="-2.422017"><ele>684</ele></trkpt>
   <trkpt lat="37.146986" lon="-2.421728"><ele>682.25</ele></trkpt>
   <trkpt lat="37.147087" lon="-2.421644"><ele>682.75</ele></trkpt>
   <trkpt lat="37.148544" lon="-2.420415"><ele>687.5</ele></trkpt>
   <trkpt lat="37.149216" lon="-2.419873"><ele>696</ele></trkpt>
   <trkpt lat="37.14938" lon="-2.419737"><ele>696.5</ele></trkpt>
   <trkpt lat="37.149528" lon="-2.419592"><ele>697.25</ele></trkpt>
   <trkpt lat="37.149843" lon="-2.41926"><ele>697.75</ele></trkpt>
   <trkpt lat="37.150015" lon="-2.419078"><ele>697</ele></trkpt>
   <trkpt lat="37.150108" lon="-2.419003"><ele>697.75</ele></trkpt>
   <trkpt lat="37.150204" lon="-2.418948"><ele>698.25</ele></trkpt>
   <trkpt lat="37.150332" lon="-2.418905"><ele>699.25</ele></trkpt>
   <trkpt lat="37.150437" lon="-2.418886"><ele>700.75</ele></trkpt>
   <trkpt lat="37.15067" lon="-2.41888"><ele>702.75</ele></trkpt>
   <trkpt lat="37.151087" lon="-2.418857"><ele>706.75</ele></trkpt>
   <trkpt lat="37.151273" lon="-2.41883"><ele>707.75</ele></trkpt>
   <trkpt lat="37.151393" lon="-2.4188"><ele>708.75</ele></trkpt>
   <trkpt lat="37.15148" lon="-2.418769"><ele>708.75</ele></trkpt>
   <trkpt lat="37.151566" lon="-2.418716"><ele>708.75</ele></trkpt>
   <trkpt lat="37.15167" lon="-2.418639"><ele>707.5</ele></trkpt>
   <trkpt lat="37.151762" lon="-2.418554"><ele>707</ele></trkpt>
   <trkpt lat="37.152008" lon="-2.418278"><ele>704.75</ele></trkpt>
   <trkpt lat="37.152205" lon="-2.418069"><ele>704</ele></trkpt>
   <trkpt lat="37.152314" lon="-2.41797"><ele>704</ele></trkpt>
   <trkpt lat="37.152528" lon="-2.417823"><ele>704.5</ele></trkpt>
   <trkpt lat="37.152701" lon="-2.417742"><ele>705.25</ele></trkpt>
   <trkpt lat="37.152831" lon="-2.417692"><ele>705.75</ele></trkpt>
   <trkpt lat="37.152957" lon="-2.417654"><ele>707.25</ele></trkpt>
   <trkpt lat="37.153483" lon="-2.41755"><ele>710.5</ele></trkpt>
   <trkpt lat="37.153705" lon="-2.417533"><ele>711.25</ele></trkpt>
   <trkpt lat="37.153915" lon="-2.417546"><ele>711.25</ele></trkpt>
   <trkpt lat="37.154421" lon="-2.417616"><ele>713.25</ele></trkpt>
   <trkpt lat="37.154782" lon="-2.417673"><ele>717</ele></trkpt>
   <trkpt lat="37.155011" lon="-2.417715"><ele>720.75</ele></trkpt>
   <trkpt lat="37.155082" lon="-2.417721"><ele>720.75</ele></trkpt>
   <trkpt lat="37.155148" lon="-2.417712"><ele>721.5</ele></trkpt>
   <trkpt lat="37.155195" lon="-2.417697"><ele>722</ele></trkpt>
   <trkpt lat="37.155276" lon="-2.41766"><ele>723</ele></trkpt>
   <trkpt lat="37.155366" lon="-2.417585"><ele>722.5</ele></trkpt>
   <trkpt lat="37.155442" lon="-2.417498"><ele>721.75</ele></trkpt>
   <trkpt lat="37.15553" lon="-2.417379"><ele>720.5</ele></trkpt>
   <trkpt lat="37.15573" lon="-2.417054"><ele>719.25</ele></trkpt>
   <trkpt lat="37.155787" lon="-2.416978"><ele>718.25</ele></trkpt>
   <trkpt lat="37.155868" lon="-2.416893"><ele>716.75</ele></trkpt>
   <trkpt lat="37.155923" lon="-2.416845"><ele>716.25</ele></trkpt>
   <trkpt lat="37.15595" lon="-2.416821"><ele>716</ele></trkpt>
   <trkpt lat="37.156132" lon="-2.416683"><ele>714.5</ele></trkpt>
   <trkpt lat="37.156408" lon="-2.416494"><ele>713.5</ele></trkpt>
   <trkpt lat="37.156722" lon="-2.416307"><ele>715.5</ele></trkpt>
   <trkpt lat="37.156801" lon="-2.416264"><ele>716.25</ele></trkpt>
   <trkpt lat="37.156873" lon="-2.416236"><ele>716.75</ele></trkpt>
   <trkpt lat="37.156962" lon="-2.41622"><ele>717.25</ele></trkpt>
   <trkpt lat="37.157059" lon="-2.416216"><ele>718.75</ele></trkpt>
   <trkpt lat="37.157173" lon="-2.416227"><ele>720</ele></trkpt>
   <trkpt lat="37.157359" lon="-2.41626"><ele>721</ele></trkpt>
   <trkpt lat="37.157468" lon="-2.416287"><ele>721</ele></trkpt>
   <trkpt lat="37.157623" lon="-2.416353"><ele>719.5</ele></trkpt>
   <trkpt lat="37.158102" lon="-2.41662"><ele>719</ele></trkpt>
   <trkpt lat="37.159272" lon="-2.417324"><ele>718.5</ele></trkpt>
   <trkpt lat="37.159483" lon="-2.417454"><ele>720.5</ele></trkpt>
   <trkpt lat="37.159648" lon="-2.417544"><ele>722.5</ele></trkpt>
   <trkpt lat="37.159745" lon="-2.417583"><ele>723</ele></trkpt>
   <trkpt lat="37.159817" lon="-2.417591"><ele>722.75</ele></trkpt>
   <trkpt lat="37.159898" lon="-2.417584"><ele>722.5</ele></trkpt>
   <trkpt lat="37.159992" lon="-2.417552"><ele>723</ele></trkpt>
   <trkpt lat="37.160065" lon="-2.417505"><ele>722.75</ele></trkpt>
   <trkpt lat="37.160173" lon="-2.417422"><ele>724.75</ele></trkpt>
   <trkpt lat="37.160705" lon="-2.416892"><ele>727.25</ele></trkpt>
   <trkpt lat="37.160815" lon="-2.416797"><ele>727</ele></trkpt>
   <trkpt lat="37.160913" lon="-2.41674"><ele>727.5</ele></trkpt>
   <trkpt lat="37.161026" lon="-2.416688"><ele>728.5</ele></trkpt>
   <trkpt lat="37.161244" lon="-2.416608"><ele>729.25</ele></trkpt>
   <trkpt lat="37.161442" lon="-2.416556"><ele>729.5</ele></trkpt>
   <trkpt lat="37.161523" lon="-2.416553"><ele>729.5</ele></trkpt>
   <trkpt lat="37.161606" lon="-2.416572"><ele>729.5</ele></trkpt>
   <trkpt lat="37.161742" lon="-2.416625"><ele>729.5</ele></trkpt>
   <trkpt lat="37.161835" lon="-2.41665"><ele>730</ele></trkpt>
   <trkpt lat="37.161967" lon="-2.416668"><ele>730.75</ele></trkpt>
   <trkpt lat="37.1621" lon="-2.416674"><ele>730.75</ele></trkpt>
   <trkpt lat="37.162216" lon="-2.416661"><ele>731</ele></trkpt>
   <trkpt lat="37.162328" lon="-2.416634"><ele>730.75</ele></trkpt>
   <trkpt lat="37.162417" lon="-2.416589"><ele>731</ele></trkpt>
   <trkpt lat="37.162476" lon="-2.416534"><ele>731.5</ele></trkpt>
   <trkpt lat="37.162559" lon="-2.416428"><ele>731.75</ele></trkpt>
   <trkpt lat="37.16263" lon="-2.416302"><ele>731.75</ele></trkpt>
   <trkpt lat="37.162688" lon="-2.416174"><ele>732</ele></trkpt>
   <trkpt lat="37.162734" lon="-2.416049"><ele>731.75</ele></trkpt>
   <trkpt lat="37.162779" lon="-2.415901"><ele>731.25</ele></trkpt>
   <trkpt lat="37.162819" lon="-2.415797"><ele>731</ele></trkpt>
   <trkpt lat="37.162855" lon="-2.415725"><ele>730.5</ele></trkpt>
   <trkpt lat="37.162924" lon="-2.415616"><ele>730.25</ele></trkpt>
   <trkpt lat="37.163047" lon="-2.415471"><ele>731.75</ele></trkpt>
   <trkpt lat="37.163199" lon="-2.415341"><ele>732.75</ele></trkpt>
   <trkpt lat="37.163323" lon="-2.415264"><ele>733</ele></trkpt>
   <trkpt lat="37.163836" lon="-2.415008"><ele>735.75</ele></trkpt>
   <trkpt lat="37.163981" lon="-2.414945"><ele>736.25</ele></trkpt>
   <trkpt lat="37.164118" lon="-2.414895"><ele>736.5</ele></trkpt>
   <trkpt lat="37.164264" lon="-2.414862"><ele>737.5</ele></trkpt>
   <trkpt lat="37.164413" lon="-2.414833"><ele>738.75</ele></trkpt>
   <trkpt lat="37.164787" lon="-2.414772"><ele>742.75</ele></trkpt>
   <trkpt lat="37.166074" lon="-2.41456"><ele>751</ele></trkpt>
   <trkpt lat="37.166187" lon="-2.414538"><ele>751</ele></trkpt>
   <trkpt lat="37.166964" lon="-2.414395"><ele>756.25</ele></trkpt>
   <trkpt lat="37.167365" lon="-2.414321"><ele>759</ele></trkpt>
   <trkpt lat="37.168384" lon="-2.414093"><ele>761</ele></trkpt>
   <trkpt lat="37.168489" lon="-2.414069"><ele>761</ele></trkpt>
   <trkpt lat="37.169803" lon="-2.413774"><ele>759.25</ele></trkpt>
   <trkpt lat="37.170345" lon="-2.413645"><ele>758.75</ele></trkpt>
   <trkpt lat="37.170414" lon="-2.413631"><ele>759.5</ele></trkpt>
   <trkpt lat="37.171045" lon="-2.413492"><ele>767.5</ele></trkpt>
   <trkpt lat="37.172377" lon="-2.413219"><ele>769.25</ele></trkpt>
   <trkpt lat="37.17273" lon="-2.41314"><ele>770.25</ele></trkpt>
   <trkpt lat="37.172878" lon="-2.413093"><ele>770.75</ele></trkpt>
   <trkpt lat="37.17306" lon="-2.413035"><ele>770.75</ele></trkpt>
   <trkpt lat="37.173187" lon="-2.413024"><ele>771.25</ele></trkpt>
   <trkpt lat="37.173391" lon="-2.413054"><ele>771.5</ele></trkpt>
   <trkpt lat="37.173822" lon="-2.413192"><ele>773.5</ele></trkpt>
   <trkpt lat="37.174006" lon="-2.413204"><ele>774.25</ele></trkpt>
   <trkpt lat="37.174364" lon="-2.413181"><ele>775.75</ele></trkpt>
   <trkpt lat="37.174563" lon="-2.413157"><ele>775.25</ele></trkpt>
   <trkpt lat="37.174671" lon="-2.413126"><ele>774.75</ele></trkpt>
   <trkpt lat="37.174892" lon="-2.413047"><ele>776</ele></trkpt>
   <trkpt lat="37.175214" lon="-2.412952"><ele>775.5</ele></trkpt>
   <trkpt lat="37.175329" lon="-2.412941"><ele>776</ele></trkpt>
   <trkpt lat="37.17544" lon="-2.412953"><ele>777</ele></trkpt>
   <trkpt lat="37.175582" lon="-2.412994"><ele>777.5</ele></trkpt>
   <trkpt lat="37.175811" lon="-2.413074"><ele>777.25</ele></trkpt>
   <trkpt lat="37.17612" lon="-2.4132"><ele>778.25</ele></trkpt>
   <trkpt lat="37.176706" lon="-2.413407"><ele>775.25</ele></trkpt>
   <trkpt lat="37.177007" lon="-2.413537"><ele>777.75</ele></trkpt>
   <trkpt lat="37.1773" lon="-2.413616"><ele>779.5</ele></trkpt>
   <trkpt lat="37.177415" lon="-2.413632"><ele>780</ele></trkpt>
   <trkpt lat="37.177877" lon="-2.413673"><ele>783</ele></trkpt>
   <trkpt lat="37.17803" lon="-2.413664"><ele>784</ele></trkpt>
   <trkpt lat="37.178335" lon="-2.413605"><ele>786</ele></trkpt>
   <trkpt lat="37.178485" lon="-2.413554"><ele>786.5</ele></trkpt>
   <trkpt lat="37.178646" lon="-2.413476"><ele>787.5</ele></trkpt>
   <trkpt lat="37.178852" lon="-2.413356"><ele>788.5</ele></trkpt>
   <trkpt lat="37.179198" lon="-2.413124"><ele>790.25</ele></trkpt>
   <trkpt lat="37.179349" lon="-2.412988"><ele>791.75</ele></trkpt>
   <trkpt lat="37.179442" lon="-2.412882"><ele>792.5</ele></trkpt>
   <trkpt lat="37.179591" lon="-2.412687"><ele>793.25</ele></trkpt>
   <trkpt lat="37.179691" lon="-2.41253"><ele>794.75</ele></trkpt>
   <trkpt lat="37.179924" lon="-2.412137"><ele>796</ele></trkpt>
   <trkpt lat="37.17995" lon="-2.412103"><ele>796</ele></trkpt>
   <trkpt lat="37.18016" lon="-2.411852"><ele>796.75</ele></trkpt>
   <trkpt lat="37.180272" lon="-2.411707"><ele>796.25</ele></trkpt>
   <trkpt lat="37.180362" lon="-2.411545"><ele>796.5</ele></trkpt>
   <trkpt lat="37.180547" lon="-2.411154"><ele>794.75</ele></trkpt>
   <trkpt lat="37.180652" lon="-2.411005"><ele>796.75</ele></trkpt>
   <trkpt lat="37.180723" lon="-2.410923"><ele>797.5</ele></trkpt>
   <trkpt lat="37.180811" lon="-2.410846"><ele>797.25</ele></trkpt>
   <trkpt lat="37.181319" lon="-2.410401"><ele>801.25</ele></trkpt>
   <trkpt lat="37.181465" lon="-2.410311"><ele>802.75</ele></trkpt>
   <trkpt lat="37.181679" lon="-2.41022"><ele>805.75</ele></trkpt>
   <trkpt lat="37.182056" lon="-2.410081"><ele>808.75</ele></trkpt>
   <trkpt lat="37.182544" lon="-2.409932"><ele>814.75</ele></trkpt>
   <trkpt lat="37.182699" lon="-2.409878"><ele>815.75</ele></trkpt>
   <trkpt lat="37.182796" lon="-2.409826"><ele>816.5</ele></trkpt>
   <trkpt lat="37.18287" lon="-2.409774"><ele>817</ele></trkpt>
   <trkpt lat="37.182988" lon="-2.409664"><ele>818.75</ele></trkpt>
   <trkpt lat="37.183195" lon="-2.409409"><ele>821</ele></trkpt>
   <trkpt lat="37.183648" lon="-2.408705"><ele>825.75</ele></trkpt>
   <trkpt lat="37.18377" lon="-2.408473"><ele>828</ele></trkpt>
   <trkpt lat="37.18384" lon="-2.408297"><ele>829.5</ele></trkpt>
   <trkpt lat="37.18389" lon="-2.408125"><ele>830</ele></trkpt>
   <trkpt lat="37.18391" lon="-2.407989"><ele>830.5</ele></trkpt>
   <trkpt lat="37.183953" lon="-2.40736"><ele>833</ele></trkpt>
   <trkpt lat="37.183984" lon="-2.407062"><ele>834.75</ele></trkpt>
   <trkpt lat="37.184021" lon="-2.406757"><ele>837</ele></trkpt>
   <trkpt lat="37.184074" lon="-2.4065"><ele>838.75</ele></trkpt>
   <trkpt lat="37.184189" lon="-2.405986"><ele>839.25</ele></trkpt>
   <trkpt lat="37.184289" lon="-2.405596"><ele>840.75</ele></trkpt>
   <trkpt lat="37.184367" lon="-2.405363"><ele>841</ele></trkpt>
   <trkpt lat="37.184564" lon="-2.404888"><ele>838</ele></trkpt>
   <trkpt lat="37.184641" lon="-2.404733"><ele>837.25</ele></trkpt>
   <trkpt lat="37.184693" lon="-2.404651"><ele>836</ele></trkpt>
   <trkpt lat="37.184747" lon="-2.404592"><ele>835.25</ele></trkpt>
   <trkpt lat="37.184834" lon="-2.404532"><ele>835.25</ele></trkpt>
   <trkpt lat="37.185038" lon="-2.40446"><ele>836.25</ele></trkpt>
   <trkpt lat="37.185473" lon="-2.404309"><ele>838.75</ele></trkpt>
   <trkpt lat="37.185584" lon="-2.404291"><ele>839</ele></trkpt>
   <trkpt lat="37.185707" lon="-2.404296"><ele>839.25</ele></trkpt>
   <trkpt lat="37.185791" lon="-2.404321"><ele>839</ele></trkpt>
   <trkpt lat="37.185859" lon="-2.404365"><ele>838.25</ele></trkpt>
   <trkpt lat="37.185968" lon="-2.404482"><ele>837.5</ele></trkpt>
   <trkpt lat="37.18606" lon="-2.40456"><ele>839.25</ele></trkpt>
   <trkpt lat="37.186188" lon="-2.404625"><ele>841.5</ele></trkpt>
   <trkpt lat="37.186319" lon="-2.404667"><ele>843.25</ele></trkpt>
   <trkpt lat="37.186478" lon="-2.404696"><ele>844.75</ele></trkpt>
   <trkpt lat="37.187395" lon="-2.404799"><ele>849.75</ele></trkpt>
   <trkpt lat="37.187538" lon="-2.404806"><ele>850.25</ele></trkpt>
   <trkpt lat="37.187756" lon="-2.4048"><ele>851</ele></trkpt>
   <trkpt lat="37.18791" lon="-2.404782"><ele>852</ele></trkpt>
   <trkpt lat="37.18805" lon="-2.404749"><ele>853.5</ele></trkpt>
   <trkpt lat="37.188321" lon="-2.404631"><ele>852.75</ele></trkpt>
   <trkpt lat="37.188452" lon="-2.404542"><ele>854.25</ele></trkpt>
   <trkpt lat="37.18857" lon="-2.404429"><ele>857.5</ele></trkpt>
   <trkpt lat="37.188715" lon="-2.404258"><ele>859.5</ele></trkpt>
   <trkpt lat="37.188864" lon="-2.404118"><ele>861</ele></trkpt>
   <trkpt lat="37.189003" lon="-2.404013"><ele>862.25</ele></trkpt>
   <trkpt lat="37.18917" lon="-2.403924"><ele>864.5</ele></trkpt>
   <trkpt lat="37.189226" lon="-2.403903"><ele>865</ele></trkpt>
   <trkpt lat="37.189374" lon="-2.40387"><ele>866</ele></trkpt>
   <trkpt lat="37.18949" lon="-2.403828"><ele>867.25</ele></trkpt>
   <trkpt lat="37.18971" lon="-2.403727"><ele>868</ele></trkpt>
   <trkpt lat="37.189815" lon="-2.403665"><ele>869</ele></trkpt>
   <trkpt lat="37.189999" lon="-2.403502"><ele>869.5</ele></trkpt>
   <trkpt lat="37.190461" lon="-2.403114"><ele>874</ele></trkpt>
   <trkpt lat="37.190577" lon="-2.403052"><ele>874</ele></trkpt>
   <trkpt lat="37.190679" lon="-2.403018"><ele>875</ele></trkpt>
   <trkpt lat="37.190769" lon="-2.403014"><ele>875</ele></trkpt>
   <trkpt lat="37.190835" lon="-2.40303"><ele>875</ele></trkpt>
   <trkpt lat="37.1909" lon="-2.40306"><ele>875.25</ele></trkpt>
   <trkpt lat="37.190954" lon="-2.40309"><ele>875.75</ele></trkpt>
   <trkpt lat="37.191036" lon="-2.403151"><ele>876.75</ele></trkpt>
   <trkpt lat="37.191121" lon="-2.403236"><ele>878.25</ele></trkpt>
   <trkpt lat="37.191174" lon="-2.403336"><ele>879.5</ele></trkpt>
   <trkpt lat="37.191206" lon="-2.403412"><ele>880.5</ele></trkpt>
   <trkpt lat="37.191213" lon="-2.403444"><ele>880.75</ele></trkpt>
   <trkpt lat="37.191238" lon="-2.403625"><ele>882.25</ele></trkpt>
   <trkpt lat="37.191325" lon="-2.405064"><ele>889.75</ele></trkpt>
   <trkpt lat="37.191343" lon="-2.405168"><ele>890.5</ele></trkpt>
   <trkpt lat="37.191371" lon="-2.405247"><ele>891.25</ele></trkpt>
   <trkpt lat="37.19142" lon="-2.405318"><ele>892</ele></trkpt>
   <trkpt lat="37.191474" lon="-2.405362"><ele>892.25</ele></trkpt>
   <trkpt lat="37.191533" lon="-2.405381"><ele>892.75</ele></trkpt>
   <trkpt lat="37.191607" lon="-2.405376"><ele>893.25</ele></trkpt>
   <trkpt lat="37.191683" lon="-2.405349"><ele>894</ele></trkpt>
   <trkpt lat="37.191837" lon="-2.405237"><ele>896</ele></trkpt>
   <trkpt lat="37.191949" lon="-2.405131"><ele>897.5</ele></trkpt>
   <trkpt lat="37.192013" lon="-2.405043"><ele>899.5</ele></trkpt>
   <trkpt lat="37.192082" lon="-2.404915"><ele>901.75</ele></trkpt>
   <trkpt lat="37.192123" lon="-2.40479"><ele>902.75</ele></trkpt>
   <trkpt lat="37.192143" lon="-2.40467"><ele>903.25</ele></trkpt>
   <trkpt lat="37.192143" lon="-2.404504"><ele>903.75</ele></trkpt>
   <trkpt lat="37.192116" lon="-2.404323"><ele>903.5</ele></trkpt>
   <trkpt lat="37.192116" lon="-2.404202"><ele>903.75</ele></trkpt>
   <trkpt lat="37.192136" lon="-2.404159"><ele>904.5</ele></trkpt>
   <trkpt lat="37.192153" lon="-2.40414"><ele>905</ele></trkpt>
   <trkpt lat="37.192192" lon="-2.404138"><ele>906</ele></trkpt>
   <trkpt lat="37.192224" lon="-2.404162"><ele>907</ele></trkpt>
   <trkpt lat="37.192284" lon="-2.404238"><ele>909.75</ele></trkpt>
   <trkpt lat="37.192316" lon="-2.404331"><ele>911.25</ele></trkpt>
   <trkpt lat="37.192431" lon="-2.404789"><ele>914.75</ele></trkpt>
   <trkpt lat="37.192479" lon="-2.404927"><ele>915.75</ele></trkpt>
   <trkpt lat="37.192533" lon="-2.405029"><ele>916.25</ele></trkpt>
   <trkpt lat="37.19262" lon="-2.405145"><ele>916.75</ele></trkpt>
   <trkpt lat="37.192704" lon="-2.40522"><ele>917.25</ele></trkpt>
   <trkpt lat="37.1929" lon="-2.405336"><ele>919.25</ele></trkpt>
   <trkpt lat="37.192998" lon="-2.405418"><ele>920.5</ele></trkpt>
   <trkpt lat="37.193029" lon="-2.405491"><ele>920.5</ele></trkpt>
   <trkpt lat="37.193036" lon="-2.405568"><ele>920.5</ele></trkpt>
   <trkpt lat="37.193026" lon="-2.405665"><ele>921.5</ele></trkpt>
   <trkpt lat="37.192993" lon="-2.405791"><ele>922.5</ele></trkpt>
   <trkpt lat="37.192905" lon="-2.406005"><ele>925</ele></trkpt>
   <trkpt lat="37.192877" lon="-2.406116"><ele>926.75</ele></trkpt>
   <trkpt lat="37.192863" lon="-2.406228"><ele>926.5</ele></trkpt>
   <trkpt lat="37.192877" lon="-2.406326"><ele>927</ele></trkpt>
   <trkpt lat="37.192916" lon="-2.406446"><ele>928.25</ele></trkpt>
   <trkpt lat="37.192972" lon="-2.406567"><ele>929</ele></trkpt>
   <trkpt lat="37.193036" lon="-2.40666"><ele>930.25</ele></trkpt>
   <trkpt lat="37.193115" lon="-2.406726"><ele>930.75</ele></trkpt>
   <trkpt lat="37.193188" lon="-2.406769"><ele>931.5</ele></trkpt>
   <trkpt lat="37.193407" lon="-2.406845"><ele>934.75</ele></trkpt>
   <trkpt lat="37.193518" lon="-2.406856"><ele>936.5</ele></trkpt>
   <trkpt lat="37.193601" lon="-2.406839"><ele>938.25</ele></trkpt>
   <trkpt lat="37.193687" lon="-2.406788"><ele>938.75</ele></trkpt>
   <trkpt lat="37.193781" lon="-2.406693"><ele>939.75</ele></trkpt>
   <trkpt lat="37.193853" lon="-2.406605"><ele>940.75</ele></trkpt>
   <trkpt lat="37.193897" lon="-2.406505"><ele>941.5</ele></trkpt>
   <trkpt lat="37.193908" lon="-2.406376"><ele>942.75</ele></trkpt>
   <trkpt lat="37.193905" lon="-2.406332"><ele>943.25</ele></trkpt>
   <trkpt lat="37.193901" lon="-2.406288"><ele>943.5</ele></trkpt>
   <trkpt lat="37.193855" lon="-2.405946"><ele>946.5</ele></trkpt>
   <trkpt lat="37.193855" lon="-2.405768"><ele>947.5</ele></trkpt>
   <trkpt lat="37.193877" lon="-2.405606"><ele>948.25</ele></trkpt>
   <trkpt lat="37.193939" lon="-2.405334"><ele>951.5</ele></trkpt>
   <trkpt lat="37.19397" lon="-2.405152"><ele>953.5</ele></trkpt>
   <trkpt lat="37.193983" lon="-2.404993"><ele>954.75</ele></trkpt>
   <trkpt lat="37.19398" lon="-2.404874"><ele>955.5</ele></trkpt>
   <trkpt lat="37.193961" lon="-2.404749"><ele>956</ele></trkpt>
   <trkpt lat="37.193865" lon="-2.404407"><ele>957.5</ele></trkpt>
   <trkpt lat="37.193858" lon="-2.404328"><ele>957.75</ele></trkpt>
   <trkpt lat="37.19386" lon="-2.404256"><ele>958.25</ele></trkpt>
   <trkpt lat="37.193886" lon="-2.404178"><ele>959.75</ele></trkpt>
   <trkpt lat="37.193935" lon="-2.404104"><ele>959.5</ele></trkpt>
   <trkpt lat="37.194003" lon="-2.404046"><ele>959.5</ele></trkpt>
   <trkpt lat="37.194064" lon="-2.404026"><ele>960.5</ele></trkpt>
   <trkpt lat="37.194129" lon="-2.404028"><ele>962</ele></trkpt>
   <trkpt lat="37.194187" lon="-2.404046"><ele>963</ele></trkpt>
   <trkpt lat="37.194253" lon="-2.404082"><ele>963</ele></trkpt>
   <trkpt lat="37.194342" lon="-2.404156"><ele>964</ele></trkpt>
   <trkpt lat="37.194474" lon="-2.404347"><ele>965.5</ele></trkpt>
   <trkpt lat="37.194761" lon="-2.404805"><ele>972.25</ele></trkpt>
   <trkpt lat="37.194823" lon="-2.40489"><ele>973.75</ele></trkpt>
   <trkpt lat="37.194892" lon="-2.404984"><ele>975.25</ele></trkpt>
   <trkpt lat="37.195112" lon="-2.405183"><ele>977.5</ele></trkpt>
   <trkpt lat="37.19519" lon="-2.405239"><ele>978.25</ele></trkpt>
   <trkpt lat="37.19533" lon="-2.405319"><ele>979</ele></trkpt>
   <trkpt lat="37.195436" lon="-2.405393"><ele>980</ele></trkpt>
   <trkpt lat="37.195546" lon="-2.405488"><ele>981.75</ele></trkpt>
   <trkpt lat="37.195661" lon="-2.405625"><ele>983.25</ele></trkpt>
   <trkpt lat="37.195816" lon="-2.405834"><ele>986</ele></trkpt>
   <trkpt lat="37.195983" lon="-2.406034"><ele>988.75</ele></trkpt>
   <trkpt lat="37.196091" lon="-2.406125"><ele>990.75</ele></trkpt>
   <trkpt lat="37.196196" lon="-2.40619"><ele>992.5</ele></trkpt>
   <trkpt lat="37.196402" lon="-2.40629"><ele>995.5</ele></trkpt>
   <trkpt lat="37.196565" lon="-2.406402"><ele>997.75</ele></trkpt>
   <trkpt lat="37.196743" lon="-2.406558"><ele>1001.75</ele></trkpt>
   <trkpt lat="37.19683" lon="-2.40667"><ele>1003</ele></trkpt>
   <trkpt lat="37.196863" lon="-2.406755"><ele>1004</ele></trkpt>
   <trkpt lat="37.196884" lon="-2.406859"><ele>1004.5</ele></trkpt>
   <trkpt lat="37.196891" lon="-2.40702"><ele>1004.75</ele></trkpt>
   <trkpt lat="37.196912" lon="-2.407275"><ele>1007.25</ele></trkpt>
   <trkpt lat="37.19694" lon="-2.40745"><ele>1009.5</ele></trkpt>
   <trkpt lat="37.196976" lon="-2.407607"><ele>1011.25</ele></trkpt>
   <trkpt lat="37.197041" lon="-2.407801"><ele>1013</ele></trkpt>
   <trkpt lat="37.197142" lon="-2.408023"><ele>1014</ele></trkpt>
   <trkpt lat="37.197174" lon="-2.40812"><ele>1015</ele></trkpt>
   <trkpt lat="37.197196" lon="-2.408264"><ele>1016.25</ele></trkpt>
   <trkpt lat="37.197206" lon="-2.408458"><ele>1017.75</ele></trkpt>
   <trkpt lat="37.197207" lon="-2.409097"><ele>1023.5</ele></trkpt>
   <trkpt lat="37.197208" lon="-2.409523"><ele>1027.25</ele></trkpt>
   <trkpt lat="37.197218" lon="-2.409657"><ele>1029</ele></trkpt>
   <trkpt lat="37.197238" lon="-2.409758"><ele>1030.75</ele></trkpt>
   <trkpt lat="37.197278" lon="-2.409864"><ele>1032.5</ele></trkpt>
   <trkpt lat="37.19732" lon="-2.409932"><ele>1033.25</ele></trkpt>
   <trkpt lat="37.19738" lon="-2.409997"><ele>1033.5</ele></trkpt>
   <trkpt lat="37.197471" lon="-2.410054"><ele>1032.5</ele></trkpt>
   <trkpt lat="37.197981" lon="-2.410247"><ele>1038.5</ele></trkpt>
   <trkpt lat="37.198209" lon="-2.410317"><ele>1040.75</ele></trkpt>
   <trkpt lat="37.198394" lon="-2.410349"><ele>1043</ele></trkpt>
   <trkpt lat="37.19853" lon="-2.410349"><ele>1045</ele></trkpt>
   <trkpt lat="37.198699" lon="-2.410326"><ele>1047</ele></trkpt>
   <trkpt lat="37.198835" lon="-2.410277"><ele>1049</ele></trkpt>
   <trkpt lat="37.199" lon="-2.410193"><ele>1051.75</ele></trkpt>
   <trkpt lat="37.199066" lon="-2.410149"><ele>1053</ele></trkpt>
   <trkpt lat="37.199139" lon="-2.410123"><ele>1053.5</ele></trkpt>
   <trkpt lat="37.199212" lon="-2.410135"><ele>1054.25</ele></trkpt>
   <trkpt lat="37.199266" lon="-2.410166"><ele>1054.75</ele></trkpt>
   <trkpt lat="37.199321" lon="-2.410224"><ele>1055.25</ele></trkpt>
   <trkpt lat="37.199363" lon="-2.41034"><ele>1055.5</ele></trkpt>
   <trkpt lat="37.199384" lon="-2.410498"><ele>1056.5</ele></trkpt>
   <trkpt lat="37.199429" lon="-2.410759"><ele>1059.75</ele></trkpt>
   <trkpt lat="37.199459" lon="-2.410836"><ele>1061</ele></trkpt>
   <trkpt lat="37.199524" lon="-2.410915"><ele>1060.5</ele></trkpt>
   <trkpt lat="37.199581" lon="-2.410955"><ele>1060.5</ele></trkpt>
   <trkpt lat="37.199648" lon="-2.410959"><ele>1061.5</ele></trkpt>
   <trkpt lat="37.199709" lon="-2.410949"><ele>1062.75</ele></trkpt>
   <trkpt lat="37.199765" lon="-2.4109"><ele>1063.75</ele></trkpt>
   <trkpt lat="37.199804" lon="-2.410838"><ele>1065.5</ele></trkpt>
   <trkpt lat="37.199827" lon="-2.410775"><ele>1067</ele></trkpt>
   <trkpt lat="37.199827" lon="-2.410708"><ele>1068.5</ele></trkpt>
   <trkpt lat="37.199693" lon="-2.409991"><ele>1072</ele></trkpt>
   <trkpt lat="37.199648" lon="-2.409808"><ele>1075.25</ele></trkpt>
   <trkpt lat="37.199619" lon="-2.409732"><ele>1076.25</ele></trkpt>
   <trkpt lat="37.199569" lon="-2.409662"><ele>1077.25</ele></trkpt>
   <trkpt lat="37.199487" lon="-2.409587"><ele>1077.75</ele></trkpt>
   <trkpt lat="37.199406" lon="-2.409545"><ele>1078.5</ele></trkpt>
   <trkpt lat="37.199242" lon="-2.409516"><ele>1079</ele></trkpt>
   <trkpt lat="37.198698" lon="-2.409457"><ele>1084.75</ele></trkpt>
   <trkpt lat="37.198568" lon="-2.409437"><ele>1086</ele></trkpt>
   <trkpt lat="37.198512" lon="-2.409416"><ele>1086.5</ele></trkpt>
   <trkpt lat="37.198439" lon="-2.409372"><ele>1087</ele></trkpt>
   <trkpt lat="37.198383" lon="-2.409303"><ele>1087.75</ele></trkpt>
   <trkpt lat="37.198354" lon="-2.409216"><ele>1088.75</ele></trkpt>
   <trkpt lat="37.19833" lon="-2.409052"><ele>1089.25</ele></trkpt>
   <trkpt lat="37.198325" lon="-2.408524"><ele>1089.75</ele></trkpt>
   <trkpt lat="37.198313" lon="-2.408151"><ele>1090.75</ele></trkpt>
   <trkpt lat="37.198274" lon="-2.40781"><ele>1092.5</ele></trkpt>
   <trkpt lat="37.198218" lon="-2.407432"><ele>1095</ele></trkpt>
   <trkpt lat="37.198163" lon="-2.407164"><ele>1097</ele></trkpt>
   <trkpt lat="37.198149" lon="-2.407012"><ele>1098</ele></trkpt>
   <trkpt lat="37.198156" lon="-2.406823"><ele>1099.5</ele></trkpt>
   <trkpt lat="37.198177" lon="-2.406595"><ele>1100.5</ele></trkpt>
   <trkpt lat="37.198203" lon="-2.406436"><ele>1101.5</ele></trkpt>
   <trkpt lat="37.19823" lon="-2.406367"><ele>1102.75</ele></trkpt>
   <trkpt lat="37.19828" lon="-2.406316"><ele>1105.25</ele></trkpt>
   <trkpt lat="37.198363" lon="-2.406292"><ele>1107.25</ele></trkpt>
   <trkpt lat="37.198479" lon="-2.406291"><ele>1105.75</ele></trkpt>
   <trkpt lat="37.198558" lon="-2.406313"><ele>1105</ele></trkpt>
   <trkpt lat="37.198597" lon="-2.406352"><ele>1105.25</ele></trkpt>
   <trkpt lat="37.198648" lon="-2.406427"><ele>1105.25</ele></trkpt>
   <trkpt lat="37.198677" lon="-2.406521"><ele>1105.75</ele></trkpt>
   <trkpt lat="37.198731" lon="-2.406837"><ele>1109.75</ele></trkpt>
   <trkpt lat="37.198783" lon="-2.407043"><ele>1112.75</ele></trkpt>
   <trkpt lat="37.198841" lon="-2.407208"><ele>1115</ele></trkpt>
   <trkpt lat="37.198916" lon="-2.407331"><ele>1117</ele></trkpt>
   <trkpt lat="37.198985" lon="-2.407428"><ele>1118.5</ele></trkpt>
   <trkpt lat="37.199083" lon="-2.407504"><ele>1120.25</ele></trkpt>
   <trkpt lat="37.199385" lon="-2.407704"><ele>1123.75</ele></trkpt>
   <trkpt lat="37.199607" lon="-2.407842"><ele>1127</ele></trkpt>
   <trkpt lat="37.199731" lon="-2.407951"><ele>1128.75</ele></trkpt>
   <trkpt lat="37.199899" lon="-2.408135"><ele>1131.75</ele></trkpt>
   <trkpt lat="37.200002" lon="-2.408238"><ele>1132.25</ele></trkpt>
   <trkpt lat="37.200045" lon="-2.408273"><ele>1133</ele></trkpt>
   <trkpt lat="37.200103" lon="-2.408292"><ele>1134.25</ele></trkpt>
   <trkpt lat="37.200167" lon="-2.40828"><ele>1135.75</ele></trkpt>
   <trkpt lat="37.20022" lon="-2.408244"><ele>1137</ele></trkpt>
   <trkpt lat="37.200239" lon="-2.408204"><ele>1137.5</ele></trkpt>
   <trkpt lat="37.200261" lon="-2.408133"><ele>1138.25</ele></trkpt>
   <trkpt lat="37.200285" lon="-2.407813"><ele>1140</ele></trkpt>
   <trkpt lat="37.200339" lon="-2.407641"><ele>1142.5</ele></trkpt>
   <trkpt lat="37.200584" lon="-2.407036"><ele>1146.5</ele></trkpt>
   <trkpt lat="37.200662" lon="-2.406821"><ele>1149</ele></trkpt>
   <trkpt lat="37.200698" lon="-2.406686"><ele>1149.75</ele></trkpt>
   <trkpt lat="37.20083" lon="-2.406351"><ele>1152.5</ele></trkpt>
   <trkpt lat="37.200888" lon="-2.406203"><ele>1154.5</ele></trkpt>
   <trkpt lat="37.201001" lon="-2.405954"><ele>1157.25</ele></trkpt>
   <trkpt lat="37.20111" lon="-2.405778"><ele>1159.25</ele></trkpt>
   <trkpt lat="37.201199" lon="-2.405688"><ele>1160.25</ele></trkpt>
   <trkpt lat="37.201288" lon="-2.405619"><ele>1161.25</ele></trkpt>
   <trkpt lat="37.201379" lon="-2.405597"><ele>1162.5</ele></trkpt>
   <trkpt lat="37.201453" lon="-2.405603"><ele>1163</ele></trkpt>
   <trkpt lat="37.201533" lon="-2.405634"><ele>1164</ele></trkpt>
   <trkpt lat="37.201676" lon="-2.405712"><ele>1165.75</ele></trkpt>
   <trkpt lat="37.201809" lon="-2.405813"><ele>1167.5</ele></trkpt>
   <trkpt lat="37.201912" lon="-2.405915"><ele>1168.75</ele></trkpt>
   <trkpt lat="37.202037" lon="-2.40607"><ele>1169.5</ele></trkpt>
   <trkpt lat="37.202206" lon="-2.406313"><ele>1171.75</ele></trkpt>
   <trkpt lat="37.202836" lon="-2.407266"><ele>1183</ele></trkpt>
   <trkpt lat="37.203011" lon="-2.40755"><ele>1186.75</ele></trkpt>
   <trkpt lat="37.2031" lon="-2.407694"><ele>1187.5</ele></trkpt>
   <trkpt lat="37.2033" lon="-2.407931"><ele>1191.75</ele></trkpt>
   <trkpt lat="37.203936" lon="-2.408527"><ele>1199.25</ele></trkpt>
   <trkpt lat="37.204186" lon="-2.408712"><ele>1203.25</ele></trkpt>
   <trkpt lat="37.204431" lon="-2.408834"><ele>1205</ele></trkpt>
   <trkpt lat="37.204598" lon="-2.408877"><ele>1206</ele></trkpt>
   <trkpt lat="37.204778" lon="-2.4089"><ele>1208.25</ele></trkpt>
   <trkpt lat="37.204942" lon="-2.408893"><ele>1209.5</ele></trkpt>
   <trkpt lat="37.205127" lon="-2.408871"><ele>1211</ele></trkpt>
   <trkpt lat="37.205215" lon="-2.40887"><ele>1212.25</ele></trkpt>
   <trkpt lat="37.205278" lon="-2.40888"><ele>1213.5</ele></trkpt>
   <trkpt lat="37.205377" lon="-2.408936"><ele>1216</ele></trkpt>
   <trkpt lat="37.205462" lon="-2.409001"><ele>1217.75</ele></trkpt>
   <trkpt lat="37.205849" lon="-2.409389"><ele>1223.5</ele></trkpt>
   <trkpt lat="37.205995" lon="-2.409518"><ele>1226.75</ele></trkpt>
   <trkpt lat="37.206068" lon="-2.409538"><ele>1227</ele></trkpt>
   <trkpt lat="37.206264" lon="-2.409526"><ele>1228.5</ele></trkpt>
   <trkpt lat="37.206387" lon="-2.409528"><ele>1230.5</ele></trkpt>
   <trkpt lat="37.20651" lon="-2.409547"><ele>1230.25</ele></trkpt>
   <trkpt lat="37.206641" lon="-2.4096"><ele>1230.5</ele></trkpt>
   <trkpt lat="37.206769" lon="-2.409686"><ele>1231.75</ele></trkpt>
   <trkpt lat="37.206961" lon="-2.409835"><ele>1237</ele></trkpt>
   <trkpt lat="37.207132" lon="-2.409979"><ele>1239</ele></trkpt>
   <trkpt lat="37.207238" lon="-2.41001"><ele>1238.5</ele></trkpt>
   <trkpt lat="37.207414" lon="-2.410018"><ele>1240.75</ele></trkpt>
   <trkpt lat="37.207692" lon="-2.410039"><ele>1244.5</ele></trkpt>
   <trkpt lat="37.207812" lon="-2.410055"><ele>1245.75</ele></trkpt>
   <trkpt lat="37.207933" lon="-2.410107"><ele>1246.75</ele></trkpt>
   <trkpt lat="37.207999" lon="-2.410164"><ele>1247.5</ele></trkpt>
   <trkpt lat="37.208048" lon="-2.410242"><ele>1248.25</ele></trkpt>
   <trkpt lat="37.208124" lon="-2.410474"><ele>1252.75</ele></trkpt>
   <trkpt lat="37.208152" lon="-2.410527"><ele>1253.5</ele></trkpt>
   <trkpt lat="37.208208" lon="-2.410558"><ele>1254</ele></trkpt>
   <trkpt lat="37.208268" lon="-2.410553"><ele>1253.75</ele></trkpt>
   <trkpt lat="37.208331" lon="-2.410515"><ele>1253.75</ele></trkpt>
   <trkpt lat="37.208399" lon="-2.41044"><ele>1256.75</ele></trkpt>
   <trkpt lat="37.20846" lon="-2.410351"><ele>1258.75</ele></trkpt>
   <trkpt lat="37.208559" lon="-2.410149"><ele>1260</ele></trkpt>
   <trkpt lat="37.208644" lon="-2.410013"><ele>1260.25</ele></trkpt>
   <trkpt lat="37.208764" lon="-2.40988"><ele>1262.5</ele></trkpt>
   <trkpt lat="37.208916" lon="-2.40974"><ele>1263.75</ele></trkpt>
   <trkpt lat="37.208997" lon="-2.409679"><ele>1264</ele></trkpt>
   <trkpt lat="37.209113" lon="-2.409612"><ele>1264.5</ele></trkpt>
   <trkpt lat="37.209226" lon="-2.409587"><ele>1266</ele></trkpt>
   <trkpt lat="37.209368" lon="-2.409578"><ele>1268</ele></trkpt>
   <trkpt lat="37.209874" lon="-2.409619"><ele>1272</ele></trkpt>
   <trkpt lat="37.210057" lon="-2.409675"><ele>1273.5</ele></trkpt>
   <trkpt lat="37.210146" lon="-2.409738"><ele>1275</ele></trkpt>
   <trkpt lat="37.210428" lon="-2.410051"><ele>1280.5</ele></trkpt>
   <trkpt lat="37.210484" lon="-2.410086"><ele>1281.5</ele></trkpt>
   <trkpt lat="37.210554" lon="-2.410105"><ele>1281.5</ele></trkpt>
   <trkpt lat="37.210646" lon="-2.410107"><ele>1283.25</ele></trkpt>
   <trkpt lat="37.210837" lon="-2.410045"><ele>1284</ele></trkpt>
   <trkpt lat="37.210968" lon="-2.40998"><ele>1284</ele></trkpt>
   <trkpt lat="37.211053" lon="-2.409916"><ele>1284.25</ele></trkpt>
   <trkpt lat="37.211176" lon="-2.409795"><ele>1285.5</ele></trkpt>
   <trkpt lat="37.211249" lon="-2.409736"><ele>1286.5</ele></trkpt>
   <trkpt lat="37.211291" lon="-2.409729"><ele>1287.75</ele></trkpt>
   <trkpt lat="37.211337" lon="-2.409736"><ele>1289.5</ele></trkpt>
   <trkpt lat="37.211373" lon="-2.40977"><ele>1291</ele></trkpt>
   <trkpt lat="37.211383" lon="-2.409839"><ele>1292.5</ele></trkpt>
   <trkpt lat="37.211373" lon="-2.4099"><ele>1293</ele></trkpt>
   <trkpt lat="37.211342" lon="-2.409966"><ele>1293.25</ele></trkpt>
   <trkpt lat="37.211297" lon="-2.410032"><ele>1294</ele></trkpt>
   <trkpt lat="37.211209" lon="-2.410114"><ele>1295</ele></trkpt>
   <trkpt lat="37.21105" lon="-2.410229"><ele>1295.25</ele></trkpt>
   <trkpt lat="37.210693" lon="-2.41047"><ele>1299.75</ele></trkpt>
   <trkpt lat="37.210569" lon="-2.410532"><ele>1298.5</ele></trkpt>
   <trkpt lat="37.21052" lon="-2.410546"><ele>1299.25</ele></trkpt>
   <trkpt lat="37.210459" lon="-2.410545"><ele>1300.25</ele></trkpt>
   <trkpt lat="37.210071" lon="-2.410431"><ele>1303.75</ele></trkpt>
   <trkpt lat="37.209962" lon="-2.410416"><ele>1304.5</ele></trkpt>
   <trkpt lat="37.209865" lon="-2.410443"><ele>1304.5</ele></trkpt>
   <trkpt lat="37.209793" lon="-2.410498"><ele>1305.25</ele></trkpt>
   <trkpt lat="37.209748" lon="-2.410573"><ele>1306.25</ele></trkpt>
   <trkpt lat="37.209726" lon="-2.410653"><ele>1306.75</ele></trkpt>
   <trkpt lat="37.209723" lon="-2.410769"><ele>1307.5</ele></trkpt>
   <trkpt lat="37.209743" lon="-2.4109"><ele>1308.5</ele></trkpt>
   <trkpt lat="37.209796" lon="-2.411054"><ele>1310.75</ele></trkpt>
   <trkpt lat="37.209884" lon="-2.411222"><ele>1311.25</ele></trkpt>
   <trkpt lat="37.209983" lon="-2.411379"><ele>1311.5</ele></trkpt>
   <trkpt lat="37.210039" lon="-2.411491"><ele>1312.75</ele></trkpt>
   <trkpt lat="37.210075" lon="-2.411608"><ele>1313.5</ele></trkpt>
   <trkpt lat="37.210076" lon="-2.411717"><ele>1314.25</ele></trkpt>
   <trkpt lat="37.21006" lon="-2.411784"><ele>1314.75</ele></trkpt>
   <trkpt lat="37.209971" lon="-2.411918"><ele>1314</ele></trkpt>
   <trkpt lat="37.209769" lon="-2.412134"><ele>1316</ele></trkpt>
   <trkpt lat="37.209642" lon="-2.412251"><ele>1316.75</ele></trkpt>
   <trkpt lat="37.209503" lon="-2.412378"><ele>1318.25</ele></trkpt>
   <trkpt lat="37.208806" lon="-2.41275"><ele>1321.5</ele></trkpt>
   <trkpt lat="37.208631" lon="-2.412874"><ele>1323.5</ele></trkpt>
   <trkpt lat="37.208404" lon="-2.413091"><ele>1325.25</ele></trkpt>
   <trkpt lat="37.208305" lon="-2.413148"><ele>1325.25</ele></trkpt>
   <trkpt lat="37.208205" lon="-2.413175"><ele>1326.25</ele></trkpt>
   <trkpt lat="37.208094" lon="-2.413167"><ele>1326.25</ele></trkpt>
   <trkpt lat="37.207931" lon="-2.41313"><ele>1326.5</ele></trkpt>
   <trkpt lat="37.207748" lon="-2.41311"><ele>1327.25</ele></trkpt>
   <trkpt lat="37.207604" lon="-2.413115"><ele>1327.5</ele></trkpt>
   <trkpt lat="37.207501" lon="-2.413135"><ele>1328.25</ele></trkpt>
   <trkpt lat="37.207338" lon="-2.413213"><ele>1327.75</ele></trkpt>
   <trkpt lat="37.207213" lon="-2.413263"><ele>1326.75</ele></trkpt>
   <trkpt lat="37.207146" lon="-2.413317"><ele>1329.25</ele></trkpt>
   <trkpt lat="37.207081" lon="-2.413401"><ele>1331.75</ele></trkpt>
   <trkpt lat="37.207045" lon="-2.413507"><ele>1334</ele></trkpt>
   <trkpt lat="37.207029" lon="-2.413598"><ele>1335.75</ele></trkpt>
   <trkpt lat="37.207029" lon="-2.413702"><ele>1335.5</ele></trkpt>
   <trkpt lat="37.207054" lon="-2.413774"><ele>1335</ele></trkpt>
   <trkpt lat="37.207107" lon="-2.413849"><ele>1334.5</ele></trkpt>
   <trkpt lat="37.207189" lon="-2.413927"><ele>1333.25</ele></trkpt>
   <trkpt lat="37.207364" lon="-2.414056"><ele>1334.5</ele></trkpt>
   <trkpt lat="37.207931" lon="-2.414404"><ele>1337</ele></trkpt>
   <trkpt lat="37.207995" lon="-2.414428"><ele>1337.25</ele></trkpt>
   <trkpt lat="37.20807" lon="-2.414437"><ele>1338.25</ele></trkpt>
   <trkpt lat="37.208156" lon="-2.414413"><ele>1339.75</ele></trkpt>
   <trkpt lat="37.208231" lon="-2.414368"><ele>1341</ele></trkpt>
   <trkpt lat="37.208291" lon="-2.414299"><ele>1342.5</ele></trkpt>
   <trkpt lat="37.208342" lon="-2.414215"><ele>1343.75</ele></trkpt>
   <trkpt lat="37.208477" lon="-2.413911"><ele>1349</ele></trkpt>
   <trkpt lat="37.208562" lon="-2.413786"><ele>1348</ele></trkpt>
   <trkpt lat="37.208658" lon="-2.413679"><ele>1347.5</ele></trkpt>
   <trkpt lat="37.20877" lon="-2.413585"><ele>1347.75</ele></trkpt>
   <trkpt lat="37.208892" lon="-2.413505"><ele>1348.75</ele></trkpt>
   <trkpt lat="37.209122" lon="-2.413415"><ele>1351.5</ele></trkpt>
   <trkpt lat="37.210823" lon="-2.412757"><ele>1364.25</ele></trkpt>
   <trkpt lat="37.211303" lon="-2.412603"><ele>1368</ele></trkpt>
   <trkpt lat="37.211666" lon="-2.412508"><ele>1369.25</ele></trkpt>
   <trkpt lat="37.211835" lon="-2.412469"><ele>1370</ele></trkpt>
   <trkpt lat="37.211936" lon="-2.412464"><ele>1371</ele></trkpt>
   <trkpt lat="37.212223" lon="-2.412502"><ele>1373</ele></trkpt>
   <trkpt lat="37.212405" lon="-2.412516"><ele>1375</ele></trkpt>
   <trkpt lat="37.212557" lon="-2.412502"><ele>1375.5</ele></trkpt>
   <trkpt lat="37.212697" lon="-2.412469"><ele>1376.25</ele></trkpt>
   <trkpt lat="37.212903" lon="-2.412368"><ele>1379.75</ele></trkpt>
   <trkpt lat="37.2131" lon="-2.412264"><ele>1381</ele></trkpt>
   <trkpt lat="37.213187" lon="-2.412192"><ele>1381.5</ele></trkpt>
   <trkpt lat="37.213245" lon="-2.41209"><ele>1382.25</ele></trkpt>
   <trkpt lat="37.213322" lon="-2.411925"><ele>1382.25</ele></trkpt>
   <trkpt lat="37.213395" lon="-2.411666"><ele>1384.25</ele></trkpt>
   <trkpt lat="37.213412" lon="-2.411572"><ele>1385.5</ele></trkpt>
   <trkpt lat="37.213401" lon="-2.411428"><ele>1385.5</ele></trkpt>
   <trkpt lat="37.213327" lon="-2.41111"><ele>1384.5</ele></trkpt>
   <trkpt lat="37.213264" lon="-2.410778"><ele>1385.25</ele></trkpt>
   <trkpt lat="37.213179" lon="-2.410448"><ele>1387</ele></trkpt>
   <trkpt lat="37.212958" lon="-2.409731"><ele>1388</ele></trkpt>
   <trkpt lat="37.212944" lon="-2.409629"><ele>1387</ele></trkpt>
   <trkpt lat="37.212947" lon="-2.409569"><ele>1387</ele></trkpt>
   <trkpt lat="37.212979" lon="-2.409516"><ele>1388.25</ele></trkpt>
   <trkpt lat="37.213028" lon="-2.409497"><ele>1390.25</ele></trkpt>
   <trkpt lat="37.213072" lon="-2.4095"><ele>1391.25</ele></trkpt>
   <trkpt lat="37.213126" lon="-2.409534"><ele>1391</ele></trkpt>
   <trkpt lat="37.213176" lon="-2.409603"><ele>1392</ele></trkpt>
   <trkpt lat="37.213208" lon="-2.409692"><ele>1394.25</ele></trkpt>
   <trkpt lat="37.213297" lon="-2.41013"><ele>1396.75</ele></trkpt>
   <trkpt lat="37.213381" lon="-2.410379"><ele>1398.75</ele></trkpt>
   <trkpt lat="37.213512" lon="-2.410678"><ele>1400.75</ele></trkpt>
   <trkpt lat="37.213718" lon="-2.411104"><ele>1406</ele></trkpt>
   <trkpt lat="37.213845" lon="-2.411463"><ele>1407.75</ele></trkpt>
   <trkpt lat="37.213897" lon="-2.411651"><ele>1410.25</ele></trkpt>
   <trkpt lat="37.213916" lon="-2.411794"><ele>1411.5</ele></trkpt>
   <trkpt lat="37.213903" lon="-2.411901"><ele>1411.25</ele></trkpt>
   <trkpt lat="37.213863" lon="-2.412011"><ele>1411</ele></trkpt>
   <trkpt lat="37.213755" lon="-2.412267"><ele>1412.25</ele></trkpt>
   <trkpt lat="37.213696" lon="-2.412437"><ele>1414.5</ele></trkpt>
   <trkpt lat="37.213662" lon="-2.412575"><ele>1415.25</ele></trkpt>
   <trkpt lat="37.213632" lon="-2.41271"><ele>1416</ele></trkpt>
   <trkpt lat="37.213591" lon="-2.412805"><ele>1416.75</ele></trkpt>
   <trkpt lat="37.213534" lon="-2.412906"><ele>1417.5</ele></trkpt>
   <trkpt lat="37.213457" lon="-2.412998"><ele>1417.5</ele></trkpt>
   <trkpt lat="37.212982" lon="-2.41343"><ele>1421</ele></trkpt>
   <trkpt lat="37.212816" lon="-2.413547"><ele>1421.25</ele></trkpt>
   <trkpt lat="37.212706" lon="-2.413599"><ele>1422.5</ele></trkpt>
   <trkpt lat="37.212305" lon="-2.41371"><ele>1425.25</ele></trkpt>
   <trkpt lat="37.212094" lon="-2.413799"><ele>1426.25</ele></trkpt>
   <trkpt lat="37.211877" lon="-2.413929"><ele>1427.75</ele></trkpt>
   <trkpt lat="37.211728" lon="-2.414044"><ele>1428</ele></trkpt>
   <trkpt lat="37.211383" lon="-2.414457"><ele>1431.25</ele></trkpt>
   <trkpt lat="37.211243" lon="-2.4146"><ele>1433</ele></trkpt>
   <trkpt lat="37.210876" lon="-2.414924"><ele>1435.25</ele></trkpt>
   <trkpt lat="37.210641" lon="-2.415089"><ele>1436</ele></trkpt>
   <trkpt lat="37.210601" lon="-2.415126"><ele>1436</ele></trkpt>
   <trkpt lat="37.210585" lon="-2.415168"><ele>1436.5</ele></trkpt>
   <trkpt lat="37.210583" lon="-2.415223"><ele>1437.5</ele></trkpt>
   <trkpt lat="37.210599" lon="-2.415264"><ele>1438.75</ele></trkpt>
   <trkpt lat="37.210626" lon="-2.41529"><ele>1439.75</ele></trkpt>
   <trkpt lat="37.210659" lon="-2.415298"><ele>1440.75</ele></trkpt>
   <trkpt lat="37.210708" lon="-2.415294"><ele>1442</ele></trkpt>
   <trkpt lat="37.210768" lon="-2.415261"><ele>1442.75</ele></trkpt>
   <trkpt lat="37.210973" lon="-2.415078"><ele>1443</ele></trkpt>
   <trkpt lat="37.211575" lon="-2.41468"><ele>1447.25</ele></trkpt>
   <trkpt lat="37.211821" lon="-2.414559"><ele>1450</ele></trkpt>
   <trkpt lat="37.21202" lon="-2.414477"><ele>1452</ele></trkpt>
   <trkpt lat="37.212212" lon="-2.414417"><ele>1453.5</ele></trkpt>
   <trkpt lat="37.212419" lon="-2.414367"><ele>1454.25</ele></trkpt>
   <trkpt lat="37.212489" lon="-2.414371"><ele>1455.25</ele></trkpt>
   <trkpt lat="37.212591" lon="-2.414412"><ele>1456.5</ele></trkpt>
   <trkpt lat="37.212751" lon="-2.414523"><ele>1459.5</ele></trkpt>
   <trkpt lat="37.212847" lon="-2.414547"><ele>1461.25</ele></trkpt>
   <trkpt lat="37.212926" lon="-2.414528"><ele>1461.75</ele></trkpt>
   <trkpt lat="37.213014" lon="-2.414492"><ele>1462.75</ele></trkpt>
   <trkpt lat="37.213231" lon="-2.414344"><ele>1463.5</ele></trkpt>
   <trkpt lat="37.213341" lon="-2.414327"><ele>1465.25</ele></trkpt>
   <trkpt lat="37.213437" lon="-2.414342"><ele>1466</ele></trkpt>
   <trkpt lat="37.213627" lon="-2.41439"><ele>1468.5</ele></trkpt>
   <trkpt lat="37.214116" lon="-2.414512"><ele>1475.25</ele></trkpt>
   <trkpt lat="37.214314" lon="-2.414547"><ele>1477.5</ele></trkpt>
   <trkpt lat="37.214736" lon="-2.414572"><ele>1480.75</ele></trkpt>
   <trkpt lat="37.214792" lon="-2.414598"><ele>1481.75</ele></trkpt>
   <trkpt lat="37.21483" lon="-2.414633"><ele>1482.75</ele></trkpt>
   <trkpt lat="37.214852" lon="-2.414676"><ele>1484</ele></trkpt>
   <trkpt lat="37.214861" lon="-2.414724"><ele>1485</ele></trkpt>
   <trkpt lat="37.214846" lon="-2.414788"><ele>1486</ele></trkpt>
   <trkpt lat="37.214813" lon="-2.414838"><ele>1486.5</ele></trkpt>
   <trkpt lat="37.21477" lon="-2.41488"><ele>1486.75</ele></trkpt>
   <trkpt lat="37.21471" lon="-2.41492"><ele>1486.75</ele></trkpt>
   <trkpt lat="37.214615" lon="-2.414957"><ele>1486.75</ele></trkpt>
   <trkpt lat="37.214501" lon="-2.414983"><ele>1486.75</ele></trkpt>
   <trkpt lat="37.214341" lon="-2.415008"><ele>1487</ele></trkpt>
   <trkpt lat="37.213983" lon="-2.415023"><ele>1487.25</ele></trkpt>
   <trkpt lat="37.213825" lon="-2.415045"><ele>1487.5</ele></trkpt>
   <trkpt lat="37.213745" lon="-2.415078"><ele>1487.5</ele></trkpt>
   <trkpt lat="37.213686" lon="-2.415128"><ele>1488</ele></trkpt>
   <trkpt lat="37.213624" lon="-2.415218"><ele>1488.5</ele></trkpt>
   <trkpt lat="37.213548" lon="-2.415358"><ele>1488.5</ele></trkpt>
   <trkpt lat="37.213414" lon="-2.415673"><ele>1490.25</ele></trkpt>
   <trkpt lat="37.213366" lon="-2.415735"><ele>1490.5</ele></trkpt>
   <trkpt lat="37.213303" lon="-2.415774"><ele>1490.75</ele></trkpt>
   <trkpt lat="37.213244" lon="-2.41579"><ele>1491.5</ele></trkpt>
   <trkpt lat="37.213131" lon="-2.415783"><ele>1492</ele></trkpt>
   <trkpt lat="37.213026" lon="-2.415759"><ele>1492.5</ele></trkpt>
   <trkpt lat="37.212948" lon="-2.415728"><ele>1493.25</ele></trkpt>
   <trkpt lat="37.212829" lon="-2.415655"><ele>1493.5</ele></trkpt>
   <trkpt lat="37.212588" lon="-2.415482"><ele>1493.5</ele></trkpt>
   <trkpt lat="37.212502" lon="-2.415433"><ele>1495</ele></trkpt>
   <trkpt lat="37.212454" lon="-2.415427"><ele>1495.5</ele></trkpt>
   <trkpt lat="37.212409" lon="-2.415439"><ele>1496</ele></trkpt>
   <trkpt lat="37.21237" lon="-2.415487"><ele>1497</ele></trkpt>
   <trkpt lat="37.21235" lon="-2.415545"><ele>1498</ele></trkpt>
   <trkpt lat="37.212346" lon="-2.415629"><ele>1499.5</ele></trkpt>
   <trkpt lat="37.212365" lon="-2.415703"><ele>1500.75</ele></trkpt>
   <trkpt lat="37.212401" lon="-2.415785"><ele>1501.5</ele></trkpt>
   <trkpt lat="37.21245" lon="-2.415838"><ele>1501.25</ele></trkpt>
   <trkpt lat="37.212572" lon="-2.415914"><ele>1501.75</ele></trkpt>
   <trkpt lat="37.213135" lon="-2.416238"><ele>1504.75</ele></trkpt>
   <trkpt lat="37.213518" lon="-2.416445"><ele>1506</ele></trkpt>
   <trkpt lat="37.213733" lon="-2.416544"><ele>1507.75</ele></trkpt>
   <trkpt lat="37.213824" lon="-2.416573"><ele>1508.5</ele></trkpt>
   <trkpt lat="37.213897" lon="-2.416581"><ele>1508.75</ele></trkpt>
   <trkpt lat="37.214002" lon="-2.416572"><ele>1509.5</ele></trkpt>
   <trkpt lat="37.214106" lon="-2.416539"><ele>1510.25</ele></trkpt>
   <trkpt lat="37.214316" lon="-2.416437"><ele>1512</ele></trkpt>
   <trkpt lat="37.214641" lon="-2.41623"><ele>1514.75</ele></trkpt>
   <trkpt lat="37.214954" lon="-2.415994"><ele>1517.25</ele></trkpt>
   <trkpt lat="37.215257" lon="-2.415719"><ele>1520</ele></trkpt>
   <trkpt lat="37.215533" lon="-2.415519"><ele>1522.5</ele></trkpt>
   <trkpt lat="37.215591" lon="-2.415463"><ele>1523.75</ele></trkpt>
   <trkpt lat="37.215635" lon="-2.4154"><ele>1524.5</ele></trkpt>
   <trkpt lat="37.215676" lon="-2.415299"><ele>1525.25</ele></trkpt>
   <trkpt lat="37.215767" lon="-2.415023"><ele>1527</ele></trkpt>
   <trkpt lat="37.215822" lon="-2.414926"><ele>1527.75</ele></trkpt>
   <trkpt lat="37.215883" lon="-2.414838"><ele>1528.25</ele></trkpt>
   <trkpt lat="37.215987" lon="-2.414737"><ele>1529.25</ele></trkpt>
   <trkpt lat="37.216497" lon="-2.414341"><ele>1533.5</ele></trkpt>
   <trkpt lat="37.216544" lon="-2.414327"><ele>1534</ele></trkpt>
   <trkpt lat="37.21658" lon="-2.414334"><ele>1535</ele></trkpt>
   <trkpt lat="37.216607" lon="-2.414361"><ele>1536.5</ele></trkpt>
   <trkpt lat="37.216622" lon="-2.414402"><ele>1538.5</ele></trkpt>
   <trkpt lat="37.216627" lon="-2.414471"><ele>1541.25</ele></trkpt>
   <trkpt lat="37.216611" lon="-2.414527"><ele>1543.25</ele></trkpt>
   <trkpt lat="37.216578" lon="-2.414587"><ele>1544.75</ele></trkpt>
   <trkpt lat="37.216436" lon="-2.414723"><ele>1544</ele></trkpt>
   <trkpt lat="37.216338" lon="-2.414837"><ele>1543.75</ele></trkpt>
   <trkpt lat="37.216192" lon="-2.415057"><ele>1545.75</ele></trkpt>
   <trkpt lat="37.216153" lon="-2.415191"><ele>1546.25</ele></trkpt>
   <trkpt lat="37.216133" lon="-2.415332"><ele>1547</ele></trkpt>
   <trkpt lat="37.216129" lon="-2.415492"><ele>1548</ele></trkpt>
   <trkpt lat="37.21614" lon="-2.415778"><ele>1550</ele></trkpt>
   <trkpt lat="37.216122" lon="-2.415885"><ele>1550.75</ele></trkpt>
   <trkpt lat="37.21608" lon="-2.415978"><ele>1551.5</ele></trkpt>
   <trkpt lat="37.215746" lon="-2.416504"><ele>1555</ele></trkpt>
   <trkpt lat="37.21566" lon="-2.416713"><ele>1556.75</ele></trkpt>
   <trkpt lat="37.215597" lon="-2.416922"><ele>1557</ele></trkpt>
   <trkpt lat="37.215555" lon="-2.417066"><ele>1558</ele></trkpt>
   <trkpt lat="37.215513" lon="-2.41717"><ele>1558.75</ele></trkpt>
   <trkpt lat="37.215437" lon="-2.417287"><ele>1560.25</ele></trkpt>
   <trkpt lat="37.215333" lon="-2.417394"><ele>1561</ele></trkpt>
   <trkpt lat="37.21491" lon="-2.417719"><ele>1563.5</ele></trkpt>
   <trkpt lat="37.214709" lon="-2.417868"><ele>1565.5</ele></trkpt>
   <trkpt lat="37.214509" lon="-2.417988"><ele>1566.25</ele></trkpt>
   <trkpt lat="37.214433" lon="-2.418045"><ele>1567.25</ele></trkpt>
   <trkpt lat="37.214374" lon="-2.418116"><ele>1566.5</ele></trkpt>
   <trkpt lat="37.21435" lon="-2.418188"><ele>1567</ele></trkpt>
   <trkpt lat="37.214354" lon="-2.418263"><ele>1568</ele></trkpt>
   <trkpt lat="37.214377" lon="-2.418315"><ele>1569.25</ele></trkpt>
   <trkpt lat="37.214417" lon="-2.418353"><ele>1570.25</ele></trkpt>
   <trkpt lat="37.214462" lon="-2.418361"><ele>1571.75</ele></trkpt>
   <trkpt lat="37.214511" lon="-2.418354"><ele>1573.75</ele></trkpt>
   <trkpt lat="37.214558" lon="-2.418324"><ele>1575.25</ele></trkpt>
   <trkpt lat="37.214725" lon="-2.41813"><ele>1574.75</ele></trkpt>
   <trkpt lat="37.214797" lon="-2.41806"><ele>1574.5</ele></trkpt>
   <trkpt lat="37.214862" lon="-2.418015"><ele>1574.75</ele></trkpt>
   <trkpt lat="37.214975" lon="-2.417942"><ele>1575</ele></trkpt>
   <trkpt lat="37.215476" lon="-2.417677"><ele>1579.25</ele></trkpt>
   <trkpt lat="37.216164" lon="-2.417269"><ele>1584.25</ele></trkpt>
   <trkpt lat="37.216259" lon="-2.417199"><ele>1584.75</ele></trkpt>
   <trkpt lat="37.21632" lon="-2.417139"><ele>1585.25</ele></trkpt>
   <trkpt lat="37.216473" lon="-2.416949"><ele>1587</ele></trkpt>
   <trkpt lat="37.216671" lon="-2.416693"><ele>1588.5</ele></trkpt>
   <trkpt lat="37.216756" lon="-2.416637"><ele>1588.75</ele></trkpt>
   <trkpt lat="37.216935" lon="-2.416556"><ele>1590.75</ele></trkpt>
   <trkpt lat="37.217023" lon="-2.416494"><ele>1592.25</ele></trkpt>
   <trkpt lat="37.217081" lon="-2.416433"><ele>1592.75</ele></trkpt>
   <trkpt lat="37.217145" lon="-2.416323"><ele>1593</ele></trkpt>
   <trkpt lat="37.217201" lon="-2.416198"><ele>1593.75</ele></trkpt>
   <trkpt lat="37.217363" lon="-2.415701"><ele>1595.5</ele></trkpt>
   <trkpt lat="37.217461" lon="-2.415441"><ele>1595.5</ele></trkpt>
   <trkpt lat="37.217507" lon="-2.415381"><ele>1596.5</ele></trkpt>
   <trkpt lat="37.217548" lon="-2.415352"><ele>1596.25</ele></trkpt>
   <trkpt lat="37.217593" lon="-2.415351"><ele>1596.75</ele></trkpt>
   <trkpt lat="37.217642" lon="-2.415383"><ele>1597.5</ele></trkpt>
   <trkpt lat="37.217665" lon="-2.415427"><ele>1598.5</ele></trkpt>
   <trkpt lat="37.217668" lon="-2.415478"><ele>1599.5</ele></trkpt>
   <trkpt lat="37.21765" lon="-2.415562"><ele>1600.75</ele></trkpt>
   <trkpt lat="37.217565" lon="-2.41573"><ele>1603</ele></trkpt>
   <trkpt lat="37.217529" lon="-2.41582"><ele>1603.75</ele></trkpt>
   <trkpt lat="37.217454" lon="-2.416093"><ele>1603</ele></trkpt>
   <trkpt lat="37.217395" lon="-2.416362"><ele>1604.75</ele></trkpt>
   <trkpt lat="37.217324" lon="-2.416615"><ele>1606.75</ele></trkpt>
   <trkpt lat="37.21722" lon="-2.416941"><ele>1609.75</ele></trkpt>
   <trkpt lat="37.217203" lon="-2.417014"><ele>1610.25</ele></trkpt>
   <trkpt lat="37.217208" lon="-2.41706"><ele>1610.75</ele></trkpt>
   <trkpt lat="37.217224" lon="-2.417094"><ele>1611.5</ele></trkpt>
   <trkpt lat="37.217251" lon="-2.41712"><ele>1613</ele></trkpt>
   <trkpt lat="37.217285" lon="-2.417137"><ele>1614.5</ele></trkpt>
   <trkpt lat="37.217322" lon="-2.417121"><ele>1615.75</ele></trkpt>
   <trkpt lat="37.217368" lon="-2.417063"><ele>1616.5</ele></trkpt>
   <trkpt lat="37.217641" lon="-2.416312"><ele>1617.25</ele></trkpt>
   <trkpt lat="37.21772" lon="-2.416127"><ele>1615.75</ele></trkpt>
   <trkpt lat="37.217787" lon="-2.416025"><ele>1616.5</ele></trkpt>
   <trkpt lat="37.217833" lon="-2.415963"><ele>1616.5</ele></trkpt>
   <trkpt lat="37.217893" lon="-2.415928"><ele>1616.75</ele></trkpt>
   <trkpt lat="37.218123" lon="-2.415865"><ele>1617.75</ele></trkpt>
   <trkpt lat="37.218198" lon="-2.415833"><ele>1618.25</ele></trkpt>
   <trkpt lat="37.218254" lon="-2.415773"><ele>1618.5</ele></trkpt>
   <trkpt lat="37.218299" lon="-2.415695"><ele>1619</ele></trkpt>
   <trkpt lat="37.218333" lon="-2.41559"><ele>1619</ele></trkpt>
   <trkpt lat="37.218366" lon="-2.415362"><ele>1620.5</ele></trkpt>
   <trkpt lat="37.218388" lon="-2.415291"><ele>1621.25</ele></trkpt>
   <trkpt lat="37.21842" lon="-2.415256"><ele>1622.25</ele></trkpt>
   <trkpt lat="37.218464" lon="-2.415244"><ele>1623.5</ele></trkpt>
   <trkpt lat="37.218502" lon="-2.415252"><ele>1624.5</ele></trkpt>
   <trkpt lat="37.21855" lon="-2.415286"><ele>1625.25</ele></trkpt>
   <trkpt lat="37.218582" lon="-2.415351"><ele>1626</ele></trkpt>
   <trkpt lat="37.218614" lon="-2.41546"><ele>1627</ele></trkpt>
   <trkpt lat="37.218636" lon="-2.415579"><ele>1628.75</ele></trkpt>
   <trkpt lat="37.218649" lon="-2.415753"><ele>1630.75</ele></trkpt>
   <trkpt lat="37.218648" lon="-2.41586"><ele>1631.5</ele></trkpt>
   <trkpt lat="37.218637" lon="-2.415981"><ele>1632</ele></trkpt>
   <trkpt lat="37.218613" lon="-2.416081"><ele>1631.75</ele></trkpt>
   <trkpt lat="37.218574" lon="-2.416179"><ele>1633</ele></trkpt>
   <trkpt lat="37.218525" lon="-2.41622"><ele>1633.75</ele></trkpt>
   <trkpt lat="37.218452" lon="-2.416233"><ele>1633.75</ele></trkpt>
   <trkpt lat="37.218212" lon="-2.416213"><ele>1632</ele></trkpt>
   <trkpt lat="37.218143" lon="-2.416223"><ele>1632</ele></trkpt>
   <trkpt lat="37.218078" lon="-2.416248"><ele>1632.5</ele></trkpt>
   <trkpt lat="37.217998" lon="-2.416331"><ele>1632.75</ele></trkpt>
   <trkpt lat="37.21793" lon="-2.416427"><ele>1633.5</ele></trkpt>
   <trkpt lat="37.217877" lon="-2.41653"><ele>1634.5</ele></trkpt>
   <trkpt lat="37.217832" lon="-2.416644"><ele>1635.75</ele></trkpt>
   <trkpt lat="37.21763" lon="-2.417522"><ele>1639.25</ele></trkpt>
   <trkpt lat="37.217631" lon="-2.41759"><ele>1640.75</ele></trkpt>
   <trkpt lat="37.217645" lon="-2.417649"><ele>1642.5</ele></trkpt>
   <trkpt lat="37.217671" lon="-2.41768"><ele>1643.75</ele></trkpt>
   <trkpt lat="37.217706" lon="-2.417697"><ele>1644.5</ele></trkpt>
   <trkpt lat="37.217754" lon="-2.417685"><ele>1645.25</ele></trkpt>
   <trkpt lat="37.217802" lon="-2.417636"><ele>1646.25</ele></trkpt>
   <trkpt lat="37.21783" lon="-2.417563"><ele>1646.75</ele></trkpt>
   <trkpt lat="37.217846" lon="-2.417491"><ele>1646.5</ele></trkpt>
   <trkpt lat="37.217853" lon="-2.417389"><ele>1646.25</ele></trkpt>
   <trkpt lat="37.217854" lon="-2.41722"><ele>1645.5</ele></trkpt>
   <trkpt lat="37.217865" lon="-2.417068"><ele>1644.25</ele></trkpt>
   <trkpt lat="37.217892" lon="-2.416946"><ele>1644.5</ele></trkpt>
   <trkpt lat="37.217934" lon="-2.416823"><ele>1644.25</ele></trkpt>
   <trkpt lat="37.217985" lon="-2.416737"><ele>1644.5</ele></trkpt>
   <trkpt lat="37.218044" lon="-2.416685"><ele>1646</ele></trkpt>
   <trkpt lat="37.218111" lon="-2.416642"><ele>1645.5</ele></trkpt>
   <trkpt lat="37.218206" lon="-2.416614"><ele>1645.75</ele></trkpt>
   <trkpt lat="37.218349" lon="-2.416601"><ele>1646.75</ele></trkpt>
   <trkpt lat="37.218472" lon="-2.416607"><ele>1647</ele></trkpt>
   <trkpt lat="37.218691" lon="-2.416602"><ele>1648.5</ele></trkpt>
   <trkpt lat="37.218752" lon="-2.416583"><ele>1649</ele></trkpt>
   <trkpt lat="37.218814" lon="-2.416532"><ele>1649.5</ele></trkpt>
   <trkpt lat="37.218872" lon="-2.416441"><ele>1650.5</ele></trkpt>
   <trkpt lat="37.218926" lon="-2.416305"><ele>1652</ele></trkpt>
   <trkpt lat="37.21898" lon="-2.416131"><ele>1652.75</ele></trkpt>
   <trkpt lat="37.219028" lon="-2.415943"><ele>1653.25</ele></trkpt>
   <trkpt lat="37.219067" lon="-2.415734"><ele>1653.75</ele></trkpt>
   <trkpt lat="37.219076" lon="-2.415608"><ele>1653.75</ele></trkpt>
   <trkpt lat="37.219079" lon="-2.415335"><ele>1654.75</ele></trkpt>
   <trkpt lat="37.219104" lon="-2.415275"><ele>1656.25</ele></trkpt>
   <trkpt lat="37.219133" lon="-2.415252"><ele>1658</ele></trkpt>
   <trkpt lat="37.219151" lon="-2.415253"><ele>1658.75</ele></trkpt>
   <trkpt lat="37.219168" lon="-2.415254"><ele>1659.5</ele></trkpt>
   <trkpt lat="37.219205" lon="-2.415274"><ele>1661.75</ele></trkpt>
   <trkpt lat="37.219233" lon="-2.415314"><ele>1663.5</ele></trkpt>
   <trkpt lat="37.219252" lon="-2.415391"><ele>1664.25</ele></trkpt>
   <trkpt lat="37.219265" lon="-2.415498"><ele>1664.25</ele></trkpt>
   <trkpt lat="37.219277" lon="-2.415706"><ele>1664.75</ele></trkpt>
   <trkpt lat="37.219278" lon="-2.416036"><ele>1666.5</ele></trkpt>
   <trkpt lat="37.219312" lon="-2.416591"><ele>1670.5</ele></trkpt>
   <trkpt lat="37.219318" lon="-2.416787"><ele>1670.5</ele></trkpt>
   <trkpt lat="37.21931" lon="-2.416874"><ele>1671</ele></trkpt>
   <trkpt lat="37.219288" lon="-2.416965"><ele>1671.75</ele></trkpt>
   <trkpt lat="37.219242" lon="-2.417056"><ele>1672.5</ele></trkpt>
   <trkpt lat="37.219193" lon="-2.417115"><ele>1673.25</ele></trkpt>
   <trkpt lat="37.219109" lon="-2.41717"><ele>1673.25</ele></trkpt>
   <trkpt lat="37.218983" lon="-2.417207"><ele>1673.25</ele></trkpt>
   <trkpt lat="37.218608" lon="-2.417276"><ele>1674</ele></trkpt>
   <trkpt lat="37.218533" lon="-2.417298"><ele>1673.5</ele></trkpt>
   <trkpt lat="37.218487" lon="-2.41732"><ele>1673.5</ele></trkpt>
   <trkpt lat="37.218445" lon="-2.417365"><ele>1674.25</ele></trkpt>
   <trkpt lat="37.218425" lon="-2.417421"><ele>1675.5</ele></trkpt>
   <trkpt lat="37.218434" lon="-2.417481"><ele>1677</ele></trkpt>
   <trkpt lat="37.218471" lon="-2.417524"><ele>1678.25</ele></trkpt>
   <trkpt lat="37.218515" lon="-2.417546"><ele>1679.25</ele></trkpt>
   <trkpt lat="37.21856" lon="-2.417543"><ele>1679.75</ele></trkpt>
   <trkpt lat="37.218613" lon="-2.417527"><ele>1679.75</ele></trkpt>
   <trkpt lat="37.218802" lon="-2.417463"><ele>1680.5</ele></trkpt>
   <trkpt lat="37.21891" lon="-2.417434"><ele>1680.75</ele></trkpt>
   <trkpt lat="37.219107" lon="-2.417383"><ele>1682</ele></trkpt>
   <trkpt lat="37.219505" lon="-2.417314"><ele>1688</ele></trkpt>
   <trkpt lat="37.219592" lon="-2.417284"><ele>1689.5</ele></trkpt>
   <trkpt lat="37.219667" lon="-2.417236"><ele>1690.75</ele></trkpt>
   <trkpt lat="37.219728" lon="-2.417165"><ele>1692</ele></trkpt>
   <trkpt lat="37.219771" lon="-2.417031"><ele>1692</ele></trkpt>
   <trkpt lat="37.219891" lon="-2.416398"><ele>1694.75</ele></trkpt>
   <trkpt lat="37.219921" lon="-2.41618"><ele>1696</ele></trkpt>
   <trkpt lat="37.219931" lon="-2.416025"><ele>1696.75</ele></trkpt>
   <trkpt lat="37.219931" lon="-2.415882"><ele>1697.25</ele></trkpt>
   <trkpt lat="37.21992" lon="-2.41571"><ele>1698.25</ele></trkpt>
   <trkpt lat="37.219886" lon="-2.415545"><ele>1698.75</ele></trkpt>
   <trkpt lat="37.219802" lon="-2.41527"><ele>1700</ele></trkpt>
   <trkpt lat="37.219789" lon="-2.415187"><ele>1700.75</ele></trkpt>
   <trkpt lat="37.219804" lon="-2.415129"><ele>1702.25</ele></trkpt>
   <trkpt lat="37.219845" lon="-2.415093"><ele>1704.25</ele></trkpt>
   <trkpt lat="37.219889" lon="-2.415091"><ele>1705.75</ele></trkpt>
   <trkpt lat="37.219938" lon="-2.415121"><ele>1706.75</ele></trkpt>
   <trkpt lat="37.219978" lon="-2.415184"><ele>1706.5</ele></trkpt>
   <trkpt lat="37.220008" lon="-2.415267"><ele>1705.75</ele></trkpt>
   <trkpt lat="37.220103" lon="-2.415609"><ele>1708</ele></trkpt>
   <trkpt lat="37.220183" lon="-2.415946"><ele>1709</ele></trkpt>
   <trkpt lat="37.220247" lon="-2.416356"><ele>1711.5</ele></trkpt>
   <trkpt lat="37.220264" lon="-2.416514"><ele>1712.75</ele></trkpt>
   <trkpt lat="37.220334" lon="-2.417567"><ele>1720.5</ele></trkpt>
   <trkpt lat="37.220329" lon="-2.41768"><ele>1721.5</ele></trkpt>
   <trkpt lat="37.220307" lon="-2.417796"><ele>1722.25</ele></trkpt>
   <trkpt lat="37.220242" lon="-2.417929"><ele>1724.5</ele></trkpt>
   <trkpt lat="37.220069" lon="-2.418167"><ele>1725.75</ele></trkpt>
   <trkpt lat="37.219981" lon="-2.418275"><ele>1725</ele></trkpt>
   <trkpt lat="37.219879" lon="-2.418361"><ele>1725</ele></trkpt>
   <trkpt lat="37.219788" lon="-2.418389"><ele>1724.5</ele></trkpt>
   <trkpt lat="37.219565" lon="-2.418409"><ele>1724</ele></trkpt>
   <trkpt lat="37.219388" lon="-2.418437"><ele>1723.25</ele></trkpt>
   <trkpt lat="37.219315" lon="-2.418479"><ele>1723.25</ele></trkpt>
   <trkpt lat="37.219262" lon="-2.418559"><ele>1724.75</ele></trkpt>
   <trkpt lat="37.21925" lon="-2.418624"><ele>1726.25</ele></trkpt>
   <trkpt lat="37.21926" lon="-2.418691"><ele>1728</ele></trkpt>
   <trkpt lat="37.219296" lon="-2.418741"><ele>1729.25</ele></trkpt>
   <trkpt lat="37.219355" lon="-2.418782"><ele>1730.5</ele></trkpt>
   <trkpt lat="37.219428" lon="-2.41881"><ele>1731.5</ele></trkpt>
   <trkpt lat="37.219528" lon="-2.41882"><ele>1732</ele></trkpt>
   <trkpt lat="37.219956" lon="-2.418804"><ele>1733.5</ele></trkpt>
   <trkpt lat="37.220153" lon="-2.418782"><ele>1736.75</ele></trkpt>
   <trkpt lat="37.220313" lon="-2.41872"><ele>1738.75</ele></trkpt>
   <trkpt lat="37.220672" lon="-2.418506"><ele>1739.5</ele></trkpt>
   <trkpt lat="37.220889" lon="-2.418377"><ele>1742.75</ele></trkpt>
   <trkpt lat="37.221111" lon="-2.418199"><ele>1745</ele></trkpt>
   <trkpt lat="37.221187" lon="-2.4181"><ele>1745.5</ele></trkpt>
   <trkpt lat="37.221236" lon="-2.417975"><ele>1746.25</ele></trkpt>
   <trkpt lat="37.221268" lon="-2.417781"><ele>1747.25</ele></trkpt>
   <trkpt lat="37.221291" lon="-2.417271"><ele>1748.75</ele></trkpt>
   <trkpt lat="37.221285" lon="-2.416892"><ele>1750</ele></trkpt>
   <trkpt lat="37.221238" lon="-2.41613"><ele>1755.25</ele></trkpt>
   <trkpt lat="37.221193" lon="-2.415831"><ele>1757.5</ele></trkpt>
   <trkpt lat="37.221016" lon="-2.415145"><ele>1760</ele></trkpt>
   <trkpt lat="37.22086" lon="-2.414496"><ele>1765</ele></trkpt>
   <trkpt lat="37.220834" lon="-2.414338"><ele>1765.75</ele></trkpt>
   <trkpt lat="37.220834" lon="-2.414243"><ele>1766.25</ele></trkpt>
   <trkpt lat="37.22085" lon="-2.414147"><ele>1767.25</ele></trkpt>
   <trkpt lat="37.220885" lon="-2.414064"><ele>1767.5</ele></trkpt>
   <trkpt lat="37.220976" lon="-2.413949"><ele>1767</ele></trkpt>
   <trkpt lat="37.221056" lon="-2.41389"><ele>1766</ele></trkpt>
   <trkpt lat="37.22115" lon="-2.413842"><ele>1765.25</ele></trkpt>
   <trkpt lat="37.221457" lon="-2.413736"><ele>1766</ele></trkpt>
   <trkpt lat="37.222457" lon="-2.413422"><ele>1772.75</ele></trkpt>
   <trkpt lat="37.222719" lon="-2.413306"><ele>1774</ele></trkpt>
   <trkpt lat="37.223144" lon="-2.413076"><ele>1777</ele></trkpt>
   <trkpt lat="37.223873" lon="-2.412761"><ele>1781</ele></trkpt>
   <trkpt lat="37.223947" lon="-2.412723"><ele>1782.25</ele></trkpt>
   <trkpt lat="37.224072" lon="-2.412659"><ele>1782.25</ele></trkpt>
   <trkpt lat="37.224338" lon="-2.412481"><ele>1784</ele></trkpt>
   <trkpt lat="37.225107" lon="-2.411866"><ele>1786.75</ele></trkpt>
   <trkpt lat="37.225585" lon="-2.41145"><ele>1788.5</ele></trkpt>
   <trkpt lat="37.225695" lon="-2.411375"><ele>1788.25</ele></trkpt>
   <trkpt lat="37.225733" lon="-2.411365"><ele>1788.5</ele></trkpt>
   <trkpt lat="37.225765" lon="-2.411365"><ele>1788.5</ele></trkpt>
   <trkpt lat="37.225824" lon="-2.411386"><ele>1788.75</ele></trkpt>
   <trkpt lat="37.22593" lon="-2.41145"><ele>1789.25</ele></trkpt>
   <trkpt lat="37.226031" lon="-2.411523"><ele>1789.75</ele></trkpt>
   <trkpt lat="37.226115" lon="-2.411595"><ele>1790.5</ele></trkpt>
   <trkpt lat="37.226271" lon="-2.411759"><ele>1790.5</ele></trkpt>
   <trkpt lat="37.226297" lon="-2.411796"><ele>1790.5</ele></trkpt>
   <trkpt lat="37.226317" lon="-2.411839"><ele>1790.5</ele></trkpt>
   <trkpt lat="37.22633" lon="-2.411885"><ele>1790.75</ele></trkpt>
   <trkpt lat="37.226337" lon="-2.411969"><ele>1791</ele></trkpt>
   <trkpt lat="37.226307" lon="-2.412123"><ele>1791</ele></trkpt>
   <trkpt lat="37.22612" lon="-2.412675"><ele>1793</ele></trkpt>
   <trkpt lat="37.226078" lon="-2.412828"><ele>1793.75</ele></trkpt>
   <trkpt lat="37.226073" lon="-2.412927"><ele>1794</ele></trkpt>
   <trkpt lat="37.226079" lon="-2.412973"><ele>1794</ele></trkpt>
   <trkpt lat="37.226092" lon="-2.413012"><ele>1794</ele></trkpt>
   <trkpt lat="37.22614" lon="-2.41311"><ele>1794</ele></trkpt>
   <trkpt lat="37.226286" lon="-2.413294"><ele>1794.5</ele></trkpt>
   <trkpt lat="37.226386" lon="-2.413434"><ele>1795</ele></trkpt>
   <trkpt lat="37.226913" lon="-2.414296"><ele>1796.5</ele></trkpt>
   <trkpt lat="37.227172" lon="-2.414603"><ele>1797</ele></trkpt>
   <trkpt lat="37.227299" lon="-2.414775"><ele>1797.25</ele></trkpt>
   <trkpt lat="37.227409" lon="-2.414956"><ele>1798</ele></trkpt>
   <trkpt lat="37.227707" lon="-2.415556"><ele>1799.5</ele></trkpt>
   <trkpt lat="37.227902" lon="-2.415886"><ele>1800.5</ele></trkpt>
   <trkpt lat="37.227987" lon="-2.416049"><ele>1800.75</ele></trkpt>
   <trkpt lat="37.228033" lon="-2.416178"><ele>1801</ele></trkpt>
   <trkpt lat="37.228074" lon="-2.416313"><ele>1800.75</ele></trkpt>
   <trkpt lat="37.228108" lon="-2.416464"><ele>1800.75</ele></trkpt>
   <trkpt lat="37.228121" lon="-2.416626"><ele>1801</ele></trkpt>
   <trkpt lat="37.228115" lon="-2.416748"><ele>1800.75</ele></trkpt>
   <trkpt lat="37.228048" lon="-2.417129"><ele>1801.5</ele></trkpt>
   <trkpt lat="37.228013" lon="-2.417291"><ele>1802.5</ele></trkpt>
   <trkpt lat="37.227994" lon="-2.41741"><ele>1803.25</ele></trkpt>
   <trkpt lat="37.227988" lon="-2.417508"><ele>1803.75</ele></trkpt>
   <trkpt lat="37.227992" lon="-2.417583"><ele>1804.25</ele></trkpt>
   <trkpt lat="37.228011" lon="-2.417633"><ele>1804.25</ele></trkpt>
   <trkpt lat="37.228044" lon="-2.417684"><ele>1803.75</ele></trkpt>
   <trkpt lat="37.228083" lon="-2.417716"><ele>1804</ele></trkpt>
   <trkpt lat="37.228137" lon="-2.417739"><ele>1804.25</ele></trkpt>
   <trkpt lat="37.228207" lon="-2.417755"><ele>1804.5</ele></trkpt>
   <trkpt lat="37.228308" lon="-2.41776"><ele>1804.5</ele></trkpt>
   <trkpt lat="37.228437" lon="-2.417747"><ele>1804.5</ele></trkpt>
   <trkpt lat="37.228559" lon="-2.417717"><ele>1803.75</ele></trkpt>
   <trkpt lat="37.228701" lon="-2.417664"><ele>1804</ele></trkpt>
   <trkpt lat="37.228791" lon="-2.417614"><ele>1805</ele></trkpt>
   <trkpt lat="37.229059" lon="-2.41744"><ele>1806.25</ele></trkpt>
   <trkpt lat="37.229155" lon="-2.417393"><ele>1806.5</ele></trkpt>
   <trkpt lat="37.229365" lon="-2.417339"><ele>1806.75</ele></trkpt>
   <trkpt lat="37.229449" lon="-2.417326"><ele>1807</ele></trkpt>
   <trkpt lat="37.229556" lon="-2.417323"><ele>1807</ele></trkpt>
   <trkpt lat="37.229633" lon="-2.417334"><ele>1807.25</ele></trkpt>
   <trkpt lat="37.229732" lon="-2.417363"><ele>1807.75</ele></trkpt>
   <trkpt lat="37.229822" lon="-2.417405"><ele>1807.75</ele></trkpt>
   <trkpt lat="37.229913" lon="-2.417472"><ele>1808.25</ele></trkpt>
   <trkpt lat="37.230036" lon="-2.417586"><ele>1808.5</ele></trkpt>
   <trkpt lat="37.230432" lon="-2.418026"><ele>1809.5</ele></trkpt>
   <trkpt lat="37.230945" lon="-2.41861"><ele>1812.25</ele></trkpt>
   <trkpt lat="37.231" lon="-2.418662"><ele>1812.5</ele></trkpt>
   <trkpt lat="37.231052" lon="-2.418692"><ele>1812</ele></trkpt>
   <trkpt lat="37.231109" lon="-2.418707"><ele>1811.25</ele></trkpt>
   <trkpt lat="37.23116" lon="-2.418695"><ele>1812</ele></trkpt>
   <trkpt lat="37.2312" lon="-2.41867"><ele>1812.5</ele></trkpt>
   <trkpt lat="37.231237" lon="-2.418619"><ele>1812.75</ele></trkpt>
   <trkpt lat="37.23129" lon="-2.418518"><ele>1812</ele></trkpt>
   <trkpt lat="37.231433" lon="-2.418282"><ele>1812.25</ele></trkpt>
   <trkpt lat="37.231538" lon="-2.418126"><ele>1811.75</ele></trkpt>
   <trkpt lat="37.231594" lon="-2.418057"><ele>1811.5</ele></trkpt>
   <trkpt lat="37.231649" lon="-2.417996"><ele>1812</ele></trkpt>
   <trkpt lat="37.231698" lon="-2.417958"><ele>1812.25</ele></trkpt>
   <trkpt lat="37.231814" lon="-2.417893"><ele>1812.5</ele></trkpt>
   <trkpt lat="37.231921" lon="-2.417851"><ele>1812.5</ele></trkpt>
   <trkpt lat="37.232257" lon="-2.417795"><ele>1813.5</ele></trkpt>
   <trkpt lat="37.232607" lon="-2.417719"><ele>1813.75</ele></trkpt>
   <trkpt lat="37.232931" lon="-2.417688"><ele>1814.25</ele></trkpt>
   <trkpt lat="37.233051" lon="-2.417664"><ele>1814.5</ele></trkpt>
   <trkpt lat="37.233186" lon="-2.417613"><ele>1815.25</ele></trkpt>
   <trkpt lat="37.233387" lon="-2.417506"><ele>1816.25</ele></trkpt>
   <trkpt lat="37.23347" lon="-2.417445"><ele>1816.5</ele></trkpt>
   <trkpt lat="37.233611" lon="-2.417298"><ele>1816.5</ele></trkpt>
   <trkpt lat="37.233695" lon="-2.417158"><ele>1816.25</ele></trkpt>
   <trkpt lat="37.233922" lon="-2.416745"><ele>1816.75</ele></trkpt>
   <trkpt lat="37.233994" lon="-2.416636"><ele>1817.25</ele></trkpt>
   <trkpt lat="37.234162" lon="-2.416445"><ele>1817.25</ele></trkpt>
   <trkpt lat="37.234263" lon="-2.416371"><ele>1816.5</ele></trkpt>
   <trkpt lat="37.234339" lon="-2.416353"><ele>1816.5</ele></trkpt>
   <trkpt lat="37.234474" lon="-2.416352"><ele>1817.5</ele></trkpt>
   <trkpt lat="37.234585" lon="-2.416369"><ele>1817.75</ele></trkpt>
   <trkpt lat="37.234739" lon="-2.416403"><ele>1818.25</ele></trkpt>
   <trkpt lat="37.235047" lon="-2.416485"><ele>1819.25</ele></trkpt>
   <trkpt lat="37.235132" lon="-2.416522"><ele>1819.25</ele></trkpt>
   <trkpt lat="37.23521" lon="-2.416582"><ele>1819.75</ele></trkpt>
   <trkpt lat="37.235282" lon="-2.416652"><ele>1820.25</ele></trkpt>
   <trkpt lat="37.235337" lon="-2.416743"><ele>1820</ele></trkpt>
   <trkpt lat="37.235369" lon="-2.416851"><ele>1820.5</ele></trkpt>
   <trkpt lat="37.235389" lon="-2.416952"><ele>1821.25</ele></trkpt>
   <trkpt lat="37.235404" lon="-2.41709"><ele>1822</ele></trkpt>
   <trkpt lat="37.235413" lon="-2.417448"><ele>1823</ele></trkpt>
   <trkpt lat="37.235407" lon="-2.417654"><ele>1822.75</ele></trkpt>
   <trkpt lat="37.235388" lon="-2.41779"><ele>1822.5</ele></trkpt>
   <trkpt lat="37.235388" lon="-2.417874"><ele>1822.25</ele></trkpt>
   <trkpt lat="37.235403" lon="-2.41794"><ele>1821.75</ele></trkpt>
   <trkpt lat="37.235479" lon="-2.417902"><ele>1820.25</ele></trkpt>
  </trkseg>
 </trk>
</gpx>