<?xml version="1.0" encoding="UTF-8"?>
<!-- track-length = 28153 filtered ascend = 674 plain-ascend = 577 cost=52725 energy=0.3kwh time=2h 31m 9s -->
<gpx 
 xmlns="http://www.topografix.com/GPX/1/1" 
 xmlns:xsi="http://www.w3.org/2001/XMLSchema-instance" 
 xsi:schemaLocation="http://www.topografix.com/GPX/1/1 http://www.topografix.com/GPX/1/1/gpx.xsd" 
 version="1.1" 
 creator="BRouter-Web 0.18.1">
 <trk>
  <name>Dúrcal -&gt; Albuñuelas (28.2km)</name>
  <trkseg>
   <trkpt lat="36.997971" lon="-3.573826"><ele>759.5</ele></trkpt>
   <trkpt lat="36.997971" lon="-3.573827"><ele>761</ele></trkpt>
   <trkpt lat="36.998706" lon="-3.574709"><ele>761</ele></trkpt>
   <trkpt lat="36.999062" lon="-3.575145"><ele>770.5</ele></trkpt>
   <trkpt lat="36.999377" lon="-3.575572"><ele>770.25</ele></trkpt>
   <trkpt lat="36.999724" lon="-3.576072"><ele>771.25</ele></trkpt>
   <trkpt lat="36.999901" lon="-3.576349"><ele>773.25</ele></trkpt>
   <trkpt lat="37.00001" lon="-3.576482"><ele>773</ele></trkpt>
   <trkpt lat="37.000444" lon="-3.577226"><ele>775.25</ele></trkpt>
   <trkpt lat="37.000661" lon="-3.577604"><ele>776</ele></trkpt>
   <trkpt lat="37.000894" lon="-3.577969"><ele>777</ele></trkpt>
   <trkpt lat="37.001125" lon="-3.578285"><ele>778</ele></trkpt>
   <trkpt lat="37.001386" lon="-3.578598"><ele>778.75</ele></trkpt>
   <trkpt lat="37.001731" lon="-3.578961"><ele>779</ele></trkpt>
   <trkpt lat="37.001806" lon="-3.579059"><ele>779</ele></trkpt>
   <trkpt lat="37.002" lon="-3.579241"><ele>779</ele></trkpt>
   <trkpt lat="37.002528" lon="-3.579736"><ele>779.75</ele></trkpt>
   <trkpt lat="37.002901" lon="-3.580085"><ele>779.75</ele></trkpt>
   <trkpt lat="37.002963" lon="-3.580141"><ele>779.75</ele></trkpt>
   <trkpt lat="37.003072" lon="-3.580192"><ele>780</ele></trkpt>
   <trkpt lat="37.003338" lon="-3.580384"><ele>780</ele></trkpt>
   <trkpt lat="37.003673" lon="-3.580661"><ele>780</ele></trkpt>
   <trkpt lat="37.004198" lon="-3.581155"><ele>779.75</ele></trkpt>
   <trkpt lat="37.004335" lon="-3.581231"><ele>779.5</ele></trkpt>
   <trkpt lat="37.004369" lon="-3.581246"><ele>779.5</ele></trkpt>
   <trkpt lat="37.004442" lon="-3.581254"><ele>779.25</ele></trkpt>
   <trkpt lat="37.004487" lon="-3.581267"><ele>779.5</ele></trkpt>
   <trkpt lat="37.004543" lon="-3.581316"><ele>779.5</ele></trkpt>
   <trkpt lat="37.00458" lon="-3.581397"><ele>779.25</ele></trkpt>
   <trkpt lat="37.004583" lon="-3.581481"><ele>779.25</ele></trkpt>
   <trkpt lat="37.00464" lon="-3.581555"><ele>779.25</ele></trkpt>
   <trkpt lat="37.004698" lon="-3.581615"><ele>779</ele></trkpt>
   <trkpt lat="37.004921" lon="-3.581843"><ele>778.25</ele></trkpt>
   <trkpt lat="37.005148" lon="-3.582045"><ele>778</ele></trkpt>
   <trkpt lat="37.005228" lon="-3.582157"><ele>778</ele></trkpt>
   <trkpt lat="37.005273" lon="-3.582256"><ele>777.75</ele></trkpt>
   <trkpt lat="37.005319" lon="-3.582355"><ele>777.5</ele></trkpt>
   <trkpt lat="37.005565" lon="-3.582607"><ele>776.5</ele></trkpt>
   <trkpt lat="37.005769" lon="-3.582823"><ele>775.75</ele></trkpt>
   <trkpt lat="37.006081" lon="-3.583167"><ele>774.5</ele></trkpt>
   <trkpt lat="37.006336" lon="-3.583449"><ele>772.5</ele></trkpt>
   <trkpt lat="37.00753" lon="-3.584762"><ele>768.5</ele></trkpt>
   <trkpt lat="37.007642" lon="-3.58489"><ele>766.75</ele></trkpt>
   <trkpt lat="37.008127" lon="-3.585439"><ele>766.75</ele></trkpt>
   <trkpt lat="37.008239" lon="-3.585524"><ele>766.75</ele></trkpt>
   <trkpt lat="37.008329" lon="-3.585577"><ele>766.75</ele></trkpt>
   <trkpt lat="37.008373" lon="-3.585603"><ele>766.75</ele></trkpt>
   <trkpt lat="37.008412" lon="-3.585589"><ele>767</ele></trkpt>
   <trkpt lat="37.008463" lon="-3.585591"><ele>767.25</ele></trkpt>
   <trkpt lat="37.008504" lon="-3.585609"><ele>767.25</ele></trkpt>
   <trkpt lat="37.008532" lon="-3.585632"><ele>767.25</ele></trkpt>
   <trkpt lat="37.008555" lon="-3.585663"><ele>767.25</ele></trkpt>
   <trkpt lat="37.008578" lon="-3.585716"><ele>767.25</ele></trkpt>
   <trkpt lat="37.008625" lon="-3.585767"><ele>767.25</ele></trkpt>
   <trkpt lat="37.008694" lon="-3.585877"><ele>767</ele></trkpt>
   <trkpt lat="37.009198" lon="-3.586464"><ele>766</ele></trkpt>
   <trkpt lat="37.009772" lon="-3.587118"><ele>765.25</ele></trkpt>
   <trkpt lat="37.010124" lon="-3.587519"><ele>765.25</ele></trkpt>
   <trkpt lat="37.010326" lon="-3.587749"><ele>765.25</ele></trkpt>
   <trkpt lat="37.01053" lon="-3.58809"><ele>764.5</ele></trkpt>
   <trkpt lat="37.010653" lon="-3.588295"><ele>763.75</ele></trkpt>
   <trkpt lat="37.010675" lon="-3.58832"><ele>763.75</ele></trkpt>
   <trkpt lat="37.011335" lon="-3.58906"><ele>763.25</ele></trkpt>
   <trkpt lat="37.012069" lon="-3.589897"><ele>762.25</ele></trkpt>
   <trkpt lat="37.012332" lon="-3.590197"><ele>762.25</ele></trkpt>
   <trkpt lat="37.01306" lon="-3.591075"><ele>762.25</ele></trkpt>
   <trkpt lat="37.014233" lon="-3.592577"><ele>758.5</ele></trkpt>
   <trkpt lat="37.01606" lon="-3.595036"><ele>752.75</ele></trkpt>
   <trkpt lat="37.01709" lon="-3.596446"><ele>747</ele></trkpt>
   <trkpt lat="37.017286" lon="-3.596714"><ele>745.75</ele></trkpt>
   <trkpt lat="37.017477" lon="-3.596992"><ele>744.5</ele></trkpt>
   <trkpt lat="37.017637" lon="-3.597214"><ele>745</ele></trkpt>
   <trkpt lat="37.017772" lon="-3.597477"><ele>744</ele></trkpt>
   <trkpt lat="37.017871" lon="-3.597701"><ele>743.5</ele></trkpt>
   <trkpt lat="37.017973" lon="-3.598016"><ele>742.25</ele></trkpt>
   <trkpt lat="37.01807" lon="-3.598455"><ele>742.5</ele></trkpt>
   <trkpt lat="37.018103" lon="-3.598713"><ele>742.25</ele></trkpt>
   <trkpt lat="37.018129" lon="-3.598964"><ele>741.75</ele></trkpt>
   <trkpt lat="37.018165" lon="-3.599322"><ele>741.25</ele></trkpt>
   <trkpt lat="37.018213" lon="-3.599891"><ele>742</ele></trkpt>
   <trkpt lat="37.018254" lon="-3.600286"><ele>741.25</ele></trkpt>
   <trkpt lat="37.018317" lon="-3.600739"><ele>740.25</ele></trkpt>
   <trkpt lat="37.018434" lon="-3.601157"><ele>742</ele></trkpt>
   <trkpt lat="37.018606" lon="-3.601621"><ele>740</ele></trkpt>
   <trkpt lat="37.018833" lon="-3.602183"><ele>740</ele></trkpt>
   <trkpt lat="37.018797" lon="-3.602385"><ele>739.25</ele></trkpt>
   <trkpt lat="37.018945" lon="-3.602796"><ele>739.5</ele></trkpt>
   <trkpt lat="37.019224" lon="-3.603163"><ele>738.75</ele></trkpt>
   <trkpt lat="37.019622" lon="-3.604131"><ele>736.75</ele></trkpt>
   <trkpt lat="37.019719" lon="-3.604323"><ele>739.25</ele></trkpt>
   <trkpt lat="37.019853" lon="-3.604454"><ele>740.75</ele></trkpt>
   <trkpt lat="37.019976" lon="-3.604736"><ele>739.5</ele></trkpt>
   <trkpt lat="37.020211" lon="-3.605316"><ele>739.5</ele></trkpt>
   <trkpt lat="37.020164" lon="-3.605406"><ele>739</ele></trkpt>
   <trkpt lat="37.020216" lon="-3.605618"><ele>739.5</ele></trkpt>
   <trkpt lat="37.02035" lon="-3.605955"><ele>740.25</ele></trkpt>
   <trkpt lat="37.020355" lon="-3.606042"><ele>740.25</ele></trkpt>
   <trkpt lat="37.020348" lon="-3.60609"><ele>740.25</ele></trkpt>
   <trkpt lat="37.020329" lon="-3.60616"><ele>740</ele></trkpt>
   <trkpt lat="37.020264" lon="-3.606275"><ele>739</ele></trkpt>
   <trkpt lat="37.020237" lon="-3.606376"><ele>738.25</ele></trkpt>
   <trkpt lat="37.020247" lon="-3.606457"><ele>738</ele></trkpt>
   <trkpt lat="37.020273" lon="-3.606535"><ele>738.25</ele></trkpt>
   <trkpt lat="37.020335" lon="-3.60668"><ele>738.25</ele></trkpt>
   <trkpt lat="37.020495" lon="-3.606898"><ele>737.5</ele></trkpt>
   <trkpt lat="37.020604" lon="-3.60707"><ele>737.75</ele></trkpt>
   <trkpt lat="37.020746" lon="-3.607327"><ele>738.25</ele></trkpt>
   <trkpt lat="37.020855" lon="-3.607574"><ele>737.5</ele></trkpt>
   <trkpt lat="37.021003" lon="-3.607979"><ele>738.5</ele></trkpt>
   <trkpt lat="37.021119" lon="-3.608343"><ele>738</ele></trkpt>
   <trkpt lat="37.021217" lon="-3.608758"><ele>740</ele></trkpt>
   <trkpt lat="37.021343" lon="-3.609438"><ele>739.5</ele></trkpt>
   <trkpt lat="37.021474" lon="-3.610205"><ele>741.25</ele></trkpt>
   <trkpt lat="37.02165" lon="-3.611209"><ele>743.75</ele></trkpt>
   <trkpt lat="37.02169" lon="-3.611439"><ele>744.5</ele></trkpt>
   <trkpt lat="37.021831" lon="-3.612219"><ele>746.75</ele></trkpt>
   <trkpt lat="37.021872" lon="-3.612454"><ele>746.75</ele></trkpt>
   <trkpt lat="37.021993" lon="-3.613152"><ele>748.25</ele></trkpt>
   <trkpt lat="37.022071" lon="-3.613575"><ele>748.25</ele></trkpt>
   <trkpt lat="37.022145" lon="-3.613911"><ele>748</ele></trkpt>
   <trkpt lat="37.022173" lon="-3.614025"><ele>748.25</ele></trkpt>
   <trkpt lat="37.022262" lon="-3.614336"><ele>748.75</ele></trkpt>
   <trkpt lat="37.022334" lon="-3.614563"><ele>749.25</ele></trkpt>
   <trkpt lat="37.022518" lon="-3.615067"><ele>749</ele></trkpt>
   <trkpt lat="37.022743" lon="-3.615645"><ele>749</ele></trkpt>
   <trkpt lat="37.022979" lon="-3.616202"><ele>748.5</ele></trkpt>
   <trkpt lat="37.022987" lon="-3.616221"><ele>748.5</ele></trkpt>
   <trkpt lat="37.023121" lon="-3.61652"><ele>748</ele></trkpt>
   <trkpt lat="37.023353" lon="-3.61697"><ele>746.75</ele></trkpt>
   <trkpt lat="37.023805" lon="-3.617822"><ele>744.25</ele></trkpt>
   <trkpt lat="37.023897" lon="-3.618005"><ele>745</ele></trkpt>
   <trkpt lat="37.023992" lon="-3.618197"><ele>744</ele></trkpt>
   <trkpt lat="37.024383" lon="-3.618939"><ele>743.5</ele></trkpt>
   <trkpt lat="37.024438" lon="-3.619052"><ele>743.25</ele></trkpt>
   <trkpt lat="37.024748" lon="-3.619634"><ele>743.5</ele></trkpt>
   <trkpt lat="37.024855" lon="-3.619847"><ele>744</ele></trkpt>
   <trkpt lat="37.024898" lon="-3.61998"><ele>743.25</ele></trkpt>
   <trkpt lat="37.024928" lon="-3.619975"><ele>743.5</ele></trkpt>
   <trkpt lat="37.02497" lon="-3.620045"><ele>743.5</ele></trkpt>
   <trkpt lat="37.025036" lon="-3.620174"><ele>743.5</ele></trkpt>
   <trkpt lat="37.025084" lon="-3.620268"><ele>743.5</ele></trkpt>
   <trkpt lat="37.025237" lon="-3.620608"><ele>742.75</ele></trkpt>
   <trkpt lat="37.025278" lon="-3.620728"><ele>743</ele></trkpt>
   <trkpt lat="37.025297" lon="-3.62083"><ele>743</ele></trkpt>
   <trkpt lat="37.025304" lon="-3.620927"><ele>743</ele></trkpt>
   <trkpt lat="37.025304" lon="-3.621039"><ele>743</ele></trkpt>
   <trkpt lat="37.025285" lon="-3.621261"><ele>743</ele></trkpt>
   <trkpt lat="37.025273" lon="-3.621368"><ele>742.75</ele></trkpt>
   <trkpt lat="37.025202" lon="-3.62206"><ele>744.5</ele></trkpt>
   <trkpt lat="37.025172" lon="-3.622316"><ele>746</ele></trkpt>
   <trkpt lat="37.025426" lon="-3.622307"><ele>747</ele></trkpt>
   <trkpt lat="37.025444" lon="-3.622676"><ele>749.5</ele></trkpt>
   <trkpt lat="37.025462" lon="-3.622946"><ele>751.25</ele></trkpt>
   <trkpt lat="37.025462" lon="-3.623123"><ele>752.25</ele></trkpt>
   <trkpt lat="37.025433" lon="-3.623185"><ele>752.25</ele></trkpt>
   <trkpt lat="37.025427" lon="-3.623263"><ele>752.5</ele></trkpt>
   <trkpt lat="37.025585" lon="-3.623461"><ele>755</ele></trkpt>
   <trkpt lat="37.025557" lon="-3.623592"><ele>755.75</ele></trkpt>
   <trkpt lat="37.025564" lon="-3.623858"><ele>758.5</ele></trkpt>
   <trkpt lat="37.025544" lon="-3.623965"><ele>759.5</ele></trkpt>
   <trkpt lat="37.025522" lon="-3.624034"><ele>760</ele></trkpt>
   <trkpt lat="37.02541" lon="-3.624377"><ele>761.75</ele></trkpt>
   <trkpt lat="37.025356" lon="-3.624569"><ele>762</ele></trkpt>
   <trkpt lat="37.025348" lon="-3.624601"><ele>762</ele></trkpt>
   <trkpt lat="37.025305" lon="-3.624844"><ele>761.75</ele></trkpt>
   <trkpt lat="37.025283" lon="-3.624989"><ele>762</ele></trkpt>
   <trkpt lat="37.025193" lon="-3.625293"><ele>765.25</ele></trkpt>
   <trkpt lat="37.025162" lon="-3.625502"><ele>764.75</ele></trkpt>
   <trkpt lat="37.025145" lon="-3.625733"><ele>764.25</ele></trkpt>
   <trkpt lat="37.02514" lon="-3.625863"><ele>764</ele></trkpt>
   <trkpt lat="37.025124" lon="-3.626255"><ele>764.5</ele></trkpt>
   <trkpt lat="37.025353" lon="-3.626256"><ele>770.75</ele></trkpt>
   <trkpt lat="37.025407" lon="-3.626255"><ele>772</ele></trkpt>
   <trkpt lat="37.025468" lon="-3.626249"><ele>773.25</ele></trkpt>
   <trkpt lat="37.025483" lon="-3.626296"><ele>773.75</ele></trkpt>
   <trkpt lat="37.025521" lon="-3.626522"><ele>775.75</ele></trkpt>
   <trkpt lat="37.025531" lon="-3.626617"><ele>776.5</ele></trkpt>
   <trkpt lat="37.02552" lon="-3.626691"><ele>776</ele></trkpt>
   <trkpt lat="37.025482" lon="-3.626884"><ele>772.75</ele></trkpt>
   <trkpt lat="37.025475" lon="-3.626921"><ele>772.25</ele></trkpt>
   <trkpt lat="37.025514" lon="-3.626989"><ele>773.25</ele></trkpt>
   <trkpt lat="37.025537" lon="-3.627118"><ele>773</ele></trkpt>
   <trkpt lat="37.025585" lon="-3.627225"><ele>773.5</ele></trkpt>
   <trkpt lat="37.025694" lon="-3.627309"><ele>775</ele></trkpt>
   <trkpt lat="37.025835" lon="-3.627361"><ele>778</ele></trkpt>
   <trkpt lat="37.026122" lon="-3.627417"><ele>781.5</ele></trkpt>
   <trkpt lat="37.026185" lon="-3.627461"><ele>782.25</ele></trkpt>
   <trkpt lat="37.026172" lon="-3.627628"><ele>781.25</ele></trkpt>
   <trkpt lat="37.026195" lon="-3.627802"><ele>782</ele></trkpt>
   <trkpt lat="37.026237" lon="-3.627972"><ele>783.5</ele></trkpt>
   <trkpt lat="37.026383" lon="-3.628361"><ele>785.5</ele></trkpt>
   <trkpt lat="37.026442" lon="-3.628577"><ele>785.75</ele></trkpt>
   <trkpt lat="37.026563" lon="-3.628794"><ele>786.25</ele></trkpt>
   <trkpt lat="37.02669" lon="-3.628982"><ele>787.5</ele></trkpt>
   <trkpt lat="37.026805" lon="-3.629065"><ele>789.75</ele></trkpt>
   <trkpt lat="37.026873" lon="-3.62913"><ele>790.5</ele></trkpt>
   <trkpt lat="37.026887" lon="-3.629142"><ele>790.75</ele></trkpt>
   <trkpt lat="37.026941" lon="-3.629397"><ele>787.75</ele></trkpt>
   <trkpt lat="37.026949" lon="-3.629435"><ele>787.25</ele></trkpt>
   <trkpt lat="37.026991" lon="-3.629675"><ele>788</ele></trkpt>
   <trkpt lat="37.027024" lon="-3.629938"><ele>789.25</ele></trkpt>
   <trkpt lat="37.027037" lon="-3.630051"><ele>790.5</ele></trkpt>
   <trkpt lat="37.027088" lon="-3.630332"><ele>793.75</ele></trkpt>
   <trkpt lat="37.027133" lon="-3.630502"><ele>794.25</ele></trkpt>
   <trkpt lat="37.02723" lon="-3.630817"><ele>795</ele></trkpt>
   <trkpt lat="37.027327" lon="-3.631138"><ele>795</ele></trkpt>
   <trkpt lat="37.027634" lon="-3.63205"><ele>797</ele></trkpt>
   <trkpt lat="37.027971" lon="-3.63298"><ele>801</ele></trkpt>
   <trkpt lat="37.028243" lon="-3.633709"><ele>805.75</ele></trkpt>
   <trkpt lat="37.028313" lon="-3.633884"><ele>805.75</ele></trkpt>
   <trkpt lat="37.028344" lon="-3.633973"><ele>805.75</ele></trkpt>
   <trkpt lat="37.028382" lon="-3.634082"><ele>805.5</ele></trkpt>
   <trkpt lat="37.02843" lon="-3.634348"><ele>805.75</ele></trkpt>
   <trkpt lat="37.028475" lon="-3.634755"><ele>806.25</ele></trkpt>
   <trkpt lat="37.028544" lon="-3.635274"><ele>803</ele></trkpt>
   <trkpt lat="37.028668" lon="-3.635328"><ele>802.75</ele></trkpt>
   <trkpt lat="37.028704" lon="-3.635216"><ele>803</ele></trkpt>
   <trkpt lat="37.028783" lon="-3.635065"><ele>803.25</ele></trkpt>
   <trkpt lat="37.028907" lon="-3.634875"><ele>804.5</ele></trkpt>
   <trkpt lat="37.029234" lon="-3.634421"><ele>808.5</ele></trkpt>
   <trkpt lat="37.029324" lon="-3.6343"><ele>809.75</ele></trkpt>
   <trkpt lat="37.029389" lon="-3.634113"><ele>808</ele></trkpt>
   <trkpt lat="37.029398" lon="-3.634053"><ele>808</ele></trkpt>
   <trkpt lat="37.029395" lon="-3.634008"><ele>808</ele></trkpt>
   <trkpt lat="37.0294" lon="-3.633964"><ele>808</ele></trkpt>
   <trkpt lat="37.029418" lon="-3.633914"><ele>808</ele></trkpt>
   <trkpt lat="37.029446" lon="-3.633873"><ele>808</ele></trkpt>
   <trkpt lat="37.029496" lon="-3.633838"><ele>808.5</ele></trkpt>
   <trkpt lat="37.02954" lon="-3.633828"><ele>808.75</ele></trkpt>
   <trkpt lat="37.02959" lon="-3.633837"><ele>809</ele></trkpt>
   <trkpt lat="37.029647" lon="-3.633881"><ele>809.25</ele></trkpt>
   <trkpt lat="37.029668" lon="-3.633915"><ele>809.5</ele></trkpt>
   <trkpt lat="37.029683" lon="-3.633954"><ele>809.25</ele></trkpt>
   <trkpt lat="37.029691" lon="-3.633997"><ele>809.25</ele></trkpt>
   <trkpt lat="37.02969" lon="-3.634041"><ele>809</ele></trkpt>
   <trkpt lat="37.029681" lon="-3.634083"><ele>809</ele></trkpt>
   <trkpt lat="37.029739" lon="-3.634282"><ele>809.75</ele></trkpt>
   <trkpt lat="37.030007" lon="-3.634665"><ele>811.75</ele></trkpt>
   <trkpt lat="37.030298" lon="-3.634965"><ele>814</ele></trkpt>
   <trkpt lat="37.03067" lon="-3.635264"><ele>815.25</ele></trkpt>
   <trkpt lat="37.031592" lon="-3.635991"><ele>817</ele></trkpt>
   <trkpt lat="37.032093" lon="-3.636297"><ele>818.5</ele></trkpt>
   <trkpt lat="37.03237" lon="-3.636454"><ele>819.25</ele></trkpt>
   <trkpt lat="37.032548" lon="-3.636573"><ele>819.5</ele></trkpt>
   <trkpt lat="37.032696" lon="-3.636688"><ele>819.5</ele></trkpt>
   <trkpt lat="37.033049" lon="-3.636953"><ele>819.75</ele></trkpt>
   <trkpt lat="37.033292" lon="-3.637163"><ele>820</ele></trkpt>
   <trkpt lat="37.033953" lon="-3.637669"><ele>820.75</ele></trkpt>
   <trkpt lat="37.034884" lon="-3.638401"><ele>822.75</ele></trkpt>
   <trkpt lat="37.035591" lon="-3.638855"><ele>824.25</ele></trkpt>
   <trkpt lat="37.035629" lon="-3.638879"><ele>824.25</ele></trkpt>
   <trkpt lat="37.036224" lon="-3.639247"><ele>824.5</ele></trkpt>
   <trkpt lat="37.036203" lon="-3.639326"><ele>824.25</ele></trkpt>
   <trkpt lat="37.036238" lon="-3.639355"><ele>824.25</ele></trkpt>
   <trkpt lat="37.036266" lon="-3.639402"><ele>824</ele></trkpt>
   <trkpt lat="37.036289" lon="-3.639489"><ele>823.75</ele></trkpt>
   <trkpt lat="37.036284" lon="-3.639565"><ele>823.5</ele></trkpt>
   <trkpt lat="37.036258" lon="-3.639623"><ele>823.25</ele></trkpt>
   <trkpt lat="37.036209" lon="-3.639679"><ele>823</ele></trkpt>
   <trkpt lat="37.036157" lon="-3.639702"><ele>823</ele></trkpt>
   <trkpt lat="37.036117" lon="-3.639704"><ele>823</ele></trkpt>
   <trkpt lat="37.036065" lon="-3.639687"><ele>822.75</ele></trkpt>
   <trkpt lat="37.036021" lon="-3.639649"><ele>822.5</ele></trkpt>
   <trkpt lat="37.035989" lon="-3.639594"><ele>822.75</ele></trkpt>
   <trkpt lat="37.035976" lon="-3.639546"><ele>822.75</ele></trkpt>
   <trkpt lat="37.035975" lon="-3.639477"><ele>823.25</ele></trkpt>
   <trkpt lat="37.035979" lon="-3.639457"><ele>823.5</ele></trkpt>
   <trkpt lat="37.035984" lon="-3.639433"><ele>823.5</ele></trkpt>
   <trkpt lat="37.036013" lon="-3.639375"><ele>823.5</ele></trkpt>
   <trkpt lat="37.036064" lon="-3.639334"><ele>823.75</ele></trkpt>
   <trkpt lat="37.036101" lon="-3.639315"><ele>823.75</ele></trkpt>
   <trkpt lat="37.036148" lon="-3.639313"><ele>824</ele></trkpt>
   <trkpt lat="37.036203" lon="-3.639326"><ele>824.25</ele></trkpt>
   <trkpt lat="37.036238" lon="-3.639355"><ele>824.25</ele></trkpt>
   <trkpt lat="37.036266" lon="-3.639402"><ele>824</ele></trkpt>
   <trkpt lat="37.036289" lon="-3.639489"><ele>823.75</ele></trkpt>
   <trkpt lat="37.036353" lon="-3.639575"><ele>823.5</ele></trkpt>
   <trkpt lat="37.036426" lon="-3.639646"><ele>823.25</ele></trkpt>
   <trkpt lat="37.036529" lon="-3.639746"><ele>823.25</ele></trkpt>
   <trkpt lat="37.037997" lon="-3.640583"><ele>823.75</ele></trkpt>
   <trkpt lat="37.038277" lon="-3.640754"><ele>824.25</ele></trkpt>
   <trkpt lat="37.03856" lon="-3.640951"><ele>824.75</ele></trkpt>
   <trkpt lat="37.039464" lon="-3.641609"><ele>825.25</ele></trkpt>
   <trkpt lat="37.039667" lon="-3.641683"><ele>825.5</ele></trkpt>
   <trkpt lat="37.039775" lon="-3.641739"><ele>826</ele></trkpt>
   <trkpt lat="37.040307" lon="-3.642116"><ele>826.25</ele></trkpt>
   <trkpt lat="37.040538" lon="-3.642211"><ele>826.75</ele></trkpt>
   <trkpt lat="37.040598" lon="-3.642222"><ele>827</ele></trkpt>
   <trkpt lat="37.04063" lon="-3.642219"><ele>827.25</ele></trkpt>
   <trkpt lat="37.040697" lon="-3.642228"><ele>827.25</ele></trkpt>
   <trkpt lat="37.040748" lon="-3.642256"><ele>827.5</ele></trkpt>
   <trkpt lat="37.040791" lon="-3.64231"><ele>827.5</ele></trkpt>
   <trkpt lat="37.040819" lon="-3.642385"><ele>827.25</ele></trkpt>
   <trkpt lat="37.040829" lon="-3.642444"><ele>827</ele></trkpt>
   <trkpt lat="37.040945" lon="-3.642585"><ele>827.5</ele></trkpt>
   <trkpt lat="37.041666" lon="-3.643111"><ele>828.75</ele></trkpt>
   <trkpt lat="37.04246" lon="-3.643694"><ele>831.25</ele></trkpt>
   <trkpt lat="37.04283" lon="-3.643992"><ele>831.5</ele></trkpt>
   <trkpt lat="37.043267" lon="-3.644405"><ele>831.75</ele></trkpt>
   <trkpt lat="37.043974" lon="-3.645051"><ele>834.5</ele></trkpt>
   <trkpt lat="37.044101" lon="-3.645146"><ele>834.5</ele></trkpt>
   <trkpt lat="37.044192" lon="-3.645214"><ele>834.5</ele></trkpt>
   <trkpt lat="37.044492" lon="-3.64534"><ele>836.5</ele></trkpt>
   <trkpt lat="37.044551" lon="-3.645409"><ele>837</ele></trkpt>
   <trkpt lat="37.044613" lon="-3.6456"><ele>837</ele></trkpt>
   <trkpt lat="37.04477" lon="-3.645791"><ele>837.5</ele></trkpt>
   <trkpt lat="37.044798" lon="-3.645825"><ele>837.75</ele></trkpt>
   <trkpt lat="37.044825" lon="-3.645935"><ele>837.75</ele></trkpt>
   <trkpt lat="37.045115" lon="-3.646175"><ele>839.25</ele></trkpt>
   <trkpt lat="37.045851" lon="-3.646662"><ele>843</ele></trkpt>
   <trkpt lat="37.046646" lon="-3.647088"><ele>845.75</ele></trkpt>
   <trkpt lat="37.0472" lon="-3.647414"><ele>848.25</ele></trkpt>
   <trkpt lat="37.047737" lon="-3.647689"><ele>849</ele></trkpt>
   <trkpt lat="37.048447" lon="-3.647942"><ele>850.5</ele></trkpt>
   <trkpt lat="37.048684" lon="-3.64798"><ele>850.75</ele></trkpt>
   <trkpt lat="37.048944" lon="-3.647979"><ele>852</ele></trkpt>
   <trkpt lat="37.049019" lon="-3.647966"><ele>852.5</ele></trkpt>
   <trkpt lat="37.049073" lon="-3.647933"><ele>853.25</ele></trkpt>
   <trkpt lat="37.049133" lon="-3.647921"><ele>853.75</ele></trkpt>
   <trkpt lat="37.049193" lon="-3.647931"><ele>854</ele></trkpt>
   <trkpt lat="37.049249" lon="-3.647962"><ele>854</ele></trkpt>
   <trkpt lat="37.049295" lon="-3.648012"><ele>853.25</ele></trkpt>
   <trkpt lat="37.049587" lon="-3.648244"><ele>853.25</ele></trkpt>
   <trkpt lat="37.049682" lon="-3.648296"><ele>853</ele></trkpt>
   <trkpt lat="37.049836" lon="-3.648383"><ele>853.25</ele></trkpt>
   <trkpt lat="37.051465" lon="-3.648882"><ele>849</ele></trkpt>
   <trkpt lat="37.052825" lon="-3.649301"><ele>845.75</ele></trkpt>
   <trkpt lat="37.053109" lon="-3.649387"><ele>845</ele></trkpt>
   <trkpt lat="37.053218" lon="-3.649421"><ele>845</ele></trkpt>
   <trkpt lat="37.053413" lon="-3.649479"><ele>844.25</ele></trkpt>
   <trkpt lat="37.053695" lon="-3.649565"><ele>843.25</ele></trkpt>
   <trkpt lat="37.054081" lon="-3.649662"><ele>843</ele></trkpt>
   <trkpt lat="37.054435" lon="-3.649734"><ele>843</ele></trkpt>
   <trkpt lat="37.054794" lon="-3.649774"><ele>842.5</ele></trkpt>
   <trkpt lat="37.055139" lon="-3.649773"><ele>841.75</ele></trkpt>
   <trkpt lat="37.055452" lon="-3.649748"><ele>840.5</ele></trkpt>
   <trkpt lat="37.055842" lon="-3.649694"><ele>840.25</ele></trkpt>
   <trkpt lat="37.05628" lon="-3.649602"><ele>839.25</ele></trkpt>
   <trkpt lat="37.057648" lon="-3.649282"><ele>837.75</ele></trkpt>
   <trkpt lat="37.057884" lon="-3.64924"><ele>838.25</ele></trkpt>
   <trkpt lat="37.058098" lon="-3.649201"><ele>838.75</ele></trkpt>
   <trkpt lat="37.058395" lon="-3.649171"><ele>839.75</ele></trkpt>
   <trkpt lat="37.058707" lon="-3.649166"><ele>840.25</ele></trkpt>
   <trkpt lat="37.058986" lon="-3.649177"><ele>841</ele></trkpt>
   <trkpt lat="37.059235" lon="-3.649209"><ele>841.25</ele></trkpt>
   <trkpt lat="37.059575" lon="-3.649275"><ele>842.5</ele></trkpt>
   <trkpt lat="37.059902" lon="-3.649359"><ele>843.5</ele></trkpt>
   <trkpt lat="37.060884" lon="-3.649686"><ele>846.5</ele></trkpt>
   <trkpt lat="37.061139" lon="-3.649763"><ele>847.5</ele></trkpt>
   <trkpt lat="37.061375" lon="-3.649807"><ele>848</ele></trkpt>
   <trkpt lat="37.061564" lon="-3.649818"><ele>848.5</ele></trkpt>
   <trkpt lat="37.061764" lon="-3.649811"><ele>848.5</ele></trkpt>
   <trkpt lat="37.062365" lon="-3.649745"><ele>848.5</ele></trkpt>
   <trkpt lat="37.063489" lon="-3.649636"><ele>849.5</ele></trkpt>
   <trkpt lat="37.064404" lon="-3.649533"><ele>849.25</ele></trkpt>
   <trkpt lat="37.064758" lon="-3.64952"><ele>848.5</ele></trkpt>
   <trkpt lat="37.065108" lon="-3.649533"><ele>847.5</ele></trkpt>
   <trkpt lat="37.065124" lon="-3.649533"><ele>847.5</ele></trkpt>
   <trkpt lat="37.06544" lon="-3.649581"><ele>846.25</ele></trkpt>
   <trkpt lat="37.065766" lon="-3.64966"><ele>845</ele></trkpt>
   <trkpt lat="37.066021" lon="-3.649755"><ele>844.75</ele></trkpt>
   <trkpt lat="37.066261" lon="-3.649873"><ele>844</ele></trkpt>
   <trkpt lat="37.067315" lon="-3.650409"><ele>842</ele></trkpt>
   <trkpt lat="37.067469" lon="-3.650453"><ele>842</ele></trkpt>
   <trkpt lat="37.06786" lon="-3.650654"><ele>842</ele></trkpt>
   <trkpt lat="37.068251" lon="-3.650859"><ele>840.75</ele></trkpt>
   <trkpt lat="37.068845" lon="-3.651167"><ele>839</ele></trkpt>
   <trkpt lat="37.06889" lon="-3.651237"><ele>838.75</ele></trkpt>
   <trkpt lat="37.068993" lon="-3.651285"><ele>838.5</ele></trkpt>
   <trkpt lat="37.06917" lon="-3.651375"><ele>838.5</ele></trkpt>
   <trkpt lat="37.069189" lon="-3.651396"><ele>838.75</ele></trkpt>
   <trkpt lat="37.069202" lon="-3.651426"><ele>839</ele></trkpt>
   <trkpt lat="37.069209" lon="-3.651448"><ele>839</ele></trkpt>
   <trkpt lat="37.069217" lon="-3.651482"><ele>839</ele></trkpt>
   <trkpt lat="37.069203" lon="-3.65155"><ele>839.25</ele></trkpt>
   <trkpt lat="37.069162" lon="-3.651607"><ele>839.75</ele></trkpt>
   <trkpt lat="37.069118" lon="-3.651636"><ele>839.75</ele></trkpt>
   <trkpt lat="37.069037" lon="-3.651629"><ele>839.75</ele></trkpt>
   <trkpt lat="37.068979" lon="-3.651619"><ele>839.75</ele></trkpt>
   <trkpt lat="37.068921" lon="-3.651623"><ele>839.75</ele></trkpt>
   <trkpt lat="37.068821" lon="-3.651636"><ele>839.75</ele></trkpt>
   <trkpt lat="37.06874" lon="-3.651658"><ele>839.75</ele></trkpt>
   <trkpt lat="37.068592" lon="-3.6517"><ele>840</ele></trkpt>
   <trkpt lat="37.068476" lon="-3.651745"><ele>840.25</ele></trkpt>
   <trkpt lat="37.068328" lon="-3.6518"><ele>840.25</ele></trkpt>
   <trkpt lat="37.068074" lon="-3.651853"><ele>838.75</ele></trkpt>
   <trkpt lat="37.067918" lon="-3.651893"><ele>838.5</ele></trkpt>
   <trkpt lat="37.067794" lon="-3.651944"><ele>839</ele></trkpt>
   <trkpt lat="37.067114" lon="-3.652273"><ele>839.5</ele></trkpt>
   <trkpt lat="37.066809" lon="-3.652406"><ele>839.75</ele></trkpt>
   <trkpt lat="37.066451" lon="-3.652561"><ele>839.75</ele></trkpt>
   <trkpt lat="37.065688" lon="-3.652935"><ele>839</ele></trkpt>
   <trkpt lat="37.065333" lon="-3.653121"><ele>839.5</ele></trkpt>
   <trkpt lat="37.064709" lon="-3.653503"><ele>835.25</ele></trkpt>
   <trkpt lat="37.064253" lon="-3.653825"><ele>831.75</ele></trkpt>
   <trkpt lat="37.063861" lon="-3.654125"><ele>829.75</ele></trkpt>
   <trkpt lat="37.063537" lon="-3.654388"><ele>828.75</ele></trkpt>
   <trkpt lat="37.063398" lon="-3.654501"><ele>828</ele></trkpt>
   <trkpt lat="37.062657" lon="-3.655164"><ele>823.75</ele></trkpt>
   <trkpt lat="37.061038" lon="-3.656592"><ele>817.25</ele></trkpt>
   <trkpt lat="37.060906" lon="-3.656688"><ele>816.75</ele></trkpt>
   <trkpt lat="37.060771" lon="-3.656764"><ele>816</ele></trkpt>
   <trkpt lat="37.060637" lon="-3.65682"><ele>814.5</ele></trkpt>
   <trkpt lat="37.060464" lon="-3.656876"><ele>814.5</ele></trkpt>
   <trkpt lat="37.057321" lon="-3.657889"><ele>817</ele></trkpt>
   <trkpt lat="37.055564" lon="-3.658464"><ele>823.75</ele></trkpt>
   <trkpt lat="37.053838" lon="-3.659044"><ele>832</ele></trkpt>
   <trkpt lat="37.053545" lon="-3.659125"><ele>833</ele></trkpt>
   <trkpt lat="37.053026" lon="-3.659205"><ele>835</ele></trkpt>
   <trkpt lat="37.051787" lon="-3.65933"><ele>841.5</ele></trkpt>
   <trkpt lat="37.0508" lon="-3.65943"><ele>848</ele></trkpt>
   <trkpt lat="37.050598" lon="-3.659487"><ele>849</ele></trkpt>
   <trkpt lat="37.050511" lon="-3.659541"><ele>849.5</ele></trkpt>
   <trkpt lat="37.050403" lon="-3.659624"><ele>850.5</ele></trkpt>
   <trkpt lat="37.049588" lon="-3.660474"><ele>858</ele></trkpt>
   <trkpt lat="37.049432" lon="-3.660617"><ele>859.5</ele></trkpt>
   <trkpt lat="37.049299" lon="-3.66071"><ele>858.75</ele></trkpt>
   <trkpt lat="37.048421" lon="-3.661188"><ele>856.25</ele></trkpt>
   <trkpt lat="37.047718" lon="-3.661525"><ele>859.5</ele></trkpt>
   <trkpt lat="37.047541" lon="-3.661617"><ele>859.25</ele></trkpt>
   <trkpt lat="37.047354" lon="-3.661684"><ele>860.5</ele></trkpt>
   <trkpt lat="37.047223" lon="-3.661734"><ele>860.75</ele></trkpt>
   <trkpt lat="37.04715" lon="-3.661751"><ele>861.5</ele></trkpt>
   <trkpt lat="37.046821" lon="-3.661913"><ele>863.5</ele></trkpt>
   <trkpt lat="37.046539" lon="-3.662073"><ele>865.5</ele></trkpt>
   <trkpt lat="37.046415" lon="-3.662138"><ele>866</ele></trkpt>
   <trkpt lat="37.046335" lon="-3.662216"><ele>866.5</ele></trkpt>
   <trkpt lat="37.046237" lon="-3.662295"><ele>868</ele></trkpt>
   <trkpt lat="37.046072" lon="-3.662388"><ele>869</ele></trkpt>
   <trkpt lat="37.043478" lon="-3.663561"><ele>855.75</ele></trkpt>
   <trkpt lat="37.043045" lon="-3.66384"><ele>851.75</ele></trkpt>
   <trkpt lat="37.042927" lon="-3.663934"><ele>850.75</ele></trkpt>
   <trkpt lat="37.042547" lon="-3.664417"><ele>848.5</ele></trkpt>
   <trkpt lat="37.04156" lon="-3.665917"><ele>853.75</ele></trkpt>
   <trkpt lat="37.040185" lon="-3.668254"><ele>871</ele></trkpt>
   <trkpt lat="37.040143" lon="-3.668351"><ele>871.5</ele></trkpt>
   <trkpt lat="37.03958" lon="-3.669649"><ele>879</ele></trkpt>
   <trkpt lat="37.039546" lon="-3.669728"><ele>879</ele></trkpt>
   <trkpt lat="37.038711" lon="-3.671885"><ele>892.75</ele></trkpt>
   <trkpt lat="37.038469" lon="-3.672379"><ele>899.5</ele></trkpt>
   <trkpt lat="37.038237" lon="-3.672689"><ele>903.75</ele></trkpt>
   <trkpt lat="37.037957" lon="-3.672948"><ele>906.25</ele></trkpt>
   <trkpt lat="37.037699" lon="-3.673105"><ele>908.75</ele></trkpt>
   <trkpt lat="37.03744" lon="-3.673197"><ele>910.75</ele></trkpt>
   <trkpt lat="37.036563" lon="-3.673361"><ele>915.5</ele></trkpt>
   <trkpt lat="37.035598" lon="-3.673516"><ele>921.5</ele></trkpt>
   <trkpt lat="37.034869" lon="-3.673451"><ele>928.5</ele></trkpt>
   <trkpt lat="37.033598" lon="-3.673287"><ele>934.75</ele></trkpt>
   <trkpt lat="37.0334" lon="-3.673275"><ele>936.25</ele></trkpt>
   <trkpt lat="37.033288" lon="-3.673282"><ele>936.75</ele></trkpt>
   <trkpt lat="37.033182" lon="-3.673315"><ele>936.75</ele></trkpt>
   <trkpt lat="37.033061" lon="-3.673376"><ele>937.75</ele></trkpt>
   <trkpt lat="37.032959" lon="-3.67345"><ele>938.5</ele></trkpt>
   <trkpt lat="37.032822" lon="-3.673577"><ele>939</ele></trkpt>
   <trkpt lat="37.032018" lon="-3.674503"><ele>942</ele></trkpt>
   <trkpt lat="37.031564" lon="-3.674977"><ele>945.5</ele></trkpt>
   <trkpt lat="37.031084" lon="-3.675438"><ele>948.5</ele></trkpt>
   <trkpt lat="37.030985" lon="-3.675532"><ele>949.25</ele></trkpt>
   <trkpt lat="37.029938" lon="-3.676534"><ele>956.25</ele></trkpt>
   <trkpt lat="37.029832" lon="-3.67666"><ele>956.75</ele></trkpt>
   <trkpt lat="37.029717" lon="-3.676817"><ele>957.5</ele></trkpt>
   <trkpt lat="37.029631" lon="-3.676989"><ele>957.5</ele></trkpt>
   <trkpt lat="37.029564" lon="-3.677158"><ele>958.25</ele></trkpt>
   <trkpt lat="37.029494" lon="-3.677403"><ele>959</ele></trkpt>
   <trkpt lat="37.029405" lon="-3.677812"><ele>959.5</ele></trkpt>
   <trkpt lat="37.029253" lon="-3.678535"><ele>961</ele></trkpt>
   <trkpt lat="37.029042" lon="-3.679683"><ele>965.75</ele></trkpt>
   <trkpt lat="37.028871" lon="-3.680571"><ele>967.75</ele></trkpt>
   <trkpt lat="37.028827" lon="-3.68102"><ele>969</ele></trkpt>
   <trkpt lat="37.028655" lon="-3.683064"><ele>977.5</ele></trkpt>
   <trkpt lat="37.028548" lon="-3.684429"><ele>984.5</ele></trkpt>
   <trkpt lat="37.02854" lon="-3.684469"><ele>984.75</ele></trkpt>
   <trkpt lat="37.028468" lon="-3.684827"><ele>985.5</ele></trkpt>
   <trkpt lat="37.027958" lon="-3.686323"><ele>993.25</ele></trkpt>
   <trkpt lat="37.027863" lon="-3.686507"><ele>994</ele></trkpt>
   <trkpt lat="37.02775" lon="-3.686662"><ele>994.75</ele></trkpt>
   <trkpt lat="37.026629" lon="-3.687833"><ele>998.25</ele></trkpt>
   <trkpt lat="37.026349" lon="-3.688145"><ele>999.5</ele></trkpt>
   <trkpt lat="37.026206" lon="-3.688362"><ele>1000.5</ele></trkpt>
   <trkpt lat="37.026068" lon="-3.688669"><ele>1000</ele></trkpt>
   <trkpt lat="37.025896" lon="-3.689236"><ele>1002.5</ele></trkpt>
   <trkpt lat="37.025591" lon="-3.690238"><ele>1005.75</ele></trkpt>
   <trkpt lat="37.02551" lon="-3.690475"><ele>1005</ele></trkpt>
   <trkpt lat="37.02546" lon="-3.690578"><ele>1004.75</ele></trkpt>
   <trkpt lat="37.025399" lon="-3.690683"><ele>1005.25</ele></trkpt>
   <trkpt lat="37.025318" lon="-3.690783"><ele>1006.75</ele></trkpt>
   <trkpt lat="37.025168" lon="-3.690916"><ele>1006</ele></trkpt>
   <trkpt lat="37.025057" lon="-3.690984"><ele>1006</ele></trkpt>
   <trkpt lat="37.024941" lon="-3.691036"><ele>1007.75</ele></trkpt>
   <trkpt lat="37.024767" lon="-3.691068"><ele>1009.5</ele></trkpt>
   <trkpt lat="37.024534" lon="-3.69107"><ele>1010.75</ele></trkpt>
   <trkpt lat="37.024334" lon="-3.691043"><ele>1011.75</ele></trkpt>
   <trkpt lat="37.023609" lon="-3.690926"><ele>1015</ele></trkpt>
   <trkpt lat="37.023419" lon="-3.690877"><ele>1016</ele></trkpt>
   <trkpt lat="37.023215" lon="-3.690775"><ele>1017.5</ele></trkpt>
   <trkpt lat="37.023057" lon="-3.690678"><ele>1019</ele></trkpt>
   <trkpt lat="37.021766" lon="-3.689831"><ele>1023.25</ele></trkpt>
   <trkpt lat="37.021596" lon="-3.689754"><ele>1023.75</ele></trkpt>
   <trkpt lat="37.021436" lon="-3.689704"><ele>1024.5</ele></trkpt>
   <trkpt lat="37.021259" lon="-3.689688"><ele>1024.75</ele></trkpt>
   <trkpt lat="37.021085" lon="-3.68969"><ele>1025</ele></trkpt>
   <trkpt lat="37.020899" lon="-3.689729"><ele>1025</ele></trkpt>
   <trkpt lat="37.020747" lon="-3.689782"><ele>1025</ele></trkpt>
   <trkpt lat="37.020524" lon="-3.689916"><ele>1024</ele></trkpt>
   <trkpt lat="37.020413" lon="-3.68999"><ele>1023.75</ele></trkpt>
   <trkpt lat="37.018553" lon="-3.691254"><ele>1021.25</ele></trkpt>
   <trkpt lat="37.016802" lon="-3.692491"><ele>1022</ele></trkpt>
   <trkpt lat="37.016307" lon="-3.692863"><ele>1022.75</ele></trkpt>
   <trkpt lat="37.016051" lon="-3.693102"><ele>1022.25</ele></trkpt>
   <trkpt lat="37.01572" lon="-3.693489"><ele>1022.75</ele></trkpt>
   <trkpt lat="37.015054" lon="-3.694232"><ele>1021.75</ele></trkpt>
   <trkpt lat="37.014363" lon="-3.695072"><ele>1020</ele></trkpt>
   <trkpt lat="37.013381" lon="-3.696196"><ele>1019.75</ele></trkpt>
   <trkpt lat="37.012167" lon="-3.697606"><ele>1021</ele></trkpt>
   <trkpt lat="37.009634" lon="-3.700521"><ele>1023.5</ele></trkpt>
   <trkpt lat="37.007739" lon="-3.702699"><ele>1028.5</ele></trkpt>
   <trkpt lat="37.007353" lon="-3.703163"><ele>1029.5</ele></trkpt>
   <trkpt lat="37.003816" lon="-3.707256"><ele>1046</ele></trkpt>
   <trkpt lat="37.003125" lon="-3.708079"><ele>1049.75</ele></trkpt>
   <trkpt lat="37.002847" lon="-3.708391"><ele>1050.75</ele></trkpt>
   <trkpt lat="37.002584" lon="-3.708713"><ele>1052.25</ele></trkpt>
   <trkpt lat="37.002444" lon="-3.708941"><ele>1053</ele></trkpt>
   <trkpt lat="37.002361" lon="-3.709076"><ele>1053.5</ele></trkpt>
   <trkpt lat="37.002038" lon="-3.709646"><ele>1056</ele></trkpt>
   <trkpt lat="37.001061" lon="-3.711444"><ele>1063.75</ele></trkpt>
   <trkpt lat="36.999779" lon="-3.714455"><ele>1080.25</ele></trkpt>
   <trkpt lat="36.999652" lon="-3.714687"><ele>1081.5</ele></trkpt>
   <trkpt lat="36.999521" lon="-3.71488"><ele>1082.5</ele></trkpt>
   <trkpt lat="36.999153" lon="-3.715331"><ele>1086</ele></trkpt>
   <trkpt lat="36.99838" lon="-3.716308"><ele>1090</ele></trkpt>
   <trkpt lat="36.998222" lon="-3.716495"><ele>1091.75</ele></trkpt>
   <trkpt lat="36.99813" lon="-3.716586"><ele>1092.25</ele></trkpt>
   <trkpt lat="36.998006" lon="-3.716675"><ele>1093</ele></trkpt>
   <trkpt lat="36.997815" lon="-3.716761"><ele>1093.5</ele></trkpt>
   <trkpt lat="36.996897" lon="-3.717083"><ele>1098.25</ele></trkpt>
   <trkpt lat="36.995824" lon="-3.717461"><ele>1105.75</ele></trkpt>
   <trkpt lat="36.995391" lon="-3.717612"><ele>1107.75</ele></trkpt>
   <trkpt lat="36.995186" lon="-3.717687"><ele>1109</ele></trkpt>
   <trkpt lat="36.994892" lon="-3.717802"><ele>1111</ele></trkpt>
   <trkpt lat="36.994847" lon="-3.71782"><ele>1111</ele></trkpt>
   <trkpt lat="36.994719" lon="-3.717887"><ele>1111.75</ele></trkpt>
   <trkpt lat="36.994629" lon="-3.717957"><ele>1112</ele></trkpt>
   <trkpt lat="36.99454" lon="-3.718049"><ele>1112.5</ele></trkpt>
   <trkpt lat="36.994466" lon="-3.718137"><ele>1112.75</ele></trkpt>
   <trkpt lat="36.994378" lon="-3.718283"><ele>1113</ele></trkpt>
   <trkpt lat="36.994109" lon="-3.718848"><ele>1115</ele></trkpt>
   <trkpt lat="36.993679" lon="-3.719808"><ele>1118.5</ele></trkpt>
   <trkpt lat="36.993607" lon="-3.719946"><ele>1119.5</ele></trkpt>
   <trkpt lat="36.993522" lon="-3.720077"><ele>1119.5</ele></trkpt>
   <trkpt lat="36.992876" lon="-3.720837"><ele>1125.5</ele></trkpt>
   <trkpt lat="36.992721" lon="-3.721"><ele>1128</ele></trkpt>
   <trkpt lat="36.992592" lon="-3.721093"><ele>1128.25</ele></trkpt>
   <trkpt lat="36.991819" lon="-3.721597"><ele>1133.5</ele></trkpt>
   <trkpt lat="36.991697" lon="-3.721688"><ele>1134.25</ele></trkpt>
   <trkpt lat="36.99158" lon="-3.721795"><ele>1135.25</ele></trkpt>
   <trkpt lat="36.991453" lon="-3.721945"><ele>1136.25</ele></trkpt>
   <trkpt lat="36.991371" lon="-3.722107"><ele>1136.75</ele></trkpt>
   <trkpt lat="36.991264" lon="-3.722402"><ele>1138.25</ele></trkpt>
   <trkpt lat="36.991174" lon="-3.722723"><ele>1139.5</ele></trkpt>
   <trkpt lat="36.990887" lon="-3.723749"><ele>1146.5</ele></trkpt>
   <trkpt lat="36.990838" lon="-3.723897"><ele>1146.75</ele></trkpt>
   <trkpt lat="36.990765" lon="-3.724062"><ele>1148.5</ele></trkpt>
   <trkpt lat="36.990685" lon="-3.724185"><ele>1149.75</ele></trkpt>
   <trkpt lat="36.990598" lon="-3.724293"><ele>1150.25</ele></trkpt>
   <trkpt lat="36.990505" lon="-3.724391"><ele>1150.5</ele></trkpt>
   <trkpt lat="36.990397" lon="-3.724468"><ele>1150.75</ele></trkpt>
   <trkpt lat="36.990282" lon="-3.724523"><ele>1151.25</ele></trkpt>
   <trkpt lat="36.990163" lon="-3.72456"><ele>1152.25</ele></trkpt>
   <trkpt lat="36.990002" lon="-3.724577"><ele>1154</ele></trkpt>
   <trkpt lat="36.988969" lon="-3.724563"><ele>1162</ele></trkpt>
   <trkpt lat="36.988718" lon="-3.724574"><ele>1163.5</ele></trkpt>
   <trkpt lat="36.988239" lon="-3.724622"><ele>1168.75</ele></trkpt>
   <trkpt lat="36.98808" lon="-3.724629"><ele>1170.75</ele></trkpt>
   <trkpt lat="36.987975" lon="-3.724622"><ele>1171</ele></trkpt>
   <trkpt lat="36.987882" lon="-3.724596"><ele>1171</ele></trkpt>
   <trkpt lat="36.987797" lon="-3.724543"><ele>1170.5</ele></trkpt>
   <trkpt lat="36.987672" lon="-3.724434"><ele>1171.25</ele></trkpt>
   <trkpt lat="36.987474" lon="-3.724209"><ele>1172.25</ele></trkpt>
   <trkpt lat="36.987363" lon="-3.724106"><ele>1174.75</ele></trkpt>
   <trkpt lat="36.987288" lon="-3.724062"><ele>1175.5</ele></trkpt>
   <trkpt lat="36.987125" lon="-3.723982"><ele>1176.5</ele></trkpt>
   <trkpt lat="36.98691" lon="-3.723921"><ele>1176.5</ele></trkpt>
   <trkpt lat="36.98545" lon="-3.723608"><ele>1184.25</ele></trkpt>
   <trkpt lat="36.985295" lon="-3.723581"><ele>1185</ele></trkpt>
   <trkpt lat="36.985224" lon="-3.723582"><ele>1185.25</ele></trkpt>
   <trkpt lat="36.985135" lon="-3.7236"><ele>1185.5</ele></trkpt>
   <trkpt lat="36.984347" lon="-3.723938"><ele>1182.25</ele></trkpt>
   <trkpt lat="36.984126" lon="-3.724056"><ele>1181.25</ele></trkpt>
   <trkpt lat="36.984035" lon="-3.724126"><ele>1181.5</ele></trkpt>
   <trkpt lat="36.983946" lon="-3.724233"><ele>1181.5</ele></trkpt>
   <trkpt lat="36.983871" lon="-3.724351"><ele>1181.25</ele></trkpt>
   <trkpt lat="36.983808" lon="-3.724479"><ele>1180.75</ele></trkpt>
   <trkpt lat="36.983692" lon="-3.72483"><ele>1180</ele></trkpt>
   <trkpt lat="36.983369" lon="-3.725875"><ele>1182.75</ele></trkpt>
   <trkpt lat="36.983291" lon="-3.726119"><ele>1184.5</ele></trkpt>
   <trkpt lat="36.982962" lon="-3.727155"><ele>1184.75</ele></trkpt>
   <trkpt lat="36.98294" lon="-3.727226"><ele>1184.75</ele></trkpt>
   <trkpt lat="36.982891" lon="-3.727327"><ele>1185</ele></trkpt>
   <trkpt lat="36.982803" lon="-3.72748"><ele>1186.5</ele></trkpt>
   <trkpt lat="36.9827" lon="-3.727625"><ele>1187</ele></trkpt>
   <trkpt lat="36.982633" lon="-3.727705"><ele>1187.25</ele></trkpt>
   <trkpt lat="36.982563" lon="-3.727788"><ele>1187.75</ele></trkpt>
   <trkpt lat="36.98237" lon="-3.727929"><ele>1189</ele></trkpt>
   <trkpt lat="36.981842" lon="-3.728242"><ele>1192.75</ele></trkpt>
   <trkpt lat="36.980583" lon="-3.728931"><ele>1203</ele></trkpt>
   <trkpt lat="36.980474" lon="-3.728992"><ele>1204</ele></trkpt>
   <trkpt lat="36.980007" lon="-3.729249"><ele>1207.25</ele></trkpt>
   <trkpt lat="36.979678" lon="-3.729429"><ele>1210</ele></trkpt>
   <trkpt lat="36.979133" lon="-3.729634"><ele>1212.75</ele></trkpt>
   <trkpt lat="36.978372" lon="-3.729919"><ele>1218</ele></trkpt>
   <trkpt lat="36.978087" lon="-3.73001"><ele>1219</ele></trkpt>
   <trkpt lat="36.977956" lon="-3.730027"><ele>1219.5</ele></trkpt>
   <trkpt lat="36.977893" lon="-3.730035"><ele>1219.75</ele></trkpt>
   <trkpt lat="36.977494" lon="-3.730089"><ele>1220.5</ele></trkpt>
   <trkpt lat="36.976908" lon="-3.730159"><ele>1224.5</ele></trkpt>
   <trkpt lat="36.976562" lon="-3.73021"><ele>1227.25</ele></trkpt>
   <trkpt lat="36.976169" lon="-3.730359"><ele>1229.75</ele></trkpt>
   <trkpt lat="36.975336" lon="-3.730717"><ele>1237.25</ele></trkpt>
   <trkpt lat="36.974783" lon="-3.730936"><ele>1242.25</ele></trkpt>
   <trkpt lat="36.974568" lon="-3.731009"><ele>1244</ele></trkpt>
   <trkpt lat="36.974232" lon="-3.730979"><ele>1244</ele></trkpt>
   <trkpt lat="36.973962" lon="-3.730965"><ele>1244.75</ele></trkpt>
   <trkpt lat="36.973692" lon="-3.73095"><ele>1247</ele></trkpt>
   <trkpt lat="36.973047" lon="-3.731007"><ele>1253.75</ele></trkpt>
   <trkpt lat="36.972405" lon="-3.731105"><ele>1257</ele></trkpt>
   <trkpt lat="36.972113" lon="-3.731028"><ele>1261.5</ele></trkpt>
   <trkpt lat="36.971877" lon="-3.730913"><ele>1262</ele></trkpt>
   <trkpt lat="36.971641" lon="-3.730872"><ele>1262.75</ele></trkpt>
   <trkpt lat="36.971193" lon="-3.73095"><ele>1268.75</ele></trkpt>
   <trkpt lat="36.970846" lon="-3.73106"><ele>1271.75</ele></trkpt>
   <trkpt lat="36.970327" lon="-3.731352"><ele>1275.25</ele></trkpt>
   <trkpt lat="36.970137" lon="-3.731439"><ele>1274.25</ele></trkpt>
   <trkpt lat="36.969887" lon="-3.731427"><ele>1276.25</ele></trkpt>
   <trkpt lat="36.969559" lon="-3.731326"><ele>1279</ele></trkpt>
   <trkpt lat="36.969358" lon="-3.731322"><ele>1279</ele></trkpt>
   <trkpt lat="36.96902" lon="-3.731351"><ele>1279.25</ele></trkpt>
   <trkpt lat="36.968668" lon="-3.731433"><ele>1280</ele></trkpt>
   <trkpt lat="36.968337" lon="-3.731559"><ele>1280.25</ele></trkpt>
   <trkpt lat="36.968113" lon="-3.73169"><ele>1282</ele></trkpt>
   <trkpt lat="36.967838" lon="-3.731924"><ele>1284</ele></trkpt>
   <trkpt lat="36.967579" lon="-3.732074"><ele>1287.25</ele></trkpt>
   <trkpt lat="36.967297" lon="-3.732137"><ele>1288.75</ele></trkpt>
   <trkpt lat="36.966945" lon="-3.732031"><ele>1291.75</ele></trkpt>
   <trkpt lat="36.96678" lon="-3.731924"><ele>1292</ele></trkpt>
   <trkpt lat="36.966573" lon="-3.731699"><ele>1291.25</ele></trkpt>
   <trkpt lat="36.966373" lon="-3.731432"><ele>1292.25</ele></trkpt>
   <trkpt lat="36.966179" lon="-3.731241"><ele>1295</ele></trkpt>
   <trkpt lat="36.965862" lon="-3.73107"><ele>1296</ele></trkpt>
   <trkpt lat="36.965656" lon="-3.730814"><ele>1297.25</ele></trkpt>
   <trkpt lat="36.965453" lon="-3.730378"><ele>1300</ele></trkpt>
   <trkpt lat="36.965116" lon="-3.729919"><ele>1303.25</ele></trkpt>
   <trkpt lat="36.964764" lon="-3.729592"><ele>1305</ele></trkpt>
   <trkpt lat="36.964463" lon="-3.729386"><ele>1308.5</ele></trkpt>
   <trkpt lat="36.964139" lon="-3.729251"><ele>1310.75</ele></trkpt>
   <trkpt lat="36.963963" lon="-3.729116"><ele>1311.25</ele></trkpt>
   <trkpt lat="36.963765" lon="-3.728857"><ele>1312.75</ele></trkpt>
   <trkpt lat="36.963743" lon="-3.728831"><ele>1313</ele></trkpt>
   <trkpt lat="36.963604" lon="-3.728669"><ele>1315.75</ele></trkpt>
   <trkpt lat="36.963259" lon="-3.728622"><ele>1318</ele></trkpt>
   <trkpt lat="36.962931" lon="-3.728554"><ele>1319.5</ele></trkpt>
   <trkpt lat="36.962526" lon="-3.728356"><ele>1320.5</ele></trkpt>
   <trkpt lat="36.962299" lon="-3.728277"><ele>1321</ele></trkpt>
   <trkpt lat="36.962026" lon="-3.728235"><ele>1322.5</ele></trkpt>
   <trkpt lat="36.96156" lon="-3.728235"><ele>1323</ele></trkpt>
   <trkpt lat="36.961087" lon="-3.728191"><ele>1323.5</ele></trkpt>
   <trkpt lat="36.960844" lon="-3.728021"><ele>1325.5</ele></trkpt>
   <trkpt lat="36.960721" lon="-3.727894"><ele>1326</ele></trkpt>
   <trkpt lat="36.960403" lon="-3.727456"><ele>1326.5</ele></trkpt>
   <trkpt lat="36.959697" lon="-3.727019"><ele>1327.5</ele></trkpt>
   <trkpt lat="36.959282" lon="-3.726751"><ele>1328.75</ele></trkpt>
   <trkpt lat="36.959083" lon="-3.726511"><ele>1331.5</ele></trkpt>
   <trkpt lat="36.958936" lon="-3.726332"><ele>1331.5</ele></trkpt>
   <trkpt lat="36.958268" lon="-3.725334"><ele>1334</ele></trkpt>
   <trkpt lat="36.958099" lon="-3.725224"><ele>1334.75</ele></trkpt>
   <trkpt lat="36.957764" lon="-3.725208"><ele>1333</ele></trkpt>
   <trkpt lat="36.957505" lon="-3.725306"><ele>1333.75</ele></trkpt>
   <trkpt lat="36.957301" lon="-3.725517"><ele>1334.25</ele></trkpt>
   <trkpt lat="36.957041" lon="-3.725562"><ele>1333.75</ele></trkpt>
   <trkpt lat="36.956485" lon="-3.725455"><ele>1335</ele></trkpt>
   <trkpt lat="36.956142" lon="-3.725258"><ele>1332</ele></trkpt>
  </trkseg>
 </trk>
</gpx>