<?xml version="1.0" encoding="UTF-8"?>
<!-- track-length = 14447 filtered ascend = 630 plain-ascend = 444 cost=29007 energy=0.2kwh time=1h 53m 41s -->
<gpx 
 xmlns="http://www.topografix.com/GPX/1/1" 
 xmlns:xsi="http://www.w3.org/2001/XMLSchema-instance" 
 xsi:schemaLocation="http://www.topografix.com/GPX/1/1 http://www.topografix.com/GPX/1/1/gpx.xsd" 
 version="1.1" 
 creator="BRouter-Web 0.18.1">
 <trk>
  <name> Valdelinares (14.4km)</name>
  <trkseg>
   <trkpt lat="40.365546" lon="-0.706193"><ele>1379.75</ele></trkpt>
   <trkpt lat="40.365612" lon="-0.706353"><ele>1380.25</ele></trkpt>
   <trkpt lat="40.365658" lon="-0.706446"><ele>1380</ele></trkpt>
   <trkpt lat="40.365691" lon="-0.706463"><ele>1380</ele></trkpt>
   <trkpt lat="40.365766" lon="-0.706456"><ele>1380.5</ele></trkpt>
   <trkpt lat="40.365819" lon="-0.706438"><ele>1380.75</ele></trkpt>
   <trkpt lat="40.36589" lon="-0.706383"><ele>1381.25</ele></trkpt>
   <trkpt lat="40.36602" lon="-0.706143"><ele>1383.5</ele></trkpt>
   <trkpt lat="40.366177" lon="-0.70589"><ele>1384.5</ele></trkpt>
   <trkpt lat="40.366316" lon="-0.70567"><ele>1387.5</ele></trkpt>
   <trkpt lat="40.366432" lon="-0.705485"><ele>1387.5</ele></trkpt>
   <trkpt lat="40.366675" lon="-0.705047"><ele>1389.5</ele></trkpt>
   <trkpt lat="40.367203" lon="-0.704158"><ele>1394.25</ele></trkpt>
   <trkpt lat="40.367571" lon="-0.703572"><ele>1398.25</ele></trkpt>
   <trkpt lat="40.367717" lon="-0.703384"><ele>1400</ele></trkpt>
   <trkpt lat="40.367854" lon="-0.703238"><ele>1401.25</ele></trkpt>
   <trkpt lat="40.367929" lon="-0.703176"><ele>1402</ele></trkpt>
   <trkpt lat="40.368149" lon="-0.702997"><ele>1403.5</ele></trkpt>
   <trkpt lat="40.36822" lon="-0.702919"><ele>1404.25</ele></trkpt>
   <trkpt lat="40.368281" lon="-0.702836"><ele>1404.75</ele></trkpt>
   <trkpt lat="40.368339" lon="-0.702724"><ele>1405</ele></trkpt>
   <trkpt lat="40.36841" lon="-0.702559"><ele>1405</ele></trkpt>
   <trkpt lat="40.368468" lon="-0.70237"><ele>1405.75</ele></trkpt>
   <trkpt lat="40.368557" lon="-0.701908"><ele>1406</ele></trkpt>
   <trkpt lat="40.36864" lon="-0.701431"><ele>1406.25</ele></trkpt>
   <trkpt lat="40.368684" lon="-0.701079"><ele>1407</ele></trkpt>
   <trkpt lat="40.368698" lon="-0.700883"><ele>1407.75</ele></trkpt>
   <trkpt lat="40.368701" lon="-0.700478"><ele>1407.75</ele></trkpt>
   <trkpt lat="40.368681" lon="-0.70013"><ele>1408</ele></trkpt>
   <trkpt lat="40.368624" lon="-0.699724"><ele>1407.75</ele></trkpt>
   <trkpt lat="40.368584" lon="-0.699399"><ele>1407.75</ele></trkpt>
   <trkpt lat="40.368574" lon="-0.699184"><ele>1407.75</ele></trkpt>
   <trkpt lat="40.368576" lon="-0.698938"><ele>1407.75</ele></trkpt>
   <trkpt lat="40.368603" lon="-0.698428"><ele>1408.75</ele></trkpt>
   <trkpt lat="40.368654" lon="-0.697044"><ele>1410.5</ele></trkpt>
   <trkpt lat="40.36867" lon="-0.696842"><ele>1411</ele></trkpt>
   <trkpt lat="40.368706" lon="-0.696652"><ele>1411.25</ele></trkpt>
   <trkpt lat="40.368776" lon="-0.696508"><ele>1411.75</ele></trkpt>
   <trkpt lat="40.369851" lon="-0.69479"><ele>1416.75</ele></trkpt>
   <trkpt lat="40.369966" lon="-0.694593"><ele>1417.25</ele></trkpt>
   <trkpt lat="40.370234" lon="-0.694072"><ele>1419</ele></trkpt>
   <trkpt lat="40.370453" lon="-0.693645"><ele>1420.5</ele></trkpt>
   <trkpt lat="40.370702" lon="-0.693154"><ele>1422.25</ele></trkpt>
   <trkpt lat="40.370842" lon="-0.692843"><ele>1423</ele></trkpt>
   <trkpt lat="40.371022" lon="-0.692327"><ele>1424.25</ele></trkpt>
   <trkpt lat="40.371123" lon="-0.69209"><ele>1425.25</ele></trkpt>
   <trkpt lat="40.371211" lon="-0.691907"><ele>1426.25</ele></trkpt>
   <trkpt lat="40.371375" lon="-0.6916"><ele>1429</ele></trkpt>
   <trkpt lat="40.371472" lon="-0.691392"><ele>1429.75</ele></trkpt>
   <trkpt lat="40.371577" lon="-0.691101"><ele>1433</ele></trkpt>
   <trkpt lat="40.371741" lon="-0.690397"><ele>1436.75</ele></trkpt>
   <trkpt lat="40.372127" lon="-0.688751"><ele>1445</ele></trkpt>
   <trkpt lat="40.372194" lon="-0.68853"><ele>1446</ele></trkpt>
   <trkpt lat="40.372258" lon="-0.688368"><ele>1446.75</ele></trkpt>
   <trkpt lat="40.372447" lon="-0.688018"><ele>1448.75</ele></trkpt>
   <trkpt lat="40.372596" lon="-0.687781"><ele>1450.25</ele></trkpt>
   <trkpt lat="40.372763" lon="-0.687554"><ele>1451.75</ele></trkpt>
   <trkpt lat="40.373445" lon="-0.686777"><ele>1459.75</ele></trkpt>
   <trkpt lat="40.373532" lon="-0.686697"><ele>1461</ele></trkpt>
   <trkpt lat="40.373615" lon="-0.68668"><ele>1461.75</ele></trkpt>
   <trkpt lat="40.373683" lon="-0.686682"><ele>1462.25</ele></trkpt>
   <trkpt lat="40.373761" lon="-0.686735"><ele>1462.25</ele></trkpt>
   <trkpt lat="40.374238" lon="-0.687147"><ele>1465</ele></trkpt>
   <trkpt lat="40.374564" lon="-0.687361"><ele>1468.25</ele></trkpt>
   <trkpt lat="40.374668" lon="-0.687414"><ele>1470</ele></trkpt>
   <trkpt lat="40.374729" lon="-0.687425"><ele>1471.25</ele></trkpt>
   <trkpt lat="40.374802" lon="-0.687413"><ele>1472</ele></trkpt>
   <trkpt lat="40.374846" lon="-0.687348"><ele>1473</ele></trkpt>
   <trkpt lat="40.374874" lon="-0.687267"><ele>1474.25</ele></trkpt>
   <trkpt lat="40.374866" lon="-0.687172"><ele>1475.25</ele></trkpt>
   <trkpt lat="40.374833" lon="-0.687075"><ele>1476</ele></trkpt>
   <trkpt lat="40.374785" lon="-0.686982"><ele>1476.5</ele></trkpt>
   <trkpt lat="40.373719" lon="-0.685106"><ele>1488.5</ele></trkpt>
   <trkpt lat="40.373501" lon="-0.684674"><ele>1491.5</ele></trkpt>
   <trkpt lat="40.373381" lon="-0.684415"><ele>1493</ele></trkpt>
   <trkpt lat="40.373262" lon="-0.684125"><ele>1493</ele></trkpt>
   <trkpt lat="40.372844" lon="-0.683087"><ele>1503.25</ele></trkpt>
   <trkpt lat="40.372734" lon="-0.682791"><ele>1505</ele></trkpt>
   <trkpt lat="40.372612" lon="-0.682397"><ele>1509.25</ele></trkpt>
   <trkpt lat="40.372535" lon="-0.682031"><ele>1513</ele></trkpt>
   <trkpt lat="40.372483" lon="-0.681863"><ele>1514.25</ele></trkpt>
   <trkpt lat="40.372398" lon="-0.681636"><ele>1517.25</ele></trkpt>
   <trkpt lat="40.37218" lon="-0.681106"><ele>1522</ele></trkpt>
   <trkpt lat="40.37173" lon="-0.679614"><ele>1535.5</ele></trkpt>
   <trkpt lat="40.37136" lon="-0.678289"><ele>1543.25</ele></trkpt>
   <trkpt lat="40.371287" lon="-0.678058"><ele>1545.75</ele></trkpt>
   <trkpt lat="40.371223" lon="-0.677884"><ele>1547.75</ele></trkpt>
   <trkpt lat="40.370765" lon="-0.676791"><ele>1558.25</ele></trkpt>
   <trkpt lat="40.370695" lon="-0.676561"><ele>1560.25</ele></trkpt>
   <trkpt lat="40.37054" lon="-0.67582"><ele>1566.5</ele></trkpt>
   <trkpt lat="40.370445" lon="-0.67547"><ele>1568</ele></trkpt>
   <trkpt lat="40.370367" lon="-0.675299"><ele>1569</ele></trkpt>
   <trkpt lat="40.370281" lon="-0.67514"><ele>1570.5</ele></trkpt>
   <trkpt lat="40.369881" lon="-0.674611"><ele>1574</ele></trkpt>
   <trkpt lat="40.369755" lon="-0.674454"><ele>1575.5</ele></trkpt>
   <trkpt lat="40.369412" lon="-0.674092"><ele>1577.75</ele></trkpt>
   <trkpt lat="40.369351" lon="-0.673986"><ele>1577.5</ele></trkpt>
   <trkpt lat="40.369346" lon="-0.673917"><ele>1578.75</ele></trkpt>
   <trkpt lat="40.369373" lon="-0.673865"><ele>1580.75</ele></trkpt>
   <trkpt lat="40.369414" lon="-0.67383"><ele>1582.5</ele></trkpt>
   <trkpt lat="40.369461" lon="-0.673822"><ele>1584</ele></trkpt>
   <trkpt lat="40.369547" lon="-0.673872"><ele>1585.25</ele></trkpt>
   <trkpt lat="40.369701" lon="-0.674027"><ele>1585.5</ele></trkpt>
   <trkpt lat="40.369976" lon="-0.674339"><ele>1585.5</ele></trkpt>
   <trkpt lat="40.370371" lon="-0.674725"><ele>1583.75</ele></trkpt>
   <trkpt lat="40.370705" lon="-0.675035"><ele>1582.5</ele></trkpt>
   <trkpt lat="40.370759" lon="-0.675056"><ele>1582.75</ele></trkpt>
   <trkpt lat="40.370813" lon="-0.67505"><ele>1583.25</ele></trkpt>
   <trkpt lat="40.370863" lon="-0.675025"><ele>1583.25</ele></trkpt>
   <trkpt lat="40.3709" lon="-0.674986"><ele>1583</ele></trkpt>
   <trkpt lat="40.370933" lon="-0.674936"><ele>1583</ele></trkpt>
   <trkpt lat="40.37096" lon="-0.674878"><ele>1583.25</ele></trkpt>
   <trkpt lat="40.370973" lon="-0.674808"><ele>1584</ele></trkpt>
   <trkpt lat="40.370977" lon="-0.674739"><ele>1584.75</ele></trkpt>
   <trkpt lat="40.370961" lon="-0.674675"><ele>1585.5</ele></trkpt>
   <trkpt lat="40.370931" lon="-0.674612"><ele>1586.5</ele></trkpt>
   <trkpt lat="40.370894" lon="-0.674569"><ele>1587.5</ele></trkpt>
   <trkpt lat="40.37085" lon="-0.674535"><ele>1588.25</ele></trkpt>
   <trkpt lat="40.370773" lon="-0.67449"><ele>1589.5</ele></trkpt>
   <trkpt lat="40.370511" lon="-0.674374"><ele>1591.75</ele></trkpt>
   <trkpt lat="40.370374" lon="-0.674303"><ele>1592.5</ele></trkpt>
   <trkpt lat="40.370245" lon="-0.674216"><ele>1593.5</ele></trkpt>
   <trkpt lat="40.370143" lon="-0.674128"><ele>1594.25</ele></trkpt>
   <trkpt lat="40.370059" lon="-0.674035"><ele>1595.75</ele></trkpt>
   <trkpt lat="40.369966" lon="-0.673903"><ele>1597.5</ele></trkpt>
   <trkpt lat="40.369884" lon="-0.673771"><ele>1598</ele></trkpt>
   <trkpt lat="40.369802" lon="-0.673618"><ele>1600</ele></trkpt>
   <trkpt lat="40.369698" lon="-0.673389"><ele>1602.25</ele></trkpt>
   <trkpt lat="40.369593" lon="-0.673121"><ele>1604</ele></trkpt>
   <trkpt lat="40.369514" lon="-0.672882"><ele>1606.75</ele></trkpt>
   <trkpt lat="40.369441" lon="-0.672688"><ele>1608</ele></trkpt>
   <trkpt lat="40.3694" lon="-0.672505"><ele>1610.5</ele></trkpt>
   <trkpt lat="40.369384" lon="-0.672383"><ele>1611.5</ele></trkpt>
   <trkpt lat="40.369379" lon="-0.672215"><ele>1613.25</ele></trkpt>
   <trkpt lat="40.369384" lon="-0.672076"><ele>1614.75</ele></trkpt>
   <trkpt lat="40.369415" lon="-0.671682"><ele>1617.25</ele></trkpt>
   <trkpt lat="40.369409" lon="-0.67154"><ele>1617.75</ele></trkpt>
   <trkpt lat="40.369282" lon="-0.670655"><ele>1621.5</ele></trkpt>
   <trkpt lat="40.36922" lon="-0.670122"><ele>1624.25</ele></trkpt>
   <trkpt lat="40.369179" lon="-0.669644"><ele>1628.5</ele></trkpt>
   <trkpt lat="40.369149" lon="-0.669406"><ele>1630</ele></trkpt>
   <trkpt lat="40.369091" lon="-0.669153"><ele>1632.25</ele></trkpt>
   <trkpt lat="40.369011" lon="-0.66889"><ele>1635.5</ele></trkpt>
   <trkpt lat="40.368823" lon="-0.668325"><ele>1639</ele></trkpt>
   <trkpt lat="40.368741" lon="-0.66813"><ele>1640.25</ele></trkpt>
   <trkpt lat="40.368649" lon="-0.667889"><ele>1641.75</ele></trkpt>
   <trkpt lat="40.368639" lon="-0.667787"><ele>1643.25</ele></trkpt>
   <trkpt lat="40.368645" lon="-0.667705"><ele>1643.75</ele></trkpt>
   <trkpt lat="40.368673" lon="-0.667645"><ele>1644.25</ele></trkpt>
   <trkpt lat="40.36873" lon="-0.667612"><ele>1645.5</ele></trkpt>
   <trkpt lat="40.36879" lon="-0.667604"><ele>1646.5</ele></trkpt>
   <trkpt lat="40.368858" lon="-0.667631"><ele>1647.5</ele></trkpt>
   <trkpt lat="40.368908" lon="-0.667688"><ele>1648</ele></trkpt>
   <trkpt lat="40.368977" lon="-0.667807"><ele>1648.25</ele></trkpt>
   <trkpt lat="40.36905" lon="-0.667959"><ele>1647.75</ele></trkpt>
   <trkpt lat="40.369222" lon="-0.668365"><ele>1647.25</ele></trkpt>
   <trkpt lat="40.36928" lon="-0.668449"><ele>1647</ele></trkpt>
   <trkpt lat="40.369374" lon="-0.668513"><ele>1648</ele></trkpt>
   <trkpt lat="40.369422" lon="-0.668525"><ele>1649</ele></trkpt>
   <trkpt lat="40.369462" lon="-0.66852"><ele>1649.75</ele></trkpt>
   <trkpt lat="40.369513" lon="-0.668472"><ele>1650.75</ele></trkpt>
   <trkpt lat="40.369529" lon="-0.668428"><ele>1651.25</ele></trkpt>
   <trkpt lat="40.369534" lon="-0.668347"><ele>1652</ele></trkpt>
   <trkpt lat="40.369528" lon="-0.668251"><ele>1653</ele></trkpt>
   <trkpt lat="40.369448" lon="-0.667671"><ele>1658</ele></trkpt>
   <trkpt lat="40.369348" lon="-0.667065"><ele>1662.75</ele></trkpt>
   <trkpt lat="40.369279" lon="-0.666729"><ele>1665.25</ele></trkpt>
   <trkpt lat="40.369237" lon="-0.66658"><ele>1666.25</ele></trkpt>
   <trkpt lat="40.369171" lon="-0.666388"><ele>1668</ele></trkpt>
   <trkpt lat="40.368995" lon="-0.666004"><ele>1669.5</ele></trkpt>
   <trkpt lat="40.368854" lon="-0.665738"><ele>1671.75</ele></trkpt>
   <trkpt lat="40.36865" lon="-0.665429"><ele>1675</ele></trkpt>
   <trkpt lat="40.368573" lon="-0.665344"><ele>1676.25</ele></trkpt>
   <trkpt lat="40.368496" lon="-0.665281"><ele>1677.75</ele></trkpt>
   <trkpt lat="40.368428" lon="-0.665256"><ele>1678.5</ele></trkpt>
   <trkpt lat="40.368359" lon="-0.665241"><ele>1679.25</ele></trkpt>
   <trkpt lat="40.368248" lon="-0.665241"><ele>1680.25</ele></trkpt>
   <trkpt lat="40.367609" lon="-0.665314"><ele>1686.5</ele></trkpt>
   <trkpt lat="40.367507" lon="-0.66528"><ele>1688.75</ele></trkpt>
   <trkpt lat="40.36747" lon="-0.665236"><ele>1689</ele></trkpt>
   <trkpt lat="40.367449" lon="-0.665141"><ele>1689.75</ele></trkpt>
   <trkpt lat="40.36745" lon="-0.665061"><ele>1690.75</ele></trkpt>
   <trkpt lat="40.367467" lon="-0.664997"><ele>1691.75</ele></trkpt>
   <trkpt lat="40.367508" lon="-0.664923"><ele>1693.25</ele></trkpt>
   <trkpt lat="40.367559" lon="-0.664874"><ele>1693.75</ele></trkpt>
   <trkpt lat="40.36773" lon="-0.664747"><ele>1694.75</ele></trkpt>
   <trkpt lat="40.367846" lon="-0.664647"><ele>1695.5</ele></trkpt>
   <trkpt lat="40.367955" lon="-0.664539"><ele>1695.75</ele></trkpt>
   <trkpt lat="40.368072" lon="-0.664375"><ele>1697</ele></trkpt>
   <trkpt lat="40.368187" lon="-0.664252"><ele>1697.5</ele></trkpt>
   <trkpt lat="40.36827" lon="-0.664179"><ele>1697.5</ele></trkpt>
   <trkpt lat="40.36834" lon="-0.664136"><ele>1697.5</ele></trkpt>
   <trkpt lat="40.368437" lon="-0.664105"><ele>1698.75</ele></trkpt>
   <trkpt lat="40.368915" lon="-0.664068"><ele>1701.5</ele></trkpt>
   <trkpt lat="40.369016" lon="-0.664052"><ele>1702</ele></trkpt>
   <trkpt lat="40.369095" lon="-0.664024"><ele>1702.75</ele></trkpt>
   <trkpt lat="40.369155" lon="-0.663991"><ele>1703.25</ele></trkpt>
   <trkpt lat="40.369249" lon="-0.663896"><ele>1704.5</ele></trkpt>
   <trkpt lat="40.369282" lon="-0.663821"><ele>1705</ele></trkpt>
   <trkpt lat="40.369292" lon="-0.663736"><ele>1705.75</ele></trkpt>
   <trkpt lat="40.36929" lon="-0.663664"><ele>1706.25</ele></trkpt>
   <trkpt lat="40.369258" lon="-0.663486"><ele>1707.25</ele></trkpt>
   <trkpt lat="40.36909" lon="-0.662882"><ele>1711</ele></trkpt>
   <trkpt lat="40.368522" lon="-0.660992"><ele>1719.75</ele></trkpt>
   <trkpt lat="40.368431" lon="-0.660736"><ele>1721.5</ele></trkpt>
   <trkpt lat="40.368389" lon="-0.660648"><ele>1723.75</ele></trkpt>
   <trkpt lat="40.368327" lon="-0.660517"><ele>1723.75</ele></trkpt>
   <trkpt lat="40.368096" lon="-0.659843"><ele>1728</ele></trkpt>
   <trkpt lat="40.367971" lon="-0.65934"><ele>1730</ele></trkpt>
   <trkpt lat="40.3678" lon="-0.65879"><ele>1730.75</ele></trkpt>
   <trkpt lat="40.367673" lon="-0.658352"><ele>1731</ele></trkpt>
   <trkpt lat="40.367557" lon="-0.657774"><ele>1732</ele></trkpt>
   <trkpt lat="40.367455" lon="-0.657349"><ele>1734.75</ele></trkpt>
   <trkpt lat="40.367353" lon="-0.656984"><ele>1736.25</ele></trkpt>
   <trkpt lat="40.367243" lon="-0.656677"><ele>1738.25</ele></trkpt>
   <trkpt lat="40.367145" lon="-0.656455"><ele>1740.25</ele></trkpt>
   <trkpt lat="40.367048" lon="-0.656258"><ele>1741.25</ele></trkpt>
   <trkpt lat="40.3669" lon="-0.65601"><ele>1743</ele></trkpt>
   <trkpt lat="40.366471" lon="-0.655325"><ele>1744.5</ele></trkpt>
   <trkpt lat="40.366253" lon="-0.654944"><ele>1745.75</ele></trkpt>
   <trkpt lat="40.366106" lon="-0.654598"><ele>1747</ele></trkpt>
   <trkpt lat="40.365691" lon="-0.653726"><ele>1748.5</ele></trkpt>
   <trkpt lat="40.365573" lon="-0.653508"><ele>1749.75</ele></trkpt>
   <trkpt lat="40.365494" lon="-0.653311"><ele>1750</ele></trkpt>
   <trkpt lat="40.365386" lon="-0.65299"><ele>1751.5</ele></trkpt>
   <trkpt lat="40.365013" lon="-0.651749"><ele>1757.5</ele></trkpt>
   <trkpt lat="40.364936" lon="-0.651419"><ele>1758.75</ele></trkpt>
   <trkpt lat="40.364499" lon="-0.649247"><ele>1771</ele></trkpt>
   <trkpt lat="40.364432" lon="-0.648894"><ele>1772.75</ele></trkpt>
   <trkpt lat="40.364391" lon="-0.648659"><ele>1773.25</ele></trkpt>
   <trkpt lat="40.364359" lon="-0.648382"><ele>1774</ele></trkpt>
   <trkpt lat="40.364348" lon="-0.648021"><ele>1775.25</ele></trkpt>
   <trkpt lat="40.364365" lon="-0.647537"><ele>1778.25</ele></trkpt>
   <trkpt lat="40.364455" lon="-0.646676"><ele>1784.75</ele></trkpt>
   <trkpt lat="40.364521" lon="-0.646251"><ele>1788.25</ele></trkpt>
   <trkpt lat="40.364528" lon="-0.646138"><ele>1789.5</ele></trkpt>
   <trkpt lat="40.364518" lon="-0.646"><ele>1791.25</ele></trkpt>
   <trkpt lat="40.364495" lon="-0.64584"><ele>1793.5</ele></trkpt>
   <trkpt lat="40.364344" lon="-0.645112"><ele>1800.5</ele></trkpt>
   <trkpt lat="40.364221" lon="-0.644397"><ele>1807.5</ele></trkpt>
   <trkpt lat="40.364184" lon="-0.643985"><ele>1811</ele></trkpt>
   <trkpt lat="40.36414" lon="-0.643619"><ele>1813.5</ele></trkpt>
   <trkpt lat="40.364104" lon="-0.643438"><ele>1815</ele></trkpt>
   <trkpt lat="40.364076" lon="-0.643321"><ele>1816.25</ele></trkpt>
   <trkpt lat="40.364033" lon="-0.643188"><ele>1817</ele></trkpt>
   <trkpt lat="40.363729" lon="-0.642519"><ele>1820.25</ele></trkpt>
   <trkpt lat="40.363681" lon="-0.642395"><ele>1821</ele></trkpt>
   <trkpt lat="40.363656" lon="-0.642263"><ele>1822</ele></trkpt>
   <trkpt lat="40.363661" lon="-0.64214"><ele>1822.25</ele></trkpt>
   <trkpt lat="40.363713" lon="-0.642023"><ele>1822.75</ele></trkpt>
   <trkpt lat="40.363759" lon="-0.641956"><ele>1823.5</ele></trkpt>
   <trkpt lat="40.363811" lon="-0.641921"><ele>1824</ele></trkpt>
   <trkpt lat="40.363926" lon="-0.641881"><ele>1825.25</ele></trkpt>
   <trkpt lat="40.364241" lon="-0.641805"><ele>1828.5</ele></trkpt>
   <trkpt lat="40.364851" lon="-0.641685"><ele>1835.25</ele></trkpt>
   <trkpt lat="40.365497" lon="-0.641501"><ele>1841</ele></trkpt>
   <trkpt lat="40.365553" lon="-0.641486"><ele>1841.5</ele></trkpt>
   <trkpt lat="40.365904" lon="-0.641272"><ele>1845.5</ele></trkpt>
   <trkpt lat="40.36626" lon="-0.641009"><ele>1849.75</ele></trkpt>
   <trkpt lat="40.366373" lon="-0.640872"><ele>1850.75</ele></trkpt>
   <trkpt lat="40.366464" lon="-0.640734"><ele>1851.25</ele></trkpt>
   <trkpt lat="40.366557" lon="-0.640558"><ele>1851.75</ele></trkpt>
   <trkpt lat="40.36664" lon="-0.640341"><ele>1852.5</ele></trkpt>
   <trkpt lat="40.367396" lon="-0.637751"><ele>1871.5</ele></trkpt>
   <trkpt lat="40.367467" lon="-0.637255"><ele>1875.25</ele></trkpt>
   <trkpt lat="40.367485" lon="-0.63697"><ele>1877.5</ele></trkpt>
   <trkpt lat="40.367472" lon="-0.636595"><ele>1880</ele></trkpt>
   <trkpt lat="40.36748" lon="-0.636184"><ele>1882</ele></trkpt>
   <trkpt lat="40.367537" lon="-0.636033"><ele>1882</ele></trkpt>
   <trkpt lat="40.367683" lon="-0.635877"><ele>1881.75</ele></trkpt>
   <trkpt lat="40.367937" lon="-0.63572"><ele>1883.75</ele></trkpt>
   <trkpt lat="40.368141" lon="-0.63562"><ele>1885</ele></trkpt>
   <trkpt lat="40.36833" lon="-0.635555"><ele>1886.75</ele></trkpt>
   <trkpt lat="40.368459" lon="-0.635523"><ele>1887.5</ele></trkpt>
   <trkpt lat="40.368621" lon="-0.635492"><ele>1888.75</ele></trkpt>
   <trkpt lat="40.368947" lon="-0.635482"><ele>1892.25</ele></trkpt>
   <trkpt lat="40.369245" lon="-0.635492"><ele>1895.75</ele></trkpt>
   <trkpt lat="40.369467" lon="-0.635511"><ele>1898.25</ele></trkpt>
   <trkpt lat="40.369905" lon="-0.635488"><ele>1903.75</ele></trkpt>
   <trkpt lat="40.37014" lon="-0.635423"><ele>1907.25</ele></trkpt>
   <trkpt lat="40.3703" lon="-0.635349"><ele>1909.25</ele></trkpt>
   <trkpt lat="40.37071" lon="-0.635135"><ele>1914.5</ele></trkpt>
   <trkpt lat="40.370873" lon="-0.634956"><ele>1915.5</ele></trkpt>
   <trkpt lat="40.370997" lon="-0.634733"><ele>1917.25</ele></trkpt>
   <trkpt lat="40.371101" lon="-0.634127"><ele>1922</ele></trkpt>
   <trkpt lat="40.371101" lon="-0.633682"><ele>1925.25</ele></trkpt>
   <trkpt lat="40.37116" lon="-0.633349"><ele>1928.5</ele></trkpt>
   <trkpt lat="40.371824" lon="-0.631716"><ele>1944.25</ele></trkpt>
   <trkpt lat="40.372013" lon="-0.631024"><ele>1950.75</ele></trkpt>
   <trkpt lat="40.372091" lon="-0.630297"><ele>1954.5</ele></trkpt>
   <trkpt lat="40.372221" lon="-0.629904"><ele>1957.25</ele></trkpt>
   <trkpt lat="40.372488" lon="-0.6294"><ele>1960</ele></trkpt>
   <trkpt lat="40.372622" lon="-0.629036"><ele>1961</ele></trkpt>
   <trkpt lat="40.372664" lon="-0.628707"><ele>1961.5</ele></trkpt>
   <trkpt lat="40.372637" lon="-0.628049"><ele>1961.25</ele></trkpt>
   <trkpt lat="40.372663" lon="-0.627883"><ele>1961</ele></trkpt>
   <trkpt lat="40.372698" lon="-0.627806"><ele>1961</ele></trkpt>
   <trkpt lat="40.372712" lon="-0.627777"><ele>1960.75</ele></trkpt>
   <trkpt lat="40.372785" lon="-0.62771"><ele>1961</ele></trkpt>
   <trkpt lat="40.372865" lon="-0.627653"><ele>1961</ele></trkpt>
   <trkpt lat="40.373068" lon="-0.627562"><ele>1960.75</ele></trkpt>
   <trkpt lat="40.37323" lon="-0.627547"><ele>1960.25</ele></trkpt>
   <trkpt lat="40.373393" lon="-0.627562"><ele>1959.75</ele></trkpt>
   <trkpt lat="40.373552" lon="-0.627618"><ele>1959</ele></trkpt>
   <trkpt lat="40.373739" lon="-0.627707"><ele>1958.5</ele></trkpt>
   <trkpt lat="40.374181" lon="-0.628068"><ele>1957</ele></trkpt>
   <trkpt lat="40.374621" lon="-0.628494"><ele>1957</ele></trkpt>
   <trkpt lat="40.374969" lon="-0.628858"><ele>1956.75</ele></trkpt>
   <trkpt lat="40.375095" lon="-0.629012"><ele>1956.5</ele></trkpt>
   <trkpt lat="40.375132" lon="-0.628962"><ele>1957</ele></trkpt>
   <trkpt lat="40.37518" lon="-0.628929"><ele>1957.25</ele></trkpt>
   <trkpt lat="40.375232" lon="-0.628917"><ele>1957.5</ele></trkpt>
   <trkpt lat="40.375285" lon="-0.628927"><ele>1957.75</ele></trkpt>
   <trkpt lat="40.375333" lon="-0.628958"><ele>1958</ele></trkpt>
   <trkpt lat="40.375372" lon="-0.629006"><ele>1958.25</ele></trkpt>
   <trkpt lat="40.375397" lon="-0.629068"><ele>1958</ele></trkpt>
   <trkpt lat="40.375407" lon="-0.629137"><ele>1958</ele></trkpt>
   <trkpt lat="40.3754" lon="-0.629207"><ele>1957.5</ele></trkpt>
   <trkpt lat="40.375377" lon="-0.62927"><ele>1957</ele></trkpt>
   <trkpt lat="40.375579" lon="-0.62946"><ele>1957</ele></trkpt>
   <trkpt lat="40.375633" lon="-0.629512"><ele>1957.25</ele></trkpt>
   <trkpt lat="40.375695" lon="-0.629572"><ele>1957.5</ele></trkpt>
   <trkpt lat="40.376311" lon="-0.63016"><ele>1958.25</ele></trkpt>
   <trkpt lat="40.376694" lon="-0.630504"><ele>1957.25</ele></trkpt>
   <trkpt lat="40.376878" lon="-0.630681"><ele>1957.5</ele></trkpt>
   <trkpt lat="40.377146" lon="-0.630928"><ele>1958.75</ele></trkpt>
   <trkpt lat="40.377786" lon="-0.63152"><ele>1960</ele></trkpt>
   <trkpt lat="40.378564" lon="-0.632225"><ele>1963.25</ele></trkpt>
   <trkpt lat="40.379483" lon="-0.633028"><ele>1967.25</ele></trkpt>
   <trkpt lat="40.379626" lon="-0.633145"><ele>1967.75</ele></trkpt>
   <trkpt lat="40.379675" lon="-0.633185"><ele>1968</ele></trkpt>
   <trkpt lat="40.379843" lon="-0.633334"><ele>1968.25</ele></trkpt>
   <trkpt lat="40.379912" lon="-0.633403"><ele>1968.5</ele></trkpt>
   <trkpt lat="40.379945" lon="-0.633446"><ele>1968.75</ele></trkpt>
   <trkpt lat="40.380188" lon="-0.633851"><ele>1970</ele></trkpt>
  </trkseg>
 </trk>
</gpx>