<?xml version="1.0" encoding="UTF-8"?>
<!-- track-length = 17759 filtered ascend = 1271 plain-ascend = 1197 cost=23376 energy=0.4kwh time=3h 33m 33s -->
<gpx 
 xmlns="http://www.topografix.com/GPX/1/1" 
 xmlns:xsi="http://www.w3.org/2001/XMLSchema-instance" 
 xsi:schemaLocation="http://www.topografix.com/GPX/1/1 http://www.topografix.com/GPX/1/1/gpx.xsd" 
 version="1.1" 
 creator="BRouter-Web 0.18.1">
 <trk>
  <name>tourmalet (17.8km)</name>
  <trkseg>
   <trkpt lat="42.984907" lon="0.227355"><ele>849.25</ele></trkpt>
   <trkpt lat="42.984798" lon="0.227436"><ele>849.25</ele></trkpt>
   <trkpt lat="42.98477" lon="0.227456"><ele>849.25</ele></trkpt>
   <trkpt lat="42.984723" lon="0.227474"><ele>849</ele></trkpt>
   <trkpt lat="42.984686" lon="0.227462"><ele>849.25</ele></trkpt>
   <trkpt lat="42.984666" lon="0.227446"><ele>849.25</ele></trkpt>
   <trkpt lat="42.984651" lon="0.227421"><ele>849.5</ele></trkpt>
   <trkpt lat="42.984573" lon="0.22721"><ele>851</ele></trkpt>
   <trkpt lat="42.984558" lon="0.227184"><ele>851.25</ele></trkpt>
   <trkpt lat="42.984529" lon="0.227146"><ele>851.5</ele></trkpt>
   <trkpt lat="42.984457" lon="0.227119"><ele>852</ele></trkpt>
   <trkpt lat="42.984293" lon="0.227073"><ele>853</ele></trkpt>
   <trkpt lat="42.984089" lon="0.227015"><ele>854.5</ele></trkpt>
   <trkpt lat="42.984039" lon="0.226999"><ele>854.75</ele></trkpt>
   <trkpt lat="42.98378" lon="0.22692"><ele>857</ele></trkpt>
   <trkpt lat="42.983385" lon="0.226824"><ele>860.75</ele></trkpt>
   <trkpt lat="42.983279" lon="0.226812"><ele>861.75</ele></trkpt>
   <trkpt lat="42.983122" lon="0.226823"><ele>862.75</ele></trkpt>
   <trkpt lat="42.982706" lon="0.226901"><ele>863.5</ele></trkpt>
   <trkpt lat="42.982454" lon="0.226925"><ele>864.5</ele></trkpt>
   <trkpt lat="42.98237" lon="0.226941"><ele>864.75</ele></trkpt>
   <trkpt lat="42.982271" lon="0.226967"><ele>865.25</ele></trkpt>
   <trkpt lat="42.982058" lon="0.227041"><ele>865.75</ele></trkpt>
   <trkpt lat="42.981967" lon="0.227061"><ele>866</ele></trkpt>
   <trkpt lat="42.981886" lon="0.227072"><ele>866</ele></trkpt>
   <trkpt lat="42.981548" lon="0.227076"><ele>866.75</ele></trkpt>
   <trkpt lat="42.981393" lon="0.227089"><ele>867.75</ele></trkpt>
   <trkpt lat="42.980885" lon="0.227186"><ele>870</ele></trkpt>
   <trkpt lat="42.980734" lon="0.227216"><ele>870.75</ele></trkpt>
   <trkpt lat="42.980619" lon="0.227252"><ele>871</ele></trkpt>
   <trkpt lat="42.980365" lon="0.227391"><ele>871.5</ele></trkpt>
   <trkpt lat="42.980234" lon="0.227461"><ele>871.75</ele></trkpt>
   <trkpt lat="42.980026" lon="0.227535"><ele>872.25</ele></trkpt>
   <trkpt lat="42.979864" lon="0.227616"><ele>872.75</ele></trkpt>
   <trkpt lat="42.979678" lon="0.227741"><ele>873</ele></trkpt>
   <trkpt lat="42.979554" lon="0.227832"><ele>873</ele></trkpt>
   <trkpt lat="42.979465" lon="0.227875"><ele>873.5</ele></trkpt>
   <trkpt lat="42.979325" lon="0.22791"><ele>874.25</ele></trkpt>
   <trkpt lat="42.979187" lon="0.227927"><ele>875</ele></trkpt>
   <trkpt lat="42.979083" lon="0.227938"><ele>875.5</ele></trkpt>
   <trkpt lat="42.978995" lon="0.227959"><ele>875.75</ele></trkpt>
   <trkpt lat="42.978822" lon="0.228009"><ele>876</ele></trkpt>
   <trkpt lat="42.978646" lon="0.228088"><ele>876.5</ele></trkpt>
   <trkpt lat="42.978569" lon="0.228113"><ele>877</ele></trkpt>
   <trkpt lat="42.978205" lon="0.228134"><ele>879.25</ele></trkpt>
   <trkpt lat="42.978096" lon="0.228157"><ele>879.75</ele></trkpt>
   <trkpt lat="42.978009" lon="0.228182"><ele>880.5</ele></trkpt>
   <trkpt lat="42.97756" lon="0.228359"><ele>883.25</ele></trkpt>
   <trkpt lat="42.977481" lon="0.228378"><ele>884</ele></trkpt>
   <trkpt lat="42.977373" lon="0.228385"><ele>885</ele></trkpt>
   <trkpt lat="42.97715" lon="0.228381"><ele>886.5</ele></trkpt>
   <trkpt lat="42.976894" lon="0.228379"><ele>887</ele></trkpt>
   <trkpt lat="42.976699" lon="0.22835"><ele>888.5</ele></trkpt>
   <trkpt lat="42.976598" lon="0.228312"><ele>890</ele></trkpt>
   <trkpt lat="42.976401" lon="0.228261"><ele>892.5</ele></trkpt>
   <trkpt lat="42.976244" lon="0.228231"><ele>894</ele></trkpt>
   <trkpt lat="42.976128" lon="0.228221"><ele>895</ele></trkpt>
   <trkpt lat="42.975961" lon="0.228221"><ele>896.5</ele></trkpt>
   <trkpt lat="42.975847" lon="0.228233"><ele>897.25</ele></trkpt>
   <trkpt lat="42.975625" lon="0.228292"><ele>897.5</ele></trkpt>
   <trkpt lat="42.975427" lon="0.228373"><ele>897.5</ele></trkpt>
   <trkpt lat="42.975317" lon="0.228429"><ele>897.5</ele></trkpt>
   <trkpt lat="42.975215" lon="0.228505"><ele>898</ele></trkpt>
   <trkpt lat="42.974848" lon="0.228806"><ele>899</ele></trkpt>
   <trkpt lat="42.974294" lon="0.229228"><ele>901.75</ele></trkpt>
   <trkpt lat="42.974095" lon="0.22939"><ele>903.25</ele></trkpt>
   <trkpt lat="42.97406" lon="0.229413"><ele>903.5</ele></trkpt>
   <trkpt lat="42.973616" lon="0.229766"><ele>906.5</ele></trkpt>
   <trkpt lat="42.973441" lon="0.229899"><ele>907.25</ele></trkpt>
   <trkpt lat="42.973329" lon="0.229971"><ele>907.25</ele></trkpt>
   <trkpt lat="42.973218" lon="0.230024"><ele>907.5</ele></trkpt>
   <trkpt lat="42.97311" lon="0.230058"><ele>908</ele></trkpt>
   <trkpt lat="42.972802" lon="0.230092"><ele>910</ele></trkpt>
   <trkpt lat="42.972733" lon="0.230094"><ele>910.25</ele></trkpt>
   <trkpt lat="42.97243" lon="0.230117"><ele>911.5</ele></trkpt>
   <trkpt lat="42.972267" lon="0.230144"><ele>912.5</ele></trkpt>
   <trkpt lat="42.972152" lon="0.230182"><ele>913.25</ele></trkpt>
   <trkpt lat="42.972028" lon="0.230247"><ele>913.5</ele></trkpt>
   <trkpt lat="42.97188" lon="0.230348"><ele>914</ele></trkpt>
   <trkpt lat="42.971298" lon="0.230785"><ele>916</ele></trkpt>
   <trkpt lat="42.970885" lon="0.231076"><ele>919.5</ele></trkpt>
   <trkpt lat="42.970833" lon="0.231111"><ele>920</ele></trkpt>
   <trkpt lat="42.970739" lon="0.231143"><ele>920</ele></trkpt>
   <trkpt lat="42.970628" lon="0.231156"><ele>920.5</ele></trkpt>
   <trkpt lat="42.970488" lon="0.231156"><ele>921</ele></trkpt>
   <trkpt lat="42.970358" lon="0.231142"><ele>921.5</ele></trkpt>
   <trkpt lat="42.970091" lon="0.231092"><ele>922.75</ele></trkpt>
   <trkpt lat="42.969696" lon="0.230983"><ele>925.5</ele></trkpt>
   <trkpt lat="42.969456" lon="0.230896"><ele>926.5</ele></trkpt>
   <trkpt lat="42.969362" lon="0.230848"><ele>927</ele></trkpt>
   <trkpt lat="42.969237" lon="0.230781"><ele>928.25</ele></trkpt>
   <trkpt lat="42.968841" lon="0.23052"><ele>932.25</ele></trkpt>
   <trkpt lat="42.968702" lon="0.230431"><ele>933.25</ele></trkpt>
   <trkpt lat="42.968538" lon="0.230366"><ele>934</ele></trkpt>
   <trkpt lat="42.968253" lon="0.230304"><ele>935</ele></trkpt>
   <trkpt lat="42.967575" lon="0.230191"><ele>935.75</ele></trkpt>
   <trkpt lat="42.967478" lon="0.230186"><ele>935.5</ele></trkpt>
   <trkpt lat="42.967365" lon="0.230194"><ele>935.25</ele></trkpt>
   <trkpt lat="42.967217" lon="0.230222"><ele>934.5</ele></trkpt>
   <trkpt lat="42.966683" lon="0.230396"><ele>933.75</ele></trkpt>
   <trkpt lat="42.966543" lon="0.23043"><ele>933.25</ele></trkpt>
   <trkpt lat="42.966346" lon="0.230442"><ele>933</ele></trkpt>
   <trkpt lat="42.966017" lon="0.230434"><ele>933.25</ele></trkpt>
   <trkpt lat="42.96506" lon="0.230343"><ele>932</ele></trkpt>
   <trkpt lat="42.964932" lon="0.230327"><ele>932</ele></trkpt>
   <trkpt lat="42.9648" lon="0.230309"><ele>931.75</ele></trkpt>
   <trkpt lat="42.964651" lon="0.230301"><ele>931.5</ele></trkpt>
   <trkpt lat="42.963139" lon="0.230342"><ele>934</ele></trkpt>
   <trkpt lat="42.962791" lon="0.230403"><ele>935.5</ele></trkpt>
   <trkpt lat="42.962619" lon="0.230419"><ele>936.25</ele></trkpt>
   <trkpt lat="42.962505" lon="0.230421"><ele>936.75</ele></trkpt>
   <trkpt lat="42.962368" lon="0.230398"><ele>937.25</ele></trkpt>
   <trkpt lat="42.962106" lon="0.23032"><ele>938.75</ele></trkpt>
   <trkpt lat="42.961967" lon="0.230303"><ele>939.5</ele></trkpt>
   <trkpt lat="42.961484" lon="0.23028"><ele>942.5</ele></trkpt>
   <trkpt lat="42.960996" lon="0.230211"><ele>945</ele></trkpt>
   <trkpt lat="42.960367" lon="0.230116"><ele>948.25</ele></trkpt>
   <trkpt lat="42.960302" lon="0.230101"><ele>948.75</ele></trkpt>
   <trkpt lat="42.96025" lon="0.230079"><ele>949</ele></trkpt>
   <trkpt lat="42.959938" lon="0.229872"><ele>951.25</ele></trkpt>
   <trkpt lat="42.959379" lon="0.229403"><ele>954</ele></trkpt>
   <trkpt lat="42.959183" lon="0.229223"><ele>954.25</ele></trkpt>
   <trkpt lat="42.958891" lon="0.228966"><ele>955.5</ele></trkpt>
   <trkpt lat="42.958678" lon="0.228832"><ele>956.25</ele></trkpt>
   <trkpt lat="42.958532" lon="0.228755"><ele>957.25</ele></trkpt>
   <trkpt lat="42.958434" lon="0.228722"><ele>957.25</ele></trkpt>
   <trkpt lat="42.95834" lon="0.228705"><ele>957</ele></trkpt>
   <trkpt lat="42.957874" lon="0.228674"><ele>956.75</ele></trkpt>
   <trkpt lat="42.957777" lon="0.228648"><ele>956.5</ele></trkpt>
   <trkpt lat="42.957675" lon="0.228605"><ele>957</ele></trkpt>
   <trkpt lat="42.957518" lon="0.228508"><ele>958</ele></trkpt>
   <trkpt lat="42.957405" lon="0.228445"><ele>958.75</ele></trkpt>
   <trkpt lat="42.957223" lon="0.228369"><ele>959.5</ele></trkpt>
   <trkpt lat="42.956945" lon="0.228256"><ele>962</ele></trkpt>
   <trkpt lat="42.956102" lon="0.227913"><ele>968.5</ele></trkpt>
   <trkpt lat="42.956006" lon="0.227881"><ele>969.5</ele></trkpt>
   <trkpt lat="42.95589" lon="0.22786"><ele>970.5</ele></trkpt>
   <trkpt lat="42.955759" lon="0.22787"><ele>971.25</ele></trkpt>
   <trkpt lat="42.955561" lon="0.227904"><ele>972</ele></trkpt>
   <trkpt lat="42.955484" lon="0.227923"><ele>972</ele></trkpt>
   <trkpt lat="42.955256" lon="0.227953"><ele>972.25</ele></trkpt>
   <trkpt lat="42.955122" lon="0.227957"><ele>972</ele></trkpt>
   <trkpt lat="42.954894" lon="0.227948"><ele>972</ele></trkpt>
   <trkpt lat="42.954428" lon="0.227948"><ele>973.5</ele></trkpt>
   <trkpt lat="42.954096" lon="0.22793"><ele>974.75</ele></trkpt>
   <trkpt lat="42.953895" lon="0.227911"><ele>975.75</ele></trkpt>
   <trkpt lat="42.953707" lon="0.22786"><ele>976.5</ele></trkpt>
   <trkpt lat="42.952355" lon="0.227207"><ele>982.5</ele></trkpt>
   <trkpt lat="42.952282" lon="0.227156"><ele>982.25</ele></trkpt>
   <trkpt lat="42.951928" lon="0.226849"><ele>984</ele></trkpt>
   <trkpt lat="42.951675" lon="0.226651"><ele>985</ele></trkpt>
   <trkpt lat="42.951497" lon="0.226503"><ele>985.25</ele></trkpt>
   <trkpt lat="42.951323" lon="0.226372"><ele>986.75</ele></trkpt>
   <trkpt lat="42.951086" lon="0.226194"><ele>987.25</ele></trkpt>
   <trkpt lat="42.951054" lon="0.226178"><ele>987.5</ele></trkpt>
   <trkpt lat="42.950608" lon="0.225945"><ele>989.25</ele></trkpt>
   <trkpt lat="42.949999" lon="0.225617"><ele>994.75</ele></trkpt>
   <trkpt lat="42.949897" lon="0.225582"><ele>996</ele></trkpt>
   <trkpt lat="42.949599" lon="0.225537"><ele>997.75</ele></trkpt>
   <trkpt lat="42.949519" lon="0.225498"><ele>998</ele></trkpt>
   <trkpt lat="42.949442" lon="0.225446"><ele>998.75</ele></trkpt>
   <trkpt lat="42.949356" lon="0.225375"><ele>999.5</ele></trkpt>
   <trkpt lat="42.949262" lon="0.225269"><ele>1000.75</ele></trkpt>
   <trkpt lat="42.949149" lon="0.225124"><ele>1001.75</ele></trkpt>
   <trkpt lat="42.94909" lon="0.225014"><ele>1002.5</ele></trkpt>
   <trkpt lat="42.948979" lon="0.224748"><ele>1004.25</ele></trkpt>
   <trkpt lat="42.948929" lon="0.224654"><ele>1004.75</ele></trkpt>
   <trkpt lat="42.94889" lon="0.224605"><ele>1005.25</ele></trkpt>
   <trkpt lat="42.948842" lon="0.224559"><ele>1005.5</ele></trkpt>
   <trkpt lat="42.948764" lon="0.224515"><ele>1005.75</ele></trkpt>
   <trkpt lat="42.948675" lon="0.224479"><ele>1006.25</ele></trkpt>
   <trkpt lat="42.948428" lon="0.224422"><ele>1007.25</ele></trkpt>
   <trkpt lat="42.948326" lon="0.224386"><ele>1007.75</ele></trkpt>
   <trkpt lat="42.947837" lon="0.224077"><ele>1011</ele></trkpt>
   <trkpt lat="42.947603" lon="0.223919"><ele>1012.5</ele></trkpt>
   <trkpt lat="42.94746" lon="0.223783"><ele>1014.25</ele></trkpt>
   <trkpt lat="42.94719" lon="0.223492"><ele>1016.5</ele></trkpt>
   <trkpt lat="42.94714" lon="0.223423"><ele>1016.75</ele></trkpt>
   <trkpt lat="42.947028" lon="0.223231"><ele>1017.25</ele></trkpt>
   <trkpt lat="42.946925" lon="0.223025"><ele>1018</ele></trkpt>
   <trkpt lat="42.946856" lon="0.222872"><ele>1019.25</ele></trkpt>
   <trkpt lat="42.946799" lon="0.222705"><ele>1020.25</ele></trkpt>
   <trkpt lat="42.946706" lon="0.222311"><ele>1022.5</ele></trkpt>
   <trkpt lat="42.946623" lon="0.221902"><ele>1026</ele></trkpt>
   <trkpt lat="42.946579" lon="0.221754"><ele>1027</ele></trkpt>
   <trkpt lat="42.946524" lon="0.22163"><ele>1028.25</ele></trkpt>
   <trkpt lat="42.946469" lon="0.221534"><ele>1029.75</ele></trkpt>
   <trkpt lat="42.946407" lon="0.221457"><ele>1030.75</ele></trkpt>
   <trkpt lat="42.946346" lon="0.221406"><ele>1031.5</ele></trkpt>
   <trkpt lat="42.946237" lon="0.221353"><ele>1032</ele></trkpt>
   <trkpt lat="42.946071" lon="0.221321"><ele>1032.25</ele></trkpt>
   <trkpt lat="42.945977" lon="0.221292"><ele>1032.75</ele></trkpt>
   <trkpt lat="42.945892" lon="0.221243"><ele>1033.5</ele></trkpt>
   <trkpt lat="42.945805" lon="0.221176"><ele>1034.5</ele></trkpt>
   <trkpt lat="42.945727" lon="0.221096"><ele>1035.5</ele></trkpt>
   <trkpt lat="42.945669" lon="0.221025"><ele>1036.5</ele></trkpt>
   <trkpt lat="42.945614" lon="0.220928"><ele>1038.25</ele></trkpt>
   <trkpt lat="42.945416" lon="0.220537"><ele>1044.25</ele></trkpt>
   <trkpt lat="42.945308" lon="0.220356"><ele>1047.25</ele></trkpt>
   <trkpt lat="42.945212" lon="0.220234"><ele>1048.5</ele></trkpt>
   <trkpt lat="42.945077" lon="0.220079"><ele>1049.75</ele></trkpt>
   <trkpt lat="42.944895" lon="0.219924"><ele>1050.5</ele></trkpt>
   <trkpt lat="42.944578" lon="0.219704"><ele>1051</ele></trkpt>
   <trkpt lat="42.944471" lon="0.219607"><ele>1052</ele></trkpt>
   <trkpt lat="42.944272" lon="0.219393"><ele>1055.25</ele></trkpt>
   <trkpt lat="42.944012" lon="0.219052"><ele>1061.5</ele></trkpt>
   <trkpt lat="42.943731" lon="0.218717"><ele>1065.75</ele></trkpt>
   <trkpt lat="42.943536" lon="0.218453"><ele>1069.5</ele></trkpt>
   <trkpt lat="42.943246" lon="0.218031"><ele>1074.75</ele></trkpt>
   <trkpt lat="42.94311" lon="0.217866"><ele>1075.5</ele></trkpt>
   <trkpt lat="42.942822" lon="0.217557"><ele>1073.25</ele></trkpt>
   <trkpt lat="42.942669" lon="0.217358"><ele>1073.5</ele></trkpt>
   <trkpt lat="42.942581" lon="0.217226"><ele>1074.5</ele></trkpt>
   <trkpt lat="42.942381" lon="0.216831"><ele>1079.5</ele></trkpt>
   <trkpt lat="42.942235" lon="0.21657"><ele>1082.5</ele></trkpt>
   <trkpt lat="42.942186" lon="0.216509"><ele>1082.5</ele></trkpt>
   <trkpt lat="42.942141" lon="0.216468"><ele>1082</ele></trkpt>
   <trkpt lat="42.941929" lon="0.216313"><ele>1078</ele></trkpt>
   <trkpt lat="42.941844" lon="0.216202"><ele>1078.75</ele></trkpt>
   <trkpt lat="42.94181" lon="0.216113"><ele>1080.5</ele></trkpt>
   <trkpt lat="42.941705" lon="0.215786"><ele>1087.75</ele></trkpt>
   <trkpt lat="42.941519" lon="0.215202"><ele>1101.75</ele></trkpt>
   <trkpt lat="42.941456" lon="0.215061"><ele>1104</ele></trkpt>
   <trkpt lat="42.941397" lon="0.214951"><ele>1105</ele></trkpt>
   <trkpt lat="42.941325" lon="0.214847"><ele>1105.25</ele></trkpt>
   <trkpt lat="42.941248" lon="0.21475"><ele>1104.75</ele></trkpt>
   <trkpt lat="42.941072" lon="0.214554"><ele>1102.75</ele></trkpt>
   <trkpt lat="42.940702" lon="0.214106"><ele>1106</ele></trkpt>
   <trkpt lat="42.940639" lon="0.21401"><ele>1108</ele></trkpt>
   <trkpt lat="42.940526" lon="0.213813"><ele>1113.25</ele></trkpt>
   <trkpt lat="42.940274" lon="0.213522"><ele>1119.25</ele></trkpt>
   <trkpt lat="42.940137" lon="0.213402"><ele>1121.25</ele></trkpt>
   <trkpt lat="42.939833" lon="0.213226"><ele>1121.25</ele></trkpt>
   <trkpt lat="42.939686" lon="0.21311"><ele>1123</ele></trkpt>
   <trkpt lat="42.939349" lon="0.212794"><ele>1123.5</ele></trkpt>
   <trkpt lat="42.939254" lon="0.212674"><ele>1124</ele></trkpt>
   <trkpt lat="42.939158" lon="0.212537"><ele>1124.25</ele></trkpt>
   <trkpt lat="42.939056" lon="0.212371"><ele>1125.5</ele></trkpt>
   <trkpt lat="42.938849" lon="0.211989"><ele>1128.75</ele></trkpt>
   <trkpt lat="42.938087" lon="0.210861"><ele>1140</ele></trkpt>
   <trkpt lat="42.937916" lon="0.210652"><ele>1143.25</ele></trkpt>
   <trkpt lat="42.937783" lon="0.210507"><ele>1145</ele></trkpt>
   <trkpt lat="42.937543" lon="0.210208"><ele>1147.25</ele></trkpt>
   <trkpt lat="42.937465" lon="0.210093"><ele>1147.25</ele></trkpt>
   <trkpt lat="42.937286" lon="0.209786"><ele>1148.25</ele></trkpt>
   <trkpt lat="42.93721" lon="0.209684"><ele>1148</ele></trkpt>
   <trkpt lat="42.937148" lon="0.20962"><ele>1148.75</ele></trkpt>
   <trkpt lat="42.937047" lon="0.209549"><ele>1148</ele></trkpt>
   <trkpt lat="42.936828" lon="0.209423"><ele>1145.5</ele></trkpt>
   <trkpt lat="42.936702" lon="0.209336"><ele>1145.5</ele></trkpt>
   <trkpt lat="42.936625" lon="0.209267"><ele>1145.75</ele></trkpt>
   <trkpt lat="42.936581" lon="0.209206"><ele>1146.75</ele></trkpt>
   <trkpt lat="42.936555" lon="0.20914"><ele>1148</ele></trkpt>
   <trkpt lat="42.936545" lon="0.209064"><ele>1150</ele></trkpt>
   <trkpt lat="42.936546" lon="0.20885"><ele>1156</ele></trkpt>
   <trkpt lat="42.936501" lon="0.208676"><ele>1160.5</ele></trkpt>
   <trkpt lat="42.936451" lon="0.2086"><ele>1161.5</ele></trkpt>
   <trkpt lat="42.936413" lon="0.208585"><ele>1161</ele></trkpt>
   <trkpt lat="42.936368" lon="0.208587"><ele>1160</ele></trkpt>
   <trkpt lat="42.936324" lon="0.2086"><ele>1159.25</ele></trkpt>
   <trkpt lat="42.936101" lon="0.208777"><ele>1153</ele></trkpt>
   <trkpt lat="42.936063" lon="0.208801"><ele>1152.5</ele></trkpt>
   <trkpt lat="42.936032" lon="0.208809"><ele>1152.25</ele></trkpt>
   <trkpt lat="42.935997" lon="0.208807"><ele>1152.25</ele></trkpt>
   <trkpt lat="42.935956" lon="0.208793"><ele>1152.75</ele></trkpt>
   <trkpt lat="42.935912" lon="0.208761"><ele>1154</ele></trkpt>
   <trkpt lat="42.935864" lon="0.208703"><ele>1155.75</ele></trkpt>
   <trkpt lat="42.935747" lon="0.208535"><ele>1161</ele></trkpt>
   <trkpt lat="42.935689" lon="0.208466"><ele>1163</ele></trkpt>
   <trkpt lat="42.935634" lon="0.208422"><ele>1164.25</ele></trkpt>
   <trkpt lat="42.935254" lon="0.208281"><ele>1165</ele></trkpt>
   <trkpt lat="42.935103" lon="0.208181"><ele>1164.5</ele></trkpt>
   <trkpt lat="42.935057" lon="0.208125"><ele>1165</ele></trkpt>
   <trkpt lat="42.93501" lon="0.208053"><ele>1166.25</ele></trkpt>
   <trkpt lat="42.934971" lon="0.207963"><ele>1167.25</ele></trkpt>
   <trkpt lat="42.934856" lon="0.207625"><ele>1173.75</ele></trkpt>
   <trkpt lat="42.934805" lon="0.207525"><ele>1175.5</ele></trkpt>
   <trkpt lat="42.934733" lon="0.207422"><ele>1176.75</ele></trkpt>
   <trkpt lat="42.934541" lon="0.207201"><ele>1178.25</ele></trkpt>
   <trkpt lat="42.934288" lon="0.206938"><ele>1180.75</ele></trkpt>
   <trkpt lat="42.934129" lon="0.206748"><ele>1181.75</ele></trkpt>
   <trkpt lat="42.934083" lon="0.206665"><ele>1182.5</ele></trkpt>
   <trkpt lat="42.934037" lon="0.206559"><ele>1183.25</ele></trkpt>
   <trkpt lat="42.933992" lon="0.206406"><ele>1185</ele></trkpt>
   <trkpt lat="42.933959" lon="0.206318"><ele>1185.75</ele></trkpt>
   <trkpt lat="42.933906" lon="0.206216"><ele>1186.25</ele></trkpt>
   <trkpt lat="42.933794" lon="0.206046"><ele>1187.75</ele></trkpt>
   <trkpt lat="42.933693" lon="0.20591"><ele>1189</ele></trkpt>
   <trkpt lat="42.933634" lon="0.205846"><ele>1189</ele></trkpt>
   <trkpt lat="42.933568" lon="0.205789"><ele>1189.25</ele></trkpt>
   <trkpt lat="42.933438" lon="0.205692"><ele>1189.75</ele></trkpt>
   <trkpt lat="42.933347" lon="0.205622"><ele>1190</ele></trkpt>
   <trkpt lat="42.933223" lon="0.205491"><ele>1191.75</ele></trkpt>
   <trkpt lat="42.932604" lon="0.204793"><ele>1200.75</ele></trkpt>
   <trkpt lat="42.932412" lon="0.204638"><ele>1202.5</ele></trkpt>
   <trkpt lat="42.931315" lon="0.20394"><ele>1214.75</ele></trkpt>
   <trkpt lat="42.931154" lon="0.203822"><ele>1216.25</ele></trkpt>
   <trkpt lat="42.93107" lon="0.203741"><ele>1217.5</ele></trkpt>
   <trkpt lat="42.930863" lon="0.203505"><ele>1219</ele></trkpt>
   <trkpt lat="42.93076" lon="0.203346"><ele>1220.75</ele></trkpt>
   <trkpt lat="42.930409" lon="0.202664"><ele>1228.5</ele></trkpt>
   <trkpt lat="42.930304" lon="0.202499"><ele>1230.25</ele></trkpt>
   <trkpt lat="42.930193" lon="0.202363"><ele>1232</ele></trkpt>
   <trkpt lat="42.930099" lon="0.202266"><ele>1233.75</ele></trkpt>
   <trkpt lat="42.929927" lon="0.202122"><ele>1234.75</ele></trkpt>
   <trkpt lat="42.929409" lon="0.201733"><ele>1238.25</ele></trkpt>
   <trkpt lat="42.929019" lon="0.201484"><ele>1240</ele></trkpt>
   <trkpt lat="42.928919" lon="0.201406"><ele>1240.75</ele></trkpt>
   <trkpt lat="42.928752" lon="0.201239"><ele>1242.5</ele></trkpt>
   <trkpt lat="42.928652" lon="0.201108"><ele>1244.75</ele></trkpt>
   <trkpt lat="42.928489" lon="0.200857"><ele>1248.5</ele></trkpt>
   <trkpt lat="42.928342" lon="0.200611"><ele>1253.25</ele></trkpt>
   <trkpt lat="42.928111" lon="0.200289"><ele>1256.75</ele></trkpt>
   <trkpt lat="42.927726" lon="0.199823"><ele>1259</ele></trkpt>
   <trkpt lat="42.927159" lon="0.199117"><ele>1265.5</ele></trkpt>
   <trkpt lat="42.927105" lon="0.199008"><ele>1266.5</ele></trkpt>
   <trkpt lat="42.927065" lon="0.198867"><ele>1268.25</ele></trkpt>
   <trkpt lat="42.927028" lon="0.19864"><ele>1271.25</ele></trkpt>
   <trkpt lat="42.926996" lon="0.198508"><ele>1272.75</ele></trkpt>
   <trkpt lat="42.926941" lon="0.19843"><ele>1272.75</ele></trkpt>
   <trkpt lat="42.926773" lon="0.198273"><ele>1273.25</ele></trkpt>
   <trkpt lat="42.92661" lon="0.198095"><ele>1276</ele></trkpt>
   <trkpt lat="42.926342" lon="0.197779"><ele>1277.25</ele></trkpt>
   <trkpt lat="42.926272" lon="0.197623"><ele>1279</ele></trkpt>
   <trkpt lat="42.926222" lon="0.19746"><ele>1281.25</ele></trkpt>
   <trkpt lat="42.926178" lon="0.197356"><ele>1283</ele></trkpt>
   <trkpt lat="42.926122" lon="0.197264"><ele>1284</ele></trkpt>
   <trkpt lat="42.926052" lon="0.197179"><ele>1286.5</ele></trkpt>
   <trkpt lat="42.925994" lon="0.197123"><ele>1286.5</ele></trkpt>
   <trkpt lat="42.925941" lon="0.197105"><ele>1286.75</ele></trkpt>
   <trkpt lat="42.925899" lon="0.197106"><ele>1287</ele></trkpt>
   <trkpt lat="42.925848" lon="0.19712"><ele>1287</ele></trkpt>
   <trkpt lat="42.925811" lon="0.197148"><ele>1287.25</ele></trkpt>
   <trkpt lat="42.925769" lon="0.197199"><ele>1287.5</ele></trkpt>
   <trkpt lat="42.925679" lon="0.197325"><ele>1287.5</ele></trkpt>
   <trkpt lat="42.925592" lon="0.197399"><ele>1287.75</ele></trkpt>
   <trkpt lat="42.925431" lon="0.197498"><ele>1289.5</ele></trkpt>
   <trkpt lat="42.925215" lon="0.197608"><ele>1293.25</ele></trkpt>
   <trkpt lat="42.925133" lon="0.197639"><ele>1294.75</ele></trkpt>
   <trkpt lat="42.925032" lon="0.197659"><ele>1297</ele></trkpt>
   <trkpt lat="42.92485" lon="0.197678"><ele>1298.25</ele></trkpt>
   <trkpt lat="42.924777" lon="0.197726"><ele>1299</ele></trkpt>
   <trkpt lat="42.924745" lon="0.197769"><ele>1299.25</ele></trkpt>
   <trkpt lat="42.924699" lon="0.197875"><ele>1300</ele></trkpt>
   <trkpt lat="42.924696" lon="0.19793"><ele>1300.5</ele></trkpt>
   <trkpt lat="42.924704" lon="0.198045"><ele>1301.25</ele></trkpt>
   <trkpt lat="42.924735" lon="0.19823"><ele>1301.25</ele></trkpt>
   <trkpt lat="42.924761" lon="0.198437"><ele>1300.25</ele></trkpt>
   <trkpt lat="42.924769" lon="0.19861"><ele>1300.25</ele></trkpt>
   <trkpt lat="42.92478" lon="0.19919"><ele>1302.5</ele></trkpt>
   <trkpt lat="42.924779" lon="0.199468"><ele>1304.5</ele></trkpt>
   <trkpt lat="42.924771" lon="0.199686"><ele>1307.25</ele></trkpt>
   <trkpt lat="42.924723" lon="0.20057"><ele>1319</ele></trkpt>
   <trkpt lat="42.924698" lon="0.200783"><ele>1322.5</ele></trkpt>
   <trkpt lat="42.924664" lon="0.200944"><ele>1325.25</ele></trkpt>
   <trkpt lat="42.924599" lon="0.201177"><ele>1329.25</ele></trkpt>
   <trkpt lat="42.924545" lon="0.201408"><ele>1331.5</ele></trkpt>
   <trkpt lat="42.924469" lon="0.20188"><ele>1332.75</ele></trkpt>
   <trkpt lat="42.924411" lon="0.202466"><ele>1334</ele></trkpt>
   <trkpt lat="42.924355" lon="0.202823"><ele>1336.25</ele></trkpt>
   <trkpt lat="42.924315" lon="0.202987"><ele>1338.5</ele></trkpt>
   <trkpt lat="42.924269" lon="0.203119"><ele>1340.5</ele></trkpt>
   <trkpt lat="42.924208" lon="0.203263"><ele>1342.5</ele></trkpt>
   <trkpt lat="42.923972" lon="0.20367"><ele>1349</ele></trkpt>
   <trkpt lat="42.92387" lon="0.203858"><ele>1350.5</ele></trkpt>
   <trkpt lat="42.923668" lon="0.20436"><ele>1350.75</ele></trkpt>
   <trkpt lat="42.92361" lon="0.204492"><ele>1351</ele></trkpt>
   <trkpt lat="42.923531" lon="0.204634"><ele>1351.75</ele></trkpt>
   <trkpt lat="42.923437" lon="0.204763"><ele>1353.75</ele></trkpt>
   <trkpt lat="42.923326" lon="0.204889"><ele>1356.75</ele></trkpt>
   <trkpt lat="42.923271" lon="0.204969"><ele>1357.75</ele></trkpt>
   <trkpt lat="42.92297" lon="0.205514"><ele>1359</ele></trkpt>
   <trkpt lat="42.92288" lon="0.205637"><ele>1358.75</ele></trkpt>
   <trkpt lat="42.922801" lon="0.20572"><ele>1358.75</ele></trkpt>
   <trkpt lat="42.922681" lon="0.205802"><ele>1359.75</ele></trkpt>
   <trkpt lat="42.922336" lon="0.205924"><ele>1365.75</ele></trkpt>
   <trkpt lat="42.922239" lon="0.20597"><ele>1366.5</ele></trkpt>
   <trkpt lat="42.922153" lon="0.206033"><ele>1367.5</ele></trkpt>
   <trkpt lat="42.921727" lon="0.206507"><ele>1371.5</ele></trkpt>
   <trkpt lat="42.9216" lon="0.206604"><ele>1373.25</ele></trkpt>
   <trkpt lat="42.921455" lon="0.206691"><ele>1375</ele></trkpt>
   <trkpt lat="42.921093" lon="0.206876"><ele>1379.25</ele></trkpt>
   <trkpt lat="42.92079" lon="0.207042"><ele>1382.75</ele></trkpt>
   <trkpt lat="42.920408" lon="0.207319"><ele>1386.25</ele></trkpt>
   <trkpt lat="42.920029" lon="0.207581"><ele>1389.25</ele></trkpt>
   <trkpt lat="42.919804" lon="0.207775"><ele>1390.5</ele></trkpt>
   <trkpt lat="42.918852" lon="0.208495"><ele>1401.5</ele></trkpt>
   <trkpt lat="42.918777" lon="0.208523"><ele>1401.5</ele></trkpt>
   <trkpt lat="42.918706" lon="0.208536"><ele>1402</ele></trkpt>
   <trkpt lat="42.918645" lon="0.208535"><ele>1403.25</ele></trkpt>
   <trkpt lat="42.918508" lon="0.208499"><ele>1407.25</ele></trkpt>
   <trkpt lat="42.918348" lon="0.208479"><ele>1410.75</ele></trkpt>
   <trkpt lat="42.918282" lon="0.208491"><ele>1412.25</ele></trkpt>
   <trkpt lat="42.918216" lon="0.208521"><ele>1412.75</ele></trkpt>
   <trkpt lat="42.918147" lon="0.208569"><ele>1412.75</ele></trkpt>
   <trkpt lat="42.918003" lon="0.208692"><ele>1412.25</ele></trkpt>
   <trkpt lat="42.917792" lon="0.208947"><ele>1411.25</ele></trkpt>
   <trkpt lat="42.917247" lon="0.20954"><ele>1412</ele></trkpt>
   <trkpt lat="42.917179" lon="0.209588"><ele>1411.75</ele></trkpt>
   <trkpt lat="42.917112" lon="0.209609"><ele>1411.75</ele></trkpt>
   <trkpt lat="42.917051" lon="0.209595"><ele>1413</ele></trkpt>
   <trkpt lat="42.917012" lon="0.209565"><ele>1414.25</ele></trkpt>
   <trkpt lat="42.916977" lon="0.209522"><ele>1415.5</ele></trkpt>
   <trkpt lat="42.916947" lon="0.209439"><ele>1418</ele></trkpt>
   <trkpt lat="42.91695" lon="0.209355"><ele>1420</ele></trkpt>
   <trkpt lat="42.916972" lon="0.20927"><ele>1422.25</ele></trkpt>
   <trkpt lat="42.91702" lon="0.209195"><ele>1424</ele></trkpt>
   <trkpt lat="42.917209" lon="0.209006"><ele>1428.25</ele></trkpt>
   <trkpt lat="42.917499" lon="0.208688"><ele>1430.5</ele></trkpt>
   <trkpt lat="42.917808" lon="0.208396"><ele>1432.25</ele></trkpt>
   <trkpt lat="42.918357" lon="0.207836"><ele>1443.5</ele></trkpt>
   <trkpt lat="42.918684" lon="0.207522"><ele>1447</ele></trkpt>
   <trkpt lat="42.918818" lon="0.207382"><ele>1447.75</ele></trkpt>
   <trkpt lat="42.919072" lon="0.207072"><ele>1449.25</ele></trkpt>
   <trkpt lat="42.919414" lon="0.206635"><ele>1453</ele></trkpt>
   <trkpt lat="42.919513" lon="0.206493"><ele>1454</ele></trkpt>
   <trkpt lat="42.91959" lon="0.206366"><ele>1456</ele></trkpt>
   <trkpt lat="42.91979" lon="0.205981"><ele>1464.25</ele></trkpt>
   <trkpt lat="42.919905" lon="0.205807"><ele>1467</ele></trkpt>
   <trkpt lat="42.919995" lon="0.205695"><ele>1468</ele></trkpt>
   <trkpt lat="42.920073" lon="0.205625"><ele>1467.75</ele></trkpt>
   <trkpt lat="42.920225" lon="0.205514"><ele>1466.5</ele></trkpt>
   <trkpt lat="42.920316" lon="0.205435"><ele>1466.25</ele></trkpt>
   <trkpt lat="42.920391" lon="0.205359"><ele>1466.5</ele></trkpt>
   <trkpt lat="42.920478" lon="0.205248"><ele>1467.25</ele></trkpt>
   <trkpt lat="42.920657" lon="0.205006"><ele>1469.75</ele></trkpt>
   <trkpt lat="42.920839" lon="0.204824"><ele>1469.75</ele></trkpt>
   <trkpt lat="42.921047" lon="0.204564"><ele>1473</ele></trkpt>
   <trkpt lat="42.921113" lon="0.204466"><ele>1474.75</ele></trkpt>
   <trkpt lat="42.921288" lon="0.20416"><ele>1484</ele></trkpt>
   <trkpt lat="42.92157" lon="0.203755"><ele>1485</ele></trkpt>
   <trkpt lat="42.921635" lon="0.203654"><ele>1484.25</ele></trkpt>
   <trkpt lat="42.921685" lon="0.203545"><ele>1484.5</ele></trkpt>
   <trkpt lat="42.921752" lon="0.203342"><ele>1485.75</ele></trkpt>
   <trkpt lat="42.921859" lon="0.202888"><ele>1489.25</ele></trkpt>
   <trkpt lat="42.921939" lon="0.202623"><ele>1492.25</ele></trkpt>
   <trkpt lat="42.922192" lon="0.201877"><ele>1503.5</ele></trkpt>
   <trkpt lat="42.922425" lon="0.20124"><ele>1503.75</ele></trkpt>
   <trkpt lat="42.922443" lon="0.201161"><ele>1503.75</ele></trkpt>
   <trkpt lat="42.922452" lon="0.20107"><ele>1504.25</ele></trkpt>
   <trkpt lat="42.922451" lon="0.200987"><ele>1504.75</ele></trkpt>
   <trkpt lat="42.922446" lon="0.200889"><ele>1506</ele></trkpt>
   <trkpt lat="42.922414" lon="0.200654"><ele>1508.25</ele></trkpt>
   <trkpt lat="42.92234" lon="0.200344"><ele>1512.25</ele></trkpt>
   <trkpt lat="42.92221" lon="0.199953"><ele>1517</ele></trkpt>
   <trkpt lat="42.921832" lon="0.19898"><ele>1524.5</ele></trkpt>
   <trkpt lat="42.921638" lon="0.198553"><ele>1526.5</ele></trkpt>
   <trkpt lat="42.921401" lon="0.198076"><ele>1532.5</ele></trkpt>
   <trkpt lat="42.921196" lon="0.19768"><ele>1536.25</ele></trkpt>
   <trkpt lat="42.920987" lon="0.197233"><ele>1537.75</ele></trkpt>
   <trkpt lat="42.920696" lon="0.196669"><ele>1544.25</ele></trkpt>
   <trkpt lat="42.920641" lon="0.196543"><ele>1545.75</ele></trkpt>
   <trkpt lat="42.920566" lon="0.19633"><ele>1546.75</ele></trkpt>
   <trkpt lat="42.920376" lon="0.195787"><ele>1552.5</ele></trkpt>
   <trkpt lat="42.920006" lon="0.19479"><ele>1562</ele></trkpt>
   <trkpt lat="42.919899" lon="0.194459"><ele>1564.75</ele></trkpt>
   <trkpt lat="42.919803" lon="0.194083"><ele>1566.75</ele></trkpt>
   <trkpt lat="42.919746" lon="0.193764"><ele>1569.75</ele></trkpt>
   <trkpt lat="42.91971" lon="0.193431"><ele>1571</ele></trkpt>
   <trkpt lat="42.919695" lon="0.193104"><ele>1573.25</ele></trkpt>
   <trkpt lat="42.919687" lon="0.192556"><ele>1577.25</ele></trkpt>
   <trkpt lat="42.919679" lon="0.192404"><ele>1578.5</ele></trkpt>
   <trkpt lat="42.919666" lon="0.192279"><ele>1579.75</ele></trkpt>
   <trkpt lat="42.919637" lon="0.192098"><ele>1581</ele></trkpt>
   <trkpt lat="42.919561" lon="0.191692"><ele>1584.5</ele></trkpt>
   <trkpt lat="42.919515" lon="0.191532"><ele>1586.25</ele></trkpt>
   <trkpt lat="42.919408" lon="0.191251"><ele>1588.25</ele></trkpt>
   <trkpt lat="42.919341" lon="0.191127"><ele>1589.5</ele></trkpt>
   <trkpt lat="42.919214" lon="0.190943"><ele>1591.5</ele></trkpt>
   <trkpt lat="42.919136" lon="0.190857"><ele>1593</ele></trkpt>
   <trkpt lat="42.918502" lon="0.190284"><ele>1600.75</ele></trkpt>
   <trkpt lat="42.918162" lon="0.189973"><ele>1606</ele></trkpt>
   <trkpt lat="42.918004" lon="0.189805"><ele>1609.25</ele></trkpt>
   <trkpt lat="42.917893" lon="0.189676"><ele>1612.5</ele></trkpt>
   <trkpt lat="42.917586" lon="0.189243"><ele>1615.25</ele></trkpt>
   <trkpt lat="42.917461" lon="0.189089"><ele>1616</ele></trkpt>
   <trkpt lat="42.917345" lon="0.188975"><ele>1617.75</ele></trkpt>
   <trkpt lat="42.916643" lon="0.188341"><ele>1627</ele></trkpt>
   <trkpt lat="42.916375" lon="0.188112"><ele>1634</ele></trkpt>
   <trkpt lat="42.916297" lon="0.18803"><ele>1635</ele></trkpt>
   <trkpt lat="42.916236" lon="0.18794"><ele>1635.75</ele></trkpt>
   <trkpt lat="42.916181" lon="0.187832"><ele>1636.75</ele></trkpt>
   <trkpt lat="42.916101" lon="0.187625"><ele>1638.5</ele></trkpt>
   <trkpt lat="42.916067" lon="0.187525"><ele>1638.5</ele></trkpt>
   <trkpt lat="42.916007" lon="0.187386"><ele>1638</ele></trkpt>
   <trkpt lat="42.915948" lon="0.187288"><ele>1638</ele></trkpt>
   <trkpt lat="42.91589" lon="0.187219"><ele>1638.75</ele></trkpt>
   <trkpt lat="42.915836" lon="0.187165"><ele>1639.75</ele></trkpt>
   <trkpt lat="42.91578" lon="0.187124"><ele>1640.25</ele></trkpt>
   <trkpt lat="42.915716" lon="0.187095"><ele>1641.25</ele></trkpt>
   <trkpt lat="42.91566" lon="0.18708"><ele>1642</ele></trkpt>
   <trkpt lat="42.915589" lon="0.187082"><ele>1643.5</ele></trkpt>
   <trkpt lat="42.915513" lon="0.187095"><ele>1645.25</ele></trkpt>
   <trkpt lat="42.915371" lon="0.187139"><ele>1648.25</ele></trkpt>
   <trkpt lat="42.915253" lon="0.187165"><ele>1650.75</ele></trkpt>
   <trkpt lat="42.915176" lon="0.187165"><ele>1652.5</ele></trkpt>
   <trkpt lat="42.915102" lon="0.187151"><ele>1653.75</ele></trkpt>
   <trkpt lat="42.915021" lon="0.187111"><ele>1654.5</ele></trkpt>
   <trkpt lat="42.914896" lon="0.186997"><ele>1655.25</ele></trkpt>
   <trkpt lat="42.914733" lon="0.186824"><ele>1656.5</ele></trkpt>
   <trkpt lat="42.914646" lon="0.186743"><ele>1657</ele></trkpt>
   <trkpt lat="42.914528" lon="0.186663"><ele>1658.25</ele></trkpt>
   <trkpt lat="42.914328" lon="0.18659"><ele>1660</ele></trkpt>
   <trkpt lat="42.914216" lon="0.186568"><ele>1660.75</ele></trkpt>
   <trkpt lat="42.914111" lon="0.18656"><ele>1662</ele></trkpt>
   <trkpt lat="42.913966" lon="0.186566"><ele>1664.5</ele></trkpt>
   <trkpt lat="42.913781" lon="0.186615"><ele>1668.5</ele></trkpt>
   <trkpt lat="42.913688" lon="0.18662"><ele>1669.75</ele></trkpt>
   <trkpt lat="42.913607" lon="0.186592"><ele>1669.75</ele></trkpt>
   <trkpt lat="42.913545" lon="0.186558"><ele>1670.75</ele></trkpt>
   <trkpt lat="42.913493" lon="0.186501"><ele>1671</ele></trkpt>
   <trkpt lat="42.913451" lon="0.18642"><ele>1670.75</ele></trkpt>
   <trkpt lat="42.913352" lon="0.186107"><ele>1671.75</ele></trkpt>
   <trkpt lat="42.913263" lon="0.185783"><ele>1672.5</ele></trkpt>
   <trkpt lat="42.913009" lon="0.185015"><ele>1676.75</ele></trkpt>
   <trkpt lat="42.912952" lon="0.184868"><ele>1676.25</ele></trkpt>
   <trkpt lat="42.912917" lon="0.184796"><ele>1677.25</ele></trkpt>
   <trkpt lat="42.912878" lon="0.184728"><ele>1678.75</ele></trkpt>
   <trkpt lat="42.912815" lon="0.184645"><ele>1681</ele></trkpt>
   <trkpt lat="42.912603" lon="0.184413"><ele>1685</ele></trkpt>
   <trkpt lat="42.912511" lon="0.184327"><ele>1686.5</ele></trkpt>
   <trkpt lat="42.91236" lon="0.184229"><ele>1688</ele></trkpt>
   <trkpt lat="42.912195" lon="0.184178"><ele>1689.75</ele></trkpt>
   <trkpt lat="42.911952" lon="0.184157"><ele>1693.5</ele></trkpt>
   <trkpt lat="42.911858" lon="0.18413"><ele>1694.25</ele></trkpt>
   <trkpt lat="42.911789" lon="0.184094"><ele>1694.5</ele></trkpt>
   <trkpt lat="42.911692" lon="0.184016"><ele>1695.25</ele></trkpt>
   <trkpt lat="42.911423" lon="0.183686"><ele>1699.5</ele></trkpt>
   <trkpt lat="42.911329" lon="0.183586"><ele>1701</ele></trkpt>
   <trkpt lat="42.911285" lon="0.183501"><ele>1701.75</ele></trkpt>
   <trkpt lat="42.911232" lon="0.18337"><ele>1703.25</ele></trkpt>
   <trkpt lat="42.91118" lon="0.183214"><ele>1703.25</ele></trkpt>
   <trkpt lat="42.911105" lon="0.183017"><ele>1705.75</ele></trkpt>
   <trkpt lat="42.91099" lon="0.182562"><ele>1706.75</ele></trkpt>
   <trkpt lat="42.91095" lon="0.182445"><ele>1707.5</ele></trkpt>
   <trkpt lat="42.910862" lon="0.182285"><ele>1710</ele></trkpt>
   <trkpt lat="42.910641" lon="0.181947"><ele>1714.5</ele></trkpt>
   <trkpt lat="42.910552" lon="0.181793"><ele>1718</ele></trkpt>
   <trkpt lat="42.910394" lon="0.181432"><ele>1723</ele></trkpt>
   <trkpt lat="42.910273" lon="0.18108"><ele>1725.25</ele></trkpt>
   <trkpt lat="42.910244" lon="0.18096"><ele>1726.75</ele></trkpt>
   <trkpt lat="42.910215" lon="0.18084"><ele>1728</ele></trkpt>
   <trkpt lat="42.910208" lon="0.180812"><ele>1728.5</ele></trkpt>
   <trkpt lat="42.910149" lon="0.180458"><ele>1731.5</ele></trkpt>
   <trkpt lat="42.91011" lon="0.180226"><ele>1732.5</ele></trkpt>
   <trkpt lat="42.910062" lon="0.179927"><ele>1734.5</ele></trkpt>
   <trkpt lat="42.910052" lon="0.179739"><ele>1736.5</ele></trkpt>
   <trkpt lat="42.910055" lon="0.179691"><ele>1736.75</ele></trkpt>
   <trkpt lat="42.910063" lon="0.179587"><ele>1737.5</ele></trkpt>
   <trkpt lat="42.910087" lon="0.179498"><ele>1738.75</ele></trkpt>
   <trkpt lat="42.910098" lon="0.179467"><ele>1739.25</ele></trkpt>
   <trkpt lat="42.910122" lon="0.179376"><ele>1739.75</ele></trkpt>
   <trkpt lat="42.910145" lon="0.17933"><ele>1740</ele></trkpt>
   <trkpt lat="42.910172" lon="0.179287"><ele>1740.25</ele></trkpt>
   <trkpt lat="42.910215" lon="0.179238"><ele>1740.75</ele></trkpt>
   <trkpt lat="42.910374" lon="0.17916"><ele>1743.25</ele></trkpt>
   <trkpt lat="42.910407" lon="0.179141"><ele>1744</ele></trkpt>
   <trkpt lat="42.910687" lon="0.179015"><ele>1747.5</ele></trkpt>
   <trkpt lat="42.910816" lon="0.178944"><ele>1747.75</ele></trkpt>
   <trkpt lat="42.910937" lon="0.178827"><ele>1749.75</ele></trkpt>
   <trkpt lat="42.910973" lon="0.178771"><ele>1750.75</ele></trkpt>
   <trkpt lat="42.911014" lon="0.178681"><ele>1751.75</ele></trkpt>
   <trkpt lat="42.911048" lon="0.178549"><ele>1752.5</ele></trkpt>
   <trkpt lat="42.91106" lon="0.178441"><ele>1752.5</ele></trkpt>
   <trkpt lat="42.911069" lon="0.178266"><ele>1752.75</ele></trkpt>
   <trkpt lat="42.911066" lon="0.178052"><ele>1754</ele></trkpt>
   <trkpt lat="42.911039" lon="0.177621"><ele>1757</ele></trkpt>
   <trkpt lat="42.911015" lon="0.17744"><ele>1758.5</ele></trkpt>
   <trkpt lat="42.910996" lon="0.177347"><ele>1759</ele></trkpt>
   <trkpt lat="42.910926" lon="0.17711"><ele>1759</ele></trkpt>
   <trkpt lat="42.910837" lon="0.176869"><ele>1759</ele></trkpt>
   <trkpt lat="42.910761" lon="0.17666"><ele>1763</ele></trkpt>
   <trkpt lat="42.910595" lon="0.176099"><ele>1766</ele></trkpt>
   <trkpt lat="42.910556" lon="0.175926"><ele>1766.25</ele></trkpt>
   <trkpt lat="42.910541" lon="0.175734"><ele>1767</ele></trkpt>
   <trkpt lat="42.910541" lon="0.175599"><ele>1768</ele></trkpt>
   <trkpt lat="42.910559" lon="0.175161"><ele>1773.75</ele></trkpt>
   <trkpt lat="42.91056" lon="0.174969"><ele>1775.25</ele></trkpt>
   <trkpt lat="42.910554" lon="0.174772"><ele>1776.5</ele></trkpt>
   <trkpt lat="42.910548" lon="0.174576"><ele>1778.75</ele></trkpt>
   <trkpt lat="42.910542" lon="0.174378"><ele>1781.25</ele></trkpt>
   <trkpt lat="42.910533" lon="0.174273"><ele>1782</ele></trkpt>
   <trkpt lat="42.910518" lon="0.174184"><ele>1782.5</ele></trkpt>
   <trkpt lat="42.910481" lon="0.173992"><ele>1783.75</ele></trkpt>
   <trkpt lat="42.910432" lon="0.173811"><ele>1784.5</ele></trkpt>
   <trkpt lat="42.910372" lon="0.173625"><ele>1785</ele></trkpt>
   <trkpt lat="42.910318" lon="0.173463"><ele>1785.75</ele></trkpt>
   <trkpt lat="42.910289" lon="0.173373"><ele>1786.5</ele></trkpt>
   <trkpt lat="42.910276" lon="0.173302"><ele>1787</ele></trkpt>
   <trkpt lat="42.910261" lon="0.173214"><ele>1787.25</ele></trkpt>
   <trkpt lat="42.910257" lon="0.173116"><ele>1787.75</ele></trkpt>
   <trkpt lat="42.910249" lon="0.172927"><ele>1788.25</ele></trkpt>
   <trkpt lat="42.910246" lon="0.172737"><ele>1789</ele></trkpt>
   <trkpt lat="42.910249" lon="0.172554"><ele>1789</ele></trkpt>
   <trkpt lat="42.910258" lon="0.172363"><ele>1790.25</ele></trkpt>
   <trkpt lat="42.91027" lon="0.172198"><ele>1791.75</ele></trkpt>
   <trkpt lat="42.910277" lon="0.172007"><ele>1793.5</ele></trkpt>
   <trkpt lat="42.910278" lon="0.171818"><ele>1795.75</ele></trkpt>
   <trkpt lat="42.910279" lon="0.171649"><ele>1798</ele></trkpt>
   <trkpt lat="42.910277" lon="0.171469"><ele>1800</ele></trkpt>
   <trkpt lat="42.910278" lon="0.171274"><ele>1801.75</ele></trkpt>
   <trkpt lat="42.910279" lon="0.171082"><ele>1803</ele></trkpt>
   <trkpt lat="42.910276" lon="0.17091"><ele>1804.25</ele></trkpt>
   <trkpt lat="42.910273" lon="0.170766"><ele>1805</ele></trkpt>
   <trkpt lat="42.910271" lon="0.170688"><ele>1805.25</ele></trkpt>
   <trkpt lat="42.910262" lon="0.170503"><ele>1806</ele></trkpt>
   <trkpt lat="42.910254" lon="0.170315"><ele>1807.25</ele></trkpt>
   <trkpt lat="42.910246" lon="0.17013"><ele>1809</ele></trkpt>
   <trkpt lat="42.910237" lon="0.16993"><ele>1810.75</ele></trkpt>
   <trkpt lat="42.910232" lon="0.169809"><ele>1811.5</ele></trkpt>
   <trkpt lat="42.910227" lon="0.169648"><ele>1812.5</ele></trkpt>
   <trkpt lat="42.910207" lon="0.169467"><ele>1813.75</ele></trkpt>
   <trkpt lat="42.910173" lon="0.169332"><ele>1815.25</ele></trkpt>
   <trkpt lat="42.909965" lon="0.16883"><ele>1817.75</ele></trkpt>
   <trkpt lat="42.909909" lon="0.16867"><ele>1820</ele></trkpt>
   <trkpt lat="42.909814" lon="0.168249"><ele>1825</ele></trkpt>
   <trkpt lat="42.909766" lon="0.168114"><ele>1825.75</ele></trkpt>
   <trkpt lat="42.90964" lon="0.167896"><ele>1826.25</ele></trkpt>
   <trkpt lat="42.909582" lon="0.167777"><ele>1826.75</ele></trkpt>
   <trkpt lat="42.909517" lon="0.167603"><ele>1829</ele></trkpt>
   <trkpt lat="42.90947" lon="0.167442"><ele>1830.25</ele></trkpt>
   <trkpt lat="42.90944" lon="0.167269"><ele>1831.75</ele></trkpt>
   <trkpt lat="42.909424" lon="0.167069"><ele>1833</ele></trkpt>
   <trkpt lat="42.909408" lon="0.166266"><ele>1838.25</ele></trkpt>
   <trkpt lat="42.909421" lon="0.166015"><ele>1840</ele></trkpt>
   <trkpt lat="42.909458" lon="0.165783"><ele>1842.5</ele></trkpt>
   <trkpt lat="42.90953" lon="0.165428"><ele>1846</ele></trkpt>
   <trkpt lat="42.909547" lon="0.165279"><ele>1847.25</ele></trkpt>
   <trkpt lat="42.909555" lon="0.165004"><ele>1848.75</ele></trkpt>
   <trkpt lat="42.909578" lon="0.164795"><ele>1850</ele></trkpt>
   <trkpt lat="42.909629" lon="0.164517"><ele>1852.25</ele></trkpt>
   <trkpt lat="42.90964" lon="0.164352"><ele>1853.25</ele></trkpt>
   <trkpt lat="42.909627" lon="0.164185"><ele>1854</ele></trkpt>
   <trkpt lat="42.909535" lon="0.1638"><ele>1856.25</ele></trkpt>
   <trkpt lat="42.909509" lon="0.163644"><ele>1857.5</ele></trkpt>
   <trkpt lat="42.909484" lon="0.163383"><ele>1859.75</ele></trkpt>
   <trkpt lat="42.909453" lon="0.16318"><ele>1861.5</ele></trkpt>
   <trkpt lat="42.909413" lon="0.163019"><ele>1862.5</ele></trkpt>
   <trkpt lat="42.90936" lon="0.162853"><ele>1864</ele></trkpt>
   <trkpt lat="42.909266" lon="0.162679"><ele>1865</ele></trkpt>
   <trkpt lat="42.909157" lon="0.162437"><ele>1866.75</ele></trkpt>
   <trkpt lat="42.908991" lon="0.161987"><ele>1869.5</ele></trkpt>
   <trkpt lat="42.908903" lon="0.161685"><ele>1873</ele></trkpt>
   <trkpt lat="42.908759" lon="0.161079"><ele>1877.25</ele></trkpt>
   <trkpt lat="42.908711" lon="0.160841"><ele>1879.75</ele></trkpt>
   <trkpt lat="42.908554" lon="0.159886"><ele>1885.75</ele></trkpt>
   <trkpt lat="42.908528" lon="0.159762"><ele>1886.5</ele></trkpt>
   <trkpt lat="42.908467" lon="0.159545"><ele>1889</ele></trkpt>
   <trkpt lat="42.908324" lon="0.159211"><ele>1891.75</ele></trkpt>
   <trkpt lat="42.908266" lon="0.159097"><ele>1892.25</ele></trkpt>
   <trkpt lat="42.908207" lon="0.159007"><ele>1893</ele></trkpt>
   <trkpt lat="42.908067" lon="0.158847"><ele>1894.25</ele></trkpt>
   <trkpt lat="42.907921" lon="0.158653"><ele>1896.25</ele></trkpt>
   <trkpt lat="42.907808" lon="0.158468"><ele>1898.75</ele></trkpt>
   <trkpt lat="42.907717" lon="0.158297"><ele>1900.5</ele></trkpt>
   <trkpt lat="42.907621" lon="0.158144"><ele>1901.5</ele></trkpt>
   <trkpt lat="42.907532" lon="0.158041"><ele>1901.5</ele></trkpt>
   <trkpt lat="42.907461" lon="0.157933"><ele>1902.25</ele></trkpt>
   <trkpt lat="42.907395" lon="0.157785"><ele>1904.25</ele></trkpt>
   <trkpt lat="42.907299" lon="0.157466"><ele>1909.25</ele></trkpt>
   <trkpt lat="42.907243" lon="0.157329"><ele>1910.25</ele></trkpt>
   <trkpt lat="42.907098" lon="0.157124"><ele>1911</ele></trkpt>
   <trkpt lat="42.90702" lon="0.156995"><ele>1912</ele></trkpt>
   <trkpt lat="42.90695" lon="0.156842"><ele>1913.25</ele></trkpt>
   <trkpt lat="42.906705" lon="0.156123"><ele>1919</ele></trkpt>
   <trkpt lat="42.906658" lon="0.155916"><ele>1920.25</ele></trkpt>
   <trkpt lat="42.906634" lon="0.155602"><ele>1923.25</ele></trkpt>
   <trkpt lat="42.906605" lon="0.155458"><ele>1924.75</ele></trkpt>
   <trkpt lat="42.906561" lon="0.15534"><ele>1925.25</ele></trkpt>
   <trkpt lat="42.906532" lon="0.155222"><ele>1926.25</ele></trkpt>
   <trkpt lat="42.90652" lon="0.155142"><ele>1927</ele></trkpt>
   <trkpt lat="42.906501" lon="0.154729"><ele>1931.25</ele></trkpt>
   <trkpt lat="42.906507" lon="0.154346"><ele>1931.25</ele></trkpt>
   <trkpt lat="42.906529" lon="0.154114"><ele>1931.25</ele></trkpt>
   <trkpt lat="42.906551" lon="0.15401"><ele>1931.75</ele></trkpt>
   <trkpt lat="42.906592" lon="0.153932"><ele>1932.75</ele></trkpt>
   <trkpt lat="42.906627" lon="0.153901"><ele>1933.75</ele></trkpt>
   <trkpt lat="42.906687" lon="0.153883"><ele>1935.75</ele></trkpt>
   <trkpt lat="42.906719" lon="0.153891"><ele>1937</ele></trkpt>
   <trkpt lat="42.906746" lon="0.153915"><ele>1938.25</ele></trkpt>
   <trkpt lat="42.906766" lon="0.153949"><ele>1939.25</ele></trkpt>
   <trkpt lat="42.90678" lon="0.153999"><ele>1940.25</ele></trkpt>
   <trkpt lat="42.906785" lon="0.154048"><ele>1940.75</ele></trkpt>
   <trkpt lat="42.906782" lon="0.154114"><ele>1941</ele></trkpt>
   <trkpt lat="42.906747" lon="0.154363"><ele>1940.5</ele></trkpt>
   <trkpt lat="42.906736" lon="0.154556"><ele>1940.25</ele></trkpt>
   <trkpt lat="42.906741" lon="0.154631"><ele>1940.5</ele></trkpt>
   <trkpt lat="42.906752" lon="0.154692"><ele>1941</ele></trkpt>
   <trkpt lat="42.90677" lon="0.154744"><ele>1941.25</ele></trkpt>
   <trkpt lat="42.906802" lon="0.154809"><ele>1941.75</ele></trkpt>
   <trkpt lat="42.906921" lon="0.154996"><ele>1944</ele></trkpt>
   <trkpt lat="42.907145" lon="0.155264"><ele>1947.25</ele></trkpt>
   <trkpt lat="42.907198" lon="0.155337"><ele>1948.25</ele></trkpt>
   <trkpt lat="42.907298" lon="0.155498"><ele>1949.25</ele></trkpt>
   <trkpt lat="42.907331" lon="0.155536"><ele>1949.5</ele></trkpt>
   <trkpt lat="42.907377" lon="0.155566"><ele>1950</ele></trkpt>
   <trkpt lat="42.907517" lon="0.15561"><ele>1952.25</ele></trkpt>
   <trkpt lat="42.907571" lon="0.155637"><ele>1953.25</ele></trkpt>
   <trkpt lat="42.907622" lon="0.155681"><ele>1953.75</ele></trkpt>
   <trkpt lat="42.907809" lon="0.155891"><ele>1955.25</ele></trkpt>
   <trkpt lat="42.907997" lon="0.156172"><ele>1957.25</ele></trkpt>
   <trkpt lat="42.90804" lon="0.156214"><ele>1957.5</ele></trkpt>
   <trkpt lat="42.908074" lon="0.156233"><ele>1957.75</ele></trkpt>
   <trkpt lat="42.908116" lon="0.156243"><ele>1957.75</ele></trkpt>
   <trkpt lat="42.908163" lon="0.156239"><ele>1958</ele></trkpt>
   <trkpt lat="42.908298" lon="0.156188"><ele>1959.75</ele></trkpt>
   <trkpt lat="42.908348" lon="0.156189"><ele>1960.25</ele></trkpt>
   <trkpt lat="42.908402" lon="0.156213"><ele>1961</ele></trkpt>
   <trkpt lat="42.908464" lon="0.15626"><ele>1961.75</ele></trkpt>
   <trkpt lat="42.908529" lon="0.156307"><ele>1962.75</ele></trkpt>
   <trkpt lat="42.908576" lon="0.15633"><ele>1963.75</ele></trkpt>
   <trkpt lat="42.908779" lon="0.156398"><ele>1965.5</ele></trkpt>
   <trkpt lat="42.908846" lon="0.156408"><ele>1966</ele></trkpt>
   <trkpt lat="42.908953" lon="0.1564"><ele>1966.75</ele></trkpt>
   <trkpt lat="42.908997" lon="0.15638"><ele>1967</ele></trkpt>
   <trkpt lat="42.909034" lon="0.156353"><ele>1967.75</ele></trkpt>
   <trkpt lat="42.909209" lon="0.156198"><ele>1971</ele></trkpt>
   <trkpt lat="42.909303" lon="0.156124"><ele>1972.25</ele></trkpt>
   <trkpt lat="42.909404" lon="0.156058"><ele>1973.25</ele></trkpt>
   <trkpt lat="42.909491" lon="0.156015"><ele>1974.25</ele></trkpt>
   <trkpt lat="42.909554" lon="0.155993"><ele>1975.25</ele></trkpt>
   <trkpt lat="42.909611" lon="0.155992"><ele>1975.75</ele></trkpt>
   <trkpt lat="42.90966" lon="0.156003"><ele>1976</ele></trkpt>
   <trkpt lat="42.909702" lon="0.156022"><ele>1976</ele></trkpt>
   <trkpt lat="42.909739" lon="0.156056"><ele>1976</ele></trkpt>
   <trkpt lat="42.909841" lon="0.156182"><ele>1976.25</ele></trkpt>
   <trkpt lat="42.909896" lon="0.156233"><ele>1976.5</ele></trkpt>
   <trkpt lat="42.909943" lon="0.156259"><ele>1977</ele></trkpt>
   <trkpt lat="42.910006" lon="0.156262"><ele>1978.25</ele></trkpt>
   <trkpt lat="42.910056" lon="0.156247"><ele>1979.75</ele></trkpt>
   <trkpt lat="42.910091" lon="0.156222"><ele>1980.75</ele></trkpt>
   <trkpt lat="42.910116" lon="0.156193"><ele>1982</ele></trkpt>
   <trkpt lat="42.910141" lon="0.156135"><ele>1983.5</ele></trkpt>
   <trkpt lat="42.910158" lon="0.156062"><ele>1985</ele></trkpt>
   <trkpt lat="42.910159" lon="0.155984"><ele>1986</ele></trkpt>
   <trkpt lat="42.910144" lon="0.155912"><ele>1986.5</ele></trkpt>
   <trkpt lat="42.910116" lon="0.15584"><ele>1986.75</ele></trkpt>
   <trkpt lat="42.910028" lon="0.155694"><ele>1986.25</ele></trkpt>
   <trkpt lat="42.909964" lon="0.155612"><ele>1986</ele></trkpt>
   <trkpt lat="42.90991" lon="0.155556"><ele>1986.25</ele></trkpt>
   <trkpt lat="42.909714" lon="0.155422"><ele>1987.75</ele></trkpt>
   <trkpt lat="42.909625" lon="0.155345"><ele>1989</ele></trkpt>
   <trkpt lat="42.909591" lon="0.155303"><ele>1989.5</ele></trkpt>
   <trkpt lat="42.909311" lon="0.154871"><ele>1994.75</ele></trkpt>
   <trkpt lat="42.909196" lon="0.154707"><ele>1996.5</ele></trkpt>
   <trkpt lat="42.909157" lon="0.154664"><ele>1997</ele></trkpt>
   <trkpt lat="42.90912" lon="0.154638"><ele>1997.25</ele></trkpt>
   <trkpt lat="42.909072" lon="0.154621"><ele>1997.5</ele></trkpt>
   <trkpt lat="42.909021" lon="0.154615"><ele>1997.75</ele></trkpt>
   <trkpt lat="42.908867" lon="0.154609"><ele>1997.5</ele></trkpt>
   <trkpt lat="42.908818" lon="0.154589"><ele>1997.5</ele></trkpt>
   <trkpt lat="42.908775" lon="0.15456"><ele>1998</ele></trkpt>
   <trkpt lat="42.908729" lon="0.154505"><ele>1998.75</ele></trkpt>
   <trkpt lat="42.908688" lon="0.154428"><ele>2000</ele></trkpt>
   <trkpt lat="42.908561" lon="0.154097"><ele>2004</ele></trkpt>
   <trkpt lat="42.908482" lon="0.153905"><ele>2005.25</ele></trkpt>
   <trkpt lat="42.908444" lon="0.15378"><ele>2006.25</ele></trkpt>
   <trkpt lat="42.908422" lon="0.153679"><ele>2007.25</ele></trkpt>
   <trkpt lat="42.908408" lon="0.153581"><ele>2008</ele></trkpt>
   <trkpt lat="42.908405" lon="0.153466"><ele>2008.75</ele></trkpt>
   <trkpt lat="42.908414" lon="0.153373"><ele>2009.75</ele></trkpt>
   <trkpt lat="42.90845" lon="0.153206"><ele>2011.25</ele></trkpt>
   <trkpt lat="42.908592" lon="0.152817"><ele>2014.5</ele></trkpt>
   <trkpt lat="42.90873" lon="0.152483"><ele>2017.75</ele></trkpt>
   <trkpt lat="42.90876" lon="0.152379"><ele>2018.25</ele></trkpt>
   <trkpt lat="42.908852" lon="0.151886"><ele>2020.75</ele></trkpt>
   <trkpt lat="42.908892" lon="0.151707"><ele>2022</ele></trkpt>
   <trkpt lat="42.90901" lon="0.151305"><ele>2024.75</ele></trkpt>
   <trkpt lat="42.909014" lon="0.151244"><ele>2025.75</ele></trkpt>
   <trkpt lat="42.909002" lon="0.15112"><ele>2026.75</ele></trkpt>
   <trkpt lat="42.908961" lon="0.150929"><ele>2028.25</ele></trkpt>
   <trkpt lat="42.908863" lon="0.150589"><ele>2030.75</ele></trkpt>
   <trkpt lat="42.908776" lon="0.150349"><ele>2032.75</ele></trkpt>
   <trkpt lat="42.908666" lon="0.150143"><ele>2033.75</ele></trkpt>
   <trkpt lat="42.908628" lon="0.150047"><ele>2034.5</ele></trkpt>
   <trkpt lat="42.908602" lon="0.149919"><ele>2035.25</ele></trkpt>
   <trkpt lat="42.908583" lon="0.149757"><ele>2036.25</ele></trkpt>
   <trkpt lat="42.908579" lon="0.149649"><ele>2037</ele></trkpt>
   <trkpt lat="42.908593" lon="0.14952"><ele>2038.5</ele></trkpt>
   <trkpt lat="42.908674" lon="0.149172"><ele>2043</ele></trkpt>
   <trkpt lat="42.908684" lon="0.149083"><ele>2044.25</ele></trkpt>
   <trkpt lat="42.908678" lon="0.149026"><ele>2044.5</ele></trkpt>
   <trkpt lat="42.908652" lon="0.148971"><ele>2044.5</ele></trkpt>
   <trkpt lat="42.90863" lon="0.148942"><ele>2044.5</ele></trkpt>
   <trkpt lat="42.908595" lon="0.148914"><ele>2044.5</ele></trkpt>
   <trkpt lat="42.908562" lon="0.148902"><ele>2044.5</ele></trkpt>
   <trkpt lat="42.908428" lon="0.148888"><ele>2044.25</ele></trkpt>
   <trkpt lat="42.908121" lon="0.1489"><ele>2045.75</ele></trkpt>
   <trkpt lat="42.908043" lon="0.148888"><ele>2047</ele></trkpt>
   <trkpt lat="42.907978" lon="0.148861"><ele>2047.75</ele></trkpt>
   <trkpt lat="42.907795" lon="0.148758"><ele>2050.75</ele></trkpt>
   <trkpt lat="42.907728" lon="0.14873"><ele>2052</ele></trkpt>
   <trkpt lat="42.907673" lon="0.14872"><ele>2052.75</ele></trkpt>
   <trkpt lat="42.907512" lon="0.148743"><ele>2053.5</ele></trkpt>
   <trkpt lat="42.907454" lon="0.148745"><ele>2053.5</ele></trkpt>
   <trkpt lat="42.907398" lon="0.148737"><ele>2053.5</ele></trkpt>
   <trkpt lat="42.907342" lon="0.148718"><ele>2054</ele></trkpt>
   <trkpt lat="42.907278" lon="0.148678"><ele>2055</ele></trkpt>
   <trkpt lat="42.906908" lon="0.148364"><ele>2060</ele></trkpt>
   <trkpt lat="42.90672" lon="0.148254"><ele>2062.75</ele></trkpt>
   <trkpt lat="42.9066" lon="0.148207"><ele>2064.75</ele></trkpt>
   <trkpt lat="42.906487" lon="0.148187"><ele>2066.5</ele></trkpt>
   <trkpt lat="42.906433" lon="0.148189"><ele>2067</ele></trkpt>
   <trkpt lat="42.906377" lon="0.148203"><ele>2067.25</ele></trkpt>
   <trkpt lat="42.906189" lon="0.148297"><ele>2067.25</ele></trkpt>
   <trkpt lat="42.906142" lon="0.14831"><ele>2067.75</ele></trkpt>
   <trkpt lat="42.906097" lon="0.148309"><ele>2068.75</ele></trkpt>
   <trkpt lat="42.906042" lon="0.148281"><ele>2070.5</ele></trkpt>
   <trkpt lat="42.906009" lon="0.148228"><ele>2072.75</ele></trkpt>
   <trkpt lat="42.906001" lon="0.148173"><ele>2074.25</ele></trkpt>
   <trkpt lat="42.906004" lon="0.148123"><ele>2075.25</ele></trkpt>
   <trkpt lat="42.906026" lon="0.148075"><ele>2075.75</ele></trkpt>
   <trkpt lat="42.906059" lon="0.14803"><ele>2076.25</ele></trkpt>
   <trkpt lat="42.906176" lon="0.147959"><ele>2076.5</ele></trkpt>
   <trkpt lat="42.906309" lon="0.1479"><ele>2077</ele></trkpt>
   <trkpt lat="42.906466" lon="0.147847"><ele>2077.5</ele></trkpt>
   <trkpt lat="42.906633" lon="0.1478"><ele>2078.25</ele></trkpt>
   <trkpt lat="42.90694" lon="0.147729"><ele>2082.25</ele></trkpt>
   <trkpt lat="42.907213" lon="0.147648"><ele>2084.25</ele></trkpt>
   <trkpt lat="42.907335" lon="0.14759"><ele>2084.75</ele></trkpt>
   <trkpt lat="42.907372" lon="0.147566"><ele>2084.75</ele></trkpt>
   <trkpt lat="42.907495" lon="0.147454"><ele>2086</ele></trkpt>
   <trkpt lat="42.907618" lon="0.147308"><ele>2089</ele></trkpt>
   <trkpt lat="42.908237" lon="0.146494"><ele>2100.25</ele></trkpt>
   <trkpt lat="42.908497" lon="0.146187"><ele>2104.25</ele></trkpt>
   <trkpt lat="42.90854" lon="0.146118"><ele>2105.25</ele></trkpt>
   <trkpt lat="42.908574" lon="0.146047"><ele>2106.5</ele></trkpt>
   <trkpt lat="42.908593" lon="0.145982"><ele>2107.5</ele></trkpt>
   <trkpt lat="42.908604" lon="0.145916"><ele>2108.5</ele></trkpt>
   <trkpt lat="42.908596" lon="0.145781"><ele>2111.25</ele></trkpt>
   <trkpt lat="42.908576" lon="0.145709"><ele>2113.25</ele></trkpt>
   <trkpt lat="42.908538" lon="0.14561"><ele>2115.75</ele></trkpt>
   <trkpt lat="42.908388" lon="0.145297"><ele>2116.75</ele></trkpt>
  </trkseg>
 </trk>
</gpx>
