<?xml version="1.0" encoding="UTF-8"?>
<!-- track-length = 18650 filtered ascend = 633 plain-ascend = 626 cost=24068 energy=0.2kwh time=2h 4m 55s -->
<gpx 
 xmlns="http://www.topografix.com/GPX/1/1" 
 xmlns:xsi="http://www.w3.org/2001/XMLSchema-instance" 
 xsi:schemaLocation="http://www.topografix.com/GPX/1/1 http://www.topografix.com/GPX/1/1/gpx.xsd" 
 version="1.1" 
 creator="BRouter-Web 0.18.1">
 <trk>
  <name>col de toses (18.7km)</name>
  <trkseg>
      <trkpt lat="42.319005" lon="2.106467"><ele>1161.5</ele></trkpt>
   <trkpt lat="42.319124" lon="2.106091"><ele>1161.75</ele></trkpt>
   <trkpt lat="42.319211" lon="2.105882"><ele>1163</ele></trkpt>
   <trkpt lat="42.319267" lon="2.105787"><ele>1163.5</ele></trkpt>
   <trkpt lat="42.319381" lon="2.105652"><ele>1164.25</ele></trkpt>
   <trkpt lat="42.319441" lon="2.105612"><ele>1165.25</ele></trkpt>
   <trkpt lat="42.319722" lon="2.105467"><ele>1165.25</ele></trkpt>
   <trkpt lat="42.319811" lon="2.105397"><ele>1165.75</ele></trkpt>
   <trkpt lat="42.319878" lon="2.105291"><ele>1166</ele></trkpt>
   <trkpt lat="42.319884" lon="2.105199"><ele>1168</ele></trkpt>
   <trkpt lat="42.319805" lon="2.105006"><ele>1169.25</ele></trkpt>
   <trkpt lat="42.319737" lon="2.104912"><ele>1168.5</ele></trkpt>
   <trkpt lat="42.319674" lon="2.104796"><ele>1168.25</ele></trkpt>
   <trkpt lat="42.319626" lon="2.104605"><ele>1169.5</ele></trkpt>
   <trkpt lat="42.319599" lon="2.104328"><ele>1172</ele></trkpt>
   <trkpt lat="42.319569" lon="2.104216"><ele>1172.25</ele></trkpt>
   <trkpt lat="42.319529" lon="2.104138"><ele>1172</ele></trkpt>
   <trkpt lat="42.319472" lon="2.104083"><ele>1171.75</ele></trkpt>
   <trkpt lat="42.319415" lon="2.104076"><ele>1171.5</ele></trkpt>
   <trkpt lat="42.319313" lon="2.104106"><ele>1172</ele></trkpt>
   <trkpt lat="42.319242" lon="2.104148"><ele>1171.75</ele></trkpt>
   <trkpt lat="42.319066" lon="2.104275"><ele>1170.75</ele></trkpt>
   <trkpt lat="42.3189" lon="2.104357"><ele>1172</ele></trkpt>
   <trkpt lat="42.318753" lon="2.104404"><ele>1172.5</ele></trkpt>
   <trkpt lat="42.31864" lon="2.104428"><ele>1173</ele></trkpt>
   <trkpt lat="42.31859" lon="2.104429"><ele>1173.25</ele></trkpt>
   <trkpt lat="42.318428" lon="2.104434"><ele>1174.25</ele></trkpt>
   <trkpt lat="42.318388" lon="2.10442"><ele>1174.75</ele></trkpt>
   <trkpt lat="42.318342" lon="2.104393"><ele>1175</ele></trkpt>
   <trkpt lat="42.318296" lon="2.104345"><ele>1174.5</ele></trkpt>
   <trkpt lat="42.318253" lon="2.104264"><ele>1174.25</ele></trkpt>
   <trkpt lat="42.31822" lon="2.104105"><ele>1174.5</ele></trkpt>
   <trkpt lat="42.318131" lon="2.103418"><ele>1177.75</ele></trkpt>
   <trkpt lat="42.318114" lon="2.103289"><ele>1178.25</ele></trkpt>
   <trkpt lat="42.318109" lon="2.103157"><ele>1178</ele></trkpt>
   <trkpt lat="42.318118" lon="2.103028"><ele>1178.25</ele></trkpt>
   <trkpt lat="42.318139" lon="2.102904"><ele>1178.75</ele></trkpt>
   <trkpt lat="42.318193" lon="2.102733"><ele>1179.25</ele></trkpt>
   <trkpt lat="42.318257" lon="2.102605"><ele>1179.25</ele></trkpt>
   <trkpt lat="42.318383" lon="2.102431"><ele>1179.75</ele></trkpt>
   <trkpt lat="42.318544" lon="2.102275"><ele>1181</ele></trkpt>
   <trkpt lat="42.318753" lon="2.102121"><ele>1182.75</ele></trkpt>
   <trkpt lat="42.31926" lon="2.101781"><ele>1184.5</ele></trkpt>
   <trkpt lat="42.319504" lon="2.101558"><ele>1186.25</ele></trkpt>
   <trkpt lat="42.319634" lon="2.101383"><ele>1186.5</ele></trkpt>
   <trkpt lat="42.319753" lon="2.101169"><ele>1186.5</ele></trkpt>
   <trkpt lat="42.319848" lon="2.100968"><ele>1186.5</ele></trkpt>
   <trkpt lat="42.31995" lon="2.10071"><ele>1187.25</ele></trkpt>
   <trkpt lat="42.319999" lon="2.100566"><ele>1188</ele></trkpt>
   <trkpt lat="42.320062" lon="2.100424"><ele>1187.5</ele></trkpt>
   <trkpt lat="42.320138" lon="2.100307"><ele>1187.75</ele></trkpt>
   <trkpt lat="42.32024" lon="2.100206"><ele>1188</ele></trkpt>
   <trkpt lat="42.320378" lon="2.100121"><ele>1189</ele></trkpt>
   <trkpt lat="42.320526" lon="2.10007"><ele>1190.5</ele></trkpt>
   <trkpt lat="42.320679" lon="2.100046"><ele>1191.25</ele></trkpt>
   <trkpt lat="42.320836" lon="2.100039"><ele>1192.25</ele></trkpt>
   <trkpt lat="42.321349" lon="2.100096"><ele>1193.75</ele></trkpt>
   <trkpt lat="42.321726" lon="2.100107"><ele>1195.25</ele></trkpt>
   <trkpt lat="42.32192" lon="2.100024"><ele>1196.25</ele></trkpt>
   <trkpt lat="42.322" lon="2.099945"><ele>1196.25</ele></trkpt>
   <trkpt lat="42.322051" lon="2.099787"><ele>1194.5</ele></trkpt>
   <trkpt lat="42.322041" lon="2.099586"><ele>1196.25</ele></trkpt>
   <trkpt lat="42.321987" lon="2.099318"><ele>1199</ele></trkpt>
   <trkpt lat="42.321919" lon="2.099173"><ele>1198.5</ele></trkpt>
   <trkpt lat="42.321774" lon="2.099066"><ele>1200.25</ele></trkpt>
   <trkpt lat="42.321549" lon="2.098935"><ele>1201.25</ele></trkpt>
   <trkpt lat="42.321091" lon="2.098457"><ele>1205.75</ele></trkpt>
   <trkpt lat="42.32078" lon="2.098244"><ele>1205.75</ele></trkpt>
   <trkpt lat="42.320694" lon="2.098171"><ele>1206</ele></trkpt>
   <trkpt lat="42.320533" lon="2.098034"><ele>1206.75</ele></trkpt>
   <trkpt lat="42.320465" lon="2.097954"><ele>1206.25</ele></trkpt>
   <trkpt lat="42.320423" lon="2.097829"><ele>1206.5</ele></trkpt>
   <trkpt lat="42.320417" lon="2.097689"><ele>1207.25</ele></trkpt>
   <trkpt lat="42.320424" lon="2.097631"><ele>1207.5</ele></trkpt>
   <trkpt lat="42.320437" lon="2.097504"><ele>1208.25</ele></trkpt>
   <trkpt lat="42.3205" lon="2.097274"><ele>1209</ele></trkpt>
   <trkpt lat="42.3206" lon="2.09706"><ele>1210.5</ele></trkpt>
   <trkpt lat="42.320693" lon="2.096939"><ele>1211.75</ele></trkpt>
   <trkpt lat="42.321052" lon="2.096652"><ele>1214.5</ele></trkpt>
   <trkpt lat="42.321134" lon="2.096556"><ele>1215.25</ele></trkpt>
   <trkpt lat="42.321195" lon="2.096443"><ele>1215.75</ele></trkpt>
   <trkpt lat="42.321258" lon="2.096269"><ele>1216.5</ele></trkpt>
   <trkpt lat="42.32135" lon="2.09595"><ele>1217.5</ele></trkpt>
   <trkpt lat="42.321414" lon="2.095803"><ele>1218</ele></trkpt>
   <trkpt lat="42.321516" lon="2.095627"><ele>1218</ele></trkpt>
   <trkpt lat="42.321622" lon="2.09548"><ele>1218.75</ele></trkpt>
   <trkpt lat="42.321745" lon="2.095348"><ele>1219.75</ele></trkpt>
   <trkpt lat="42.321973" lon="2.095146"><ele>1220</ele></trkpt>
   <trkpt lat="42.32212" lon="2.095033"><ele>1221.25</ele></trkpt>
   <trkpt lat="42.322266" lon="2.094946"><ele>1222</ele></trkpt>
   <trkpt lat="42.322454" lon="2.094878"><ele>1222.75</ele></trkpt>
   <trkpt lat="42.322595" lon="2.094863"><ele>1223.5</ele></trkpt>
   <trkpt lat="42.322733" lon="2.094865"><ele>1224.25</ele></trkpt>
   <trkpt lat="42.322864" lon="2.094902"><ele>1225.25</ele></trkpt>
   <trkpt lat="42.323806" lon="2.095278"><ele>1234.5</ele></trkpt>
   <trkpt lat="42.324064" lon="2.095332"><ele>1236.75</ele></trkpt>
   <trkpt lat="42.324243" lon="2.095348"><ele>1239.5</ele></trkpt>
   <trkpt lat="42.324399" lon="2.095334"><ele>1240.5</ele></trkpt>
   <trkpt lat="42.32448" lon="2.095289"><ele>1239.75</ele></trkpt>
   <trkpt lat="42.324547" lon="2.095212"><ele>1241.25</ele></trkpt>
   <trkpt lat="42.324594" lon="2.095134"><ele>1243</ele></trkpt>
   <trkpt lat="42.324618" lon="2.094998"><ele>1244.25</ele></trkpt>
   <trkpt lat="42.324619" lon="2.094867"><ele>1245.25</ele></trkpt>
   <trkpt lat="42.32461" lon="2.094646"><ele>1246.25</ele></trkpt>
   <trkpt lat="42.324547" lon="2.093941"><ele>1247.25</ele></trkpt>
   <trkpt lat="42.324521" lon="2.093549"><ele>1248</ele></trkpt>
   <trkpt lat="42.32451" lon="2.093319"><ele>1247.25</ele></trkpt>
   <trkpt lat="42.324515" lon="2.093188"><ele>1247</ele></trkpt>
   <trkpt lat="42.324538" lon="2.093046"><ele>1247.75</ele></trkpt>
   <trkpt lat="42.324602" lon="2.092927"><ele>1247.25</ele></trkpt>
   <trkpt lat="42.324747" lon="2.092748"><ele>1248.5</ele></trkpt>
   <trkpt lat="42.324835" lon="2.092623"><ele>1250.25</ele></trkpt>
   <trkpt lat="42.324923" lon="2.092476"><ele>1250.5</ele></trkpt>
   <trkpt lat="42.325" lon="2.09228"><ele>1251</ele></trkpt>
   <trkpt lat="42.32502" lon="2.092162"><ele>1251.5</ele></trkpt>
   <trkpt lat="42.325015" lon="2.092061"><ele>1251.25</ele></trkpt>
   <trkpt lat="42.324988" lon="2.091947"><ele>1250.75</ele></trkpt>
   <trkpt lat="42.324939" lon="2.091876"><ele>1253.25</ele></trkpt>
   <trkpt lat="42.324841" lon="2.091815"><ele>1254</ele></trkpt>
   <trkpt lat="42.324714" lon="2.09176"><ele>1253</ele></trkpt>
   <trkpt lat="42.324639" lon="2.091711"><ele>1253</ele></trkpt>
   <trkpt lat="42.324549" lon="2.091627"><ele>1254.25</ele></trkpt>
   <trkpt lat="42.324414" lon="2.091491"><ele>1253.75</ele></trkpt>
   <trkpt lat="42.324329" lon="2.091377"><ele>1253</ele></trkpt>
   <trkpt lat="42.324281" lon="2.09126"><ele>1253.5</ele></trkpt>
   <trkpt lat="42.324249" lon="2.091126"><ele>1254.75</ele></trkpt>
   <trkpt lat="42.324238" lon="2.090956"><ele>1255.25</ele></trkpt>
   <trkpt lat="42.324239" lon="2.09071"><ele>1255.75</ele></trkpt>
   <trkpt lat="42.324253" lon="2.090478"><ele>1256.25</ele></trkpt>
   <trkpt lat="42.324301" lon="2.090255"><ele>1257.25</ele></trkpt>
   <trkpt lat="42.324687" lon="2.089088"><ele>1259.75</ele></trkpt>
   <trkpt lat="42.324799" lon="2.088788"><ele>1262</ele></trkpt>
   <trkpt lat="42.325153" lon="2.088068"><ele>1266.5</ele></trkpt>
   <trkpt lat="42.32561" lon="2.087179"><ele>1269</ele></trkpt>
   <trkpt lat="42.325682" lon="2.087051"><ele>1269</ele></trkpt>
   <trkpt lat="42.325749" lon="2.086948"><ele>1268.75</ele></trkpt>
   <trkpt lat="42.325813" lon="2.086896"><ele>1269.25</ele></trkpt>
   <trkpt lat="42.325894" lon="2.086851"><ele>1269.25</ele></trkpt>
   <trkpt lat="42.326031" lon="2.086824"><ele>1270.5</ele></trkpt>
   <trkpt lat="42.326324" lon="2.086789"><ele>1272.75</ele></trkpt>
   <trkpt lat="42.326547" lon="2.086772"><ele>1276</ele></trkpt>
   <trkpt lat="42.32678" lon="2.086741"><ele>1278.5</ele></trkpt>
   <trkpt lat="42.326856" lon="2.086715"><ele>1278</ele></trkpt>
   <trkpt lat="42.326897" lon="2.086663"><ele>1276.25</ele></trkpt>
   <trkpt lat="42.326924" lon="2.086595"><ele>1276.5</ele></trkpt>
   <trkpt lat="42.326927" lon="2.086506"><ele>1276.25</ele></trkpt>
   <trkpt lat="42.326915" lon="2.086401"><ele>1275.5</ele></trkpt>
   <trkpt lat="42.326867" lon="2.086289"><ele>1277.5</ele></trkpt>
   <trkpt lat="42.326783" lon="2.086161"><ele>1278.75</ele></trkpt>
   <trkpt lat="42.32657" lon="2.085866"><ele>1280</ele></trkpt>
   <trkpt lat="42.326492" lon="2.085745"><ele>1280.5</ele></trkpt>
   <trkpt lat="42.32643" lon="2.085606"><ele>1280.25</ele></trkpt>
   <trkpt lat="42.326397" lon="2.085451"><ele>1280</ele></trkpt>
   <trkpt lat="42.326383" lon="2.085259"><ele>1280.5</ele></trkpt>
   <trkpt lat="42.326403" lon="2.084613"><ele>1284.75</ele></trkpt>
   <trkpt lat="42.326389" lon="2.08443"><ele>1285</ele></trkpt>
   <trkpt lat="42.326353" lon="2.084246"><ele>1285.75</ele></trkpt>
   <trkpt lat="42.326306" lon="2.084066"><ele>1288</ele></trkpt>
   <trkpt lat="42.326149" lon="2.083624"><ele>1289</ele></trkpt>
   <trkpt lat="42.326114" lon="2.083487"><ele>1288.5</ele></trkpt>
   <trkpt lat="42.326099" lon="2.083358"><ele>1289</ele></trkpt>
   <trkpt lat="42.326105" lon="2.083291"><ele>1289.5</ele></trkpt>
   <trkpt lat="42.326122" lon="2.083205"><ele>1290</ele></trkpt>
   <trkpt lat="42.326161" lon="2.083088"><ele>1291.5</ele></trkpt>
   <trkpt lat="42.326503" lon="2.082465"><ele>1295.75</ele></trkpt>
   <trkpt lat="42.326536" lon="2.08236"><ele>1296.75</ele></trkpt>
   <trkpt lat="42.326556" lon="2.082228"><ele>1297.25</ele></trkpt>
   <trkpt lat="42.326547" lon="2.082098"><ele>1298</ele></trkpt>
   <trkpt lat="42.326527" lon="2.082003"><ele>1298</ele></trkpt>
   <trkpt lat="42.32632" lon="2.08131"><ele>1298</ele></trkpt>
   <trkpt lat="42.326272" lon="2.081118"><ele>1300.25</ele></trkpt>
   <trkpt lat="42.326247" lon="2.080975"><ele>1301.25</ele></trkpt>
   <trkpt lat="42.326243" lon="2.080848"><ele>1302.75</ele></trkpt>
   <trkpt lat="42.326249" lon="2.080732"><ele>1302.25</ele></trkpt>
   <trkpt lat="42.326262" lon="2.080619"><ele>1301.5</ele></trkpt>
   <trkpt lat="42.326339" lon="2.080294"><ele>1302.5</ele></trkpt>
   <trkpt lat="42.326453" lon="2.079865"><ele>1305.75</ele></trkpt>
   <trkpt lat="42.326505" lon="2.079608"><ele>1308.25</ele></trkpt>
   <trkpt lat="42.326507" lon="2.079496"><ele>1308.25</ele></trkpt>
   <trkpt lat="42.326488" lon="2.079368"><ele>1308.25</ele></trkpt>
   <trkpt lat="42.326342" lon="2.078778"><ele>1306.5</ele></trkpt>
   <trkpt lat="42.326328" lon="2.07868"><ele>1307</ele></trkpt>
   <trkpt lat="42.326321" lon="2.078565"><ele>1307.25</ele></trkpt>
   <trkpt lat="42.326327" lon="2.078467"><ele>1307</ele></trkpt>
   <trkpt lat="42.326357" lon="2.078368"><ele>1308</ele></trkpt>
   <trkpt lat="42.326406" lon="2.078256"><ele>1309.25</ele></trkpt>
   <trkpt lat="42.326453" lon="2.078178"><ele>1310</ele></trkpt>
   <trkpt lat="42.326561" lon="2.078037"><ele>1312</ele></trkpt>
   <trkpt lat="42.326664" lon="2.077931"><ele>1313.25</ele></trkpt>
   <trkpt lat="42.326835" lon="2.077803"><ele>1312.5</ele></trkpt>
   <trkpt lat="42.327465" lon="2.077387"><ele>1317.25</ele></trkpt>
   <trkpt lat="42.327681" lon="2.077231"><ele>1318.25</ele></trkpt>
   <trkpt lat="42.327738" lon="2.077159"><ele>1318.75</ele></trkpt>
   <trkpt lat="42.327786" lon="2.07708"><ele>1319.25</ele></trkpt>
   <trkpt lat="42.327813" lon="2.076988"><ele>1318.75</ele></trkpt>
   <trkpt lat="42.327814" lon="2.076892"><ele>1318.75</ele></trkpt>
   <trkpt lat="42.327798" lon="2.076805"><ele>1319.5</ele></trkpt>
   <trkpt lat="42.327775" lon="2.07675"><ele>1319.75</ele></trkpt>
   <trkpt lat="42.327725" lon="2.076694"><ele>1320</ele></trkpt>
   <trkpt lat="42.327638" lon="2.076658"><ele>1320.25</ele></trkpt>
   <trkpt lat="42.326649" lon="2.076215"><ele>1323.75</ele></trkpt>
   <trkpt lat="42.326222" lon="2.076015"><ele>1326.25</ele></trkpt>
   <trkpt lat="42.325977" lon="2.075892"><ele>1326.75</ele></trkpt>
   <trkpt lat="42.325821" lon="2.0758"><ele>1327</ele></trkpt>
   <trkpt lat="42.325716" lon="2.075713"><ele>1327.25</ele></trkpt>
   <trkpt lat="42.325653" lon="2.07564"><ele>1327.75</ele></trkpt>
   <trkpt lat="42.32557" lon="2.075481"><ele>1328.25</ele></trkpt>
   <trkpt lat="42.325504" lon="2.075315"><ele>1326.75</ele></trkpt>
   <trkpt lat="42.325473" lon="2.075164"><ele>1328</ele></trkpt>
   <trkpt lat="42.325441" lon="2.074926"><ele>1330</ele></trkpt>
   <trkpt lat="42.325433" lon="2.074774"><ele>1331</ele></trkpt>
   <trkpt lat="42.325437" lon="2.074658"><ele>1331.5</ele></trkpt>
   <trkpt lat="42.325465" lon="2.074404"><ele>1331.75</ele></trkpt>
   <trkpt lat="42.325516" lon="2.0742"><ele>1331.5</ele></trkpt>
   <trkpt lat="42.325686" lon="2.073702"><ele>1334.75</ele></trkpt>
   <trkpt lat="42.325844" lon="2.073312"><ele>1336</ele></trkpt>
   <trkpt lat="42.326077" lon="2.07282"><ele>1337.25</ele></trkpt>
   <trkpt lat="42.326348" lon="2.072289"><ele>1339.5</ele></trkpt>
   <trkpt lat="42.32654" lon="2.071999"><ele>1341</ele></trkpt>
   <trkpt lat="42.326651" lon="2.071856"><ele>1341.75</ele></trkpt>
   <trkpt lat="42.326784" lon="2.071718"><ele>1342.5</ele></trkpt>
   <trkpt lat="42.326881" lon="2.071661"><ele>1342.5</ele></trkpt>
   <trkpt lat="42.326972" lon="2.071633"><ele>1343</ele></trkpt>
   <trkpt lat="42.327102" lon="2.071612"><ele>1343.25</ele></trkpt>
   <trkpt lat="42.327198" lon="2.071621"><ele>1344</ele></trkpt>
   <trkpt lat="42.327299" lon="2.071667"><ele>1345</ele></trkpt>
   <trkpt lat="42.327503" lon="2.071811"><ele>1345.75</ele></trkpt>
   <trkpt lat="42.327611" lon="2.071935"><ele>1345</ele></trkpt>
   <trkpt lat="42.32765" lon="2.071999"><ele>1346</ele></trkpt>
   <trkpt lat="42.327773" lon="2.072297"><ele>1349</ele></trkpt>
   <trkpt lat="42.327856" lon="2.07242"><ele>1348.75</ele></trkpt>
   <trkpt lat="42.328497" lon="2.073182"><ele>1351.5</ele></trkpt>
   <trkpt lat="42.328811" lon="2.073613"><ele>1356</ele></trkpt>
   <trkpt lat="42.328931" lon="2.073719"><ele>1356.5</ele></trkpt>
   <trkpt lat="42.329073" lon="2.073815"><ele>1356.5</ele></trkpt>
   <trkpt lat="42.329496" lon="2.073915"><ele>1359</ele></trkpt>
   <trkpt lat="42.329688" lon="2.073981"><ele>1360.5</ele></trkpt>
   <trkpt lat="42.329808" lon="2.074038"><ele>1361.5</ele></trkpt>
   <trkpt lat="42.32991" lon="2.074076"><ele>1362</ele></trkpt>
   <trkpt lat="42.330001" lon="2.074091"><ele>1361.25</ele></trkpt>
   <trkpt lat="42.330161" lon="2.074089"><ele>1361.25</ele></trkpt>
   <trkpt lat="42.330315" lon="2.0741"><ele>1361.5</ele></trkpt>
   <trkpt lat="42.330711" lon="2.074206"><ele>1364</ele></trkpt>
   <trkpt lat="42.330959" lon="2.074252"><ele>1366.75</ele></trkpt>
   <trkpt lat="42.331095" lon="2.07423"><ele>1366.25</ele></trkpt>
   <trkpt lat="42.33139" lon="2.074127"><ele>1365</ele></trkpt>
   <trkpt lat="42.33148" lon="2.074114"><ele>1365</ele></trkpt>
   <trkpt lat="42.331581" lon="2.074135"><ele>1365.75</ele></trkpt>
   <trkpt lat="42.331825" lon="2.074314"><ele>1369.5</ele></trkpt>
   <trkpt lat="42.331893" lon="2.074329"><ele>1368.5</ele></trkpt>
   <trkpt lat="42.331987" lon="2.074305"><ele>1370</ele></trkpt>
   <trkpt lat="42.332034" lon="2.074256"><ele>1372.5</ele></trkpt>
   <trkpt lat="42.332073" lon="2.074189"><ele>1374.5</ele></trkpt>
   <trkpt lat="42.332126" lon="2.074072"><ele>1375</ele></trkpt>
   <trkpt lat="42.332171" lon="2.073858"><ele>1372</ele></trkpt>
   <trkpt lat="42.332217" lon="2.0733"><ele>1373</ele></trkpt>
   <trkpt lat="42.332261" lon="2.073206"><ele>1373.75</ele></trkpt>
   <trkpt lat="42.33232" lon="2.073113"><ele>1374.5</ele></trkpt>
   <trkpt lat="42.332535" lon="2.072918"><ele>1375.5</ele></trkpt>
   <trkpt lat="42.333167" lon="2.072488"><ele>1379</ele></trkpt>
   <trkpt lat="42.333468" lon="2.072341"><ele>1381</ele></trkpt>
   <trkpt lat="42.33384" lon="2.072181"><ele>1381.5</ele></trkpt>
   <trkpt lat="42.333957" lon="2.072144"><ele>1382.5</ele></trkpt>
   <trkpt lat="42.334248" lon="2.072084"><ele>1386.25</ele></trkpt>
   <trkpt lat="42.334318" lon="2.072055"><ele>1386.75</ele></trkpt>
   <trkpt lat="42.33436" lon="2.072016"><ele>1386</ele></trkpt>
   <trkpt lat="42.334388" lon="2.071944"><ele>1383.75</ele></trkpt>
   <trkpt lat="42.334387" lon="2.07174"><ele>1385.75</ele></trkpt>
   <trkpt lat="42.334353" lon="2.071651"><ele>1386.75</ele></trkpt>
   <trkpt lat="42.334298" lon="2.071588"><ele>1389</ele></trkpt>
   <trkpt lat="42.334211" lon="2.071527"><ele>1390.5</ele></trkpt>
   <trkpt lat="42.334106" lon="2.071488"><ele>1390.25</ele></trkpt>
   <trkpt lat="42.333726" lon="2.071391"><ele>1387.75</ele></trkpt>
   <trkpt lat="42.333534" lon="2.071333"><ele>1390.25</ele></trkpt>
   <trkpt lat="42.333398" lon="2.071313"><ele>1391.25</ele></trkpt>
   <trkpt lat="42.332962" lon="2.071309"><ele>1392.75</ele></trkpt>
   <trkpt lat="42.331652" lon="2.071335"><ele>1398.75</ele></trkpt>
   <trkpt lat="42.331541" lon="2.07133"><ele>1399.25</ele></trkpt>
   <trkpt lat="42.331335" lon="2.071289"><ele>1400.5</ele></trkpt>
   <trkpt lat="42.331149" lon="2.071192"><ele>1400</ele></trkpt>
   <trkpt lat="42.331056" lon="2.071118"><ele>1399.25</ele></trkpt>
   <trkpt lat="42.33098" lon="2.071032"><ele>1398.75</ele></trkpt>
   <trkpt lat="42.330929" lon="2.07091"><ele>1399.5</ele></trkpt>
   <trkpt lat="42.330813" lon="2.070144"><ele>1403</ele></trkpt>
   <trkpt lat="42.330729" lon="2.069586"><ele>1406.25</ele></trkpt>
   <trkpt lat="42.330624" lon="2.069146"><ele>1408</ele></trkpt>
   <trkpt lat="42.330401" lon="2.068538"><ele>1407.25</ele></trkpt>
   <trkpt lat="42.330427" lon="2.067283"><ele>1411.75</ele></trkpt>
   <trkpt lat="42.330417" lon="2.066839"><ele>1415</ele></trkpt>
   <trkpt lat="42.330451" lon="2.066538"><ele>1415.5</ele></trkpt>
   <trkpt lat="42.330597" lon="2.066058"><ele>1417</ele></trkpt>
   <trkpt lat="42.330931" lon="2.065185"><ele>1420</ele></trkpt>
   <trkpt lat="42.331216" lon="2.064312"><ele>1423.25</ele></trkpt>
   <trkpt lat="42.331415" lon="2.063699"><ele>1423.5</ele></trkpt>
   <trkpt lat="42.331864" lon="2.062086"><ele>1426.5</ele></trkpt>
   <trkpt lat="42.331942" lon="2.061672"><ele>1429.75</ele></trkpt>
   <trkpt lat="42.332003" lon="2.061389"><ele>1433.75</ele></trkpt>
   <trkpt lat="42.332024" lon="2.061223"><ele>1433.25</ele></trkpt>
   <trkpt lat="42.332004" lon="2.06106"><ele>1430.75</ele></trkpt>
   <trkpt lat="42.331978" lon="2.060988"><ele>1430</ele></trkpt>
   <trkpt lat="42.3319" lon="2.060795"><ele>1431.75</ele></trkpt>
   <trkpt lat="42.331871" lon="2.060763"><ele>1433.25</ele></trkpt>
   <trkpt lat="42.331797" lon="2.060733"><ele>1435</ele></trkpt>
   <trkpt lat="42.331715" lon="2.060774"><ele>1434</ele></trkpt>
   <trkpt lat="42.331413" lon="2.060972"><ele>1432.75</ele></trkpt>
   <trkpt lat="42.331075" lon="2.06112"><ele>1432.25</ele></trkpt>
   <trkpt lat="42.330701" lon="2.061255"><ele>1433.5</ele></trkpt>
   <trkpt lat="42.330504" lon="2.061274"><ele>1434.5</ele></trkpt>
   <trkpt lat="42.33046" lon="2.061278"><ele>1434.5</ele></trkpt>
   <trkpt lat="42.330008" lon="2.061266"><ele>1437.25</ele></trkpt>
   <trkpt lat="42.329611" lon="2.061283"><ele>1440</ele></trkpt>
   <trkpt lat="42.329467" lon="2.061249"><ele>1440</ele></trkpt>
   <trkpt lat="42.329393" lon="2.061175"><ele>1438.5</ele></trkpt>
   <trkpt lat="42.329356" lon="2.061062"><ele>1438</ele></trkpt>
   <trkpt lat="42.329362" lon="2.060812"><ele>1441.25</ele></trkpt>
   <trkpt lat="42.329337" lon="2.060562"><ele>1442.5</ele></trkpt>
   <trkpt lat="42.329316" lon="2.060446"><ele>1443.5</ele></trkpt>
   <trkpt lat="42.329251" lon="2.060217"><ele>1444</ele></trkpt>
   <trkpt lat="42.329224" lon="2.0601"><ele>1444.5</ele></trkpt>
   <trkpt lat="42.329113" lon="2.059759"><ele>1444.75</ele></trkpt>
   <trkpt lat="42.32907" lon="2.059646"><ele>1445.25</ele></trkpt>
   <trkpt lat="42.32902" lon="2.05943"><ele>1447.5</ele></trkpt>
   <trkpt lat="42.32903" lon="2.059305"><ele>1447.25</ele></trkpt>
   <trkpt lat="42.329063" lon="2.05918"><ele>1448.5</ele></trkpt>
   <trkpt lat="42.329344" lon="2.058376"><ele>1452.75</ele></trkpt>
   <trkpt lat="42.329374" lon="2.05826"><ele>1451.75</ele></trkpt>
   <trkpt lat="42.329698" lon="2.057298"><ele>1455</ele></trkpt>
   <trkpt lat="42.32979" lon="2.057082"><ele>1458.5</ele></trkpt>
   <trkpt lat="42.329864" lon="2.056844"><ele>1459.75</ele></trkpt>
   <trkpt lat="42.329892" lon="2.056724"><ele>1459</ele></trkpt>
   <trkpt lat="42.32991" lon="2.056603"><ele>1458.25</ele></trkpt>
   <trkpt lat="42.329938" lon="2.056216"><ele>1460</ele></trkpt>
   <trkpt lat="42.329928" lon="2.055824"><ele>1460.75</ele></trkpt>
   <trkpt lat="42.329913" lon="2.055574"><ele>1463</ele></trkpt>
   <trkpt lat="42.329919" lon="2.055358"><ele>1462.25</ele></trkpt>
   <trkpt lat="42.329968" lon="2.05512"><ele>1463.5</ele></trkpt>
   <trkpt lat="42.330002" lon="2.055004"><ele>1465</ele></trkpt>
   <trkpt lat="42.330033" lon="2.05475"><ele>1467.25</ele></trkpt>
   <trkpt lat="42.33003" lon="2.054625"><ele>1468</ele></trkpt>
   <trkpt lat="42.329968" lon="2.054388"><ele>1466</ele></trkpt>
   <trkpt lat="42.329833" lon="2.054059"><ele>1467.25</ele></trkpt>
   <trkpt lat="42.329781" lon="2.053946"><ele>1467.75</ele></trkpt>
   <trkpt lat="42.329698" lon="2.053726"><ele>1467.5</ele></trkpt>
   <trkpt lat="42.329445" lon="2.053147"><ele>1473</ele></trkpt>
   <trkpt lat="42.32939" lon="2.053047"><ele>1473.75</ele></trkpt>
   <trkpt lat="42.329257" lon="2.052872"><ele>1474</ele></trkpt>
   <trkpt lat="42.329134" lon="2.052685"><ele>1471.25</ele></trkpt>
   <trkpt lat="42.329113" lon="2.05256"><ele>1472</ele></trkpt>
   <trkpt lat="42.329131" lon="2.052439"><ele>1472.25</ele></trkpt>
   <trkpt lat="42.329245" lon="2.052248"><ele>1474.5</ele></trkpt>
   <trkpt lat="42.329516" lon="2.051906"><ele>1477.5</ele></trkpt>
   <trkpt lat="42.329587" lon="2.051827"><ele>1478.5</ele></trkpt>
   <trkpt lat="42.329664" lon="2.051756"><ele>1479.75</ele></trkpt>
   <trkpt lat="42.329735" lon="2.051669"><ele>1479</ele></trkpt>
   <trkpt lat="42.32979" lon="2.051569"><ele>1480.5</ele></trkpt>
   <trkpt lat="42.329924" lon="2.051287"><ele>1479.5</ele></trkpt>
   <trkpt lat="42.330116" lon="2.050932"><ele>1484.5</ele></trkpt>
   <trkpt lat="42.330156" lon="2.050824"><ele>1485</ele></trkpt>
   <trkpt lat="42.330153" lon="2.050699"><ele>1485.25</ele></trkpt>
   <trkpt lat="42.330129" lon="2.050574"><ele>1484.25</ele></trkpt>
   <trkpt lat="42.330067" lon="2.050482"><ele>1484</ele></trkpt>
   <trkpt lat="42.32979" lon="2.050236"><ele>1483.25</ele></trkpt>
   <trkpt lat="42.329605" lon="2.049927"><ele>1485</ele></trkpt>
   <trkpt lat="42.32914" lon="2.049233"><ele>1485.75</ele></trkpt>
   <trkpt lat="42.328885" lon="2.048775"><ele>1487.5</ele></trkpt>
   <trkpt lat="42.328706" lon="2.048084"><ele>1489</ele></trkpt>
   <trkpt lat="42.328697" lon="2.047959"><ele>1489.5</ele></trkpt>
   <trkpt lat="42.328706" lon="2.047838"><ele>1490.5</ele></trkpt>
   <trkpt lat="42.328737" lon="2.047722"><ele>1491.25</ele></trkpt>
   <trkpt lat="42.328783" lon="2.047609"><ele>1491.25</ele></trkpt>
   <trkpt lat="42.328836" lon="2.047501"><ele>1491.25</ele></trkpt>
   <trkpt lat="42.3289" lon="2.047413"><ele>1489.75</ele></trkpt>
   <trkpt lat="42.328977" lon="2.047343"><ele>1490.25</ele></trkpt>
   <trkpt lat="42.329316" lon="2.047151"><ele>1493.5</ele></trkpt>
   <trkpt lat="42.329482" lon="2.047047"><ele>1495.75</ele></trkpt>
   <trkpt lat="42.329658" lon="2.046955"><ele>1495.5</ele></trkpt>
   <trkpt lat="42.329815" lon="2.046826"><ele>1497.5</ele></trkpt>
   <trkpt lat="42.329888" lon="2.046747"><ele>1498.5</ele></trkpt>
   <trkpt lat="42.329953" lon="2.04666"><ele>1498.25</ele></trkpt>
   <trkpt lat="42.330033" lon="2.046439"><ele>1499.5</ele></trkpt>
   <trkpt lat="42.330104" lon="2.046198"><ele>1499.75</ele></trkpt>
   <trkpt lat="42.330119" lon="2.046077"><ele>1499.25</ele></trkpt>
   <trkpt lat="42.330088" lon="2.04591"><ele>1498.75</ele></trkpt>
   <trkpt lat="42.330048" lon="2.045794"><ele>1498.25</ele></trkpt>
   <trkpt lat="42.329999" lon="2.04569"><ele>1498</ele></trkpt>
   <trkpt lat="42.329941" lon="2.04559"><ele>1497.75</ele></trkpt>
   <trkpt lat="42.329811" lon="2.045394"><ele>1499.25</ele></trkpt>
   <trkpt lat="42.32971" lon="2.045178"><ele>1498.75</ele></trkpt>
   <trkpt lat="42.329642" lon="2.044819"><ele>1500.5</ele></trkpt>
   <trkpt lat="42.329608" lon="2.044695"><ele>1501.75</ele></trkpt>
   <trkpt lat="42.32955" lon="2.04459"><ele>1502.5</ele></trkpt>
   <trkpt lat="42.329473" lon="2.044499"><ele>1501.5</ele></trkpt>
   <trkpt lat="42.32939" lon="2.044441"><ele>1501.5</ele></trkpt>
   <trkpt lat="42.329297" lon="2.04442"><ele>1501.75</ele></trkpt>
   <trkpt lat="42.328997" lon="2.044321"><ele>1502</ele></trkpt>
   <trkpt lat="42.328883" lon="2.044244"><ele>1502</ele></trkpt>
   <trkpt lat="42.328775" lon="2.043932"><ele>1506.25</ele></trkpt>
   <trkpt lat="42.32864" lon="2.04362"><ele>1506.5</ele></trkpt>
   <trkpt lat="42.328553" lon="2.043497"><ele>1507</ele></trkpt>
   <trkpt lat="42.328448" lon="2.043396"><ele>1507.25</ele></trkpt>
   <trkpt lat="42.327507" lon="2.042884"><ele>1509</ele></trkpt>
   <trkpt lat="42.327133" lon="2.042678"><ele>1509.25</ele></trkpt>
   <trkpt lat="42.32702" lon="2.04259"><ele>1510.25</ele></trkpt>
   <trkpt lat="42.326898" lon="2.042507"><ele>1510.5</ele></trkpt>
   <trkpt lat="42.326794" lon="2.042395"><ele>1511</ele></trkpt>
   <trkpt lat="42.326702" lon="2.042272"><ele>1511.75</ele></trkpt>
   <trkpt lat="42.326607" lon="2.042136"><ele>1511.75</ele></trkpt>
   <trkpt lat="42.326533" lon="2.041995"><ele>1512.5</ele></trkpt>
   <trkpt lat="42.326354" lon="2.041155"><ele>1515.25</ele></trkpt>
   <trkpt lat="42.326357" lon="2.041034"><ele>1515.75</ele></trkpt>
   <trkpt lat="42.326422" lon="2.040543"><ele>1519</ele></trkpt>
   <trkpt lat="42.326434" lon="2.040414"><ele>1520.5</ele></trkpt>
   <trkpt lat="42.326431" lon="2.040289"><ele>1520.75</ele></trkpt>
   <trkpt lat="42.326406" lon="2.040168"><ele>1521.25</ele></trkpt>
   <trkpt lat="42.32639" lon="2.040124"><ele>1522.25</ele></trkpt>
   <trkpt lat="42.326326" lon="2.039951"><ele>1522.25</ele></trkpt>
   <trkpt lat="42.326274" lon="2.039839"><ele>1523.75</ele></trkpt>
   <trkpt lat="42.326203" lon="2.039747"><ele>1523.5</ele></trkpt>
   <trkpt lat="42.326126" lon="2.039685"><ele>1521.75</ele></trkpt>
   <trkpt lat="42.32604" lon="2.039631"><ele>1520.5</ele></trkpt>
   <trkpt lat="42.325963" lon="2.039564"><ele>1520.25</ele></trkpt>
   <trkpt lat="42.325902" lon="2.039473"><ele>1521.25</ele></trkpt>
   <trkpt lat="42.325883" lon="2.039352"><ele>1521.5</ele></trkpt>
   <trkpt lat="42.32588" lon="2.039227"><ele>1521.75</ele></trkpt>
   <trkpt lat="42.325908" lon="2.039115"><ele>1522</ele></trkpt>
   <trkpt lat="42.325957" lon="2.039006"><ele>1522.25</ele></trkpt>
   <trkpt lat="42.326012" lon="2.038906"><ele>1522.5</ele></trkpt>
   <trkpt lat="42.326074" lon="2.038815"><ele>1522.75</ele></trkpt>
   <trkpt lat="42.326145" lon="2.038736"><ele>1523.5</ele></trkpt>
   <trkpt lat="42.326391" lon="2.038494"><ele>1523.5</ele></trkpt>
   <trkpt lat="42.326468" lon="2.038436"><ele>1523.75</ele></trkpt>
   <trkpt lat="42.326637" lon="2.038332"><ele>1524.25</ele></trkpt>
   <trkpt lat="42.32681" lon="2.038286"><ele>1523.75</ele></trkpt>
   <trkpt lat="42.326902" lon="2.038278"><ele>1524</ele></trkpt>
   <trkpt lat="42.327001" lon="2.038286"><ele>1524.5</ele></trkpt>
   <trkpt lat="42.327278" lon="2.03834"><ele>1527</ele></trkpt>
   <trkpt lat="42.327638" lon="2.038448"><ele>1528.5</ele></trkpt>
   <trkpt lat="42.328078" lon="2.038494"><ele>1529.5</ele></trkpt>
   <trkpt lat="42.328167" lon="2.038486"><ele>1528.75</ele></trkpt>
   <trkpt lat="42.32826" lon="2.038494"><ele>1528.5</ele></trkpt>
   <trkpt lat="42.328346" lon="2.038523"><ele>1528.75</ele></trkpt>
   <trkpt lat="42.328943" lon="2.038873"><ele>1532</ele></trkpt>
   <trkpt lat="42.329423" lon="2.039165"><ele>1535</ele></trkpt>
   <trkpt lat="42.32974" lon="2.039269"><ele>1538.75</ele></trkpt>
   <trkpt lat="42.330544" lon="2.039244"><ele>1540</ele></trkpt>
   <trkpt lat="42.331051" lon="2.039273"><ele>1542.25</ele></trkpt>
   <trkpt lat="42.331559" lon="2.039285"><ele>1543</ele></trkpt>
   <trkpt lat="42.331744" lon="2.03931"><ele>1543</ele></trkpt>
   <trkpt lat="42.331932" lon="2.039348"><ele>1542.75</ele></trkpt>
   <trkpt lat="42.332018" lon="2.039389"><ele>1542.5</ele></trkpt>
   <trkpt lat="42.332101" lon="2.039439"><ele>1542.75</ele></trkpt>
   <trkpt lat="42.332184" lon="2.039498"><ele>1543.25</ele></trkpt>
   <trkpt lat="42.332326" lon="2.039643"><ele>1543.5</ele></trkpt>
   <trkpt lat="42.332397" lon="2.039727"><ele>1544</ele></trkpt>
   <trkpt lat="42.332455" lon="2.039822"><ele>1544.75</ele></trkpt>
   <trkpt lat="42.332523" lon="2.03991"><ele>1544.5</ele></trkpt>
   <trkpt lat="42.332581" lon="2.040006"><ele>1546</ele></trkpt>
   <trkpt lat="42.332652" lon="2.040089"><ele>1546.75</ele></trkpt>
   <trkpt lat="42.332726" lon="2.04016"><ele>1546</ele></trkpt>
   <trkpt lat="42.333068" lon="2.040526"><ele>1547.75</ele></trkpt>
   <trkpt lat="42.333221" lon="2.040663"><ele>1550.25</ele></trkpt>
   <trkpt lat="42.333298" lon="2.040722"><ele>1550.5</ele></trkpt>
   <trkpt lat="42.333569" lon="2.040801"><ele>1549</ele></trkpt>
   <trkpt lat="42.333652" lon="2.040847"><ele>1550</ele></trkpt>
   <trkpt lat="42.333828" lon="2.040905"><ele>1551</ele></trkpt>
   <trkpt lat="42.333914" lon="2.040942"><ele>1551.75</ele></trkpt>
   <trkpt lat="42.334271" lon="2.041026"><ele>1550.75</ele></trkpt>
   <trkpt lat="42.334453" lon="2.041055"><ele>1549.25</ele></trkpt>
   <trkpt lat="42.334668" lon="2.041109"><ele>1550</ele></trkpt>
   <trkpt lat="42.335028" lon="2.041242"><ele>1552.25</ele></trkpt>
   <trkpt lat="42.335296" lon="2.041317"><ele>1552</ele></trkpt>
   <trkpt lat="42.33557" lon="2.041355"><ele>1554</ele></trkpt>
   <trkpt lat="42.335662" lon="2.041355"><ele>1556.25</ele></trkpt>
   <trkpt lat="42.335721" lon="2.041259"><ele>1554.75</ele></trkpt>
   <trkpt lat="42.335748" lon="2.041138"><ele>1551.75</ele></trkpt>
   <trkpt lat="42.335758" lon="2.041013"><ele>1554.5</ele></trkpt>
   <trkpt lat="42.335739" lon="2.040897"><ele>1557.5</ele></trkpt>
   <trkpt lat="42.335638" lon="2.040555"><ele>1560.75</ele></trkpt>
   <trkpt lat="42.335595" lon="2.040447"><ele>1559.5</ele></trkpt>
   <trkpt lat="42.335478" lon="2.040106"><ele>1559.25</ele></trkpt>
   <trkpt lat="42.335422" lon="2.039802"><ele>1561.5</ele></trkpt>
   <trkpt lat="42.335416" lon="2.039677"><ele>1562.5</ele></trkpt>
   <trkpt lat="42.335413" lon="2.039431"><ele>1563</ele></trkpt>
   <trkpt lat="42.335385" lon="2.039319"><ele>1564.5</ele></trkpt>
   <trkpt lat="42.335318" lon="2.039235"><ele>1563</ele></trkpt>
   <trkpt lat="42.335151" lon="2.03911"><ele>1563</ele></trkpt>
   <trkpt lat="42.334997" lon="2.038961"><ele>1563.75</ele></trkpt>
   <trkpt lat="42.334847" lon="2.038811"><ele>1564</ele></trkpt>
   <trkpt lat="42.334779" lon="2.038727"><ele>1564.5</ele></trkpt>
   <trkpt lat="42.33472" lon="2.038632"><ele>1565</ele></trkpt>
   <trkpt lat="42.33456" lon="2.038311"><ele>1568.75</ele></trkpt>
   <trkpt lat="42.334447" lon="2.037974"><ele>1569</ele></trkpt>
   <trkpt lat="42.334413" lon="2.037853"><ele>1568.25</ele></trkpt>
   <trkpt lat="42.334363" lon="2.037495"><ele>1568.25</ele></trkpt>
   <trkpt lat="42.334354" lon="2.037374"><ele>1569</ele></trkpt>
   <trkpt lat="42.334323" lon="2.03712"><ele>1570.75</ele></trkpt>
   <trkpt lat="42.33424" lon="2.036762"><ele>1573.75</ele></trkpt>
   <trkpt lat="42.334201" lon="2.036663"><ele>1574</ele></trkpt>
   <trkpt lat="42.334099" lon="2.036429"><ele>1574.75</ele></trkpt>
   <trkpt lat="42.334043" lon="2.036325"><ele>1575.75</ele></trkpt>
   <trkpt lat="42.333852" lon="2.035892"><ele>1577.75</ele></trkpt>
   <trkpt lat="42.333739" lon="2.03555"><ele>1578.5</ele></trkpt>
   <trkpt lat="42.333717" lon="2.035434"><ele>1578.25</ele></trkpt>
   <trkpt lat="42.333717" lon="2.035188"><ele>1579.5</ele></trkpt>
   <trkpt lat="42.333779" lon="2.034963"><ele>1581.5</ele></trkpt>
   <trkpt lat="42.333816" lon="2.034851"><ele>1581.75</ele></trkpt>
   <trkpt lat="42.333963" lon="2.034543"><ele>1583</ele></trkpt>
   <trkpt lat="42.334022" lon="2.034455"><ele>1582.5</ele></trkpt>
   <trkpt lat="42.334093" lon="2.03438"><ele>1582.25</ele></trkpt>
   <trkpt lat="42.334173" lon="2.034322"><ele>1583</ele></trkpt>
   <trkpt lat="42.334339" lon="2.034226"><ele>1585</ele></trkpt>
   <trkpt lat="42.334425" lon="2.034189"><ele>1586.25</ele></trkpt>
   <trkpt lat="42.334508" lon="2.034143"><ele>1587.5</ele></trkpt>
   <trkpt lat="42.334874" lon="2.03386"><ele>1590.75</ele></trkpt>
   <trkpt lat="42.335173" lon="2.033589"><ele>1590.5</ele></trkpt>
   <trkpt lat="42.335342" lon="2.033473"><ele>1591</ele></trkpt>
   <trkpt lat="42.335428" lon="2.033427"><ele>1592</ele></trkpt>
   <trkpt lat="42.335521" lon="2.033394"><ele>1593.75</ele></trkpt>
   <trkpt lat="42.335967" lon="2.033298"><ele>1593.5</ele></trkpt>
   <trkpt lat="42.336158" lon="2.033331"><ele>1595</ele></trkpt>
   <trkpt lat="42.336253" lon="2.033373"><ele>1595.5</ele></trkpt>
   <trkpt lat="42.336336" lon="2.033431"><ele>1596.25</ele></trkpt>
   <trkpt lat="42.336635" lon="2.033723"><ele>1600.25</ele></trkpt>
   <trkpt lat="42.336946" lon="2.033997"><ele>1604.25</ele></trkpt>
   <trkpt lat="42.337133" lon="2.034085"><ele>1604.5</ele></trkpt>
   <trkpt lat="42.33722" lon="2.034118"><ele>1603.75</ele></trkpt>
   <trkpt lat="42.3373" lon="2.034176"><ele>1603.25</ele></trkpt>
   <trkpt lat="42.337377" lon="2.034251"><ele>1604</ele></trkpt>
   <trkpt lat="42.337444" lon="2.034343"><ele>1605.5</ele></trkpt>
   <trkpt lat="42.337521" lon="2.034405"><ele>1605.75</ele></trkpt>
   <trkpt lat="42.33761" lon="2.034443"><ele>1607.75</ele></trkpt>
   <trkpt lat="42.3377" lon="2.03446"><ele>1609</ele></trkpt>
   <trkpt lat="42.337774" lon="2.034393"><ele>1607.75</ele></trkpt>
   <trkpt lat="42.337875" lon="2.034185"><ele>1608</ele></trkpt>
   <trkpt lat="42.338004" lon="2.034002"><ele>1608.25</ele></trkpt>
   <trkpt lat="42.338081" lon="2.033931"><ele>1609</ele></trkpt>
   <trkpt lat="42.338254" lon="2.033847"><ele>1609.5</ele></trkpt>
   <trkpt lat="42.338608" lon="2.033731"><ele>1614</ele></trkpt>
   <trkpt lat="42.338685" lon="2.033668"><ele>1615.25</ele></trkpt>
   <trkpt lat="42.338882" lon="2.03341"><ele>1614.25</ele></trkpt>
   <trkpt lat="42.338955" lon="2.033339"><ele>1614</ele></trkpt>
   <trkpt lat="42.339122" lon="2.033227"><ele>1615.5</ele></trkpt>
   <trkpt lat="42.339282" lon="2.033106"><ele>1615.75</ele></trkpt>
   <trkpt lat="42.339432" lon="2.032965"><ele>1615.25</ele></trkpt>
   <trkpt lat="42.339503" lon="2.032886"><ele>1618</ele></trkpt>
   <trkpt lat="42.339559" lon="2.03279"><ele>1619.25</ele></trkpt>
   <trkpt lat="42.339765" lon="2.032478"><ele>1621.5</ele></trkpt>
   <trkpt lat="42.33994" lon="2.032182"><ele>1621.75</ele></trkpt>
   <trkpt lat="42.340073" lon="2.031999"><ele>1623.5</ele></trkpt>
   <trkpt lat="42.340147" lon="2.031932"><ele>1625.25</ele></trkpt>
   <trkpt lat="42.340285" lon="2.03177"><ele>1626.25</ele></trkpt>
   <trkpt lat="42.340479" lon="2.031503"><ele>1626</ele></trkpt>
   <trkpt lat="42.340614" lon="2.031337"><ele>1625.75</ele></trkpt>
   <trkpt lat="42.340685" lon="2.031258"><ele>1626</ele></trkpt>
   <trkpt lat="42.340765" lon="2.031204"><ele>1627.25</ele></trkpt>
   <trkpt lat="42.340938" lon="2.031116"><ele>1628.25</ele></trkpt>
   <trkpt lat="42.341011" lon="2.031041"><ele>1629.25</ele></trkpt>
   <trkpt lat="42.341024" lon="2.030925"><ele>1630.25</ele></trkpt>
   <trkpt lat="42.340974" lon="2.030812"><ele>1630.75</ele></trkpt>
   <trkpt lat="42.340891" lon="2.03075"><ele>1631.5</ele></trkpt>
   <trkpt lat="42.340799" lon="2.030712"><ele>1630.75</ele></trkpt>
   <trkpt lat="42.340627" lon="2.030625"><ele>1629.75</ele></trkpt>
   <trkpt lat="42.340454" lon="2.030529"><ele>1631</ele></trkpt>
   <trkpt lat="42.340282" lon="2.030458"><ele>1632.25</ele></trkpt>
   <trkpt lat="42.340187" lon="2.030433"><ele>1633.5</ele></trkpt>
   <trkpt lat="42.340094" lon="2.030421"><ele>1634.25</ele></trkpt>
   <trkpt lat="42.340002" lon="2.030425"><ele>1634.5</ele></trkpt>
   <trkpt lat="42.339676" lon="2.030496"><ele>1634.5</ele></trkpt>
   <trkpt lat="42.339583" lon="2.030471"><ele>1634.75</ele></trkpt>
   <trkpt lat="42.339537" lon="2.030362"><ele>1636.25</ele></trkpt>
   <trkpt lat="42.339556" lon="2.030246"><ele>1637.5</ele></trkpt>
   <trkpt lat="42.339614" lon="2.030158"><ele>1637.5</ele></trkpt>
   <trkpt lat="42.339679" lon="2.030079"><ele>1638.5</ele></trkpt>
   <trkpt lat="42.339897" lon="2.02985"><ele>1642</ele></trkpt>
   <trkpt lat="42.340036" lon="2.029692"><ele>1641.75</ele></trkpt>
   <trkpt lat="42.340285" lon="2.029546"><ele>1647</ele></trkpt>
   <trkpt lat="42.340362" lon="2.029484"><ele>1646.75</ele></trkpt>
   <trkpt lat="42.340436" lon="2.029413"><ele>1647.25</ele></trkpt>
   <trkpt lat="42.340526" lon="2.029245"><ele>1647</ele></trkpt>
   <trkpt lat="42.34054" lon="2.029213"><ele>1646.5</ele></trkpt>
   <trkpt lat="42.340568" lon="2.029093"><ele>1646.75</ele></trkpt>
   <trkpt lat="42.340522" lon="2.028984"><ele>1647</ele></trkpt>
   <trkpt lat="42.340439" lon="2.02893"><ele>1647.25</ele></trkpt>
   <trkpt lat="42.340347" lon="2.028918"><ele>1647.25</ele></trkpt>
   <trkpt lat="42.340168" lon="2.028938"><ele>1646.75</ele></trkpt>
   <trkpt lat="42.34007" lon="2.028934"><ele>1647</ele></trkpt>
   <trkpt lat="42.339882" lon="2.028901"><ele>1648.75</ele></trkpt>
   <trkpt lat="42.339783" lon="2.028893"><ele>1649.5</ele></trkpt>
   <trkpt lat="42.339691" lon="2.028913"><ele>1649</ele></trkpt>
   <trkpt lat="42.339516" lon="2.029005"><ele>1648.75</ele></trkpt>
   <trkpt lat="42.339426" lon="2.02903"><ele>1650.75</ele></trkpt>
   <trkpt lat="42.339334" lon="2.029068"><ele>1651</ele></trkpt>
   <trkpt lat="42.339242" lon="2.029097"><ele>1651.5</ele></trkpt>
   <trkpt lat="42.339048" lon="2.029133"><ele>1652</ele></trkpt>
   <trkpt lat="42.338872" lon="2.029097"><ele>1653.25</ele></trkpt>
   <trkpt lat="42.338795" lon="2.029018"><ele>1652.5</ele></trkpt>
   <trkpt lat="42.338679" lon="2.028822"><ele>1655.5</ele></trkpt>
   <trkpt lat="42.338598" lon="2.028759"><ele>1655</ele></trkpt>
   <trkpt lat="42.338509" lon="2.028728"><ele>1655</ele></trkpt>
   <trkpt lat="42.338424" lon="2.028759"><ele>1655.25</ele></trkpt>
   <trkpt lat="42.338338" lon="2.028824"><ele>1655.75</ele></trkpt>
   <trkpt lat="42.33826" lon="2.028926"><ele>1655.75</ele></trkpt>
   <trkpt lat="42.338211" lon="2.029034"><ele>1654.5</ele></trkpt>
   <trkpt lat="42.338135" lon="2.029121"><ele>1654.5</ele></trkpt>
   <trkpt lat="42.337986" lon="2.029238"><ele>1654.75</ele></trkpt>
   <trkpt lat="42.337703" lon="2.029405"><ele>1656</ele></trkpt>
   <trkpt lat="42.337506" lon="2.029426"><ele>1657.5</ele></trkpt>
   <trkpt lat="42.337407" lon="2.029421"><ele>1657</ele></trkpt>
   <trkpt lat="42.337321" lon="2.02938"><ele>1657.5</ele></trkpt>
   <trkpt lat="42.337244" lon="2.029309"><ele>1658.5</ele></trkpt>
   <trkpt lat="42.337177" lon="2.029217"><ele>1658.75</ele></trkpt>
   <trkpt lat="42.337057" lon="2.029026"><ele>1660.75</ele></trkpt>
   <trkpt lat="42.336601" lon="2.028397"><ele>1664.25</ele></trkpt>
   <trkpt lat="42.336539" lon="2.028297"><ele>1665.75</ele></trkpt>
   <trkpt lat="42.336469" lon="2.028222"><ele>1666</ele></trkpt>
   <trkpt lat="42.336392" lon="2.028152"><ele>1665</ele></trkpt>
   <trkpt lat="42.336179" lon="2.027918"><ele>1665.75</ele></trkpt>
   <trkpt lat="42.336102" lon="2.027843"><ele>1666.25</ele></trkpt>
   <trkpt lat="42.335924" lon="2.027706"><ele>1669.5</ele></trkpt>
   <trkpt lat="42.335831" lon="2.027648"><ele>1670</ele></trkpt>
   <trkpt lat="42.335758" lon="2.027577"><ele>1669.75</ele></trkpt>
   <trkpt lat="42.335687" lon="2.027494"><ele>1670.25</ele></trkpt>
   <trkpt lat="42.335622" lon="2.027398"><ele>1671</ele></trkpt>
   <trkpt lat="42.335567" lon="2.027298"><ele>1671.25</ele></trkpt>
   <trkpt lat="42.335521" lon="2.027194"><ele>1671.25</ele></trkpt>
   <trkpt lat="42.335481" lon="2.027073"><ele>1672</ele></trkpt>
   <trkpt lat="42.335462" lon="2.026952"><ele>1674</ele></trkpt>
   <trkpt lat="42.335456" lon="2.026827"><ele>1674.25</ele></trkpt>
   <trkpt lat="42.335428" lon="2.026582"><ele>1675.5</ele></trkpt>
   <trkpt lat="42.335401" lon="2.026469"><ele>1677.25</ele></trkpt>
   <trkpt lat="42.335357" lon="2.026365"><ele>1678.75</ele></trkpt>
   <trkpt lat="42.335277" lon="2.026311"><ele>1677.5</ele></trkpt>
   <trkpt lat="42.335182" lon="2.026307"><ele>1679.25</ele></trkpt>
   <trkpt lat="42.334991" lon="2.026399"><ele>1677.25</ele></trkpt>
   <trkpt lat="42.334899" lon="2.02639"><ele>1677</ele></trkpt>
   <trkpt lat="42.334813" lon="2.026353"><ele>1678.25</ele></trkpt>
   <trkpt lat="42.334726" lon="2.026303"><ele>1680</ele></trkpt>
   <trkpt lat="42.334643" lon="2.026236"><ele>1680</ele></trkpt>
   <trkpt lat="42.334527" lon="2.026086"><ele>1682.5</ele></trkpt>
   <trkpt lat="42.334489" lon="2.025974"><ele>1683.5</ele></trkpt>
   <trkpt lat="42.334462" lon="2.025853"><ele>1684.5</ele></trkpt>
   <trkpt lat="42.334419" lon="2.025745"><ele>1685</ele></trkpt>
   <trkpt lat="42.334336" lon="2.025695"><ele>1684.75</ele></trkpt>
   <trkpt lat="42.334148" lon="2.025662"><ele>1683.75</ele></trkpt>
   <trkpt lat="42.334052" lon="2.025662"><ele>1684.75</ele></trkpt>
   <trkpt lat="42.332855" lon="2.025799"><ele>1690</ele></trkpt>
   <trkpt lat="42.332572" lon="2.025845"><ele>1689.75</ele></trkpt>
   <trkpt lat="42.33247" lon="2.025845"><ele>1690.25</ele></trkpt>
   <trkpt lat="42.332206" lon="2.025799"><ele>1691.25</ele></trkpt>
   <trkpt lat="42.332107" lon="2.025774"><ele>1691.75</ele></trkpt>
   <trkpt lat="42.331824" lon="2.025724"><ele>1691.75</ele></trkpt>
   <trkpt lat="42.331556" lon="2.025612"><ele>1693.5</ele></trkpt>
   <trkpt lat="42.331375" lon="2.02557"><ele>1693.5</ele></trkpt>
   <trkpt lat="42.331116" lon="2.025462"><ele>1696.25</ele></trkpt>
   <trkpt lat="42.330928" lon="2.025453"><ele>1698</ele></trkpt>
   <trkpt lat="42.330642" lon="2.025466"><ele>1698.5</ele></trkpt>
   <trkpt lat="42.330544" lon="2.025449"><ele>1698.75</ele></trkpt>
   <trkpt lat="42.330454" lon="2.025408"><ele>1698.5</ele></trkpt>
   <trkpt lat="42.330248" lon="2.025258"><ele>1699.75</ele></trkpt>
   <trkpt lat="42.330171" lon="2.025179"><ele>1700</ele></trkpt>
   <trkpt lat="42.330113" lon="2.025083"><ele>1701.5</ele></trkpt>
   <trkpt lat="42.329845" lon="2.024716"><ele>1703</ele></trkpt>
   <trkpt lat="42.329786" lon="2.024612"><ele>1703.5</ele></trkpt>
   <trkpt lat="42.329743" lon="2.024504"><ele>1704.5</ele></trkpt>
   <trkpt lat="42.329719" lon="2.024388"><ele>1705</ele></trkpt>
   <trkpt lat="42.329719" lon="2.024263"><ele>1705.25</ele></trkpt>
   <trkpt lat="42.329752" lon="2.024113"><ele>1707</ele></trkpt>
   <trkpt lat="42.329786" lon="2.023996"><ele>1708.25</ele></trkpt>
   <trkpt lat="42.329845" lon="2.023638"><ele>1709.25</ele></trkpt>
   <trkpt lat="42.329873" lon="2.023392"><ele>1710.75</ele></trkpt>
   <trkpt lat="42.329882" lon="2.023272"><ele>1712</ele></trkpt>
   <trkpt lat="42.329866" lon="2.023147"><ele>1712.25</ele></trkpt>
   <trkpt lat="42.329839" lon="2.023018"><ele>1711.75</ele></trkpt>
   <trkpt lat="42.329814" lon="2.022772"><ele>1712.75</ele></trkpt>
   <trkpt lat="42.329811" lon="2.022639"><ele>1712.75</ele></trkpt>
   <trkpt lat="42.329823" lon="2.022372"><ele>1714.25</ele></trkpt>
   <trkpt lat="42.329817" lon="2.022252"><ele>1714.75</ele></trkpt>
   <trkpt lat="42.329756" lon="2.02216"><ele>1714.75</ele></trkpt>
   <trkpt lat="42.329663" lon="2.022131"><ele>1714.5</ele></trkpt>
   <trkpt lat="42.329469" lon="2.022118"><ele>1714.5</ele></trkpt>
   <trkpt lat="42.329377" lon="2.022097"><ele>1713.75</ele></trkpt>
   <trkpt lat="42.329294" lon="2.022048"><ele>1713.75</ele></trkpt>
   <trkpt lat="42.329217" lon="2.021985"><ele>1714.5</ele></trkpt>
   <trkpt lat="42.328961" lon="2.021814"><ele>1715.75</ele></trkpt>
   <trkpt lat="42.328155" lon="2.021602"><ele>1718.75</ele></trkpt>
   <trkpt lat="42.327964" lon="2.02156"><ele>1719.25</ele></trkpt>
   <trkpt lat="42.327869" lon="2.021548"><ele>1719.25</ele></trkpt>
   <trkpt lat="42.327693" lon="2.021452"><ele>1720.5</ele></trkpt>
   <trkpt lat="42.327607" lon="2.021394"><ele>1721</ele></trkpt>
   <trkpt lat="42.327539" lon="2.021302"><ele>1721.75</ele></trkpt>
   <trkpt lat="42.32749" lon="2.021202"><ele>1722.25</ele></trkpt>
   <trkpt lat="42.327462" lon="2.021086"><ele>1722.5</ele></trkpt>
   <trkpt lat="42.327385" lon="2.020536"><ele>1723</ele></trkpt>
   <trkpt lat="42.327336" lon="2.020303"><ele>1722.25</ele></trkpt>
   <trkpt lat="42.327336" lon="2.019791"><ele>1725</ele></trkpt>
   <trkpt lat="42.327351" lon="2.019662"><ele>1725.25</ele></trkpt>
   <trkpt lat="42.327373" lon="2.019541"><ele>1725.25</ele></trkpt>
   <trkpt lat="42.327447" lon="2.019316"><ele>1725.5</ele></trkpt>
   <trkpt lat="42.327502" lon="2.019212"><ele>1726.25</ele></trkpt>
   <trkpt lat="42.327721" lon="2.018851"><ele>1726.5</ele></trkpt>
   <trkpt lat="42.32809" lon="2.018346"><ele>1728.5</ele></trkpt>
   <trkpt lat="42.328164" lon="2.018267"><ele>1728.75</ele></trkpt>
   <trkpt lat="42.328229" lon="2.018179"><ele>1728.25</ele></trkpt>
   <trkpt lat="42.328352" lon="2.017996"><ele>1726.5</ele></trkpt>
   <trkpt lat="42.328385" lon="2.017961"><ele>1725.5</ele></trkpt>
   <trkpt lat="42.328564" lon="2.01778"><ele>1725.5</ele></trkpt>
   <trkpt lat="42.328641" lon="2.017713"><ele>1726.5</ele></trkpt>
   <trkpt lat="42.328709" lon="2.017634"><ele>1727.75</ele></trkpt>
   <trkpt lat="42.32877" lon="2.017538"><ele>1728.25</ele></trkpt>
   <trkpt lat="42.328804" lon="2.017426"><ele>1728.5</ele></trkpt>
   <trkpt lat="42.328823" lon="2.017301"><ele>1728.75</ele></trkpt>
   <trkpt lat="42.328829" lon="2.016664"><ele>1730</ele></trkpt>
   <trkpt lat="42.328838" lon="2.016414"><ele>1729.25</ele></trkpt>
   <trkpt lat="42.328854" lon="2.016297"><ele>1729</ele></trkpt>
   <trkpt lat="42.328921" lon="2.016056"><ele>1729.25</ele></trkpt>
   <trkpt lat="42.329094" lon="2.015785"><ele>1731</ele></trkpt>
   <trkpt lat="42.329158" lon="2.015698"><ele>1731</ele></trkpt>
   <trkpt lat="42.329457" lon="2.015398"><ele>1732.75</ele></trkpt>
   <trkpt lat="42.329531" lon="2.015315"><ele>1733</ele></trkpt>
   <trkpt lat="42.329663" lon="2.015132"><ele>1731.25</ele></trkpt>
   <trkpt lat="42.329882" lon="2.014915"><ele>1730.75</ele></trkpt>
   <trkpt lat="42.329919" lon="2.014898"><ele>1731.5</ele></trkpt>
   <trkpt lat="42.330334" lon="2.014478"><ele>1734</ele></trkpt>
   <trkpt lat="42.330393" lon="2.01439"><ele>1733.25</ele></trkpt>
   <trkpt lat="42.330445" lon="2.014291"><ele>1732</ele></trkpt>
   <trkpt lat="42.330633" lon="2.014045"><ele>1731</ele></trkpt>
   <trkpt lat="42.330707" lon="2.013974"><ele>1731</ele></trkpt>
   <trkpt lat="42.33079" lon="2.013916"><ele>1731</ele></trkpt>
   <trkpt lat="42.330962" lon="2.013824"><ele>1728.75</ele></trkpt>
   <trkpt lat="42.331055" lon="2.013795"><ele>1728.25</ele></trkpt>
   <trkpt lat="42.331144" lon="2.013783"><ele>1728.25</ele></trkpt>
   <trkpt lat="42.331421" lon="2.013808"><ele>1731</ele></trkpt>
   <trkpt lat="42.331606" lon="2.013783"><ele>1732.75</ele></trkpt>
   <trkpt lat="42.331701" lon="2.013762"><ele>1733.5</ele></trkpt>
   <trkpt lat="42.332076" lon="2.013641"><ele>1733</ele></trkpt>
   <trkpt lat="42.332172" lon="2.013629"><ele>1732.5</ele></trkpt>
   <trkpt lat="42.332264" lon="2.013645"><ele>1733</ele></trkpt>
   <trkpt lat="42.332443" lon="2.013699"><ele>1734.5</ele></trkpt>
   <trkpt lat="42.332532" lon="2.013716"><ele>1735</ele></trkpt>
   <trkpt lat="42.332717" lon="2.013733"><ele>1735.5</ele></trkpt>
   <trkpt lat="42.332815" lon="2.013733"><ele>1735.25</ele></trkpt>
   <trkpt lat="42.332904" lon="2.013716"><ele>1733.75</ele></trkpt>
   <trkpt lat="42.333" lon="2.01372"><ele>1733.25</ele></trkpt>
   <trkpt lat="42.3332" lon="2.013762"><ele>1733</ele></trkpt>
   <trkpt lat="42.333385" lon="2.01382"><ele>1735</ele></trkpt>
   <trkpt lat="42.333474" lon="2.013787"><ele>1737.25</ele></trkpt>
   <trkpt lat="42.333511" lon="2.013674"><ele>1737.5</ele></trkpt>
   <trkpt lat="42.333514" lon="2.013549"><ele>1737</ele></trkpt>
   <trkpt lat="42.333495" lon="2.0133"><ele>1736.25</ele></trkpt>
   <trkpt lat="42.33348" lon="2.013179"><ele>1735.75</ele></trkpt>
   <trkpt lat="42.333465" lon="2.012829"><ele>1736.25</ele></trkpt>
   <trkpt lat="42.33348" lon="2.012579"><ele>1736</ele></trkpt>
   <trkpt lat="42.333498" lon="2.012459"><ele>1735.5</ele></trkpt>
   <trkpt lat="42.333523" lon="2.012329"><ele>1734</ele></trkpt>
   <trkpt lat="42.333575" lon="2.012229"><ele>1734.25</ele></trkpt>
   <trkpt lat="42.333745" lon="2.011938"><ele>1735.5</ele></trkpt>
   <trkpt lat="42.333803" lon="2.011851"><ele>1734.75</ele></trkpt>
   <trkpt lat="42.333942" lon="2.011684"><ele>1735.5</ele></trkpt>
   <trkpt lat="42.334576" lon="2.011159"><ele>1734.25</ele></trkpt>
   <trkpt lat="42.334834" lon="2.011014"><ele>1732.75</ele></trkpt>
   <trkpt lat="42.334924" lon="2.010993"><ele>1733.75</ele></trkpt>
   <trkpt lat="42.335019" lon="2.010989"><ele>1735</ele></trkpt>
   <trkpt lat="42.335111" lon="2.011001"><ele>1735.5</ele></trkpt>
   <trkpt lat="42.335493" lon="2.011076"><ele>1735.25</ele></trkpt>
   <trkpt lat="42.335675" lon="2.011159"><ele>1738</ele></trkpt>
   <trkpt lat="42.33577" lon="2.01118"><ele>1738.5</ele></trkpt>
   <trkpt lat="42.335865" lon="2.011172"><ele>1737.75</ele></trkpt>
   <trkpt lat="42.335955" lon="2.011139"><ele>1737</ele></trkpt>
   <trkpt lat="42.335998" lon="2.011061"><ele>1736</ele></trkpt>
   <trkpt lat="42.336016" lon="2.011"><ele>1736.25</ele></trkpt>
   <trkpt lat="42.336018" lon="2.010926"><ele>1736.5</ele></trkpt>
   <trkpt lat="42.336006" lon="2.010876"><ele>1736.25</ele></trkpt>
   <trkpt lat="42.335978" lon="2.010802"><ele>1736.5</ele></trkpt>
   <trkpt lat="42.335807" lon="2.010527"><ele>1737.5</ele></trkpt>
   <trkpt lat="42.335677" lon="2.010278"><ele>1737.5</ele></trkpt>
   <trkpt lat="42.335515" lon="2.009937"><ele>1738.25</ele></trkpt>
   <trkpt lat="42.335374" lon="2.009672"><ele>1739.5</ele></trkpt>
   <trkpt lat="42.335274" lon="2.009482"><ele>1737.75</ele></trkpt>
   <trkpt lat="42.335224" lon="2.009359"><ele>1738.25</ele></trkpt>
   <trkpt lat="42.335141" lon="2.009116"><ele>1740.25</ele></trkpt>
   <trkpt lat="42.335082" lon="2.00901"><ele>1740</ele></trkpt>
   <trkpt lat="42.335039" lon="2.008968"><ele>1738.75</ele></trkpt>
   <trkpt lat="42.335" lon="2.008949"><ele>1737.25</ele></trkpt>
   <trkpt lat="42.334954" lon="2.00894"><ele>1738.75</ele></trkpt>
   <trkpt lat="42.334865" lon="2.008958"><ele>1740.5</ele></trkpt>
   <trkpt lat="42.334628" lon="2.009095"><ele>1740.25</ele></trkpt>
   <trkpt lat="42.334518" lon="2.009141"><ele>1740</ele></trkpt>
   <trkpt lat="42.334401" lon="2.009175"><ele>1739.75</ele></trkpt>
   <trkpt lat="42.334155" lon="2.009218"><ele>1740</ele></trkpt>
   <trkpt lat="42.334046" lon="2.009229"><ele>1740.25</ele></trkpt>
   <trkpt lat="42.333745" lon="2.009234"><ele>1741</ele></trkpt>
   <trkpt lat="42.333373" lon="2.009196"><ele>1741</ele></trkpt>
   <trkpt lat="42.333227" lon="2.009167"><ele>1741.5</ele></trkpt>
   <trkpt lat="42.332971" lon="2.00909"><ele>1742.25</ele></trkpt>
   <trkpt lat="42.332874" lon="2.009054"><ele>1742</ele></trkpt>
   <trkpt lat="42.33272" lon="2.00898"><ele>1741.5</ele></trkpt>
   <trkpt lat="42.332668" lon="2.008947"><ele>1741.5</ele></trkpt>
   <trkpt lat="42.332586" lon="2.008873"><ele>1742</ele></trkpt>
   <trkpt lat="42.332545" lon="2.008823"><ele>1742</ele></trkpt>
   <trkpt lat="42.332504" lon="2.00876"><ele>1741.75</ele></trkpt>
   <trkpt lat="42.332479" lon="2.008687"><ele>1742</ele></trkpt>
   <trkpt lat="42.332461" lon="2.008609"><ele>1742.25</ele></trkpt>
   <trkpt lat="42.332459" lon="2.008509"><ele>1742</ele></trkpt>
   <trkpt lat="42.332467" lon="2.008429"><ele>1742.25</ele></trkpt>
   <trkpt lat="42.332489" lon="2.008322"><ele>1743.25</ele></trkpt>
   <trkpt lat="42.332642" lon="2.007842"><ele>1743.5</ele></trkpt>
   <trkpt lat="42.332702" lon="2.007625"><ele>1744</ele></trkpt>
   <trkpt lat="42.332957" lon="2.006562"><ele>1746</ele></trkpt>
   <trkpt lat="42.332982" lon="2.00641"><ele>1746</ele></trkpt>
   <trkpt lat="42.332987" lon="2.006341"><ele>1745.75</ele></trkpt>
   <trkpt lat="42.332975" lon="2.00622"><ele>1745.25</ele></trkpt>
   <trkpt lat="42.332933" lon="2.006119"><ele>1745</ele></trkpt>
   <trkpt lat="42.332901" lon="2.006071"><ele>1745.5</ele></trkpt>
   <trkpt lat="42.332848" lon="2.00602"><ele>1746.25</ele></trkpt>
   <trkpt lat="42.332807" lon="2.005993"><ele>1746.75</ele></trkpt>
   <trkpt lat="42.331886" lon="2.005659"><ele>1747</ele></trkpt>
   <trkpt lat="42.331705" lon="2.005565"><ele>1747</ele></trkpt>
   <trkpt lat="42.331403" lon="2.005369"><ele>1746.5</ele></trkpt>
   <trkpt lat="42.331227" lon="2.005222"><ele>1746.5</ele></trkpt>
   <trkpt lat="42.331141" lon="2.00514"><ele>1746.5</ele></trkpt>
   <trkpt lat="42.331051" lon="2.005014"><ele>1746.75</ele></trkpt>
   <trkpt lat="42.331001" lon="2.004932"><ele>1746.5</ele></trkpt>
   <trkpt lat="42.33096" lon="2.004847"><ele>1746.5</ele></trkpt>
   <trkpt lat="42.33094" lon="2.004736"><ele>1747.5</ele></trkpt>
   <trkpt lat="42.330936" lon="2.004639"><ele>1747</ele></trkpt>
   <trkpt lat="42.330956" lon="2.004516"><ele>1747</ele></trkpt>
   <trkpt lat="42.330999" lon="2.004402"><ele>1746.75</ele></trkpt>
   <trkpt lat="42.331053" lon="2.004321"><ele>1746.75</ele></trkpt>
   <trkpt lat="42.331093" lon="2.004282"><ele>1747</ele></trkpt>
   <trkpt lat="42.331142" lon="2.004253"><ele>1747.5</ele></trkpt>
   <trkpt lat="42.33119" lon="2.004236"><ele>1747.75</ele></trkpt>
   <trkpt lat="42.331318" lon="2.004208"><ele>1748.5</ele></trkpt>
   <trkpt lat="42.331417" lon="2.004168"><ele>1749</ele></trkpt>
   <trkpt lat="42.331481" lon="2.004126"><ele>1749.75</ele></trkpt>
   <trkpt lat="42.331611" lon="2.004004"><ele>1750</ele></trkpt>
   <trkpt lat="42.331835" lon="2.003699"><ele>1750</ele></trkpt>
   <trkpt lat="42.33198" lon="2.003472"><ele>1750.25</ele></trkpt>
   <trkpt lat="42.33221" lon="2.003079"><ele>1750</ele></trkpt>
   <trkpt lat="42.332334" lon="2.002894"><ele>1750</ele></trkpt>
   <trkpt lat="42.332471" lon="2.002734"><ele>1749.5</ele></trkpt>
   <trkpt lat="42.332627" lon="2.002599"><ele>1750</ele></trkpt>
   <trkpt lat="42.332828" lon="2.002457"><ele>1750.5</ele></trkpt>
   <trkpt lat="42.333118" lon="2.00228"><ele>1751.75</ele></trkpt>
   <trkpt lat="42.333604" lon="2.002029"><ele>1752.75</ele></trkpt>
   <trkpt lat="42.333932" lon="2.001864"><ele>1752.25</ele></trkpt>
   <trkpt lat="42.334026" lon="2.001841"><ele>1752.75</ele></trkpt>
   <trkpt lat="42.334123" lon="2.001829"><ele>1754</ele></trkpt>
   <trkpt lat="42.334213" lon="2.001804"><ele>1754.5</ele></trkpt>
   <trkpt lat="42.334303" lon="2.001739"><ele>1754.25</ele></trkpt>
   <trkpt lat="42.334371" lon="2.001663"><ele>1753.5</ele></trkpt>
   <trkpt lat="42.334418" lon="2.001582"><ele>1754</ele></trkpt>
   <trkpt lat="42.334509" lon="2.001375"><ele>1756.75</ele></trkpt>
   <trkpt lat="42.334667" lon="2.000962"><ele>1756</ele></trkpt>
   <trkpt lat="42.334709" lon="2.00088"><ele>1756</ele></trkpt>
   <trkpt lat="42.334765" lon="2.000796"><ele>1756.5</ele></trkpt>
   <trkpt lat="42.335311" lon="2.000122"><ele>1758.5</ele></trkpt>
   <trkpt lat="42.335361" lon="2.000038"><ele>1758.75</ele></trkpt>
   <trkpt lat="42.335376" lon="1.999961"><ele>1759.25</ele></trkpt>
   <trkpt lat="42.335379" lon="1.999895"><ele>1760.25</ele></trkpt>
   <trkpt lat="42.33536" lon="1.999818"><ele>1760.5</ele></trkpt>
   <trkpt lat="42.334964" lon="1.999081"><ele>1759.75</ele></trkpt>
   <trkpt lat="42.33491" lon="1.998954"><ele>1759.75</ele></trkpt>
   <trkpt lat="42.334896" lon="1.998875"><ele>1760.25</ele></trkpt>
   <trkpt lat="42.334899" lon="1.998717"><ele>1759.75</ele></trkpt>
   <trkpt lat="42.334916" lon="1.998609"><ele>1760</ele></trkpt>
   <trkpt lat="42.334936" lon="1.998535"><ele>1760</ele></trkpt>
   <trkpt lat="42.334984" lon="1.998404"><ele>1760.75</ele></trkpt>
   <trkpt lat="42.335083" lon="1.998187"><ele>1761.75</ele></trkpt>
   <trkpt lat="42.335391" lon="1.997551"><ele>1763.5</ele></trkpt>
   <trkpt lat="42.335483" lon="1.997342"><ele>1763.5</ele></trkpt>
   <trkpt lat="42.335655" lon="1.996907"><ele>1764</ele></trkpt>
   <trkpt lat="42.335773" lon="1.996666"><ele>1763.75</ele></trkpt>
   <trkpt lat="42.335779" lon="1.996536"><ele>1766</ele></trkpt>
   <trkpt lat="42.335746" lon="1.996444"><ele>1766.5</ele></trkpt>
   <trkpt lat="42.335722" lon="1.996409"><ele>1766.25</ele></trkpt>
   <trkpt lat="42.335633" lon="1.996341"><ele>1766.25</ele></trkpt>
   <trkpt lat="42.335477" lon="1.996259"><ele>1765.25</ele></trkpt>
   <trkpt lat="42.335304" lon="1.996145"><ele>1765.25</ele></trkpt>
   <trkpt lat="42.33523" lon="1.996085"><ele>1765.25</ele></trkpt>
   <trkpt lat="42.335171" lon="1.996024"><ele>1765.25</ele></trkpt>
   <trkpt lat="42.335133" lon="1.995967"><ele>1765.5</ele></trkpt>
   <trkpt lat="42.335089" lon="1.995882"><ele>1766.25</ele></trkpt>
   <trkpt lat="42.335072" lon="1.995796"><ele>1767</ele></trkpt>
   <trkpt lat="42.335064" lon="1.995714"><ele>1766.75</ele></trkpt>
   <trkpt lat="42.335071" lon="1.995481"><ele>1768.75</ele></trkpt>
   <trkpt lat="42.335032" lon="1.995341"><ele>1768.75</ele></trkpt>
   <trkpt lat="42.334993" lon="1.995286"><ele>1767.5</ele></trkpt>
   <trkpt lat="42.334817" lon="1.995122"><ele>1768.75</ele></trkpt>
   <trkpt lat="42.334768" lon="1.995074"><ele>1768.75</ele></trkpt>
   <trkpt lat="42.334706" lon="1.994997"><ele>1769.25</ele></trkpt>
   <trkpt lat="42.334666" lon="1.994899"><ele>1768.75</ele></trkpt>
   <trkpt lat="42.33464" lon="1.994782"><ele>1769.25</ele></trkpt>
   <trkpt lat="42.334637" lon="1.994679"><ele>1770</ele></trkpt>
   <trkpt lat="42.334646" lon="1.994559"><ele>1770.5</ele></trkpt>
   <trkpt lat="42.334662" lon="1.994446"><ele>1771.5</ele></trkpt>
   <trkpt lat="42.33484" lon="1.99346"><ele>1777.25</ele></trkpt>
   <trkpt lat="42.334869" lon="1.99334"><ele>1777.75</ele></trkpt>
   <trkpt lat="42.334905" lon="1.993225"><ele>1778.25</ele></trkpt>
   <trkpt lat="42.335124" lon="1.992607"><ele>1782</ele></trkpt>
   <trkpt lat="42.335233" lon="1.99221"><ele>1784.25</ele></trkpt>
   <trkpt lat="42.335296" lon="1.991996"><ele>1785.5</ele></trkpt>
   <trkpt lat="42.335392" lon="1.991759"><ele>1790</ele></trkpt>
   <trkpt lat="42.335441" lon="1.991669"><ele>1790.5</ele></trkpt>
   <trkpt lat="42.335579" lon="1.991511"><ele>1791.5</ele></trkpt>
   <trkpt lat="42.335724" lon="1.991365"><ele>1792</ele></trkpt>

  </trkseg>
 </trk>
</gpx>