<?xml version="1.0" encoding="UTF-8"?>
<!-- track-length = 10359 filtered ascend = 478 plain-ascend = 410 cost=14009 energy=0.1kwh time=1h 26m 56s -->
<gpx 
 xmlns="http://www.topografix.com/GPX/1/1" 
 xmlns:xsi="http://www.w3.org/2001/XMLSchema-instance" 
 xsi:schemaLocation="http://www.topografix.com/GPX/1/1 http://www.topografix.com/GPX/1/1/gpx.xsd" 
 version="1.1" 
 creator="BRouter-Web 0.18.1">
 <trk>
  <name>Chantepérier -&gt; Ornon (10.4km)</name>
  <trkseg>
      <trkpt lat="44.936656" lon="5.97415"><ele>894.75</ele></trkpt>
   <trkpt lat="44.936669" lon="5.974138"><ele>895</ele></trkpt>
   <trkpt lat="44.936762" lon="5.97405"><ele>895.75</ele></trkpt>
   <trkpt lat="44.936777" lon="5.974035"><ele>896</ele></trkpt>
   <trkpt lat="44.936828" lon="5.973987"><ele>896.5</ele></trkpt>
   <trkpt lat="44.93684" lon="5.973976"><ele>896.5</ele></trkpt>
   <trkpt lat="44.937432" lon="5.973445"><ele>901</ele></trkpt>
   <trkpt lat="44.937736" lon="5.973206"><ele>901</ele></trkpt>
   <trkpt lat="44.937875" lon="5.973138"><ele>900.5</ele></trkpt>
   <trkpt lat="44.93984" lon="5.972545"><ele>898.75</ele></trkpt>
   <trkpt lat="44.941676" lon="5.972023"><ele>903.5</ele></trkpt>
   <trkpt lat="44.94189" lon="5.97195"><ele>903.75</ele></trkpt>
   <trkpt lat="44.942001" lon="5.971912"><ele>904.25</ele></trkpt>
   <trkpt lat="44.942071" lon="5.971883"><ele>904.75</ele></trkpt>
   <trkpt lat="44.942168" lon="5.971847"><ele>905.25</ele></trkpt>
   <trkpt lat="44.942914" lon="5.971444"><ele>908.25</ele></trkpt>
   <trkpt lat="44.945055" lon="5.970269"><ele>918.5</ele></trkpt>
   <trkpt lat="44.945187" lon="5.970171"><ele>919.5</ele></trkpt>
   <trkpt lat="44.945654" lon="5.969682"><ele>922</ele></trkpt>
   <trkpt lat="44.946138" lon="5.969088"><ele>925.25</ele></trkpt>
   <trkpt lat="44.94634" lon="5.968825"><ele>925.75</ele></trkpt>
   <trkpt lat="44.946393" lon="5.968787"><ele>926.25</ele></trkpt>
   <trkpt lat="44.946407" lon="5.96877"><ele>926.25</ele></trkpt>
   <trkpt lat="44.946487" lon="5.96868"><ele>926.75</ele></trkpt>
   <trkpt lat="44.946857" lon="5.968272"><ele>926.75</ele></trkpt>
   <trkpt lat="44.947925" lon="5.967362"><ele>932.25</ele></trkpt>
   <trkpt lat="44.948065" lon="5.967269"><ele>933</ele></trkpt>
   <trkpt lat="44.948434" lon="5.967073"><ele>935.75</ele></trkpt>
   <trkpt lat="44.948742" lon="5.966946"><ele>937.25</ele></trkpt>
   <trkpt lat="44.949407" lon="5.96669"><ele>939</ele></trkpt>
   <trkpt lat="44.949666" lon="5.966609"><ele>939.25</ele></trkpt>
   <trkpt lat="44.949864" lon="5.966616"><ele>941.25</ele></trkpt>
   <trkpt lat="44.950294" lon="5.966602"><ele>943.25</ele></trkpt>
   <trkpt lat="44.950456" lon="5.96655"><ele>944</ele></trkpt>
   <trkpt lat="44.950703" lon="5.966455"><ele>943.75</ele></trkpt>
   <trkpt lat="44.950911" lon="5.966408"><ele>944.25</ele></trkpt>
   <trkpt lat="44.951189" lon="5.966389"><ele>945.5</ele></trkpt>
   <trkpt lat="44.951498" lon="5.966423"><ele>948.5</ele></trkpt>
   <trkpt lat="44.951709" lon="5.966429"><ele>949.75</ele></trkpt>
   <trkpt lat="44.951922" lon="5.966408"><ele>951</ele></trkpt>
   <trkpt lat="44.952519" lon="5.966241"><ele>949.5</ele></trkpt>
   <trkpt lat="44.952623" lon="5.966199"><ele>949.5</ele></trkpt>
   <trkpt lat="44.952752" lon="5.966157"><ele>950</ele></trkpt>
   <trkpt lat="44.952935" lon="5.966061"><ele>950.25</ele></trkpt>
   <trkpt lat="44.953194" lon="5.965849"><ele>951</ele></trkpt>
   <trkpt lat="44.953648" lon="5.965441"><ele>954</ele></trkpt>
   <trkpt lat="44.953901" lon="5.965196"><ele>956.25</ele></trkpt>
   <trkpt lat="44.954133" lon="5.964927"><ele>956</ele></trkpt>
   <trkpt lat="44.954329" lon="5.964643"><ele>956.75</ele></trkpt>
   <trkpt lat="44.955774" lon="5.96238"><ele>964</ele></trkpt>
   <trkpt lat="44.955877" lon="5.962257"><ele>964.5</ele></trkpt>
   <trkpt lat="44.955945" lon="5.962195"><ele>965</ele></trkpt>
   <trkpt lat="44.956601" lon="5.961694"><ele>966.75</ele></trkpt>
   <trkpt lat="44.956707" lon="5.961595"><ele>966.75</ele></trkpt>
   <trkpt lat="44.956902" lon="5.961464"><ele>967</ele></trkpt>
   <trkpt lat="44.956993" lon="5.961451"><ele>967.25</ele></trkpt>
   <trkpt lat="44.95705" lon="5.961462"><ele>967.5</ele></trkpt>
   <trkpt lat="44.957101" lon="5.96149"><ele>967.75</ele></trkpt>
   <trkpt lat="44.957291" lon="5.961641"><ele>969</ele></trkpt>
   <trkpt lat="44.957398" lon="5.961696"><ele>970</ele></trkpt>
   <trkpt lat="44.957516" lon="5.961715"><ele>971</ele></trkpt>
   <trkpt lat="44.957652" lon="5.961704"><ele>971.75</ele></trkpt>
   <trkpt lat="44.958121" lon="5.961582"><ele>974.5</ele></trkpt>
   <trkpt lat="44.958532" lon="5.961511"><ele>978</ele></trkpt>
   <trkpt lat="44.958676" lon="5.96143"><ele>978.5</ele></trkpt>
   <trkpt lat="44.95897" lon="5.961161"><ele>979.25</ele></trkpt>
   <trkpt lat="44.959094" lon="5.961068"><ele>979.75</ele></trkpt>
   <trkpt lat="44.959226" lon="5.961022"><ele>980.5</ele></trkpt>
   <trkpt lat="44.959395" lon="5.961017"><ele>981.5</ele></trkpt>
   <trkpt lat="44.960533" lon="5.9612"><ele>987.75</ele></trkpt>
   <trkpt lat="44.960692" lon="5.961246"><ele>989</ele></trkpt>
   <trkpt lat="44.960844" lon="5.961323"><ele>991.25</ele></trkpt>
   <trkpt lat="44.961099" lon="5.961536"><ele>995.75</ele></trkpt>
   <trkpt lat="44.961219" lon="5.961582"><ele>996.5</ele></trkpt>
   <trkpt lat="44.961325" lon="5.961584"><ele>996</ele></trkpt>
   <trkpt lat="44.961516" lon="5.961562"><ele>995.25</ele></trkpt>
   <trkpt lat="44.961819" lon="5.961492"><ele>994.75</ele></trkpt>
   <trkpt lat="44.962104" lon="5.961389"><ele>993.5</ele></trkpt>
   <trkpt lat="44.962227" lon="5.961369"><ele>994.5</ele></trkpt>
   <trkpt lat="44.962376" lon="5.961374"><ele>996.75</ele></trkpt>
   <trkpt lat="44.963072" lon="5.96156"><ele>1009</ele></trkpt>
   <trkpt lat="44.963167" lon="5.961567"><ele>1009.5</ele></trkpt>
   <trkpt lat="44.963261" lon="5.961551"><ele>1009.25</ele></trkpt>
   <trkpt lat="44.96336" lon="5.96147"><ele>1005.75</ele></trkpt>
   <trkpt lat="44.963648" lon="5.961272"><ele>1001.25</ele></trkpt>
   <trkpt lat="44.963742" lon="5.961226"><ele>1001.25</ele></trkpt>
   <trkpt lat="44.963856" lon="5.961204"><ele>1001.75</ele></trkpt>
   <trkpt lat="44.963979" lon="5.961237"><ele>1003</ele></trkpt>
   <trkpt lat="44.964249" lon="5.961395"><ele>1007.75</ele></trkpt>
   <trkpt lat="44.964359" lon="5.961442"><ele>1010.5</ele></trkpt>
   <trkpt lat="44.964471" lon="5.961415"><ele>1010.75</ele></trkpt>
   <trkpt lat="44.96455" lon="5.961349"><ele>1011</ele></trkpt>
   <trkpt lat="44.964651" lon="5.961198"><ele>1009</ele></trkpt>
   <trkpt lat="44.964811" lon="5.960937"><ele>1006.75</ele></trkpt>
   <trkpt lat="44.964923" lon="5.96082"><ele>1006.75</ele></trkpt>
   <trkpt lat="44.965042" lon="5.960759"><ele>1007.5</ele></trkpt>
   <trkpt lat="44.965167" lon="5.960746"><ele>1008.75</ele></trkpt>
   <trkpt lat="44.965375" lon="5.960781"><ele>1011.25</ele></trkpt>
   <trkpt lat="44.965823" lon="5.960901"><ele>1015.75</ele></trkpt>
   <trkpt lat="44.966006" lon="5.960921"><ele>1016</ele></trkpt>
   <trkpt lat="44.966203" lon="5.96091"><ele>1014.75</ele></trkpt>
   <trkpt lat="44.966438" lon="5.960875"><ele>1012.5</ele></trkpt>
   <trkpt lat="44.966618" lon="5.960862"><ele>1012.5</ele></trkpt>
   <trkpt lat="44.967437" lon="5.961082"><ele>1015.75</ele></trkpt>
   <trkpt lat="44.968381" lon="5.961303"><ele>1018.25</ele></trkpt>
   <trkpt lat="44.968598" lon="5.961319"><ele>1019</ele></trkpt>
   <trkpt lat="44.968789" lon="5.961294"><ele>1019</ele></trkpt>
   <trkpt lat="44.968941" lon="5.961259"><ele>1019</ele></trkpt>
   <trkpt lat="44.969343" lon="5.961079"><ele>1018.75</ele></trkpt>
   <trkpt lat="44.969755" lon="5.96088"><ele>1019.5</ele></trkpt>
   <trkpt lat="44.969914" lon="5.960761"><ele>1019.75</ele></trkpt>
   <trkpt lat="44.97001" lon="5.960656"><ele>1019.5</ele></trkpt>
   <trkpt lat="44.970324" lon="5.96002"><ele>1016.25</ele></trkpt>
   <trkpt lat="44.970355" lon="5.959957"><ele>1016.5</ele></trkpt>
   <trkpt lat="44.9705" lon="5.959646"><ele>1017.75</ele></trkpt>
   <trkpt lat="44.970589" lon="5.959487"><ele>1019</ele></trkpt>
   <trkpt lat="44.970641" lon="5.959432"><ele>1019.5</ele></trkpt>
   <trkpt lat="44.970704" lon="5.95939"><ele>1020.25</ele></trkpt>
   <trkpt lat="44.970783" lon="5.95936"><ele>1020.75</ele></trkpt>
   <trkpt lat="44.970915" lon="5.959362"><ele>1021.5</ele></trkpt>
   <trkpt lat="44.971006" lon="5.959386"><ele>1021.75</ele></trkpt>
   <trkpt lat="44.971557" lon="5.959572"><ele>1024.75</ele></trkpt>
   <trkpt lat="44.971881" lon="5.959682"><ele>1026.5</ele></trkpt>
   <trkpt lat="44.973954" lon="5.960362"><ele>1035</ele></trkpt>
   <trkpt lat="44.974274" lon="5.960468"><ele>1036</ele></trkpt>
   <trkpt lat="44.976247" lon="5.961099"><ele>1045</ele></trkpt>
   <trkpt lat="44.976288" lon="5.961114"><ele>1045.25</ele></trkpt>
   <trkpt lat="44.976845" lon="5.961312"><ele>1048</ele></trkpt>
   <trkpt lat="44.977811" lon="5.961613"><ele>1054</ele></trkpt>
   <trkpt lat="44.978952" lon="5.961983"><ele>1062.75</ele></trkpt>
   <trkpt lat="44.979108" lon="5.962062"><ele>1064.25</ele></trkpt>
   <trkpt lat="44.979213" lon="5.962149"><ele>1065.25</ele></trkpt>
   <trkpt lat="44.979323" lon="5.962312"><ele>1066.75</ele></trkpt>
   <trkpt lat="44.979596" lon="5.962819"><ele>1070</ele></trkpt>
   <trkpt lat="44.980128" lon="5.963726"><ele>1075.75</ele></trkpt>
   <trkpt lat="44.98023" lon="5.963876"><ele>1076.5</ele></trkpt>
   <trkpt lat="44.980386" lon="5.964026"><ele>1077.75</ele></trkpt>
   <trkpt lat="44.980486" lon="5.964084"><ele>1078.25</ele></trkpt>
   <trkpt lat="44.980514" lon="5.964086"><ele>1078.5</ele></trkpt>
   <trkpt lat="44.980599" lon="5.964093"><ele>1079.25</ele></trkpt>
   <trkpt lat="44.98072" lon="5.964079"><ele>1080</ele></trkpt>
   <trkpt lat="44.980856" lon="5.964036"><ele>1081</ele></trkpt>
   <trkpt lat="44.980968" lon="5.963966"><ele>1082.25</ele></trkpt>
   <trkpt lat="44.98178" lon="5.963381"><ele>1090</ele></trkpt>
   <trkpt lat="44.981945" lon="5.963283"><ele>1092</ele></trkpt>
   <trkpt lat="44.982058" lon="5.963252"><ele>1093.25</ele></trkpt>
   <trkpt lat="44.98218" lon="5.96326"><ele>1094.5</ele></trkpt>
   <trkpt lat="44.982325" lon="5.963303"><ele>1095.75</ele></trkpt>
   <trkpt lat="44.982467" lon="5.963397"><ele>1096.75</ele></trkpt>
   <trkpt lat="44.982552" lon="5.9635"><ele>1097.5</ele></trkpt>
   <trkpt lat="44.982625" lon="5.963635"><ele>1098.25</ele></trkpt>
   <trkpt lat="44.982689" lon="5.963777"><ele>1099</ele></trkpt>
   <trkpt lat="44.982781" lon="5.964132"><ele>1100</ele></trkpt>
   <trkpt lat="44.982917" lon="5.96466"><ele>1100.5</ele></trkpt>
   <trkpt lat="44.982939" lon="5.964738"><ele>1100.5</ele></trkpt>
   <trkpt lat="44.982981" lon="5.964894"><ele>1101</ele></trkpt>
   <trkpt lat="44.98301" lon="5.964986"><ele>1101.5</ele></trkpt>
   <trkpt lat="44.98304" lon="5.965064"><ele>1101.75</ele></trkpt>
   <trkpt lat="44.983116" lon="5.965235"><ele>1102.5</ele></trkpt>
   <trkpt lat="44.983281" lon="5.965482"><ele>1104.25</ele></trkpt>
   <trkpt lat="44.984094" lon="5.966524"><ele>1112</ele></trkpt>
   <trkpt lat="44.984179" lon="5.966642"><ele>1113</ele></trkpt>
   <trkpt lat="44.984819" lon="5.967511"><ele>1121</ele></trkpt>
   <trkpt lat="44.984973" lon="5.967709"><ele>1123.25</ele></trkpt>
   <trkpt lat="44.985116" lon="5.967916"><ele>1124.75</ele></trkpt>
   <trkpt lat="44.98536" lon="5.968214"><ele>1126.75</ele></trkpt>
   <trkpt lat="44.985729" lon="5.968664"><ele>1130.25</ele></trkpt>
   <trkpt lat="44.985852" lon="5.968906"><ele>1132</ele></trkpt>
   <trkpt lat="44.985912" lon="5.969065"><ele>1132.75</ele></trkpt>
   <trkpt lat="44.985971" lon="5.969286"><ele>1133.5</ele></trkpt>
   <trkpt lat="44.985997" lon="5.969496"><ele>1134.25</ele></trkpt>
   <trkpt lat="44.986017" lon="5.969661"><ele>1134.5</ele></trkpt>
   <trkpt lat="44.986042" lon="5.969657"><ele>1135</ele></trkpt>
   <trkpt lat="44.986363" lon="5.969609"><ele>1139.25</ele></trkpt>
   <trkpt lat="44.986758" lon="5.969612"><ele>1144</ele></trkpt>
   <trkpt lat="44.987025" lon="5.969649"><ele>1147.5</ele></trkpt>
   <trkpt lat="44.987059" lon="5.969671"><ele>1148</ele></trkpt>
   <trkpt lat="44.987104" lon="5.969664"><ele>1148.5</ele></trkpt>
   <trkpt lat="44.987158" lon="5.969657"><ele>1149.25</ele></trkpt>
   <trkpt lat="44.987194" lon="5.969688"><ele>1149.5</ele></trkpt>
   <trkpt lat="44.987222" lon="5.969697"><ele>1149.75</ele></trkpt>
   <trkpt lat="44.987413" lon="5.969699"><ele>1152.5</ele></trkpt>
   <trkpt lat="44.987834" lon="5.969663"><ele>1158.25</ele></trkpt>
   <trkpt lat="44.988055" lon="5.969616"><ele>1160.75</ele></trkpt>
   <trkpt lat="44.988539" lon="5.969338"><ele>1166.75</ele></trkpt>
   <trkpt lat="44.988767" lon="5.96926"><ele>1170</ele></trkpt>
   <trkpt lat="44.989036" lon="5.969235"><ele>1174</ele></trkpt>
   <trkpt lat="44.989608" lon="5.969268"><ele>1181.5</ele></trkpt>
   <trkpt lat="44.989954" lon="5.969345"><ele>1186</ele></trkpt>
   <trkpt lat="44.990325" lon="5.969509"><ele>1190.5</ele></trkpt>
   <trkpt lat="44.99072" lon="5.969644"><ele>1196.25</ele></trkpt>
   <trkpt lat="44.990902" lon="5.969647"><ele>1198.75</ele></trkpt>
   <trkpt lat="44.991118" lon="5.969671"><ele>1201.75</ele></trkpt>
   <trkpt lat="44.991449" lon="5.969747"><ele>1206.5</ele></trkpt>
   <trkpt lat="44.9915" lon="5.969769"><ele>1207.25</ele></trkpt>
   <trkpt lat="44.991794" lon="5.969886"><ele>1211.25</ele></trkpt>
   <trkpt lat="44.991994" lon="5.969971"><ele>1214.25</ele></trkpt>
   <trkpt lat="44.992068" lon="5.97"><ele>1215.25</ele></trkpt>
   <trkpt lat="44.992251" lon="5.970104"><ele>1218</ele></trkpt>
   <trkpt lat="44.992372" lon="5.970264"><ele>1220.5</ele></trkpt>
   <trkpt lat="44.992725" lon="5.97054"><ele>1226</ele></trkpt>
   <trkpt lat="44.993032" lon="5.970863"><ele>1231.75</ele></trkpt>
   <trkpt lat="44.993063" lon="5.970876"><ele>1232.25</ele></trkpt>
   <trkpt lat="44.993293" lon="5.970975"><ele>1235.5</ele></trkpt>
   <trkpt lat="44.99371" lon="5.971237"><ele>1241.25</ele></trkpt>
   <trkpt lat="44.993883" lon="5.971372"><ele>1243.75</ele></trkpt>
   <trkpt lat="44.994081" lon="5.971526"><ele>1247.5</ele></trkpt>
   <trkpt lat="44.994471" lon="5.971812"><ele>1254.75</ele></trkpt>
   <trkpt lat="44.99472" lon="5.971911"><ele>1258.5</ele></trkpt>
   <trkpt lat="44.995331" lon="5.972056"><ele>1266.75</ele></trkpt>
   <trkpt lat="44.995457" lon="5.972098"><ele>1268.5</ele></trkpt>
   <trkpt lat="44.995988" lon="5.972276"><ele>1277.25</ele></trkpt>
   <trkpt lat="44.996035" lon="5.972283"><ele>1277.75</ele></trkpt>
   <trkpt lat="44.996205" lon="5.972307"><ele>1280</ele></trkpt>
   <trkpt lat="44.996236" lon="5.972832"><ele>1284.75</ele></trkpt>
   <trkpt lat="44.996258" lon="5.972927"><ele>1286</ele></trkpt>
   <trkpt lat="44.996311" lon="5.972987"><ele>1287.25</ele></trkpt>
   <trkpt lat="44.996378" lon="5.972996"><ele>1288</ele></trkpt>
   <trkpt lat="44.996455" lon="5.972934"><ele>1288.25</ele></trkpt>
   <trkpt lat="44.996556" lon="5.972796"><ele>1287.75</ele></trkpt>
   <trkpt lat="44.996689" lon="5.972631"><ele>1288</ele></trkpt>
   <trkpt lat="44.996871" lon="5.972464"><ele>1289</ele></trkpt>
   <trkpt lat="44.997253" lon="5.972163"><ele>1292</ele></trkpt>
   <trkpt lat="44.997971" lon="5.971573"><ele>1298.25</ele></trkpt>
   <trkpt lat="44.998312" lon="5.971292"><ele>1301</ele></trkpt>
   <trkpt lat="44.998847" lon="5.970847"><ele>1306.25</ele></trkpt>
   <trkpt lat="44.999035" lon="5.970679"><ele>1308</ele></trkpt>
   <trkpt lat="44.999222" lon="5.970465"><ele>1309.25</ele></trkpt>
   <trkpt lat="44.99945" lon="5.970222"><ele>1311.75</ele></trkpt>
   <trkpt lat="44.999805" lon="5.969845"><ele>1315.5</ele></trkpt>
   <trkpt lat="44.999861" lon="5.969784"><ele>1316</ele></trkpt>
   <trkpt lat="45.000207" lon="5.969435"><ele>1318.75</ele></trkpt>
   <trkpt lat="45.000427" lon="5.96926"><ele>1320.25</ele></trkpt>
   <trkpt lat="45.000694" lon="5.969095"><ele>1322</ele></trkpt>
   <trkpt lat="45.001349" lon="5.968775"><ele>1328</ele></trkpt>
   <trkpt lat="45.00203" lon="5.968404"><ele>1336</ele></trkpt>
   <trkpt lat="45.002434" lon="5.968206"><ele>1338.75</ele></trkpt>
   <trkpt lat="45.002938" lon="5.967933"><ele>1341.75</ele></trkpt>
   <trkpt lat="45.003668" lon="5.967582"><ele>1346</ele></trkpt>
   <trkpt lat="45.003806" lon="5.967511"><ele>1347</ele></trkpt>
   <trkpt lat="45.00417" lon="5.9673"><ele>1349.5</ele></trkpt>
   <trkpt lat="45.004296" lon="5.967236"><ele>1350.75</ele></trkpt>
   <trkpt lat="45.004534" lon="5.967123"><ele>1353</ele></trkpt>
   <trkpt lat="45.004937" lon="5.966973"><ele>1355.5</ele></trkpt>
   <trkpt lat="45.005131" lon="5.966943"><ele>1356.25</ele></trkpt>
   <trkpt lat="45.005313" lon="5.966928"><ele>1357</ele></trkpt>
   <trkpt lat="45.005511" lon="5.966934"><ele>1357.75</ele></trkpt>
   <trkpt lat="45.005707" lon="5.966955"><ele>1358.5</ele></trkpt>
   <trkpt lat="45.007061" lon="5.967212"><ele>1364.25</ele></trkpt>
   <trkpt lat="45.007938" lon="5.967378"><ele>1369</ele></trkpt>
   <trkpt lat="45.008786" lon="5.967539"><ele>1370.25</ele></trkpt>

  </trkseg>
 </trk>
</gpx>