<?xml version="1.0" encoding="UTF-8"?>
<!-- track-length = 7849 filtered ascend = 618 plain-ascend = 583 cost=10039 energy=0.2kwh time=1h 38m 7s -->
<gpx 
 xmlns="http://www.topografix.com/GPX/1/1" 
 xmlns:xsi="http://www.w3.org/2001/XMLSchema-instance" 
 xsi:schemaLocation="http://www.topografix.com/GPX/1/1 http://www.topografix.com/GPX/1/1/gpx.xsd" 
 version="1.1" 
 creator="BRouter-Web 0.18.1">
 <trk>
  <name>col du noyer (7.8km)</name>
  <trkseg>
   <trkpt lat="44.695658" lon="6.020011"><ele>1047.25</ele></trkpt>
   <trkpt lat="44.695715" lon="6.019862"><ele>1048</ele></trkpt>
   <trkpt lat="44.695771" lon="6.019754"><ele>1048.75</ele></trkpt>
   <trkpt lat="44.695831" lon="6.019689"><ele>1049.25</ele></trkpt>
   <trkpt lat="44.695895" lon="6.019648"><ele>1049.75</ele></trkpt>
   <trkpt lat="44.695977" lon="6.019621"><ele>1050</ele></trkpt>
   <trkpt lat="44.696077" lon="6.019598"><ele>1050.25</ele></trkpt>
   <trkpt lat="44.696254" lon="6.019583"><ele>1050.5</ele></trkpt>
   <trkpt lat="44.697151" lon="6.019546"><ele>1052.75</ele></trkpt>
   <trkpt lat="44.697471" lon="6.01958"><ele>1053.75</ele></trkpt>
   <trkpt lat="44.697509" lon="6.019573"><ele>1054.25</ele></trkpt>
   <trkpt lat="44.697537" lon="6.019533"><ele>1055.25</ele></trkpt>
   <trkpt lat="44.697551" lon="6.019469"><ele>1057.25</ele></trkpt>
   <trkpt lat="44.69755" lon="6.019409"><ele>1059</ele></trkpt>
   <trkpt lat="44.697517" lon="6.019355"><ele>1060.75</ele></trkpt>
   <trkpt lat="44.69746" lon="6.019305"><ele>1062</ele></trkpt>
   <trkpt lat="44.697332" lon="6.019226"><ele>1063.25</ele></trkpt>
   <trkpt lat="44.696827" lon="6.018806"><ele>1066.5</ele></trkpt>
   <trkpt lat="44.696762" lon="6.018713"><ele>1067.25</ele></trkpt>
   <trkpt lat="44.696717" lon="6.018596"><ele>1068.75</ele></trkpt>
   <trkpt lat="44.696497" lon="6.017527"><ele>1079.75</ele></trkpt>
   <trkpt lat="44.696464" lon="6.017287"><ele>1081.5</ele></trkpt>
   <trkpt lat="44.69646" lon="6.017136"><ele>1082.75</ele></trkpt>
   <trkpt lat="44.696552" lon="6.01543"><ele>1098</ele></trkpt>
   <trkpt lat="44.696573" lon="6.015309"><ele>1099</ele></trkpt>
   <trkpt lat="44.696591" lon="6.015245"><ele>1099.75</ele></trkpt>
   <trkpt lat="44.696549" lon="6.01517"><ele>1100</ele></trkpt>
   <trkpt lat="44.696518" lon="6.015147"><ele>1100</ele></trkpt>
   <trkpt lat="44.696165" lon="6.014944"><ele>1102</ele></trkpt>
   <trkpt lat="44.696063" lon="6.01491"><ele>1103</ele></trkpt>
   <trkpt lat="44.695958" lon="6.014896"><ele>1104.5</ele></trkpt>
   <trkpt lat="44.695645" lon="6.014905"><ele>1108.25</ele></trkpt>
   <trkpt lat="44.695281" lon="6.014838"><ele>1112.75</ele></trkpt>
   <trkpt lat="44.694903" lon="6.014739"><ele>1117.25</ele></trkpt>
   <trkpt lat="44.69464" lon="6.014637"><ele>1120.75</ele></trkpt>
   <trkpt lat="44.694538" lon="6.014582"><ele>1122.25</ele></trkpt>
   <trkpt lat="44.6945" lon="6.014547"><ele>1122.75</ele></trkpt>
   <trkpt lat="44.694474" lon="6.014502"><ele>1123.25</ele></trkpt>
   <trkpt lat="44.694523" lon="6.014432"><ele>1122.75</ele></trkpt>
   <trkpt lat="44.694573" lon="6.014321"><ele>1122.25</ele></trkpt>
   <trkpt lat="44.694605" lon="6.014223"><ele>1122</ele></trkpt>
   <trkpt lat="44.694627" lon="6.014117"><ele>1122.25</ele></trkpt>
   <trkpt lat="44.694667" lon="6.013755"><ele>1123.75</ele></trkpt>
   <trkpt lat="44.694688" lon="6.013574"><ele>1123.75</ele></trkpt>
   <trkpt lat="44.694722" lon="6.013447"><ele>1124.75</ele></trkpt>
   <trkpt lat="44.694763" lon="6.013349"><ele>1125.25</ele></trkpt>
   <trkpt lat="44.694834" lon="6.013238"><ele>1125</ele></trkpt>
   <trkpt lat="44.695571" lon="6.012412"><ele>1125.75</ele></trkpt>
   <trkpt lat="44.695675" lon="6.012305"><ele>1126.5</ele></trkpt>
   <trkpt lat="44.695759" lon="6.012245"><ele>1127</ele></trkpt>
   <trkpt lat="44.69571" lon="6.012122"><ele>1128.25</ele></trkpt>
   <trkpt lat="44.695551" lon="6.01167"><ele>1133</ele></trkpt>
   <trkpt lat="44.6954" lon="6.011166"><ele>1138.75</ele></trkpt>
   <trkpt lat="44.695385" lon="6.011069"><ele>1140</ele></trkpt>
   <trkpt lat="44.695381" lon="6.010983"><ele>1141.25</ele></trkpt>
   <trkpt lat="44.695351" lon="6.010873"><ele>1142.75</ele></trkpt>
   <trkpt lat="44.69532" lon="6.010834"><ele>1143.5</ele></trkpt>
   <trkpt lat="44.695274" lon="6.010811"><ele>1144.25</ele></trkpt>
   <trkpt lat="44.695217" lon="6.010815"><ele>1144.25</ele></trkpt>
   <trkpt lat="44.695156" lon="6.010842"><ele>1144.25</ele></trkpt>
   <trkpt lat="44.694988" lon="6.010942"><ele>1143.75</ele></trkpt>
   <trkpt lat="44.694839" lon="6.011001"><ele>1144.25</ele></trkpt>
   <trkpt lat="44.694752" lon="6.011019"><ele>1144.75</ele></trkpt>
   <trkpt lat="44.69466" lon="6.011016"><ele>1145.25</ele></trkpt>
   <trkpt lat="44.694569" lon="6.010988"><ele>1146</ele></trkpt>
   <trkpt lat="44.694481" lon="6.010944"><ele>1147</ele></trkpt>
   <trkpt lat="44.694207" lon="6.010769"><ele>1150</ele></trkpt>
   <trkpt lat="44.694123" lon="6.010743"><ele>1151</ele></trkpt>
   <trkpt lat="44.694031" lon="6.01074"><ele>1152</ele></trkpt>
   <trkpt lat="44.693932" lon="6.010765"><ele>1153</ele></trkpt>
   <trkpt lat="44.69384" lon="6.010805"><ele>1153.75</ele></trkpt>
   <trkpt lat="44.693712" lon="6.010893"><ele>1155.25</ele></trkpt>
   <trkpt lat="44.69354" lon="6.011038"><ele>1157.75</ele></trkpt>
   <trkpt lat="44.693388" lon="6.011259"><ele>1159.25</ele></trkpt>
   <trkpt lat="44.693062" lon="6.011792"><ele>1162.5</ele></trkpt>
   <trkpt lat="44.692924" lon="6.011993"><ele>1163</ele></trkpt>
   <trkpt lat="44.692867" lon="6.012057"><ele>1163.5</ele></trkpt>
   <trkpt lat="44.692802" lon="6.01209"><ele>1164.5</ele></trkpt>
   <trkpt lat="44.692738" lon="6.012095"><ele>1165</ele></trkpt>
   <trkpt lat="44.692665" lon="6.012077"><ele>1165.75</ele></trkpt>
   <trkpt lat="44.692409" lon="6.01194"><ele>1167.5</ele></trkpt>
   <trkpt lat="44.692332" lon="6.011885"><ele>1168</ele></trkpt>
   <trkpt lat="44.69226" lon="6.011811"><ele>1168.75</ele></trkpt>
   <trkpt lat="44.692188" lon="6.011712"><ele>1169.5</ele></trkpt>
   <trkpt lat="44.692058" lon="6.011489"><ele>1170.25</ele></trkpt>
   <trkpt lat="44.691947" lon="6.011262"><ele>1172.25</ele></trkpt>
   <trkpt lat="44.691905" lon="6.011135"><ele>1173</ele></trkpt>
   <trkpt lat="44.691856" lon="6.010863"><ele>1173.75</ele></trkpt>
   <trkpt lat="44.691821" lon="6.010592"><ele>1176.25</ele></trkpt>
   <trkpt lat="44.691816" lon="6.010394"><ele>1178</ele></trkpt>
   <trkpt lat="44.691833" lon="6.010173"><ele>1180.5</ele></trkpt>
   <trkpt lat="44.691863" lon="6.009904"><ele>1183.25</ele></trkpt>
   <trkpt lat="44.691863" lon="6.00978"><ele>1184.25</ele></trkpt>
   <trkpt lat="44.691848" lon="6.009657"><ele>1185.25</ele></trkpt>
   <trkpt lat="44.691756" lon="6.009362"><ele>1186</ele></trkpt>
   <trkpt lat="44.691741" lon="6.009251"><ele>1186.5</ele></trkpt>
   <trkpt lat="44.691749" lon="6.009136"><ele>1187.5</ele></trkpt>
   <trkpt lat="44.691772" lon="6.00902"><ele>1188</ele></trkpt>
   <trkpt lat="44.691817" lon="6.008918"><ele>1189.25</ele></trkpt>
   <trkpt lat="44.691875" lon="6.008834"><ele>1191</ele></trkpt>
   <trkpt lat="44.69194" lon="6.008769"><ele>1192.75</ele></trkpt>
   <trkpt lat="44.692091" lon="6.008659"><ele>1196.25</ele></trkpt>
   <trkpt lat="44.692152" lon="6.008573"><ele>1197.75</ele></trkpt>
   <trkpt lat="44.692324" lon="6.008211"><ele>1199.75</ele></trkpt>
   <trkpt lat="44.692385" lon="6.008103"><ele>1200.25</ele></trkpt>
   <trkpt lat="44.692541" lon="6.007911"><ele>1201.5</ele></trkpt>
   <trkpt lat="44.692724" lon="6.007743"><ele>1204.25</ele></trkpt>
   <trkpt lat="44.6929" lon="6.007612"><ele>1206</ele></trkpt>
   <trkpt lat="44.693028" lon="6.00753"><ele>1207.5</ele></trkpt>
   <trkpt lat="44.693251" lon="6.007424"><ele>1207.25</ele></trkpt>
   <trkpt lat="44.693323" lon="6.007357"><ele>1208</ele></trkpt>
   <trkpt lat="44.693388" lon="6.007263"><ele>1208.5</ele></trkpt>
   <trkpt lat="44.693626" lon="6.006783"><ele>1214</ele></trkpt>
   <trkpt lat="44.693834" lon="6.006461"><ele>1216.75</ele></trkpt>
   <trkpt lat="44.694048" lon="6.006162"><ele>1222.25</ele></trkpt>
   <trkpt lat="44.694113" lon="6.006085"><ele>1224.5</ele></trkpt>
   <trkpt lat="44.694189" lon="6.006029"><ele>1226.25</ele></trkpt>
   <trkpt lat="44.694353" lon="6.005955"><ele>1227</ele></trkpt>
   <trkpt lat="44.694426" lon="6.005901"><ele>1228</ele></trkpt>
   <trkpt lat="44.694487" lon="6.005818"><ele>1229.5</ele></trkpt>
   <trkpt lat="44.694552" lon="6.005648"><ele>1238.25</ele></trkpt>
   <trkpt lat="44.694659" lon="6.005374"><ele>1238.25</ele></trkpt>
   <trkpt lat="44.694815" lon="6.005046"><ele>1243.5</ele></trkpt>
   <trkpt lat="44.694869" lon="6.004963"><ele>1245</ele></trkpt>
   <trkpt lat="44.694926" lon="6.004906"><ele>1245.75</ele></trkpt>
   <trkpt lat="44.694998" lon="6.004887"><ele>1245</ele></trkpt>
   <trkpt lat="44.695075" lon="6.004907"><ele>1245</ele></trkpt>
   <trkpt lat="44.695338" lon="6.005106"><ele>1242.5</ele></trkpt>
   <trkpt lat="44.695545" lon="6.005223"><ele>1244.5</ele></trkpt>
   <trkpt lat="44.695728" lon="6.005339"><ele>1245</ele></trkpt>
   <trkpt lat="44.695923" lon="6.005493"><ele>1245.25</ele></trkpt>
   <trkpt lat="44.696006" lon="6.005581"><ele>1244.5</ele></trkpt>
   <trkpt lat="44.696259" lon="6.005908"><ele>1241.5</ele></trkpt>
   <trkpt lat="44.696313" lon="6.00595"><ele>1241.25</ele></trkpt>
   <trkpt lat="44.696374" lon="6.005971"><ele>1241.75</ele></trkpt>
   <trkpt lat="44.696461" lon="6.005954"><ele>1242.25</ele></trkpt>
   <trkpt lat="44.696625" lon="6.005841"><ele>1244.75</ele></trkpt>
   <trkpt lat="44.696712" lon="6.005769"><ele>1245.75</ele></trkpt>
   <trkpt lat="44.696802" lon="6.005669"><ele>1247</ele></trkpt>
   <trkpt lat="44.696849" lon="6.00556"><ele>1248.75</ele></trkpt>
   <trkpt lat="44.696939" lon="6.005405"><ele>1250.75</ele></trkpt>
   <trkpt lat="44.697033" lon="6.005242"><ele>1252.5</ele></trkpt>
   <trkpt lat="44.697326" lon="6.004864"><ele>1257.25</ele></trkpt>
   <trkpt lat="44.697735" lon="6.004271"><ele>1263</ele></trkpt>
   <trkpt lat="44.697768" lon="6.004236"><ele>1262.75</ele></trkpt>
   <trkpt lat="44.697835" lon="6.004186"><ele>1262.5</ele></trkpt>
   <trkpt lat="44.697956" lon="6.004115"><ele>1261.5</ele></trkpt>
   <trkpt lat="44.698009" lon="6.004047"><ele>1261.5</ele></trkpt>
   <trkpt lat="44.698051" lon="6.003956"><ele>1262</ele></trkpt>
   <trkpt lat="44.698078" lon="6.003843"><ele>1263.5</ele></trkpt>
   <trkpt lat="44.698112" lon="6.003585"><ele>1267.5</ele></trkpt>
   <trkpt lat="44.698139" lon="6.003461"><ele>1269.5</ele></trkpt>
   <trkpt lat="44.698173" lon="6.003351"><ele>1271.5</ele></trkpt>
   <trkpt lat="44.698215" lon="6.003261"><ele>1273.5</ele></trkpt>
   <trkpt lat="44.698272" lon="6.003191"><ele>1275</ele></trkpt>
   <trkpt lat="44.698345" lon="6.003146"><ele>1275.5</ele></trkpt>
   <trkpt lat="44.698433" lon="6.003129"><ele>1276</ele></trkpt>
   <trkpt lat="44.698623" lon="6.003139"><ele>1275.25</ele></trkpt>
   <trkpt lat="44.699458" lon="6.003306"><ele>1282.5</ele></trkpt>
   <trkpt lat="44.699538" lon="6.003345"><ele>1283.5</ele></trkpt>
   <trkpt lat="44.699607" lon="6.003418"><ele>1284</ele></trkpt>
   <trkpt lat="44.699702" lon="6.003569"><ele>1284</ele></trkpt>
   <trkpt lat="44.699763" lon="6.003639"><ele>1283.75</ele></trkpt>
   <trkpt lat="44.699822" lon="6.003662"><ele>1283.5</ele></trkpt>
   <trkpt lat="44.699887" lon="6.003658"><ele>1283.75</ele></trkpt>
   <trkpt lat="44.69995" lon="6.0036"><ele>1284.75</ele></trkpt>
   <trkpt lat="44.699988" lon="6.003527"><ele>1285.75</ele></trkpt>
   <trkpt lat="44.700028" lon="6.003411"><ele>1286.75</ele></trkpt>
   <trkpt lat="44.700089" lon="6.003281"><ele>1288</ele></trkpt>
   <trkpt lat="44.700158" lon="6.003179"><ele>1289.5</ele></trkpt>
   <trkpt lat="44.70023" lon="6.003121"><ele>1290.5</ele></trkpt>
   <trkpt lat="44.700623" lon="6.002891"><ele>1297.5</ele></trkpt>
   <trkpt lat="44.7007" lon="6.002863"><ele>1299.75</ele></trkpt>
   <trkpt lat="44.700768" lon="6.002869"><ele>1301</ele></trkpt>
   <trkpt lat="44.700826" lon="6.002902"><ele>1301.25</ele></trkpt>
   <trkpt lat="44.700871" lon="6.002947"><ele>1301.25</ele></trkpt>
   <trkpt lat="44.70091" lon="6.003003"><ele>1301</ele></trkpt>
   <trkpt lat="44.701075" lon="6.003308"><ele>1300</ele></trkpt>
   <trkpt lat="44.701121" lon="6.003373"><ele>1300.5</ele></trkpt>
   <trkpt lat="44.701171" lon="6.003419"><ele>1300.75</ele></trkpt>
   <trkpt lat="44.701232" lon="6.003441"><ele>1301.75</ele></trkpt>
   <trkpt lat="44.7013" lon="6.003432"><ele>1303.25</ele></trkpt>
   <trkpt lat="44.701365" lon="6.003399"><ele>1305.25</ele></trkpt>
   <trkpt lat="44.701514" lon="6.003297"><ele>1307.25</ele></trkpt>
   <trkpt lat="44.702148" lon="6.002767"><ele>1314.75</ele></trkpt>
   <trkpt lat="44.70253" lon="6.002548"><ele>1318</ele></trkpt>
   <trkpt lat="44.702724" lon="6.002471"><ele>1319</ele></trkpt>
   <trkpt lat="44.702885" lon="6.002425"><ele>1318.5</ele></trkpt>
   <trkpt lat="44.703037" lon="6.002349"><ele>1318.5</ele></trkpt>
   <trkpt lat="44.703212" lon="6.002202"><ele>1318.5</ele></trkpt>
   <trkpt lat="44.703285" lon="6.002111"><ele>1319.75</ele></trkpt>
   <trkpt lat="44.703319" lon="6.002055"><ele>1320.5</ele></trkpt>
   <trkpt lat="44.703323" lon="6.001988"><ele>1322.75</ele></trkpt>
   <trkpt lat="44.703308" lon="6.001939"><ele>1324.5</ele></trkpt>
   <trkpt lat="44.703277" lon="6.001924"><ele>1325.75</ele></trkpt>
   <trkpt lat="44.703226" lon="6.001935"><ele>1326.5</ele></trkpt>
   <trkpt lat="44.702999" lon="6.002087"><ele>1326.5</ele></trkpt>
   <trkpt lat="44.702898" lon="6.002118"><ele>1327.25</ele></trkpt>
   <trkpt lat="44.702819" lon="6.002127"><ele>1328</ele></trkpt>
   <trkpt lat="44.702578" lon="6.002072"><ele>1332</ele></trkpt>
   <trkpt lat="44.70248" lon="6.002061"><ele>1333.25</ele></trkpt>
   <trkpt lat="44.701662" lon="6.00211"><ele>1335</ele></trkpt>
   <trkpt lat="44.7015" lon="6.002097"><ele>1334</ele></trkpt>
   <trkpt lat="44.70136" lon="6.002033"><ele>1334</ele></trkpt>
   <trkpt lat="44.701304" lon="6.001972"><ele>1334.25</ele></trkpt>
   <trkpt lat="44.701275" lon="6.001899"><ele>1336</ele></trkpt>
   <trkpt lat="44.701197" lon="6.001544"><ele>1346.25</ele></trkpt>
   <trkpt lat="44.701147" lon="6.001436"><ele>1349</ele></trkpt>
   <trkpt lat="44.701079" lon="6.001347"><ele>1350.25</ele></trkpt>
   <trkpt lat="44.700958" lon="6.001252"><ele>1350</ele></trkpt>
   <trkpt lat="44.700847" lon="6.001134"><ele>1351.25</ele></trkpt>
   <trkpt lat="44.700705" lon="6.000959"><ele>1354.75</ele></trkpt>
   <trkpt lat="44.700625" lon="6.000881"><ele>1356</ele></trkpt>
   <trkpt lat="44.700541" lon="6.000827"><ele>1356</ele></trkpt>
   <trkpt lat="44.700465" lon="6.000794"><ele>1357.25</ele></trkpt>
   <trkpt lat="44.700408" lon="6.000781"><ele>1357.5</ele></trkpt>
   <trkpt lat="44.70018" lon="6.00077"><ele>1356.75</ele></trkpt>
   <trkpt lat="44.700079" lon="6.000745"><ele>1357.75</ele></trkpt>
   <trkpt lat="44.699846" lon="6.000633"><ele>1362.25</ele></trkpt>
   <trkpt lat="44.699724" lon="6.000591"><ele>1364</ele></trkpt>
   <trkpt lat="44.699183" lon="6.000477"><ele>1368.25</ele></trkpt>
   <trkpt lat="44.698992" lon="6.000463"><ele>1371.25</ele></trkpt>
   <trkpt lat="44.698702" lon="6.000472"><ele>1373.25</ele></trkpt>
   <trkpt lat="44.698504" lon="6.000462"><ele>1375.25</ele></trkpt>
   <trkpt lat="44.698114" lon="6.000492"><ele>1377.75</ele></trkpt>
   <trkpt lat="44.697908" lon="6.000496"><ele>1378.75</ele></trkpt>
   <trkpt lat="44.697809" lon="6.000487"><ele>1379.75</ele></trkpt>
   <trkpt lat="44.697714" lon="6.000465"><ele>1380.75</ele></trkpt>
   <trkpt lat="44.697508" lon="6.0004"><ele>1382.25</ele></trkpt>
   <trkpt lat="44.697443" lon="6.000371"><ele>1382.25</ele></trkpt>
   <trkpt lat="44.697378" lon="6.000326"><ele>1382.75</ele></trkpt>
   <trkpt lat="44.697317" lon="6.000262"><ele>1384</ele></trkpt>
   <trkpt lat="44.696968" lon="5.999833"><ele>1388.5</ele></trkpt>
   <trkpt lat="44.696777" lon="5.999568"><ele>1389.75</ele></trkpt>
   <trkpt lat="44.696709" lon="5.999497"><ele>1389.75</ele></trkpt>
   <trkpt lat="44.696629" lon="5.999448"><ele>1389.75</ele></trkpt>
   <trkpt lat="44.696578" lon="5.999434"><ele>1390.25</ele></trkpt>
   <trkpt lat="44.696537" lon="5.999423"><ele>1390.75</ele></trkpt>
   <trkpt lat="44.696442" lon="5.999426"><ele>1390.5</ele></trkpt>
   <trkpt lat="44.696091" lon="5.99951"><ele>1388.5</ele></trkpt>
   <trkpt lat="44.695937" lon="5.999488"><ele>1388.5</ele></trkpt>
   <trkpt lat="44.695849" lon="5.999464"><ele>1389.25</ele></trkpt>
   <trkpt lat="44.695757" lon="5.999428"><ele>1389.75</ele></trkpt>
   <trkpt lat="44.69567" lon="5.999381"><ele>1390.5</ele></trkpt>
   <trkpt lat="44.695509" lon="5.999267"><ele>1393</ele></trkpt>
   <trkpt lat="44.695437" lon="5.999204"><ele>1394</ele></trkpt>
   <trkpt lat="44.695376" lon="5.999135"><ele>1395</ele></trkpt>
   <trkpt lat="44.695322" lon="5.999052"><ele>1396.25</ele></trkpt>
   <trkpt lat="44.695269" lon="5.99896"><ele>1397.5</ele></trkpt>
   <trkpt lat="44.695174" lon="5.998743"><ele>1400</ele></trkpt>
   <trkpt lat="44.695063" lon="5.998529"><ele>1401</ele></trkpt>
   <trkpt lat="44.695013" lon="5.998417"><ele>1401.5</ele></trkpt>
   <trkpt lat="44.694971" lon="5.998296"><ele>1402.5</ele></trkpt>
   <trkpt lat="44.694945" lon="5.998166"><ele>1404.5</ele></trkpt>
   <trkpt lat="44.694899" lon="5.997754"><ele>1412.5</ele></trkpt>
   <trkpt lat="44.694865" lon="5.997613"><ele>1414.5</ele></trkpt>
   <trkpt lat="44.6947" lon="5.997151"><ele>1419</ele></trkpt>
   <trkpt lat="44.694496" lon="5.996706"><ele>1422.25</ele></trkpt>
   <trkpt lat="44.694381" lon="5.996389"><ele>1426.75</ele></trkpt>
   <trkpt lat="44.694149" lon="5.995869"><ele>1429</ele></trkpt>
   <trkpt lat="44.694138" lon="5.995819"><ele>1429.5</ele></trkpt>
   <trkpt lat="44.694141" lon="5.995757"><ele>1430.5</ele></trkpt>
   <trkpt lat="44.69416" lon="5.99574"><ele>1431.75</ele></trkpt>
   <trkpt lat="44.694187" lon="5.995744"><ele>1433.5</ele></trkpt>
   <trkpt lat="44.694218" lon="5.995775"><ele>1434.75</ele></trkpt>
   <trkpt lat="44.694305" lon="5.995972"><ele>1435.25</ele></trkpt>
   <trkpt lat="44.694431" lon="5.99617"><ele>1436.25</ele></trkpt>
   <trkpt lat="44.694622" lon="5.99638"><ele>1439</ele></trkpt>
   <trkpt lat="44.694962" lon="5.996794"><ele>1442.5</ele></trkpt>
   <trkpt lat="44.695019" lon="5.996871"><ele>1442.75</ele></trkpt>
   <trkpt lat="44.695143" lon="5.997115"><ele>1441</ele></trkpt>
   <trkpt lat="44.695197" lon="5.997172"><ele>1441.75</ele></trkpt>
   <trkpt lat="44.695258" lon="5.997207"><ele>1443.5</ele></trkpt>
   <trkpt lat="44.695379" lon="5.997246"><ele>1446</ele></trkpt>
   <trkpt lat="44.695452" lon="5.997282"><ele>1447.25</ele></trkpt>
   <trkpt lat="44.695517" lon="5.997327"><ele>1447.75</ele></trkpt>
   <trkpt lat="44.695578" lon="5.997388"><ele>1447.5</ele></trkpt>
   <trkpt lat="44.695695" lon="5.997565"><ele>1445.25</ele></trkpt>
   <trkpt lat="44.695753" lon="5.997629"><ele>1444.5</ele></trkpt>
   <trkpt lat="44.695817" lon="5.997673"><ele>1444.5</ele></trkpt>
   <trkpt lat="44.69593" lon="5.997715"><ele>1445.25</ele></trkpt>
   <trkpt lat="44.69612" lon="5.997708"><ele>1448.25</ele></trkpt>
   <trkpt lat="44.696243" lon="5.997736"><ele>1449.25</ele></trkpt>
   <trkpt lat="44.696447" lon="5.997817"><ele>1449.75</ele></trkpt>
   <trkpt lat="44.696554" lon="5.99784"><ele>1451</ele></trkpt>
   <trkpt lat="44.696657" lon="5.997853"><ele>1452.25</ele></trkpt>
   <trkpt lat="44.697015" lon="5.997835"><ele>1458.25</ele></trkpt>
   <trkpt lat="44.697141" lon="5.997865"><ele>1459.5</ele></trkpt>
   <trkpt lat="44.697552" lon="5.998085"><ele>1462</ele></trkpt>
   <trkpt lat="44.698063" lon="5.998173"><ele>1468.5</ele></trkpt>
   <trkpt lat="44.698151" lon="5.998179"><ele>1468.5</ele></trkpt>
   <trkpt lat="44.698235" lon="5.998172"><ele>1468.75</ele></trkpt>
   <trkpt lat="44.698311" lon="5.998149"><ele>1469.5</ele></trkpt>
   <trkpt lat="44.698387" lon="5.998106"><ele>1470.25</ele></trkpt>
   <trkpt lat="44.698532" lon="5.997976"><ele>1473</ele></trkpt>
   <trkpt lat="44.698605" lon="5.997924"><ele>1474.25</ele></trkpt>
   <trkpt lat="44.698681" lon="5.997901"><ele>1475.25</ele></trkpt>
   <trkpt lat="44.698757" lon="5.997907"><ele>1475.75</ele></trkpt>
   <trkpt lat="44.698904" lon="5.998008"><ele>1474.25</ele></trkpt>
   <trkpt lat="44.699023" lon="5.998074"><ele>1474.75</ele></trkpt>
   <trkpt lat="44.699058" lon="5.998054"><ele>1476</ele></trkpt>
   <trkpt lat="44.699084" lon="5.997999"><ele>1478</ele></trkpt>
   <trkpt lat="44.69908" lon="5.997936"><ele>1480</ele></trkpt>
   <trkpt lat="44.699042" lon="5.997887"><ele>1480.5</ele></trkpt>
   <trkpt lat="44.69875" lon="5.997687"><ele>1484.5</ele></trkpt>
   <trkpt lat="44.698669" lon="5.997661"><ele>1485.5</ele></trkpt>
   <trkpt lat="44.698589" lon="5.997649"><ele>1486</ele></trkpt>
   <trkpt lat="44.69836" lon="5.997664"><ele>1487</ele></trkpt>
   <trkpt lat="44.698212" lon="5.997655"><ele>1487.5</ele></trkpt>
   <trkpt lat="44.698135" lon="5.997632"><ele>1488.25</ele></trkpt>
   <trkpt lat="44.698063" lon="5.997595"><ele>1489.5</ele></trkpt>
   <trkpt lat="44.697962" lon="5.997506"><ele>1490.75</ele></trkpt>
   <trkpt lat="44.697676" lon="5.997115"><ele>1499</ele></trkpt>
   <trkpt lat="44.697607" lon="5.997028"><ele>1501.5</ele></trkpt>
   <trkpt lat="44.697532" lon="5.996956"><ele>1503</ele></trkpt>
   <trkpt lat="44.697365" lon="5.996829"><ele>1506.75</ele></trkpt>
   <trkpt lat="44.697094" lon="5.996662"><ele>1509.75</ele></trkpt>
   <trkpt lat="44.696914" lon="5.996523"><ele>1513</ele></trkpt>
   <trkpt lat="44.696648" lon="5.996276"><ele>1517.5</ele></trkpt>
   <trkpt lat="44.696323" lon="5.995938"><ele>1524.25</ele></trkpt>
   <trkpt lat="44.696059" lon="5.995713"><ele>1526.75</ele></trkpt>
   <trkpt lat="44.696013" lon="5.995662"><ele>1527.25</ele></trkpt>
   <trkpt lat="44.695812" lon="5.995365"><ele>1531.75</ele></trkpt>
   <trkpt lat="44.695698" lon="5.995127"><ele>1535.5</ele></trkpt>
   <trkpt lat="44.695614" lon="5.9949"><ele>1538.75</ele></trkpt>
   <trkpt lat="44.695524" lon="5.994638"><ele>1541</ele></trkpt>
   <trkpt lat="44.695399" lon="5.994148"><ele>1545</ele></trkpt>
   <trkpt lat="44.695384" lon="5.994047"><ele>1546.75</ele></trkpt>
   <trkpt lat="44.69537" lon="5.993874"><ele>1550.5</ele></trkpt>
   <trkpt lat="44.695355" lon="5.99378"><ele>1551.75</ele></trkpt>
   <trkpt lat="44.695333" lon="5.993689"><ele>1552.25</ele></trkpt>
   <trkpt lat="44.695283" lon="5.993532"><ele>1552</ele></trkpt>
   <trkpt lat="44.695185" lon="5.993298"><ele>1552.5</ele></trkpt>
   <trkpt lat="44.695145" lon="5.993227"><ele>1553.5</ele></trkpt>
   <trkpt lat="44.694944" lon="5.992989"><ele>1557.25</ele></trkpt>
   <trkpt lat="44.694691" lon="5.992732"><ele>1558.5</ele></trkpt>
   <trkpt lat="44.694661" lon="5.992687"><ele>1559.25</ele></trkpt>
   <trkpt lat="44.694561" lon="5.992459"><ele>1565.25</ele></trkpt>
   <trkpt lat="44.694533" lon="5.992423"><ele>1566.25</ele></trkpt>
   <trkpt lat="44.694344" lon="5.992279"><ele>1566.75</ele></trkpt>
   <trkpt lat="44.694304" lon="5.992236"><ele>1567.5</ele></trkpt>
   <trkpt lat="44.694197" lon="5.992091"><ele>1572</ele></trkpt>
   <trkpt lat="44.694163" lon="5.992059"><ele>1572.5</ele></trkpt>
   <trkpt lat="44.694035" lon="5.992003"><ele>1570</ele></trkpt>
   <trkpt lat="44.694004" lon="5.991971"><ele>1570.5</ele></trkpt>
   <trkpt lat="44.693915" lon="5.991802"><ele>1574.75</ele></trkpt>
   <trkpt lat="44.693878" lon="5.991755"><ele>1575</ele></trkpt>
   <trkpt lat="44.693739" lon="5.991631"><ele>1576</ele></trkpt>
   <trkpt lat="44.693686" lon="5.991591"><ele>1576.25</ele></trkpt>
   <trkpt lat="44.693533" lon="5.991526"><ele>1575.75</ele></trkpt>
   <trkpt lat="44.693399" lon="5.991441"><ele>1579.5</ele></trkpt>
   <trkpt lat="44.693314" lon="5.991402"><ele>1581</ele></trkpt>
   <trkpt lat="44.693245" lon="5.991391"><ele>1580.75</ele></trkpt>
   <trkpt lat="44.693109" lon="5.991429"><ele>1577.5</ele></trkpt>
   <trkpt lat="44.693083" lon="5.991413"><ele>1578</ele></trkpt>
   <trkpt lat="44.693058" lon="5.991383"><ele>1579</ele></trkpt>
   <trkpt lat="44.693042" lon="5.991329"><ele>1579.5</ele></trkpt>
   <trkpt lat="44.693045" lon="5.991141"><ele>1584.25</ele></trkpt>
   <trkpt lat="44.693037" lon="5.991079"><ele>1585.5</ele></trkpt>
   <trkpt lat="44.693003" lon="5.990976"><ele>1586.25</ele></trkpt>
   <trkpt lat="44.692949" lon="5.990855"><ele>1585.25</ele></trkpt>
   <trkpt lat="44.692938" lon="5.990792"><ele>1585.5</ele></trkpt>
   <trkpt lat="44.692937" lon="5.99068"><ele>1587.5</ele></trkpt>
   <trkpt lat="44.692992" lon="5.990255"><ele>1594.5</ele></trkpt>
   <trkpt lat="44.692992" lon="5.990212"><ele>1595.5</ele></trkpt>
   <trkpt lat="44.692975" lon="5.990147"><ele>1595.25</ele></trkpt>
   <trkpt lat="44.69292" lon="5.990014"><ele>1593.25</ele></trkpt>
   <trkpt lat="44.692907" lon="5.989935"><ele>1594.25</ele></trkpt>
   <trkpt lat="44.692904" lon="5.989822"><ele>1596.75</ele></trkpt>
   <trkpt lat="44.692819" lon="5.98954"><ele>1596</ele></trkpt>
   <trkpt lat="44.692808" lon="5.989471"><ele>1596.75</ele></trkpt>
   <trkpt lat="44.692812" lon="5.989264"><ele>1601</ele></trkpt>
   <trkpt lat="44.692795" lon="5.98913"><ele>1602.5</ele></trkpt>
   <trkpt lat="44.692644" lon="5.988628"><ele>1607.75</ele></trkpt>
   <trkpt lat="44.692468" lon="5.988256"><ele>1608.5</ele></trkpt>
   <trkpt lat="44.692319" lon="5.988043"><ele>1609.25</ele></trkpt>
   <trkpt lat="44.692165" lon="5.987761"><ele>1611.75</ele></trkpt>
   <trkpt lat="44.691981" lon="5.987493"><ele>1613</ele></trkpt>
   <trkpt lat="44.691741" lon="5.987075"><ele>1617.25</ele></trkpt>
   <trkpt lat="44.691653" lon="5.986959"><ele>1617.75</ele></trkpt>
   <trkpt lat="44.691547" lon="5.986877"><ele>1618</ele></trkpt>
   <trkpt lat="44.691463" lon="5.986834"><ele>1617</ele></trkpt>
   <trkpt lat="44.691401" lon="5.986824"><ele>1615</ele></trkpt>
   <trkpt lat="44.691316" lon="5.986768"><ele>1613.25</ele></trkpt>
   <trkpt lat="44.691292" lon="5.986738"><ele>1613.5</ele></trkpt>
   <trkpt lat="44.691279" lon="5.986701"><ele>1614.75</ele></trkpt>
   <trkpt lat="44.691288" lon="5.986661"><ele>1617</ele></trkpt>
   <trkpt lat="44.691311" lon="5.986639"><ele>1619.5</ele></trkpt>
   <trkpt lat="44.691344" lon="5.986629"><ele>1621.75</ele></trkpt>
   <trkpt lat="44.691422" lon="5.986656"><ele>1624</ele></trkpt>
   <trkpt lat="44.691657" lon="5.986809"><ele>1625.75</ele></trkpt>
   <trkpt lat="44.691818" lon="5.986933"><ele>1628.25</ele></trkpt>
   <trkpt lat="44.692001" lon="5.987114"><ele>1630</ele></trkpt>
   <trkpt lat="44.692372" lon="5.987564"><ele>1633</ele></trkpt>
   <trkpt lat="44.692522" lon="5.98778"><ele>1633.25</ele></trkpt>
   <trkpt lat="44.692602" lon="5.987928"><ele>1633</ele></trkpt>
   <trkpt lat="44.69262" lon="5.987949"><ele>1633.5</ele></trkpt>
   <trkpt lat="44.692637" lon="5.987958"><ele>1634.25</ele></trkpt>
   <trkpt lat="44.69266" lon="5.987949"><ele>1636.25</ele></trkpt>
   <trkpt lat="44.692672" lon="5.987927"><ele>1638.25</ele></trkpt>
   <trkpt lat="44.692676" lon="5.987892"><ele>1639.75</ele></trkpt>
   <trkpt lat="44.692652" lon="5.987822"><ele>1641</ele></trkpt>
   <trkpt lat="44.692592" lon="5.987767"><ele>1639</ele></trkpt>
   <trkpt lat="44.692375" lon="5.987348"><ele>1644.75</ele></trkpt>
   <trkpt lat="44.692192" lon="5.987071"><ele>1645</ele></trkpt>
   <trkpt lat="44.692072" lon="5.986945"><ele>1644</ele></trkpt>
   <trkpt lat="44.691878" lon="5.986686"><ele>1645.75</ele></trkpt>
   <trkpt lat="44.691708" lon="5.98649"><ele>1644.75</ele></trkpt>
   <trkpt lat="44.691671" lon="5.986419"><ele>1646.5</ele></trkpt>
   <trkpt lat="44.691648" lon="5.986321"><ele>1648.5</ele></trkpt>
   <trkpt lat="44.691636" lon="5.986156"><ele>1651.5</ele></trkpt>
   <trkpt lat="44.691646" lon="5.985973"><ele>1653.75</ele></trkpt>
   <trkpt lat="44.691669" lon="5.98582"><ele>1655</ele></trkpt>
   <trkpt lat="44.691711" lon="5.98567"><ele>1656.5</ele></trkpt>
   <trkpt lat="44.691787" lon="5.985509"><ele>1657.75</ele></trkpt>
   <trkpt lat="44.692133" lon="5.985015"><ele>1660.5</ele></trkpt>
   <trkpt lat="44.692312" lon="5.984697"><ele>1663.25</ele></trkpt>
   <trkpt lat="44.692387" lon="5.98455"><ele>1664</ele></trkpt>
   <trkpt lat="44.692492" lon="5.984372"><ele>1664</ele></trkpt>
   <trkpt lat="44.692549" lon="5.984298"><ele>1664.25</ele></trkpt>
  </trkseg>
 </trk>
</gpx>
