<?xml version="1.0" encoding="UTF-8"?>
<!-- track-length = 16341 filtered ascend = 869 plain-ascend = 767 cost=23348 energy=0.3kwh time=2h 32m 39s -->
<gpx 
 xmlns="http://www.topografix.com/GPX/1/1" 
 xmlns:xsi="http://www.w3.org/2001/XMLSchema-instance" 
 xsi:schemaLocation="http://www.topografix.com/GPX/1/1 http://www.topografix.com/GPX/1/1/gpx.xsd" 
 version="1.1" 
 creator="BRouter-Web 0.18.1">
 <trk>
  <name>col du telegraphe (16.3km)</name>
  <trkseg>
   <trkpt lat="45.21958" lon="6.467276"><ele>704.5</ele></trkpt>
   <trkpt lat="45.219537" lon="6.467701"><ele>705</ele></trkpt>
   <trkpt lat="45.219528" lon="6.467791"><ele>705</ele></trkpt>
   <trkpt lat="45.219516" lon="6.467937"><ele>705.5</ele></trkpt>
   <trkpt lat="45.21942" lon="6.468854"><ele>706.75</ele></trkpt>
   <trkpt lat="45.219355" lon="6.469065"><ele>707.25</ele></trkpt>
   <trkpt lat="45.219246" lon="6.469261"><ele>707.25</ele></trkpt>
   <trkpt lat="45.219136" lon="6.469436"><ele>707</ele></trkpt>
   <trkpt lat="45.219055" lon="6.469551"><ele>707.25</ele></trkpt>
   <trkpt lat="45.218813" lon="6.4699"><ele>708</ele></trkpt>
   <trkpt lat="45.218553" lon="6.470265"><ele>708</ele></trkpt>
   <trkpt lat="45.218248" lon="6.470718"><ele>709</ele></trkpt>
   <trkpt lat="45.218157" lon="6.470844"><ele>709</ele></trkpt>
   <trkpt lat="45.217948" lon="6.471145"><ele>710</ele></trkpt>
   <trkpt lat="45.217904" lon="6.47119"><ele>710.25</ele></trkpt>
   <trkpt lat="45.217784" lon="6.471293"><ele>710.5</ele></trkpt>
   <trkpt lat="45.217588" lon="6.471553"><ele>710.25</ele></trkpt>
   <trkpt lat="45.217516" lon="6.471699"><ele>710</ele></trkpt>
   <trkpt lat="45.217449" lon="6.471847"><ele>710</ele></trkpt>
   <trkpt lat="45.217367" lon="6.472003"><ele>710.5</ele></trkpt>
   <trkpt lat="45.217214" lon="6.472241"><ele>711</ele></trkpt>
   <trkpt lat="45.217163" lon="6.472324"><ele>711</ele></trkpt>
   <trkpt lat="45.217122" lon="6.472391"><ele>711</ele></trkpt>
   <trkpt lat="45.2171" lon="6.472422"><ele>711.25</ele></trkpt>
   <trkpt lat="45.216996" lon="6.472596"><ele>711.75</ele></trkpt>
   <trkpt lat="45.216836" lon="6.472854"><ele>712</ele></trkpt>
   <trkpt lat="45.216671" lon="6.473117"><ele>712</ele></trkpt>
   <trkpt lat="45.216486" lon="6.473439"><ele>713</ele></trkpt>
   <trkpt lat="45.216434" lon="6.47353"><ele>713</ele></trkpt>
   <trkpt lat="45.216241" lon="6.473891"><ele>714</ele></trkpt>
   <trkpt lat="45.215776" lon="6.474757"><ele>715</ele></trkpt>
   <trkpt lat="45.215691" lon="6.474909"><ele>715.5</ele></trkpt>
   <trkpt lat="45.215598" lon="6.474831"><ele>715.75</ele></trkpt>
   <trkpt lat="45.215441" lon="6.474719"><ele>715.75</ele></trkpt>
   <trkpt lat="45.215385" lon="6.474662"><ele>715.25</ele></trkpt>
   <trkpt lat="45.215348" lon="6.474613"><ele>714.75</ele></trkpt>
   <trkpt lat="45.215321" lon="6.474578"><ele>714.5</ele></trkpt>
   <trkpt lat="45.214741" lon="6.473656"><ele>716.25</ele></trkpt>
   <trkpt lat="45.214633" lon="6.473477"><ele>717</ele></trkpt>
   <trkpt lat="45.214527" lon="6.473311"><ele>718.5</ele></trkpt>
   <trkpt lat="45.214478" lon="6.473241"><ele>721</ele></trkpt>
   <trkpt lat="45.214435" lon="6.473179"><ele>721.5</ele></trkpt>
   <trkpt lat="45.214341" lon="6.47305"><ele>722.5</ele></trkpt>
   <trkpt lat="45.21422" lon="6.472914"><ele>724</ele></trkpt>
   <trkpt lat="45.214161" lon="6.472858"><ele>724</ele></trkpt>
   <trkpt lat="45.213967" lon="6.472676"><ele>726</ele></trkpt>
   <trkpt lat="45.213911" lon="6.472614"><ele>726.75</ele></trkpt>
   <trkpt lat="45.21382" lon="6.472484"><ele>728.25</ele></trkpt>
   <trkpt lat="45.21374" lon="6.472319"><ele>729.75</ele></trkpt>
   <trkpt lat="45.213666" lon="6.472105"><ele>730.5</ele></trkpt>
   <trkpt lat="45.213547" lon="6.471692"><ele>731.25</ele></trkpt>
   <trkpt lat="45.213495" lon="6.471504"><ele>729.25</ele></trkpt>
   <trkpt lat="45.213379" lon="6.471092"><ele>731.75</ele></trkpt>
   <trkpt lat="45.21337" lon="6.47106"><ele>732.25</ele></trkpt>
   <trkpt lat="45.213343" lon="6.470964"><ele>733.25</ele></trkpt>
   <trkpt lat="45.213334" lon="6.470931"><ele>733.5</ele></trkpt>
   <trkpt lat="45.213136" lon="6.470988"><ele>735.75</ele></trkpt>
   <trkpt lat="45.213136" lon="6.470987"><ele>733.5</ele></trkpt>
   <trkpt lat="45.213334" lon="6.470931"><ele>733.5</ele></trkpt>
   <trkpt lat="45.213281" lon="6.470733"><ele>734.25</ele></trkpt>
   <trkpt lat="45.213271" lon="6.47067"><ele>734.25</ele></trkpt>
   <trkpt lat="45.213272" lon="6.470575"><ele>734.5</ele></trkpt>
   <trkpt lat="45.213284" lon="6.470527"><ele>735</ele></trkpt>
   <trkpt lat="45.213308" lon="6.470468"><ele>735.75</ele></trkpt>
   <trkpt lat="45.213356" lon="6.47041"><ele>736.5</ele></trkpt>
   <trkpt lat="45.213418" lon="6.470375"><ele>737</ele></trkpt>
   <trkpt lat="45.213443" lon="6.470369"><ele>737</ele></trkpt>
   <trkpt lat="45.213508" lon="6.470365"><ele>737</ele></trkpt>
   <trkpt lat="45.213898" lon="6.470438"><ele>738.5</ele></trkpt>
   <trkpt lat="45.213969" lon="6.470425"><ele>739</ele></trkpt>
   <trkpt lat="45.214043" lon="6.470386"><ele>739.75</ele></trkpt>
   <trkpt lat="45.214127" lon="6.4703"><ele>741.5</ele></trkpt>
   <trkpt lat="45.214165" lon="6.470241"><ele>742</ele></trkpt>
   <trkpt lat="45.214301" lon="6.469964"><ele>742.75</ele></trkpt>
   <trkpt lat="45.214324" lon="6.469891"><ele>743.5</ele></trkpt>
   <trkpt lat="45.214345" lon="6.469776"><ele>744.5</ele></trkpt>
   <trkpt lat="45.214353" lon="6.469609"><ele>745.25</ele></trkpt>
   <trkpt lat="45.214359" lon="6.469351"><ele>746.5</ele></trkpt>
   <trkpt lat="45.214356" lon="6.469231"><ele>747.25</ele></trkpt>
   <trkpt lat="45.214346" lon="6.469131"><ele>747.75</ele></trkpt>
   <trkpt lat="45.214321" lon="6.468987"><ele>747.75</ele></trkpt>
   <trkpt lat="45.214295" lon="6.46891"><ele>748.25</ele></trkpt>
   <trkpt lat="45.214249" lon="6.468801"><ele>748.25</ele></trkpt>
   <trkpt lat="45.214204" lon="6.468715"><ele>749</ele></trkpt>
   <trkpt lat="45.21414" lon="6.468616"><ele>750.25</ele></trkpt>
   <trkpt lat="45.213819" lon="6.468172"><ele>754</ele></trkpt>
   <trkpt lat="45.213713" lon="6.468037"><ele>756.25</ele></trkpt>
   <trkpt lat="45.213631" lon="6.467949"><ele>757</ele></trkpt>
   <trkpt lat="45.213546" lon="6.467871"><ele>757</ele></trkpt>
   <trkpt lat="45.213441" lon="6.467789"><ele>757.25</ele></trkpt>
   <trkpt lat="45.213288" lon="6.467696"><ele>758</ele></trkpt>
   <trkpt lat="45.213212" lon="6.467663"><ele>758.75</ele></trkpt>
   <trkpt lat="45.213116" lon="6.467636"><ele>759.5</ele></trkpt>
   <trkpt lat="45.212924" lon="6.4676"><ele>761</ele></trkpt>
   <trkpt lat="45.212773" lon="6.467578"><ele>762.75</ele></trkpt>
   <trkpt lat="45.212716" lon="6.467562"><ele>763.25</ele></trkpt>
   <trkpt lat="45.212683" lon="6.467548"><ele>763.25</ele></trkpt>
   <trkpt lat="45.212632" lon="6.467507"><ele>763.25</ele></trkpt>
   <trkpt lat="45.212588" lon="6.467446"><ele>763.5</ele></trkpt>
   <trkpt lat="45.212568" lon="6.467395"><ele>763.5</ele></trkpt>
   <trkpt lat="45.212545" lon="6.467289"><ele>763</ele></trkpt>
   <trkpt lat="45.212538" lon="6.467216"><ele>762.75</ele></trkpt>
   <trkpt lat="45.212532" lon="6.467099"><ele>763.25</ele></trkpt>
   <trkpt lat="45.212525" lon="6.466963"><ele>763.75</ele></trkpt>
   <trkpt lat="45.212515" lon="6.466636"><ele>766</ele></trkpt>
   <trkpt lat="45.212499" lon="6.466243"><ele>769</ele></trkpt>
   <trkpt lat="45.212471" lon="6.466115"><ele>769.75</ele></trkpt>
   <trkpt lat="45.212445" lon="6.466059"><ele>770.5</ele></trkpt>
   <trkpt lat="45.212386" lon="6.465978"><ele>771.25</ele></trkpt>
   <trkpt lat="45.212354" lon="6.465947"><ele>771.75</ele></trkpt>
   <trkpt lat="45.212317" lon="6.465926"><ele>771.75</ele></trkpt>
   <trkpt lat="45.212253" lon="6.465909"><ele>772</ele></trkpt>
   <trkpt lat="45.212178" lon="6.465925"><ele>773.25</ele></trkpt>
   <trkpt lat="45.212119" lon="6.46597"><ele>774.5</ele></trkpt>
   <trkpt lat="45.21209" lon="6.466009"><ele>774.75</ele></trkpt>
   <trkpt lat="45.212001" lon="6.466163"><ele>775</ele></trkpt>
   <trkpt lat="45.211971" lon="6.466204"><ele>775.25</ele></trkpt>
   <trkpt lat="45.211922" lon="6.466247"><ele>775.75</ele></trkpt>
   <trkpt lat="45.211869" lon="6.466285"><ele>776.25</ele></trkpt>
   <trkpt lat="45.211808" lon="6.466307"><ele>776.75</ele></trkpt>
   <trkpt lat="45.211739" lon="6.466328"><ele>777.75</ele></trkpt>
   <trkpt lat="45.211556" lon="6.466364"><ele>780.25</ele></trkpt>
   <trkpt lat="45.211501" lon="6.466394"><ele>780.75</ele></trkpt>
   <trkpt lat="45.211455" lon="6.46644"><ele>781.5</ele></trkpt>
   <trkpt lat="45.21143" lon="6.466472"><ele>781.75</ele></trkpt>
   <trkpt lat="45.211407" lon="6.466522"><ele>782</ele></trkpt>
   <trkpt lat="45.211391" lon="6.466578"><ele>782.25</ele></trkpt>
   <trkpt lat="45.21138" lon="6.466687"><ele>782.5</ele></trkpt>
   <trkpt lat="45.211397" lon="6.466791"><ele>784</ele></trkpt>
   <trkpt lat="45.211433" lon="6.466888"><ele>784.75</ele></trkpt>
   <trkpt lat="45.211469" lon="6.466941"><ele>784.75</ele></trkpt>
   <trkpt lat="45.211564" lon="6.467037"><ele>786.5</ele></trkpt>
   <trkpt lat="45.211831" lon="6.46729"><ele>786.5</ele></trkpt>
   <trkpt lat="45.211893" lon="6.467367"><ele>786.75</ele></trkpt>
   <trkpt lat="45.211917" lon="6.46741"><ele>787.25</ele></trkpt>
   <trkpt lat="45.211937" lon="6.467501"><ele>789.25</ele></trkpt>
   <trkpt lat="45.21194" lon="6.467567"><ele>788.75</ele></trkpt>
   <trkpt lat="45.211934" lon="6.467606"><ele>789</ele></trkpt>
   <trkpt lat="45.211919" lon="6.467668"><ele>789.25</ele></trkpt>
   <trkpt lat="45.211885" lon="6.467757"><ele>790.25</ele></trkpt>
   <trkpt lat="45.211776" lon="6.467974"><ele>791.75</ele></trkpt>
   <trkpt lat="45.211709" lon="6.468079"><ele>793.5</ele></trkpt>
   <trkpt lat="45.211601" lon="6.468222"><ele>795.25</ele></trkpt>
   <trkpt lat="45.21134" lon="6.468544"><ele>797.25</ele></trkpt>
   <trkpt lat="45.211251" lon="6.468641"><ele>798.25</ele></trkpt>
   <trkpt lat="45.211174" lon="6.46871"><ele>799.5</ele></trkpt>
   <trkpt lat="45.211074" lon="6.468781"><ele>801.75</ele></trkpt>
   <trkpt lat="45.210891" lon="6.468895"><ele>803.75</ele></trkpt>
   <trkpt lat="45.210336" lon="6.469237"><ele>810</ele></trkpt>
   <trkpt lat="45.210261" lon="6.46929"><ele>810.75</ele></trkpt>
   <trkpt lat="45.210172" lon="6.469379"><ele>811.75</ele></trkpt>
   <trkpt lat="45.210123" lon="6.469442"><ele>812.25</ele></trkpt>
   <trkpt lat="45.210047" lon="6.469559"><ele>811.75</ele></trkpt>
   <trkpt lat="45.210006" lon="6.469585"><ele>811.75</ele></trkpt>
   <trkpt lat="45.209964" lon="6.469585"><ele>812.75</ele></trkpt>
   <trkpt lat="45.209922" lon="6.46956"><ele>814.25</ele></trkpt>
   <trkpt lat="45.209889" lon="6.469506"><ele>816.25</ele></trkpt>
   <trkpt lat="45.209872" lon="6.469433"><ele>818.25</ele></trkpt>
   <trkpt lat="45.209872" lon="6.469393"><ele>818.5</ele></trkpt>
   <trkpt lat="45.209889" lon="6.469306"><ele>818.75</ele></trkpt>
   <trkpt lat="45.209984" lon="6.469003"><ele>818.5</ele></trkpt>
   <trkpt lat="45.21007" lon="6.468609"><ele>822.25</ele></trkpt>
   <trkpt lat="45.210157" lon="6.468228"><ele>824.5</ele></trkpt>
   <trkpt lat="45.210173" lon="6.468062"><ele>826.25</ele></trkpt>
   <trkpt lat="45.210182" lon="6.467844"><ele>828.25</ele></trkpt>
   <trkpt lat="45.210186" lon="6.467456"><ele>829</ele></trkpt>
   <trkpt lat="45.210194" lon="6.46732"><ele>829.75</ele></trkpt>
   <trkpt lat="45.210205" lon="6.467217"><ele>830</ele></trkpt>
   <trkpt lat="45.210244" lon="6.46703"><ele>831.25</ele></trkpt>
   <trkpt lat="45.210246" lon="6.466994"><ele>831.75</ele></trkpt>
   <trkpt lat="45.210234" lon="6.466904"><ele>831.75</ele></trkpt>
   <trkpt lat="45.210195" lon="6.466838"><ele>831.5</ele></trkpt>
   <trkpt lat="45.210173" lon="6.466825"><ele>832</ele></trkpt>
   <trkpt lat="45.210116" lon="6.466815"><ele>833.25</ele></trkpt>
   <trkpt lat="45.210091" lon="6.466822"><ele>834</ele></trkpt>
   <trkpt lat="45.210062" lon="6.466844"><ele>834.75</ele></trkpt>
   <trkpt lat="45.210046" lon="6.466867"><ele>835.25</ele></trkpt>
   <trkpt lat="45.210035" lon="6.466906"><ele>835.5</ele></trkpt>
   <trkpt lat="45.209915" lon="6.467662"><ele>838.25</ele></trkpt>
   <trkpt lat="45.209884" lon="6.467807"><ele>838.75</ele></trkpt>
   <trkpt lat="45.209841" lon="6.467928"><ele>839.5</ele></trkpt>
   <trkpt lat="45.209773" lon="6.468076"><ele>840.25</ele></trkpt>
   <trkpt lat="45.209624" lon="6.468339"><ele>842.5</ele></trkpt>
   <trkpt lat="45.209573" lon="6.468409"><ele>842.75</ele></trkpt>
   <trkpt lat="45.209509" lon="6.46847"><ele>843.5</ele></trkpt>
   <trkpt lat="45.209269" lon="6.468622"><ele>846.5</ele></trkpt>
   <trkpt lat="45.209083" lon="6.468709"><ele>848.25</ele></trkpt>
   <trkpt lat="45.208906" lon="6.468761"><ele>849.75</ele></trkpt>
   <trkpt lat="45.208621" lon="6.468846"><ele>853.75</ele></trkpt>
   <trkpt lat="45.208549" lon="6.46888"><ele>854.25</ele></trkpt>
   <trkpt lat="45.208368" lon="6.469009"><ele>856</ele></trkpt>
   <trkpt lat="45.208251" lon="6.469106"><ele>856.75</ele></trkpt>
   <trkpt lat="45.20811" lon="6.46923"><ele>857.5</ele></trkpt>
   <trkpt lat="45.207927" lon="6.469419"><ele>859.25</ele></trkpt>
   <trkpt lat="45.207881" lon="6.469434"><ele>860</ele></trkpt>
   <trkpt lat="45.207812" lon="6.469419"><ele>861.25</ele></trkpt>
   <trkpt lat="45.207762" lon="6.469364"><ele>862.5</ele></trkpt>
   <trkpt lat="45.207744" lon="6.469318"><ele>863.25</ele></trkpt>
   <trkpt lat="45.207736" lon="6.469274"><ele>863.75</ele></trkpt>
   <trkpt lat="45.207738" lon="6.469186"><ele>864</ele></trkpt>
   <trkpt lat="45.20777" lon="6.469107"><ele>864.25</ele></trkpt>
   <trkpt lat="45.207793" lon="6.469066"><ele>864.5</ele></trkpt>
   <trkpt lat="45.207862" lon="6.46899"><ele>864.75</ele></trkpt>
   <trkpt lat="45.208247" lon="6.46859"><ele>866.5</ele></trkpt>
   <trkpt lat="45.208442" lon="6.468386"><ele>869.5</ele></trkpt>
   <trkpt lat="45.208544" lon="6.468241"><ele>870.75</ele></trkpt>
   <trkpt lat="45.208596" lon="6.468092"><ele>871.75</ele></trkpt>
   <trkpt lat="45.208634" lon="6.467923"><ele>872.75</ele></trkpt>
   <trkpt lat="45.20869" lon="6.467752"><ele>873.5</ele></trkpt>
   <trkpt lat="45.208725" lon="6.467669"><ele>874.5</ele></trkpt>
   <trkpt lat="45.208868" lon="6.467432"><ele>876.5</ele></trkpt>
   <trkpt lat="45.208895" lon="6.467369"><ele>877</ele></trkpt>
   <trkpt lat="45.208925" lon="6.467245"><ele>878.5</ele></trkpt>
   <trkpt lat="45.208927" lon="6.467185"><ele>878.75</ele></trkpt>
   <trkpt lat="45.208921" lon="6.467106"><ele>879</ele></trkpt>
   <trkpt lat="45.208906" lon="6.467027"><ele>879.5</ele></trkpt>
   <trkpt lat="45.208778" lon="6.466621"><ele>882.25</ele></trkpt>
   <trkpt lat="45.208754" lon="6.466526"><ele>883</ele></trkpt>
   <trkpt lat="45.208739" lon="6.466437"><ele>883.5</ele></trkpt>
   <trkpt lat="45.208734" lon="6.466283"><ele>883.75</ele></trkpt>
   <trkpt lat="45.208741" lon="6.466185"><ele>884</ele></trkpt>
   <trkpt lat="45.208778" lon="6.465963"><ele>885.75</ele></trkpt>
   <trkpt lat="45.20879" lon="6.465862"><ele>887.25</ele></trkpt>
   <trkpt lat="45.20879" lon="6.46578"><ele>887.75</ele></trkpt>
   <trkpt lat="45.208786" lon="6.465714"><ele>888</ele></trkpt>
   <trkpt lat="45.208768" lon="6.465623"><ele>888.5</ele></trkpt>
   <trkpt lat="45.208712" lon="6.465431"><ele>890.5</ele></trkpt>
   <trkpt lat="45.208688" lon="6.465317"><ele>891</ele></trkpt>
   <trkpt lat="45.208676" lon="6.465215"><ele>891.5</ele></trkpt>
   <trkpt lat="45.208676" lon="6.465"><ele>892.5</ele></trkpt>
   <trkpt lat="45.208683" lon="6.464523"><ele>895.75</ele></trkpt>
   <trkpt lat="45.208674" lon="6.464411"><ele>896.75</ele></trkpt>
   <trkpt lat="45.208656" lon="6.464328"><ele>897.25</ele></trkpt>
   <trkpt lat="45.208641" lon="6.464289"><ele>897.5</ele></trkpt>
   <trkpt lat="45.208588" lon="6.464212"><ele>898.25</ele></trkpt>
   <trkpt lat="45.208515" lon="6.464152"><ele>899.25</ele></trkpt>
   <trkpt lat="45.208473" lon="6.464127"><ele>899.75</ele></trkpt>
   <trkpt lat="45.208023" lon="6.463967"><ele>904</ele></trkpt>
   <trkpt lat="45.207969" lon="6.463937"><ele>904.5</ele></trkpt>
   <trkpt lat="45.207924" lon="6.463889"><ele>904.25</ele></trkpt>
   <trkpt lat="45.207861" lon="6.463805"><ele>905.75</ele></trkpt>
   <trkpt lat="45.207836" lon="6.463727"><ele>906.75</ele></trkpt>
   <trkpt lat="45.207828" lon="6.463669"><ele>907</ele></trkpt>
   <trkpt lat="45.207826" lon="6.463637"><ele>907.25</ele></trkpt>
   <trkpt lat="45.207845" lon="6.463498"><ele>909.5</ele></trkpt>
   <trkpt lat="45.207978" lon="6.463116"><ele>912.5</ele></trkpt>
   <trkpt lat="45.207996" lon="6.462988"><ele>913</ele></trkpt>
   <trkpt lat="45.208019" lon="6.462595"><ele>914.25</ele></trkpt>
   <trkpt lat="45.208028" lon="6.46226"><ele>916</ele></trkpt>
   <trkpt lat="45.208012" lon="6.462132"><ele>916</ele></trkpt>
   <trkpt lat="45.207972" lon="6.462016"><ele>916.75</ele></trkpt>
   <trkpt lat="45.207822" lon="6.461762"><ele>919.5</ele></trkpt>
   <trkpt lat="45.207783" lon="6.461675"><ele>919.75</ele></trkpt>
   <trkpt lat="45.20775" lon="6.461574"><ele>922.5</ele></trkpt>
   <trkpt lat="45.207733" lon="6.461474"><ele>924.5</ele></trkpt>
   <trkpt lat="45.207699" lon="6.461148"><ele>927.25</ele></trkpt>
   <trkpt lat="45.207683" lon="6.461049"><ele>927.5</ele></trkpt>
   <trkpt lat="45.207664" lon="6.460972"><ele>927.75</ele></trkpt>
   <trkpt lat="45.207642" lon="6.460914"><ele>928.5</ele></trkpt>
   <trkpt lat="45.207533" lon="6.460662"><ele>929.5</ele></trkpt>
   <trkpt lat="45.207511" lon="6.460554"><ele>928.25</ele></trkpt>
   <trkpt lat="45.207495" lon="6.460257"><ele>930.75</ele></trkpt>
   <trkpt lat="45.207487" lon="6.460201"><ele>930.25</ele></trkpt>
   <trkpt lat="45.207459" lon="6.460125"><ele>930.75</ele></trkpt>
   <trkpt lat="45.207434" lon="6.460078"><ele>931.25</ele></trkpt>
   <trkpt lat="45.207321" lon="6.459976"><ele>936</ele></trkpt>
   <trkpt lat="45.207228" lon="6.459876"><ele>937.5</ele></trkpt>
   <trkpt lat="45.20719" lon="6.45982"><ele>937.5</ele></trkpt>
   <trkpt lat="45.207143" lon="6.459685"><ele>936.5</ele></trkpt>
   <trkpt lat="45.207135" lon="6.459605"><ele>936.25</ele></trkpt>
   <trkpt lat="45.207146" lon="6.459473"><ele>935.25</ele></trkpt>
   <trkpt lat="45.207204" lon="6.459305"><ele>936.5</ele></trkpt>
   <trkpt lat="45.207267" lon="6.459159"><ele>938.75</ele></trkpt>
   <trkpt lat="45.207323" lon="6.45903"><ele>941</ele></trkpt>
   <trkpt lat="45.207577" lon="6.458414"><ele>946</ele></trkpt>
   <trkpt lat="45.207631" lon="6.458261"><ele>947</ele></trkpt>
   <trkpt lat="45.207686" lon="6.458112"><ele>947.75</ele></trkpt>
   <trkpt lat="45.207715" lon="6.458058"><ele>948</ele></trkpt>
   <trkpt lat="45.207781" lon="6.457992"><ele>948.75</ele></trkpt>
   <trkpt lat="45.20786" lon="6.457958"><ele>950.5</ele></trkpt>
   <trkpt lat="45.207909" lon="6.457952"><ele>951</ele></trkpt>
   <trkpt lat="45.208352" lon="6.457953"><ele>954</ele></trkpt>
   <trkpt lat="45.208419" lon="6.457938"><ele>954</ele></trkpt>
   <trkpt lat="45.208589" lon="6.457859"><ele>955.5</ele></trkpt>
   <trkpt lat="45.208652" lon="6.457839"><ele>956.25</ele></trkpt>
   <trkpt lat="45.208744" lon="6.457826"><ele>957.75</ele></trkpt>
   <trkpt lat="45.208847" lon="6.457841"><ele>958.25</ele></trkpt>
   <trkpt lat="45.209035" lon="6.45789"><ele>959.5</ele></trkpt>
   <trkpt lat="45.20915" lon="6.457902"><ele>961</ele></trkpt>
   <trkpt lat="45.209248" lon="6.457878"><ele>961.75</ele></trkpt>
   <trkpt lat="45.209292" lon="6.457855"><ele>962.25</ele></trkpt>
   <trkpt lat="45.20938" lon="6.457792"><ele>963.75</ele></trkpt>
   <trkpt lat="45.209638" lon="6.457551"><ele>967.25</ele></trkpt>
   <trkpt lat="45.209742" lon="6.457489"><ele>968.25</ele></trkpt>
   <trkpt lat="45.2098" lon="6.457467"><ele>969.25</ele></trkpt>
   <trkpt lat="45.209859" lon="6.457459"><ele>970</ele></trkpt>
   <trkpt lat="45.20995" lon="6.457453"><ele>970.75</ele></trkpt>
   <trkpt lat="45.210146" lon="6.457458"><ele>972.75</ele></trkpt>
   <trkpt lat="45.210231" lon="6.457459"><ele>974</ele></trkpt>
   <trkpt lat="45.210339" lon="6.457491"><ele>974.5</ele></trkpt>
   <trkpt lat="45.210445" lon="6.457565"><ele>975</ele></trkpt>
   <trkpt lat="45.210571" lon="6.457671"><ele>975.75</ele></trkpt>
   <trkpt lat="45.210611" lon="6.457694"><ele>975.75</ele></trkpt>
   <trkpt lat="45.210673" lon="6.457697"><ele>976</ele></trkpt>
   <trkpt lat="45.210702" lon="6.457683"><ele>976.25</ele></trkpt>
   <trkpt lat="45.210735" lon="6.457631"><ele>976</ele></trkpt>
   <trkpt lat="45.210743" lon="6.457597"><ele>975.75</ele></trkpt>
   <trkpt lat="45.210745" lon="6.457558"><ele>975.25</ele></trkpt>
   <trkpt lat="45.210735" lon="6.4575"><ele>975</ele></trkpt>
   <trkpt lat="45.210695" lon="6.457416"><ele>974.5</ele></trkpt>
   <trkpt lat="45.210566" lon="6.457237"><ele>979.25</ele></trkpt>
   <trkpt lat="45.21031" lon="6.456846"><ele>984.5</ele></trkpt>
   <trkpt lat="45.210234" lon="6.456719"><ele>985.5</ele></trkpt>
   <trkpt lat="45.210181" lon="6.456608"><ele>986.25</ele></trkpt>
   <trkpt lat="45.210131" lon="6.456468"><ele>986.75</ele></trkpt>
   <trkpt lat="45.210085" lon="6.45631"><ele>987.5</ele></trkpt>
   <trkpt lat="45.210041" lon="6.456115"><ele>988.25</ele></trkpt>
   <trkpt lat="45.210019" lon="6.455988"><ele>990</ele></trkpt>
   <trkpt lat="45.210012" lon="6.455866"><ele>991.25</ele></trkpt>
   <trkpt lat="45.210015" lon="6.455762"><ele>992</ele></trkpt>
   <trkpt lat="45.210048" lon="6.455563"><ele>992.5</ele></trkpt>
   <trkpt lat="45.210074" lon="6.455467"><ele>993</ele></trkpt>
   <trkpt lat="45.210177" lon="6.455175"><ele>995.75</ele></trkpt>
   <trkpt lat="45.210273" lon="6.454959"><ele>997.5</ele></trkpt>
   <trkpt lat="45.210379" lon="6.454764"><ele>997</ele></trkpt>
   <trkpt lat="45.210405" lon="6.454703"><ele>997</ele></trkpt>
   <trkpt lat="45.210416" lon="6.454619"><ele>997.25</ele></trkpt>
   <trkpt lat="45.210414" lon="6.454579"><ele>997.75</ele></trkpt>
   <trkpt lat="45.210404" lon="6.454543"><ele>998.25</ele></trkpt>
   <trkpt lat="45.210377" lon="6.454487"><ele>999.5</ele></trkpt>
   <trkpt lat="45.210337" lon="6.45445"><ele>1000.5</ele></trkpt>
   <trkpt lat="45.210308" lon="6.454439"><ele>1001.5</ele></trkpt>
   <trkpt lat="45.210265" lon="6.454439"><ele>1002.5</ele></trkpt>
   <trkpt lat="45.210216" lon="6.454466"><ele>1004.5</ele></trkpt>
   <trkpt lat="45.210172" lon="6.454534"><ele>1005.5</ele></trkpt>
   <trkpt lat="45.2101" lon="6.45473"><ele>1005.25</ele></trkpt>
   <trkpt lat="45.210039" lon="6.454848"><ele>1004.75</ele></trkpt>
   <trkpt lat="45.20996" lon="6.454937"><ele>1005</ele></trkpt>
   <trkpt lat="45.209806" lon="6.455064"><ele>1006.75</ele></trkpt>
   <trkpt lat="45.20969" lon="6.455176"><ele>1009</ele></trkpt>
   <trkpt lat="45.209662" lon="6.455217"><ele>1009.5</ele></trkpt>
   <trkpt lat="45.209619" lon="6.455301"><ele>1010</ele></trkpt>
   <trkpt lat="45.209593" lon="6.455361"><ele>1010.5</ele></trkpt>
   <trkpt lat="45.209567" lon="6.455444"><ele>1010.75</ele></trkpt>
   <trkpt lat="45.20955" lon="6.455544"><ele>1010.75</ele></trkpt>
   <trkpt lat="45.209529" lon="6.45595"><ele>1012.25</ele></trkpt>
   <trkpt lat="45.209501" lon="6.456042"><ele>1013.25</ele></trkpt>
   <trkpt lat="45.209455" lon="6.456101"><ele>1014.5</ele></trkpt>
   <trkpt lat="45.209426" lon="6.456117"><ele>1014.75</ele></trkpt>
   <trkpt lat="45.209368" lon="6.456131"><ele>1014.75</ele></trkpt>
   <trkpt lat="45.209316" lon="6.456127"><ele>1015.25</ele></trkpt>
   <trkpt lat="45.209078" lon="6.456077"><ele>1017.25</ele></trkpt>
   <trkpt lat="45.20899" lon="6.456028"><ele>1017.75</ele></trkpt>
   <trkpt lat="45.208925" lon="6.45595"><ele>1018.75</ele></trkpt>
   <trkpt lat="45.208895" lon="6.455891"><ele>1019.75</ele></trkpt>
   <trkpt lat="45.208861" lon="6.455796"><ele>1020.5</ele></trkpt>
   <trkpt lat="45.208765" lon="6.455463"><ele>1023.25</ele></trkpt>
   <trkpt lat="45.20868" lon="6.455208"><ele>1025.75</ele></trkpt>
   <trkpt lat="45.208555" lon="6.45494"><ele>1027</ele></trkpt>
   <trkpt lat="45.208251" lon="6.454355"><ele>1031.25</ele></trkpt>
   <trkpt lat="45.208145" lon="6.454135"><ele>1034.25</ele></trkpt>
   <trkpt lat="45.207984" lon="6.453764"><ele>1036.75</ele></trkpt>
   <trkpt lat="45.207898" lon="6.453617"><ele>1038.25</ele></trkpt>
   <trkpt lat="45.207813" lon="6.453522"><ele>1039</ele></trkpt>
   <trkpt lat="45.207711" lon="6.45345"><ele>1039.75</ele></trkpt>
   <trkpt lat="45.207662" lon="6.453428"><ele>1040</ele></trkpt>
   <trkpt lat="45.207504" lon="6.453389"><ele>1040.25</ele></trkpt>
   <trkpt lat="45.207201" lon="6.453356"><ele>1043.25</ele></trkpt>
   <trkpt lat="45.207063" lon="6.453368"><ele>1044.25</ele></trkpt>
   <trkpt lat="45.206939" lon="6.453399"><ele>1044.25</ele></trkpt>
   <trkpt lat="45.206797" lon="6.453422"><ele>1045.5</ele></trkpt>
   <trkpt lat="45.206552" lon="6.453433"><ele>1048.75</ele></trkpt>
   <trkpt lat="45.206436" lon="6.453428"><ele>1050.75</ele></trkpt>
   <trkpt lat="45.206362" lon="6.453419"><ele>1051.75</ele></trkpt>
   <trkpt lat="45.206279" lon="6.453396"><ele>1052</ele></trkpt>
   <trkpt lat="45.206038" lon="6.453299"><ele>1054</ele></trkpt>
   <trkpt lat="45.205914" lon="6.453258"><ele>1055.5</ele></trkpt>
   <trkpt lat="45.205812" lon="6.45323"><ele>1056.5</ele></trkpt>
   <trkpt lat="45.205573" lon="6.453191"><ele>1059</ele></trkpt>
   <trkpt lat="45.205403" lon="6.453178"><ele>1060</ele></trkpt>
   <trkpt lat="45.204906" lon="6.453188"><ele>1064.25</ele></trkpt>
   <trkpt lat="45.204376" lon="6.453164"><ele>1069</ele></trkpt>
   <trkpt lat="45.204174" lon="6.453172"><ele>1073.25</ele></trkpt>
   <trkpt lat="45.204" lon="6.453222"><ele>1074.75</ele></trkpt>
   <trkpt lat="45.203932" lon="6.453254"><ele>1074.75</ele></trkpt>
   <trkpt lat="45.203883" lon="6.453293"><ele>1074.25</ele></trkpt>
   <trkpt lat="45.203833" lon="6.453348"><ele>1074.25</ele></trkpt>
   <trkpt lat="45.203773" lon="6.453466"><ele>1075</ele></trkpt>
   <trkpt lat="45.203737" lon="6.453624"><ele>1076</ele></trkpt>
   <trkpt lat="45.203672" lon="6.454017"><ele>1076.75</ele></trkpt>
   <trkpt lat="45.203608" lon="6.454266"><ele>1078.25</ele></trkpt>
   <trkpt lat="45.20356" lon="6.454394"><ele>1079.5</ele></trkpt>
   <trkpt lat="45.203406" lon="6.454706"><ele>1081.75</ele></trkpt>
   <trkpt lat="45.203358" lon="6.454788"><ele>1082.5</ele></trkpt>
   <trkpt lat="45.203286" lon="6.454934"><ele>1083</ele></trkpt>
   <trkpt lat="45.203154" lon="6.455146"><ele>1083.75</ele></trkpt>
   <trkpt lat="45.203032" lon="6.455277"><ele>1087</ele></trkpt>
   <trkpt lat="45.202769" lon="6.45553"><ele>1089</ele></trkpt>
   <trkpt lat="45.202685" lon="6.455599"><ele>1089.5</ele></trkpt>
   <trkpt lat="45.202609" lon="6.455632"><ele>1090</ele></trkpt>
   <trkpt lat="45.202545" lon="6.455633"><ele>1090.5</ele></trkpt>
   <trkpt lat="45.202503" lon="6.455621"><ele>1090.75</ele></trkpt>
   <trkpt lat="45.202399" lon="6.455571"><ele>1092.75</ele></trkpt>
   <trkpt lat="45.202349" lon="6.45551"><ele>1093.5</ele></trkpt>
   <trkpt lat="45.20231" lon="6.455437"><ele>1093.75</ele></trkpt>
   <trkpt lat="45.202298" lon="6.45534"><ele>1093.5</ele></trkpt>
   <trkpt lat="45.202303" lon="6.455293"><ele>1093.25</ele></trkpt>
   <trkpt lat="45.20232" lon="6.455249"><ele>1093.75</ele></trkpt>
   <trkpt lat="45.202352" lon="6.455195"><ele>1094.25</ele></trkpt>
   <trkpt lat="45.202579" lon="6.45491"><ele>1095.75</ele></trkpt>
   <trkpt lat="45.202742" lon="6.454687"><ele>1097.5</ele></trkpt>
   <trkpt lat="45.202869" lon="6.45453"><ele>1097.25</ele></trkpt>
   <trkpt lat="45.203031" lon="6.454364"><ele>1097</ele></trkpt>
   <trkpt lat="45.203068" lon="6.454318"><ele>1097</ele></trkpt>
   <trkpt lat="45.203088" lon="6.454279"><ele>1096.75</ele></trkpt>
   <trkpt lat="45.203108" lon="6.454189"><ele>1097</ele></trkpt>
   <trkpt lat="45.203096" lon="6.454102"><ele>1096.75</ele></trkpt>
   <trkpt lat="45.203061" lon="6.454036"><ele>1097.25</ele></trkpt>
   <trkpt lat="45.203019" lon="6.454"><ele>1098</ele></trkpt>
   <trkpt lat="45.202989" lon="6.453991"><ele>1098.75</ele></trkpt>
   <trkpt lat="45.20293" lon="6.453999"><ele>1100.25</ele></trkpt>
   <trkpt lat="45.202879" lon="6.45404"><ele>1101.5</ele></trkpt>
   <trkpt lat="45.202765" lon="6.454236"><ele>1102.5</ele></trkpt>
   <trkpt lat="45.202695" lon="6.454337"><ele>1103</ele></trkpt>
   <trkpt lat="45.202447" lon="6.454637"><ele>1105.25</ele></trkpt>
   <trkpt lat="45.202388" lon="6.454698"><ele>1105.75</ele></trkpt>
   <trkpt lat="45.202342" lon="6.454734"><ele>1105.75</ele></trkpt>
   <trkpt lat="45.202283" lon="6.454762"><ele>1106</ele></trkpt>
   <trkpt lat="45.202214" lon="6.45478"><ele>1106.5</ele></trkpt>
   <trkpt lat="45.201994" lon="6.45478"><ele>1109</ele></trkpt>
   <trkpt lat="45.201957" lon="6.45479"><ele>1109.25</ele></trkpt>
   <trkpt lat="45.201916" lon="6.454813"><ele>1110</ele></trkpt>
   <trkpt lat="45.201887" lon="6.454842"><ele>1110.5</ele></trkpt>
   <trkpt lat="45.201859" lon="6.454876"><ele>1111.25</ele></trkpt>
   <trkpt lat="45.201837" lon="6.454918"><ele>1111.75</ele></trkpt>
   <trkpt lat="45.20182" lon="6.454964"><ele>1112</ele></trkpt>
   <trkpt lat="45.201803" lon="6.455059"><ele>1112.75</ele></trkpt>
   <trkpt lat="45.201807" lon="6.455204"><ele>1113.5</ele></trkpt>
   <trkpt lat="45.20183" lon="6.455382"><ele>1114.75</ele></trkpt>
   <trkpt lat="45.201863" lon="6.455588"><ele>1117.5</ele></trkpt>
   <trkpt lat="45.201899" lon="6.45571"><ele>1118.5</ele></trkpt>
   <trkpt lat="45.202046" lon="6.456042"><ele>1120</ele></trkpt>
   <trkpt lat="45.202054" lon="6.456091"><ele>1121</ele></trkpt>
   <trkpt lat="45.202054" lon="6.456137"><ele>1120.75</ele></trkpt>
   <trkpt lat="45.202024" lon="6.456221"><ele>1120</ele></trkpt>
   <trkpt lat="45.201995" lon="6.456264"><ele>1120.25</ele></trkpt>
   <trkpt lat="45.201949" lon="6.456307"><ele>1121.25</ele></trkpt>
   <trkpt lat="45.201848" lon="6.456371"><ele>1121.75</ele></trkpt>
   <trkpt lat="45.201775" lon="6.456393"><ele>1122.25</ele></trkpt>
   <trkpt lat="45.201667" lon="6.456403"><ele>1124.25</ele></trkpt>
   <trkpt lat="45.201362" lon="6.456409"><ele>1128</ele></trkpt>
   <trkpt lat="45.201319" lon="6.456427"><ele>1128.5</ele></trkpt>
   <trkpt lat="45.201289" lon="6.456459"><ele>1129.25</ele></trkpt>
   <trkpt lat="45.201235" lon="6.456551"><ele>1131</ele></trkpt>
   <trkpt lat="45.201222" lon="6.456616"><ele>1132</ele></trkpt>
   <trkpt lat="45.201219" lon="6.456665"><ele>1132.75</ele></trkpt>
   <trkpt lat="45.201245" lon="6.45679"><ele>1133</ele></trkpt>
   <trkpt lat="45.201326" lon="6.456934"><ele>1134.25</ele></trkpt>
   <trkpt lat="45.201653" lon="6.457366"><ele>1135.25</ele></trkpt>
   <trkpt lat="45.201748" lon="6.45747"><ele>1137</ele></trkpt>
   <trkpt lat="45.202033" lon="6.457661"><ele>1139.25</ele></trkpt>
   <trkpt lat="45.202112" lon="6.457739"><ele>1140</ele></trkpt>
   <trkpt lat="45.202224" lon="6.457878"><ele>1141.25</ele></trkpt>
   <trkpt lat="45.202315" lon="6.458046"><ele>1141</ele></trkpt>
   <trkpt lat="45.202353" lon="6.45814"><ele>1141.5</ele></trkpt>
   <trkpt lat="45.202417" lon="6.458358"><ele>1144</ele></trkpt>
   <trkpt lat="45.202452" lon="6.458455"><ele>1145</ele></trkpt>
   <trkpt lat="45.202515" lon="6.45859"><ele>1145.5</ele></trkpt>
   <trkpt lat="45.20257" lon="6.458693"><ele>1146.5</ele></trkpt>
   <trkpt lat="45.202733" lon="6.458959"><ele>1148.5</ele></trkpt>
   <trkpt lat="45.202958" lon="6.45931"><ele>1148.75</ele></trkpt>
   <trkpt lat="45.203024" lon="6.459429"><ele>1150.25</ele></trkpt>
   <trkpt lat="45.203068" lon="6.459523"><ele>1150.5</ele></trkpt>
   <trkpt lat="45.203106" lon="6.459626"><ele>1150.5</ele></trkpt>
   <trkpt lat="45.203139" lon="6.459739"><ele>1151</ele></trkpt>
   <trkpt lat="45.203163" lon="6.45984"><ele>1151</ele></trkpt>
   <trkpt lat="45.203193" lon="6.46004"><ele>1152.25</ele></trkpt>
   <trkpt lat="45.2032" lon="6.460227"><ele>1153.25</ele></trkpt>
   <trkpt lat="45.203192" lon="6.460569"><ele>1157.75</ele></trkpt>
   <trkpt lat="45.203205" lon="6.460695"><ele>1159.75</ele></trkpt>
   <trkpt lat="45.203242" lon="6.460829"><ele>1160.75</ele></trkpt>
   <trkpt lat="45.203415" lon="6.461221"><ele>1160.25</ele></trkpt>
   <trkpt lat="45.203462" lon="6.461368"><ele>1161.25</ele></trkpt>
   <trkpt lat="45.203474" lon="6.461442"><ele>1162</ele></trkpt>
   <trkpt lat="45.203479" lon="6.461516"><ele>1162.75</ele></trkpt>
   <trkpt lat="45.203482" lon="6.461916"><ele>1167</ele></trkpt>
   <trkpt lat="45.203498" lon="6.462107"><ele>1168</ele></trkpt>
   <trkpt lat="45.203533" lon="6.462334"><ele>1169</ele></trkpt>
   <trkpt lat="45.203565" lon="6.462822"><ele>1173</ele></trkpt>
   <trkpt lat="45.203561" lon="6.462895"><ele>1172.75</ele></trkpt>
   <trkpt lat="45.20354" lon="6.462999"><ele>1173</ele></trkpt>
   <trkpt lat="45.203492" lon="6.4631"><ele>1173</ele></trkpt>
   <trkpt lat="45.203456" lon="6.463147"><ele>1173</ele></trkpt>
   <trkpt lat="45.203399" lon="6.463202"><ele>1174</ele></trkpt>
   <trkpt lat="45.203353" lon="6.463229"><ele>1175.5</ele></trkpt>
   <trkpt lat="45.203251" lon="6.463286"><ele>1176.5</ele></trkpt>
   <trkpt lat="45.203128" lon="6.46334"><ele>1177</ele></trkpt>
   <trkpt lat="45.202944" lon="6.463444"><ele>1179</ele></trkpt>
   <trkpt lat="45.202795" lon="6.463575"><ele>1179.5</ele></trkpt>
   <trkpt lat="45.202741" lon="6.46364"><ele>1180.25</ele></trkpt>
   <trkpt lat="45.202679" lon="6.463732"><ele>1181.25</ele></trkpt>
   <trkpt lat="45.20232" lon="6.464375"><ele>1180.75</ele></trkpt>
   <trkpt lat="45.201997" lon="6.464972"><ele>1186.25</ele></trkpt>
   <trkpt lat="45.201917" lon="6.465168"><ele>1187.75</ele></trkpt>
   <trkpt lat="45.201848" lon="6.465379"><ele>1190</ele></trkpt>
   <trkpt lat="45.201824" lon="6.465486"><ele>1191</ele></trkpt>
   <trkpt lat="45.201748" lon="6.466047"><ele>1196</ele></trkpt>
   <trkpt lat="45.201728" lon="6.466273"><ele>1196.25</ele></trkpt>
   <trkpt lat="45.201715" lon="6.466337"><ele>1196.25</ele></trkpt>
   <trkpt lat="45.201674" lon="6.466446"><ele>1197</ele></trkpt>
   <trkpt lat="45.201546" lon="6.46668"><ele>1199.5</ele></trkpt>
   <trkpt lat="45.201287" lon="6.467018"><ele>1204</ele></trkpt>
   <trkpt lat="45.201048" lon="6.467284"><ele>1206.75</ele></trkpt>
   <trkpt lat="45.200916" lon="6.467416"><ele>1208.25</ele></trkpt>
   <trkpt lat="45.200842" lon="6.467471"><ele>1209.25</ele></trkpt>
   <trkpt lat="45.200737" lon="6.467511"><ele>1209</ele></trkpt>
   <trkpt lat="45.200502" lon="6.467533"><ele>1210.5</ele></trkpt>
   <trkpt lat="45.200202" lon="6.46761"><ele>1213.75</ele></trkpt>
   <trkpt lat="45.199538" lon="6.467924"><ele>1218.25</ele></trkpt>
   <trkpt lat="45.199238" lon="6.468146"><ele>1221.25</ele></trkpt>
   <trkpt lat="45.199145" lon="6.46819"><ele>1221.5</ele></trkpt>
   <trkpt lat="45.199084" lon="6.468193"><ele>1221.5</ele></trkpt>
   <trkpt lat="45.199007" lon="6.468179"><ele>1222.25</ele></trkpt>
   <trkpt lat="45.19874" lon="6.468071"><ele>1226</ele></trkpt>
   <trkpt lat="45.198655" lon="6.468042"><ele>1226.75</ele></trkpt>
   <trkpt lat="45.198555" lon="6.468044"><ele>1228</ele></trkpt>
   <trkpt lat="45.19848" lon="6.468073"><ele>1229</ele></trkpt>
   <trkpt lat="45.198417" lon="6.468111"><ele>1229.5</ele></trkpt>
   <trkpt lat="45.198301" lon="6.468256"><ele>1230.25</ele></trkpt>
   <trkpt lat="45.198103" lon="6.468612"><ele>1231.25</ele></trkpt>
   <trkpt lat="45.198017" lon="6.468781"><ele>1233.25</ele></trkpt>
   <trkpt lat="45.197955" lon="6.468975"><ele>1234</ele></trkpt>
   <trkpt lat="45.197933" lon="6.469099"><ele>1234</ele></trkpt>
   <trkpt lat="45.197922" lon="6.469195"><ele>1234</ele></trkpt>
   <trkpt lat="45.197907" lon="6.469452"><ele>1233</ele></trkpt>
   <trkpt lat="45.197892" lon="6.46949"><ele>1233</ele></trkpt>
   <trkpt lat="45.197873" lon="6.469518"><ele>1233.25</ele></trkpt>
   <trkpt lat="45.197829" lon="6.469552"><ele>1234.25</ele></trkpt>
   <trkpt lat="45.197785" lon="6.469559"><ele>1235.5</ele></trkpt>
   <trkpt lat="45.197738" lon="6.469542"><ele>1236.75</ele></trkpt>
   <trkpt lat="45.197703" lon="6.469505"><ele>1238</ele></trkpt>
   <trkpt lat="45.197678" lon="6.469453"><ele>1239.75</ele></trkpt>
   <trkpt lat="45.197674" lon="6.469347"><ele>1242</ele></trkpt>
   <trkpt lat="45.197744" lon="6.469141"><ele>1242.75</ele></trkpt>
   <trkpt lat="45.197775" lon="6.469021"><ele>1242</ele></trkpt>
   <trkpt lat="45.197829" lon="6.468757"><ele>1242.5</ele></trkpt>
   <trkpt lat="45.197861" lon="6.468655"><ele>1242.25</ele></trkpt>
   <trkpt lat="45.197911" lon="6.468519"><ele>1244</ele></trkpt>
   <trkpt lat="45.19812" lon="6.46803"><ele>1247</ele></trkpt>
   <trkpt lat="45.198248" lon="6.467778"><ele>1249.25</ele></trkpt>
   <trkpt lat="45.198315" lon="6.46766"><ele>1249.25</ele></trkpt>
   <trkpt lat="45.198378" lon="6.467565"><ele>1250</ele></trkpt>
   <trkpt lat="45.19846" lon="6.467463"><ele>1252</ele></trkpt>
   <trkpt lat="45.198544" lon="6.467396"><ele>1252.75</ele></trkpt>
   <trkpt lat="45.198784" lon="6.467306"><ele>1254</ele></trkpt>
   <trkpt lat="45.198965" lon="6.467263"><ele>1255.25</ele></trkpt>
   <trkpt lat="45.199357" lon="6.467203"><ele>1257.75</ele></trkpt>
   <trkpt lat="45.199456" lon="6.467179"><ele>1257.75</ele></trkpt>
   <trkpt lat="45.199479" lon="6.467166"><ele>1257</ele></trkpt>
   <trkpt lat="45.199518" lon="6.467107"><ele>1256.25</ele></trkpt>
   <trkpt lat="45.199532" lon="6.467025"><ele>1256.75</ele></trkpt>
   <trkpt lat="45.199526" lon="6.466973"><ele>1257.5</ele></trkpt>
   <trkpt lat="45.199508" lon="6.466918"><ele>1259</ele></trkpt>
   <trkpt lat="45.199467" lon="6.466874"><ele>1261.5</ele></trkpt>
   <trkpt lat="45.19941" lon="6.466861"><ele>1263</ele></trkpt>
   <trkpt lat="45.199351" lon="6.466868"><ele>1263.5</ele></trkpt>
   <trkpt lat="45.199265" lon="6.466916"><ele>1262.25</ele></trkpt>
   <trkpt lat="45.199061" lon="6.466997"><ele>1261.75</ele></trkpt>
   <trkpt lat="45.198989" lon="6.467007"><ele>1262</ele></trkpt>
   <trkpt lat="45.198923" lon="6.467004"><ele>1262.75</ele></trkpt>
   <trkpt lat="45.198762" lon="6.466975"><ele>1264.75</ele></trkpt>
   <trkpt lat="45.19859" lon="6.466971"><ele>1266.25</ele></trkpt>
   <trkpt lat="45.198482" lon="6.466993"><ele>1267.5</ele></trkpt>
   <trkpt lat="45.198382" lon="6.467041"><ele>1268</ele></trkpt>
   <trkpt lat="45.198276" lon="6.467111"><ele>1268.75</ele></trkpt>
   <trkpt lat="45.198071" lon="6.467281"><ele>1270</ele></trkpt>
   <trkpt lat="45.197933" lon="6.467439"><ele>1271.5</ele></trkpt>
   <trkpt lat="45.197428" lon="6.468159"><ele>1276.25</ele></trkpt>
   <trkpt lat="45.197361" lon="6.468233"><ele>1276.5</ele></trkpt>
   <trkpt lat="45.197299" lon="6.468278"><ele>1277.5</ele></trkpt>
   <trkpt lat="45.197163" lon="6.468334"><ele>1279.75</ele></trkpt>
   <trkpt lat="45.197028" lon="6.468354"><ele>1281.25</ele></trkpt>
   <trkpt lat="45.196724" lon="6.468379"><ele>1283.25</ele></trkpt>
   <trkpt lat="45.196597" lon="6.468416"><ele>1284.5</ele></trkpt>
   <trkpt lat="45.196442" lon="6.468483"><ele>1287</ele></trkpt>
   <trkpt lat="45.19631" lon="6.468561"><ele>1288</ele></trkpt>
   <trkpt lat="45.196209" lon="6.468647"><ele>1288</ele></trkpt>
   <trkpt lat="45.196149" lon="6.468717"><ele>1288.75</ele></trkpt>
   <trkpt lat="45.196089" lon="6.46876"><ele>1290.25</ele></trkpt>
   <trkpt lat="45.196034" lon="6.468763"><ele>1291</ele></trkpt>
   <trkpt lat="45.195987" lon="6.468735"><ele>1291.75</ele></trkpt>
   <trkpt lat="45.195948" lon="6.468688"><ele>1292.5</ele></trkpt>
   <trkpt lat="45.195921" lon="6.468639"><ele>1293.25</ele></trkpt>
   <trkpt lat="45.195913" lon="6.468569"><ele>1294.25</ele></trkpt>
   <trkpt lat="45.195915" lon="6.468499"><ele>1295.75</ele></trkpt>
   <trkpt lat="45.195937" lon="6.468439"><ele>1296.75</ele></trkpt>
   <trkpt lat="45.195978" lon="6.468393"><ele>1296.5</ele></trkpt>
   <trkpt lat="45.19603" lon="6.468376"><ele>1295.5</ele></trkpt>
   <trkpt lat="45.196192" lon="6.468395"><ele>1292.25</ele></trkpt>
   <trkpt lat="45.19629" lon="6.468344"><ele>1292.5</ele></trkpt>
   <trkpt lat="45.196401" lon="6.468241"><ele>1294</ele></trkpt>
   <trkpt lat="45.196515" lon="6.468107"><ele>1295.25</ele></trkpt>
   <trkpt lat="45.196895" lon="6.467672"><ele>1297</ele></trkpt>
   <trkpt lat="45.196984" lon="6.467525"><ele>1297.25</ele></trkpt>
   <trkpt lat="45.197066" lon="6.467361"><ele>1299.25</ele></trkpt>
   <trkpt lat="45.19712" lon="6.467279"><ele>1300.5</ele></trkpt>
   <trkpt lat="45.197141" lon="6.467258"><ele>1300.5</ele></trkpt>
   <trkpt lat="45.197249" lon="6.467148"><ele>1299.5</ele></trkpt>
   <trkpt lat="45.197279" lon="6.467079"><ele>1299.25</ele></trkpt>
   <trkpt lat="45.197281" lon="6.467013"><ele>1300</ele></trkpt>
   <trkpt lat="45.197268" lon="6.466946"><ele>1300.75</ele></trkpt>
   <trkpt lat="45.197244" lon="6.466896"><ele>1302.25</ele></trkpt>
   <trkpt lat="45.197219" lon="6.466865"><ele>1303.25</ele></trkpt>
   <trkpt lat="45.197152" lon="6.466849"><ele>1305.75</ele></trkpt>
   <trkpt lat="45.197091" lon="6.46688"><ele>1307.5</ele></trkpt>
   <trkpt lat="45.196888" lon="6.467254"><ele>1307.5</ele></trkpt>
   <trkpt lat="45.196825" lon="6.467335"><ele>1307.75</ele></trkpt>
   <trkpt lat="45.196741" lon="6.467424"><ele>1308</ele></trkpt>
   <trkpt lat="45.196545" lon="6.467573"><ele>1309</ele></trkpt>
   <trkpt lat="45.195958" lon="6.467912"><ele>1311.5</ele></trkpt>
   <trkpt lat="45.195834" lon="6.468"><ele>1312.75</ele></trkpt>
   <trkpt lat="45.195757" lon="6.468069"><ele>1314.75</ele></trkpt>
   <trkpt lat="45.195541" lon="6.468341"><ele>1316</ele></trkpt>
   <trkpt lat="45.19544" lon="6.468433"><ele>1316.75</ele></trkpt>
   <trkpt lat="45.195069" lon="6.468691"><ele>1319.25</ele></trkpt>
   <trkpt lat="45.194977" lon="6.468771"><ele>1320.25</ele></trkpt>
   <trkpt lat="45.194853" lon="6.46893"><ele>1320.75</ele></trkpt>
   <trkpt lat="45.194783" lon="6.468976"><ele>1321.5</ele></trkpt>
   <trkpt lat="45.194714" lon="6.468979"><ele>1322.75</ele></trkpt>
   <trkpt lat="45.194664" lon="6.468967"><ele>1322.5</ele></trkpt>
   <trkpt lat="45.194556" lon="6.468896"><ele>1323.5</ele></trkpt>
   <trkpt lat="45.194377" lon="6.468681"><ele>1326.75</ele></trkpt>
   <trkpt lat="45.194187" lon="6.468453"><ele>1327.75</ele></trkpt>
   <trkpt lat="45.194117" lon="6.468386"><ele>1328.75</ele></trkpt>
   <trkpt lat="45.194053" lon="6.468336"><ele>1329.5</ele></trkpt>
   <trkpt lat="45.193934" lon="6.468268"><ele>1330.25</ele></trkpt>
   <trkpt lat="45.193841" lon="6.468233"><ele>1330.75</ele></trkpt>
   <trkpt lat="45.193771" lon="6.468216"><ele>1331.5</ele></trkpt>
   <trkpt lat="45.193643" lon="6.46822"><ele>1331.75</ele></trkpt>
   <trkpt lat="45.193589" lon="6.468234"><ele>1331.5</ele></trkpt>
   <trkpt lat="45.193438" lon="6.468305"><ele>1331.75</ele></trkpt>
   <trkpt lat="45.1934" lon="6.468318"><ele>1332</ele></trkpt>
   <trkpt lat="45.193364" lon="6.468318"><ele>1332.5</ele></trkpt>
   <trkpt lat="45.19334" lon="6.468309"><ele>1333</ele></trkpt>
   <trkpt lat="45.193309" lon="6.468266"><ele>1332.5</ele></trkpt>
   <trkpt lat="45.193293" lon="6.468226"><ele>1332.5</ele></trkpt>
   <trkpt lat="45.193285" lon="6.468184"><ele>1332.75</ele></trkpt>
   <trkpt lat="45.193282" lon="6.468127"><ele>1333.5</ele></trkpt>
   <trkpt lat="45.193299" lon="6.468076"><ele>1334.25</ele></trkpt>
   <trkpt lat="45.193336" lon="6.46803"><ele>1336</ele></trkpt>
   <trkpt lat="45.193376" lon="6.468012"><ele>1337</ele></trkpt>
   <trkpt lat="45.194356" lon="6.467973"><ele>1342.25</ele></trkpt>
   <trkpt lat="45.194439" lon="6.467958"><ele>1342.5</ele></trkpt>
   <trkpt lat="45.194527" lon="6.467918"><ele>1342.5</ele></trkpt>
   <trkpt lat="45.194558" lon="6.467896"><ele>1342.75</ele></trkpt>
   <trkpt lat="45.194866" lon="6.467666"><ele>1345.75</ele></trkpt>
   <trkpt lat="45.194981" lon="6.467613"><ele>1346.25</ele></trkpt>
   <trkpt lat="45.195242" lon="6.467537"><ele>1346.75</ele></trkpt>
   <trkpt lat="45.195315" lon="6.467489"><ele>1346.5</ele></trkpt>
   <trkpt lat="45.19535" lon="6.467434"><ele>1346</ele></trkpt>
   <trkpt lat="45.195374" lon="6.467361"><ele>1346.5</ele></trkpt>
   <trkpt lat="45.195433" lon="6.467122"><ele>1349.5</ele></trkpt>
   <trkpt lat="45.195481" lon="6.467004"><ele>1350.5</ele></trkpt>
   <trkpt lat="45.19554" lon="6.466919"><ele>1350.5</ele></trkpt>
   <trkpt lat="45.19566" lon="6.466841"><ele>1351</ele></trkpt>
   <trkpt lat="45.196105" lon="6.46662"><ele>1353.25</ele></trkpt>
   <trkpt lat="45.196236" lon="6.466532"><ele>1354</ele></trkpt>
   <trkpt lat="45.196453" lon="6.466322"><ele>1355</ele></trkpt>
   <trkpt lat="45.196612" lon="6.466089"><ele>1358</ele></trkpt>
   <trkpt lat="45.196657" lon="6.465972"><ele>1358</ele></trkpt>
   <trkpt lat="45.196696" lon="6.465858"><ele>1358</ele></trkpt>
   <trkpt lat="45.196732" lon="6.465719"><ele>1359.75</ele></trkpt>
   <trkpt lat="45.196814" lon="6.46503"><ele>1365.75</ele></trkpt>
   <trkpt lat="45.196848" lon="6.464825"><ele>1366.75</ele></trkpt>
   <trkpt lat="45.196938" lon="6.464623"><ele>1368</ele></trkpt>
   <trkpt lat="45.196999" lon="6.464557"><ele>1368.5</ele></trkpt>
   <trkpt lat="45.197065" lon="6.4645"><ele>1369</ele></trkpt>
   <trkpt lat="45.197128" lon="6.464457"><ele>1369.75</ele></trkpt>
   <trkpt lat="45.197403" lon="6.46434"><ele>1371.25</ele></trkpt>
   <trkpt lat="45.197624" lon="6.46426"><ele>1373.5</ele></trkpt>
   <trkpt lat="45.197759" lon="6.46424"><ele>1375</ele></trkpt>
   <trkpt lat="45.197845" lon="6.464242"><ele>1375.75</ele></trkpt>
   <trkpt lat="45.198085" lon="6.464288"><ele>1375.75</ele></trkpt>
   <trkpt lat="45.198151" lon="6.464282"><ele>1375.5</ele></trkpt>
   <trkpt lat="45.19822" lon="6.464249"><ele>1375.75</ele></trkpt>
   <trkpt lat="45.198269" lon="6.464181"><ele>1377.25</ele></trkpt>
   <trkpt lat="45.198313" lon="6.464092"><ele>1378.25</ele></trkpt>
   <trkpt lat="45.198612" lon="6.46329"><ele>1382.25</ele></trkpt>
   <trkpt lat="45.198698" lon="6.462953"><ele>1384.5</ele></trkpt>
   <trkpt lat="45.198772" lon="6.462725"><ele>1387.5</ele></trkpt>
   <trkpt lat="45.198832" lon="6.4626"><ele>1387.5</ele></trkpt>
   <trkpt lat="45.198902" lon="6.462478"><ele>1386.75</ele></trkpt>
   <trkpt lat="45.198963" lon="6.462335"><ele>1386.5</ele></trkpt>
   <trkpt lat="45.199151" lon="6.462034"><ele>1389.25</ele></trkpt>
   <trkpt lat="45.199207" lon="6.461971"><ele>1390.25</ele></trkpt>
   <trkpt lat="45.199273" lon="6.461916"><ele>1391.25</ele></trkpt>
   <trkpt lat="45.199355" lon="6.46183"><ele>1391.75</ele></trkpt>
   <trkpt lat="45.19938" lon="6.461734"><ele>1392.75</ele></trkpt>
   <trkpt lat="45.199377" lon="6.461659"><ele>1394.25</ele></trkpt>
   <trkpt lat="45.199351" lon="6.461531"><ele>1394</ele></trkpt>
   <trkpt lat="45.199267" lon="6.461208"><ele>1395</ele></trkpt>
   <trkpt lat="45.199105" lon="6.460653"><ele>1399.5</ele></trkpt>
   <trkpt lat="45.199051" lon="6.4605"><ele>1399.5</ele></trkpt>
   <trkpt lat="45.198984" lon="6.460359"><ele>1399.25</ele></trkpt>
   <trkpt lat="45.198878" lon="6.460213"><ele>1401.5</ele></trkpt>
   <trkpt lat="45.198767" lon="6.460083"><ele>1403</ele></trkpt>
   <trkpt lat="45.198516" lon="6.459815"><ele>1405</ele></trkpt>
   <trkpt lat="45.198252" lon="6.459578"><ele>1406.25</ele></trkpt>
   <trkpt lat="45.198132" lon="6.459485"><ele>1406.75</ele></trkpt>
   <trkpt lat="45.197693" lon="6.459134"><ele>1408.5</ele></trkpt>
   <trkpt lat="45.197633" lon="6.459113"><ele>1408.25</ele></trkpt>
   <trkpt lat="45.197588" lon="6.45911"><ele>1408.5</ele></trkpt>
   <trkpt lat="45.19736" lon="6.459119"><ele>1411.5</ele></trkpt>
   <trkpt lat="45.196756" lon="6.459045"><ele>1417.25</ele></trkpt>
   <trkpt lat="45.196432" lon="6.4589"><ele>1419.5</ele></trkpt>
   <trkpt lat="45.196273" lon="6.458809"><ele>1421.5</ele></trkpt>
   <trkpt lat="45.196212" lon="6.458765"><ele>1422.5</ele></trkpt>
   <trkpt lat="45.196145" lon="6.458704"><ele>1423</ele></trkpt>
   <trkpt lat="45.196031" lon="6.45857"><ele>1424.75</ele></trkpt>
   <trkpt lat="45.195933" lon="6.458436"><ele>1425.25</ele></trkpt>
   <trkpt lat="45.195874" lon="6.458342"><ele>1424.75</ele></trkpt>
   <trkpt lat="45.195819" lon="6.458282"><ele>1425</ele></trkpt>
   <trkpt lat="45.195778" lon="6.458264"><ele>1425</ele></trkpt>
   <trkpt lat="45.195669" lon="6.458255"><ele>1426</ele></trkpt>
   <trkpt lat="45.195576" lon="6.458273"><ele>1428.25</ele></trkpt>
   <trkpt lat="45.195489" lon="6.458268"><ele>1429.75</ele></trkpt>
   <trkpt lat="45.195244" lon="6.458187"><ele>1430.75</ele></trkpt>
   <trkpt lat="45.195181" lon="6.458175"><ele>1431.5</ele></trkpt>
   <trkpt lat="45.19492" lon="6.458176"><ele>1435.75</ele></trkpt>
   <trkpt lat="45.194816" lon="6.458167"><ele>1436.25</ele></trkpt>
   <trkpt lat="45.194725" lon="6.458139"><ele>1435.5</ele></trkpt>
   <trkpt lat="45.194688" lon="6.458101"><ele>1435.5</ele></trkpt>
   <trkpt lat="45.194666" lon="6.458058"><ele>1435.25</ele></trkpt>
   <trkpt lat="45.194652" lon="6.457991"><ele>1436.75</ele></trkpt>
   <trkpt lat="45.19465" lon="6.457921"><ele>1437.75</ele></trkpt>
   <trkpt lat="45.194747" lon="6.457417"><ele>1437.5</ele></trkpt>
   <trkpt lat="45.194781" lon="6.457142"><ele>1438</ele></trkpt>
   <trkpt lat="45.194789" lon="6.456972"><ele>1439.25</ele></trkpt>
   <trkpt lat="45.194766" lon="6.456847"><ele>1440.75</ele></trkpt>
   <trkpt lat="45.194718" lon="6.456661"><ele>1443</ele></trkpt>
   <trkpt lat="45.194659" lon="6.456521"><ele>1444</ele></trkpt>
   <trkpt lat="45.194526" lon="6.456259"><ele>1447.25</ele></trkpt>
   <trkpt lat="45.194506" lon="6.456197"><ele>1447</ele></trkpt>
   <trkpt lat="45.194494" lon="6.456136"><ele>1446.25</ele></trkpt>
   <trkpt lat="45.194492" lon="6.456002"><ele>1446.5</ele></trkpt>
   <trkpt lat="45.194499" lon="6.455914"><ele>1447</ele></trkpt>
   <trkpt lat="45.194575" lon="6.455553"><ele>1448.25</ele></trkpt>
   <trkpt lat="45.194587" lon="6.455442"><ele>1448.5</ele></trkpt>
   <trkpt lat="45.194576" lon="6.455265"><ele>1450.25</ele></trkpt>
   <trkpt lat="45.194415" lon="6.454598"><ele>1453.5</ele></trkpt>
   <trkpt lat="45.194288" lon="6.45433"><ele>1455.5</ele></trkpt>
   <trkpt lat="45.194154" lon="6.454157"><ele>1457.25</ele></trkpt>
   <trkpt lat="45.194015" lon="6.453922"><ele>1458.25</ele></trkpt>
   <trkpt lat="45.193925" lon="6.453696"><ele>1459.25</ele></trkpt>
   <trkpt lat="45.19387" lon="6.453461"><ele>1460.5</ele></trkpt>
   <trkpt lat="45.193803" lon="6.453288"><ele>1461.75</ele></trkpt>
   <trkpt lat="45.193617" lon="6.453037"><ele>1464.25</ele></trkpt>
   <trkpt lat="45.19355" lon="6.452769"><ele>1465.5</ele></trkpt>
   <trkpt lat="45.193516" lon="6.452547"><ele>1467.25</ele></trkpt>
   <trkpt lat="45.193527" lon="6.452234"><ele>1469.25</ele></trkpt>
   <trkpt lat="45.193666" lon="6.451678"><ele>1472</ele></trkpt>
   <trkpt lat="45.193907" lon="6.451182"><ele>1474.5</ele></trkpt>
   <trkpt lat="45.193963" lon="6.451078"><ele>1475.75</ele></trkpt>
   <trkpt lat="45.194839" lon="6.449406"><ele>1486.5</ele></trkpt>
   <trkpt lat="45.194969" lon="6.449104"><ele>1490</ele></trkpt>
   <trkpt lat="45.194996" lon="6.449021"><ele>1490.5</ele></trkpt>
   <trkpt lat="45.195016" lon="6.448763"><ele>1492</ele></trkpt>
   <trkpt lat="45.195004" lon="6.448303"><ele>1495.75</ele></trkpt>
   <trkpt lat="45.195008" lon="6.447974"><ele>1497</ele></trkpt>
   <trkpt lat="45.195039" lon="6.447813"><ele>1497</ele></trkpt>
   <trkpt lat="45.195083" lon="6.44771"><ele>1497.25</ele></trkpt>
   <trkpt lat="45.19528" lon="6.447385"><ele>1501.5</ele></trkpt>
   <trkpt lat="45.195354" lon="6.447282"><ele>1503.25</ele></trkpt>
   <trkpt lat="45.19545" lon="6.44719"><ele>1505</ele></trkpt>
   <trkpt lat="45.195753" lon="6.447017"><ele>1503.5</ele></trkpt>
   <trkpt lat="45.195935" lon="6.446826"><ele>1506.75</ele></trkpt>
   <trkpt lat="45.196222" lon="6.446282"><ele>1512</ele></trkpt>
   <trkpt lat="45.196286" lon="6.446199"><ele>1513</ele></trkpt>
   <trkpt lat="45.196366" lon="6.446127"><ele>1512.5</ele></trkpt>
   <trkpt lat="45.196944" lon="6.445794"><ele>1522.75</ele></trkpt>
   <trkpt lat="45.197001" lon="6.445769"><ele>1526.5</ele></trkpt>
   <trkpt lat="45.197068" lon="6.445753"><ele>1528.75</ele></trkpt>
   <trkpt lat="45.197156" lon="6.445752"><ele>1528.75</ele></trkpt>
   <trkpt lat="45.197733" lon="6.445787"><ele>1525.25</ele></trkpt>
   <trkpt lat="45.197853" lon="6.445767"><ele>1526</ele></trkpt>
   <trkpt lat="45.197977" lon="6.445732"><ele>1526.5</ele></trkpt>
   <trkpt lat="45.198491" lon="6.445546"><ele>1531</ele></trkpt>
   <trkpt lat="45.198594" lon="6.445547"><ele>1532</ele></trkpt>
   <trkpt lat="45.198671" lon="6.44557"><ele>1532.75</ele></trkpt>
   <trkpt lat="45.199265" lon="6.445937"><ele>1536.25</ele></trkpt>
   <trkpt lat="45.199376" lon="6.445997"><ele>1537.5</ele></trkpt>
   <trkpt lat="45.199425" lon="6.446011"><ele>1538.5</ele></trkpt>
   <trkpt lat="45.199484" lon="6.446007"><ele>1538</ele></trkpt>
   <trkpt lat="45.199525" lon="6.445985"><ele>1537.5</ele></trkpt>
   <trkpt lat="45.199565" lon="6.445942"><ele>1538</ele></trkpt>
   <trkpt lat="45.199667" lon="6.445712"><ele>1540.75</ele></trkpt>
   <trkpt lat="45.199807" lon="6.445363"><ele>1543</ele></trkpt>
   <trkpt lat="45.199887" lon="6.445205"><ele>1546.75</ele></trkpt>
   <trkpt lat="45.199937" lon="6.445157"><ele>1547.5</ele></trkpt>
   <trkpt lat="45.199981" lon="6.445153"><ele>1547</ele></trkpt>
   <trkpt lat="45.200076" lon="6.445161"><ele>1548.25</ele></trkpt>
   <trkpt lat="45.200474" lon="6.445238"><ele>1550.75</ele></trkpt>
   <trkpt lat="45.200587" lon="6.445286"><ele>1550.25</ele></trkpt>
   <trkpt lat="45.200666" lon="6.445337"><ele>1552</ele></trkpt>
   <trkpt lat="45.200746" lon="6.445409"><ele>1552.25</ele></trkpt>
   <trkpt lat="45.200913" lon="6.445595"><ele>1547</ele></trkpt>
   <trkpt lat="45.200955" lon="6.445621"><ele>1546.25</ele></trkpt>
   <trkpt lat="45.200988" lon="6.445627"><ele>1546.25</ele></trkpt>
   <trkpt lat="45.201029" lon="6.445623"><ele>1547</ele></trkpt>
   <trkpt lat="45.201057" lon="6.445612"><ele>1548</ele></trkpt>
   <trkpt lat="45.201106" lon="6.445574"><ele>1550.75</ele></trkpt>
   <trkpt lat="45.20115" lon="6.445524"><ele>1552.5</ele></trkpt>
   <trkpt lat="45.201309" lon="6.445309"><ele>1558.25</ele></trkpt>
   <trkpt lat="45.201376" lon="6.445275"><ele>1556.75</ele></trkpt>
   <trkpt lat="45.201735" lon="6.44535"><ele>1556.75</ele></trkpt>
   <trkpt lat="45.201825" lon="6.445348"><ele>1556.75</ele></trkpt>
   <trkpt lat="45.201939" lon="6.445301"><ele>1558.25</ele></trkpt>
   <trkpt lat="45.202535" lon="6.444872"><ele>1564</ele></trkpt>
   <trkpt lat="45.202658" lon="6.444775"><ele>1566.25</ele></trkpt>
   <trkpt lat="45.202689" lon="6.444714"><ele>1567.5</ele></trkpt>
  </trkseg>
 </trk>
</gpx>
