<?xml version="1.0" encoding="UTF-8"?>
<!-- track-length = 11903 filtered ascend = 602 plain-ascend = 573 cost=15199 energy=0.2kwh time=1h 45m 56s -->
<gpx 
 xmlns="http://www.topografix.com/GPX/1/1" 
 xmlns:xsi="http://www.w3.org/2001/XMLSchema-instance" 
 xsi:schemaLocation="http://www.topografix.com/GPX/1/1 http://www.topografix.com/GPX/1/1/gpx.xsd" 
 version="1.1" 
 creator="BRouter-Web 0.18.1">
 <trk>
  <name>Quillan -&gt; Coudons (11.9km)</name>
  <trkseg>
      <trkpt lat="42.877531" lon="2.183828"><ele>284.75</ele></trkpt>
   <trkpt lat="42.877555" lon="2.183898"><ele>284.75</ele></trkpt>
   <trkpt lat="42.87766" lon="2.183845"><ele>285</ele></trkpt>
   <trkpt lat="42.877993" lon="2.183665"><ele>286.25</ele></trkpt>
   <trkpt lat="42.878075" lon="2.183591"><ele>287</ele></trkpt>
   <trkpt lat="42.878117" lon="2.183543"><ele>287.5</ele></trkpt>
   <trkpt lat="42.878155" lon="2.183487"><ele>288</ele></trkpt>
   <trkpt lat="42.878187" lon="2.183422"><ele>288.5</ele></trkpt>
   <trkpt lat="42.878207" lon="2.183342"><ele>289</ele></trkpt>
   <trkpt lat="42.878211" lon="2.183239"><ele>289.5</ele></trkpt>
   <trkpt lat="42.878198" lon="2.182917"><ele>291.75</ele></trkpt>
   <trkpt lat="42.878172" lon="2.182635"><ele>293.5</ele></trkpt>
   <trkpt lat="42.87814" lon="2.182385"><ele>294.25</ele></trkpt>
   <trkpt lat="42.878092" lon="2.182131"><ele>294.5</ele></trkpt>
   <trkpt lat="42.877896" lon="2.181228"><ele>300</ele></trkpt>
   <trkpt lat="42.877875" lon="2.181046"><ele>301.25</ele></trkpt>
   <trkpt lat="42.877876" lon="2.180836"><ele>302.25</ele></trkpt>
   <trkpt lat="42.877896" lon="2.180582"><ele>303.75</ele></trkpt>
   <trkpt lat="42.877926" lon="2.180371"><ele>304.25</ele></trkpt>
   <trkpt lat="42.877967" lon="2.180161"><ele>304.25</ele></trkpt>
   <trkpt lat="42.878029" lon="2.17994"><ele>305</ele></trkpt>
   <trkpt lat="42.878096" lon="2.179742"><ele>307</ele></trkpt>
   <trkpt lat="42.878171" lon="2.17955"><ele>308.25</ele></trkpt>
   <trkpt lat="42.87825" lon="2.179382"><ele>308.5</ele></trkpt>
   <trkpt lat="42.878404" lon="2.179155"><ele>310.25</ele></trkpt>
   <trkpt lat="42.878538" lon="2.179013"><ele>312</ele></trkpt>
   <trkpt lat="42.878906" lon="2.178656"><ele>314.25</ele></trkpt>
   <trkpt lat="42.87895" lon="2.178589"><ele>314.75</ele></trkpt>
   <trkpt lat="42.878991" lon="2.178495"><ele>315.5</ele></trkpt>
   <trkpt lat="42.879021" lon="2.178394"><ele>316.25</ele></trkpt>
   <trkpt lat="42.879041" lon="2.178264"><ele>317</ele></trkpt>
   <trkpt lat="42.879077" lon="2.177888"><ele>319</ele></trkpt>
   <trkpt lat="42.879106" lon="2.177743"><ele>319.5</ele></trkpt>
   <trkpt lat="42.879147" lon="2.177601"><ele>319.75</ele></trkpt>
   <trkpt lat="42.879208" lon="2.177461"><ele>321</ele></trkpt>
   <trkpt lat="42.879294" lon="2.177284"><ele>322.5</ele></trkpt>
   <trkpt lat="42.879615" lon="2.176714"><ele>325.25</ele></trkpt>
   <trkpt lat="42.879736" lon="2.176504"><ele>326.75</ele></trkpt>
   <trkpt lat="42.879844" lon="2.176339"><ele>329</ele></trkpt>
   <trkpt lat="42.879971" lon="2.176181"><ele>330.25</ele></trkpt>
   <trkpt lat="42.880186" lon="2.175945"><ele>332</ele></trkpt>
   <trkpt lat="42.880331" lon="2.17577"><ele>333.5</ele></trkpt>
   <trkpt lat="42.880425" lon="2.175616"><ele>335</ele></trkpt>
   <trkpt lat="42.880524" lon="2.175411"><ele>335.75</ele></trkpt>
   <trkpt lat="42.880608" lon="2.175182"><ele>337</ele></trkpt>
   <trkpt lat="42.880641" lon="2.175071"><ele>337.5</ele></trkpt>
   <trkpt lat="42.880651" lon="2.174987"><ele>337.75</ele></trkpt>
   <trkpt lat="42.880645" lon="2.174904"><ele>338.25</ele></trkpt>
   <trkpt lat="42.88062" lon="2.17483"><ele>338.5</ele></trkpt>
   <trkpt lat="42.880578" lon="2.174768"><ele>338.5</ele></trkpt>
   <trkpt lat="42.880513" lon="2.174711"><ele>339</ele></trkpt>
   <trkpt lat="42.880432" lon="2.17466"><ele>339.5</ele></trkpt>
   <trkpt lat="42.880324" lon="2.174613"><ele>340.25</ele></trkpt>
   <trkpt lat="42.880196" lon="2.174578"><ele>341.5</ele></trkpt>
   <trkpt lat="42.880092" lon="2.174567"><ele>342.5</ele></trkpt>
   <trkpt lat="42.879922" lon="2.174585"><ele>344</ele></trkpt>
   <trkpt lat="42.879664" lon="2.174652"><ele>344.75</ele></trkpt>
   <trkpt lat="42.879548" lon="2.174662"><ele>345</ele></trkpt>
   <trkpt lat="42.879445" lon="2.174656"><ele>345.75</ele></trkpt>
   <trkpt lat="42.879326" lon="2.174632"><ele>346.5</ele></trkpt>
   <trkpt lat="42.878996" lon="2.174508"><ele>348.5</ele></trkpt>
   <trkpt lat="42.878791" lon="2.174399"><ele>350</ele></trkpt>
   <trkpt lat="42.878665" lon="2.174297"><ele>351</ele></trkpt>
   <trkpt lat="42.878586" lon="2.174209"><ele>352.25</ele></trkpt>
   <trkpt lat="42.878521" lon="2.174119"><ele>352.75</ele></trkpt>
   <trkpt lat="42.878469" lon="2.174009"><ele>353.25</ele></trkpt>
   <trkpt lat="42.878443" lon="2.173859"><ele>354.5</ele></trkpt>
   <trkpt lat="42.878443" lon="2.17371"><ele>355.25</ele></trkpt>
   <trkpt lat="42.87846" lon="2.173539"><ele>356</ele></trkpt>
   <trkpt lat="42.878486" lon="2.173401"><ele>356.5</ele></trkpt>
   <trkpt lat="42.878523" lon="2.173272"><ele>357</ele></trkpt>
   <trkpt lat="42.878575" lon="2.173156"><ele>358.25</ele></trkpt>
   <trkpt lat="42.878636" lon="2.173049"><ele>360</ele></trkpt>
   <trkpt lat="42.879248" lon="2.172156"><ele>366</ele></trkpt>
   <trkpt lat="42.879413" lon="2.171896"><ele>366.5</ele></trkpt>
   <trkpt lat="42.879607" lon="2.171579"><ele>369.5</ele></trkpt>
   <trkpt lat="42.879704" lon="2.171389"><ele>370</ele></trkpt>
   <trkpt lat="42.879793" lon="2.171187"><ele>372.5</ele></trkpt>
   <trkpt lat="42.879841" lon="2.171033"><ele>373.25</ele></trkpt>
   <trkpt lat="42.879912" lon="2.170754"><ele>374</ele></trkpt>
   <trkpt lat="42.879991" lon="2.170365"><ele>376.25</ele></trkpt>
   <trkpt lat="42.879997" lon="2.17026"><ele>376</ele></trkpt>
   <trkpt lat="42.879977" lon="2.170149"><ele>376.25</ele></trkpt>
   <trkpt lat="42.879928" lon="2.170066"><ele>376.75</ele></trkpt>
   <trkpt lat="42.879869" lon="2.170001"><ele>377.75</ele></trkpt>
   <trkpt lat="42.879799" lon="2.169946"><ele>379.75</ele></trkpt>
   <trkpt lat="42.879443" lon="2.169745"><ele>381</ele></trkpt>
   <trkpt lat="42.879364" lon="2.169683"><ele>381.5</ele></trkpt>
   <trkpt lat="42.879319" lon="2.169626"><ele>381.75</ele></trkpt>
   <trkpt lat="42.879291" lon="2.169541"><ele>382.5</ele></trkpt>
   <trkpt lat="42.879277" lon="2.169452"><ele>383.25</ele></trkpt>
   <trkpt lat="42.879285" lon="2.169365"><ele>382.75</ele></trkpt>
   <trkpt lat="42.879316" lon="2.169263"><ele>383.25</ele></trkpt>
   <trkpt lat="42.879541" lon="2.16879"><ele>388</ele></trkpt>
   <trkpt lat="42.879587" lon="2.168652"><ele>388.75</ele></trkpt>
   <trkpt lat="42.879624" lon="2.168488"><ele>389.25</ele></trkpt>
   <trkpt lat="42.879643" lon="2.168316"><ele>389.5</ele></trkpt>
   <trkpt lat="42.879644" lon="2.168163"><ele>391.75</ele></trkpt>
   <trkpt lat="42.879635" lon="2.167934"><ele>394</ele></trkpt>
   <trkpt lat="42.879638" lon="2.167822"><ele>395.25</ele></trkpt>
   <trkpt lat="42.879654" lon="2.167738"><ele>395.75</ele></trkpt>
   <trkpt lat="42.87969" lon="2.167656"><ele>396.25</ele></trkpt>
   <trkpt lat="42.879732" lon="2.167594"><ele>396.75</ele></trkpt>
   <trkpt lat="42.879812" lon="2.167512"><ele>397.5</ele></trkpt>
   <trkpt lat="42.880109" lon="2.167272"><ele>398.25</ele></trkpt>
   <trkpt lat="42.880162" lon="2.16721"><ele>397.75</ele></trkpt>
   <trkpt lat="42.880202" lon="2.167116"><ele>398.75</ele></trkpt>
   <trkpt lat="42.880222" lon="2.167013"><ele>399.25</ele></trkpt>
   <trkpt lat="42.880224" lon="2.166901"><ele>400.25</ele></trkpt>
   <trkpt lat="42.880215" lon="2.166784"><ele>401.75</ele></trkpt>
   <trkpt lat="42.880178" lon="2.166487"><ele>403.5</ele></trkpt>
   <trkpt lat="42.880128" lon="2.166202"><ele>404.25</ele></trkpt>
   <trkpt lat="42.880019" lon="2.165744"><ele>407.25</ele></trkpt>
   <trkpt lat="42.879985" lon="2.165571"><ele>408.25</ele></trkpt>
   <trkpt lat="42.879968" lon="2.165426"><ele>408.75</ele></trkpt>
   <trkpt lat="42.879961" lon="2.165295"><ele>409.25</ele></trkpt>
   <trkpt lat="42.879962" lon="2.164789"><ele>412</ele></trkpt>
   <trkpt lat="42.879955" lon="2.164657"><ele>412.75</ele></trkpt>
   <trkpt lat="42.879941" lon="2.164505"><ele>413.5</ele></trkpt>
   <trkpt lat="42.879892" lon="2.164158"><ele>417</ele></trkpt>
   <trkpt lat="42.879842" lon="2.163849"><ele>419.75</ele></trkpt>
   <trkpt lat="42.879796" lon="2.163619"><ele>421</ele></trkpt>
   <trkpt lat="42.879764" lon="2.163523"><ele>421</ele></trkpt>
   <trkpt lat="42.879728" lon="2.163448"><ele>420.75</ele></trkpt>
   <trkpt lat="42.879702" lon="2.163413"><ele>421</ele></trkpt>
   <trkpt lat="42.879677" lon="2.163379"><ele>421.5</ele></trkpt>
   <trkpt lat="42.879622" lon="2.163345"><ele>422</ele></trkpt>
   <trkpt lat="42.879559" lon="2.163332"><ele>422.5</ele></trkpt>
   <trkpt lat="42.879495" lon="2.163345"><ele>422.5</ele></trkpt>
   <trkpt lat="42.879432" lon="2.16338"><ele>422.25</ele></trkpt>
   <trkpt lat="42.879378" lon="2.163424"><ele>423</ele></trkpt>
   <trkpt lat="42.879322" lon="2.163488"><ele>423.5</ele></trkpt>
   <trkpt lat="42.878905" lon="2.164084"><ele>428.75</ele></trkpt>
   <trkpt lat="42.87884" lon="2.164158"><ele>429</ele></trkpt>
   <trkpt lat="42.878688" lon="2.164295"><ele>429.25</ele></trkpt>
   <trkpt lat="42.878594" lon="2.164354"><ele>430</ele></trkpt>
   <trkpt lat="42.878503" lon="2.164392"><ele>430.5</ele></trkpt>
   <trkpt lat="42.87808" lon="2.164502"><ele>433.75</ele></trkpt>
   <trkpt lat="42.877916" lon="2.164566"><ele>435.25</ele></trkpt>
   <trkpt lat="42.87779" lon="2.164654"><ele>435.5</ele></trkpt>
   <trkpt lat="42.877728" lon="2.164716"><ele>436</ele></trkpt>
   <trkpt lat="42.877658" lon="2.164798"><ele>436.5</ele></trkpt>
   <trkpt lat="42.877403" lon="2.165143"><ele>437.75</ele></trkpt>
   <trkpt lat="42.877352" lon="2.165188"><ele>438.25</ele></trkpt>
   <trkpt lat="42.877292" lon="2.165211"><ele>439.25</ele></trkpt>
   <trkpt lat="42.877225" lon="2.16521"><ele>441</ele></trkpt>
   <trkpt lat="42.877165" lon="2.165182"><ele>441.25</ele></trkpt>
   <trkpt lat="42.877114" lon="2.165137"><ele>441.75</ele></trkpt>
   <trkpt lat="42.876961" lon="2.16497"><ele>443.5</ele></trkpt>
   <trkpt lat="42.876904" lon="2.164925"><ele>444.25</ele></trkpt>
   <trkpt lat="42.876843" lon="2.164895"><ele>444.75</ele></trkpt>
   <trkpt lat="42.876785" lon="2.164887"><ele>445</ele></trkpt>
   <trkpt lat="42.876572" lon="2.164899"><ele>444.75</ele></trkpt>
   <trkpt lat="42.876492" lon="2.164882"><ele>445</ele></trkpt>
   <trkpt lat="42.876422" lon="2.164848"><ele>445.5</ele></trkpt>
   <trkpt lat="42.876355" lon="2.164799"><ele>446</ele></trkpt>
   <trkpt lat="42.876295" lon="2.164736"><ele>446</ele></trkpt>
   <trkpt lat="42.876249" lon="2.164657"><ele>446.5</ele></trkpt>
   <trkpt lat="42.876211" lon="2.164565"><ele>447.5</ele></trkpt>
   <trkpt lat="42.876176" lon="2.164451"><ele>449</ele></trkpt>
   <trkpt lat="42.876147" lon="2.164288"><ele>450.25</ele></trkpt>
   <trkpt lat="42.87609" lon="2.1638"><ele>452.5</ele></trkpt>
   <trkpt lat="42.876052" lon="2.163647"><ele>453.5</ele></trkpt>
   <trkpt lat="42.876021" lon="2.163556"><ele>454.25</ele></trkpt>
   <trkpt lat="42.875977" lon="2.163466"><ele>455</ele></trkpt>
   <trkpt lat="42.875926" lon="2.163381"><ele>455.75</ele></trkpt>
   <trkpt lat="42.875864" lon="2.163301"><ele>455.75</ele></trkpt>
   <trkpt lat="42.875793" lon="2.163243"><ele>456</ele></trkpt>
   <trkpt lat="42.875764" lon="2.163228"><ele>456.25</ele></trkpt>
   <trkpt lat="42.875728" lon="2.16321"><ele>456.75</ele></trkpt>
   <trkpt lat="42.875658" lon="2.163195"><ele>457.25</ele></trkpt>
   <trkpt lat="42.875594" lon="2.163201"><ele>457.5</ele></trkpt>
   <trkpt lat="42.875516" lon="2.163226"><ele>457.75</ele></trkpt>
   <trkpt lat="42.875289" lon="2.163335"><ele>459.75</ele></trkpt>
   <trkpt lat="42.875218" lon="2.16334"><ele>460</ele></trkpt>
   <trkpt lat="42.875156" lon="2.163332"><ele>460.25</ele></trkpt>
   <trkpt lat="42.875093" lon="2.163306"><ele>460.75</ele></trkpt>
   <trkpt lat="42.875037" lon="2.163257"><ele>461.5</ele></trkpt>
   <trkpt lat="42.874982" lon="2.163183"><ele>461.5</ele></trkpt>
   <trkpt lat="42.874935" lon="2.16309"><ele>461.5</ele></trkpt>
   <trkpt lat="42.874818" lon="2.16282"><ele>464.75</ele></trkpt>
   <trkpt lat="42.874755" lon="2.162709"><ele>465.5</ele></trkpt>
   <trkpt lat="42.874488" lon="2.162354"><ele>468</ele></trkpt>
   <trkpt lat="42.874401" lon="2.162263"><ele>468.25</ele></trkpt>
   <trkpt lat="42.874331" lon="2.162202"><ele>468.75</ele></trkpt>
   <trkpt lat="42.874267" lon="2.16217"><ele>469.25</ele></trkpt>
   <trkpt lat="42.874191" lon="2.162145"><ele>469.5</ele></trkpt>
   <trkpt lat="42.873965" lon="2.162124"><ele>470.5</ele></trkpt>
   <trkpt lat="42.873898" lon="2.162102"><ele>471.25</ele></trkpt>
   <trkpt lat="42.873835" lon="2.162055"><ele>471</ele></trkpt>
   <trkpt lat="42.873784" lon="2.161988"><ele>471.25</ele></trkpt>
   <trkpt lat="42.873748" lon="2.161903"><ele>471.75</ele></trkpt>
   <trkpt lat="42.873732" lon="2.161803"><ele>472.5</ele></trkpt>
   <trkpt lat="42.873725" lon="2.161679"><ele>473.5</ele></trkpt>
   <trkpt lat="42.873729" lon="2.161534"><ele>474.25</ele></trkpt>
   <trkpt lat="42.873776" lon="2.160995"><ele>477.25</ele></trkpt>
   <trkpt lat="42.873769" lon="2.160729"><ele>478.5</ele></trkpt>
   <trkpt lat="42.873747" lon="2.160572"><ele>479.25</ele></trkpt>
   <trkpt lat="42.87348" lon="2.159044"><ele>486.5</ele></trkpt>
   <trkpt lat="42.873458" lon="2.15881"><ele>488</ele></trkpt>
   <trkpt lat="42.873465" lon="2.158447"><ele>490.75</ele></trkpt>
   <trkpt lat="42.873458" lon="2.158354"><ele>490.75</ele></trkpt>
   <trkpt lat="42.873434" lon="2.158256"><ele>491</ele></trkpt>
   <trkpt lat="42.873397" lon="2.15817"><ele>491.5</ele></trkpt>
   <trkpt lat="42.87335" lon="2.158102"><ele>492</ele></trkpt>
   <trkpt lat="42.873238" lon="2.158026"><ele>493.25</ele></trkpt>
   <trkpt lat="42.873119" lon="2.157986"><ele>493.5</ele></trkpt>
   <trkpt lat="42.873053" lon="2.157939"><ele>494</ele></trkpt>
   <trkpt lat="42.872987" lon="2.157868"><ele>493</ele></trkpt>
   <trkpt lat="42.872929" lon="2.157774"><ele>493</ele></trkpt>
   <trkpt lat="42.872888" lon="2.157686"><ele>493.75</ele></trkpt>
   <trkpt lat="42.872839" lon="2.157488"><ele>497</ele></trkpt>
   <trkpt lat="42.872688" lon="2.156347"><ele>501.75</ele></trkpt>
   <trkpt lat="42.872615" lon="2.15592"><ele>504.5</ele></trkpt>
   <trkpt lat="42.872577" lon="2.155792"><ele>505.25</ele></trkpt>
   <trkpt lat="42.872408" lon="2.155457"><ele>507.5</ele></trkpt>
   <trkpt lat="42.872367" lon="2.155344"><ele>508.25</ele></trkpt>
   <trkpt lat="42.872334" lon="2.155216"><ele>509.5</ele></trkpt>
   <trkpt lat="42.872308" lon="2.155086"><ele>510.5</ele></trkpt>
   <trkpt lat="42.872292" lon="2.154953"><ele>511.5</ele></trkpt>
   <trkpt lat="42.872277" lon="2.154621"><ele>513.25</ele></trkpt>
   <trkpt lat="42.872264" lon="2.154533"><ele>513.25</ele></trkpt>
   <trkpt lat="42.872232" lon="2.154428"><ele>513</ele></trkpt>
   <trkpt lat="42.872192" lon="2.154338"><ele>514.5</ele></trkpt>
   <trkpt lat="42.872126" lon="2.154244"><ele>515.5</ele></trkpt>
   <trkpt lat="42.871913" lon="2.154047"><ele>515.75</ele></trkpt>
   <trkpt lat="42.871861" lon="2.154008"><ele>516.5</ele></trkpt>
   <trkpt lat="42.871796" lon="2.153986"><ele>516.5</ele></trkpt>
   <trkpt lat="42.87174" lon="2.153984"><ele>516.25</ele></trkpt>
   <trkpt lat="42.871683" lon="2.154004"><ele>515.5</ele></trkpt>
   <trkpt lat="42.871603" lon="2.154073"><ele>514.75</ele></trkpt>
   <trkpt lat="42.871551" lon="2.154117"><ele>514.75</ele></trkpt>
   <trkpt lat="42.8715" lon="2.154139"><ele>515.25</ele></trkpt>
   <trkpt lat="42.871443" lon="2.154145"><ele>516.25</ele></trkpt>
   <trkpt lat="42.87138" lon="2.154129"><ele>516.75</ele></trkpt>
   <trkpt lat="42.871333" lon="2.154089"><ele>514.25</ele></trkpt>
   <trkpt lat="42.871302" lon="2.154024"><ele>513</ele></trkpt>
   <trkpt lat="42.871289" lon="2.153937"><ele>513.5</ele></trkpt>
   <trkpt lat="42.871296" lon="2.153867"><ele>514.75</ele></trkpt>
   <trkpt lat="42.871331" lon="2.153752"><ele>517.5</ele></trkpt>
   <trkpt lat="42.871382" lon="2.153691"><ele>520.25</ele></trkpt>
   <trkpt lat="42.871448" lon="2.153636"><ele>521.25</ele></trkpt>
   <trkpt lat="42.871542" lon="2.153602"><ele>522.25</ele></trkpt>
   <trkpt lat="42.871634" lon="2.15359"><ele>523.25</ele></trkpt>
   <trkpt lat="42.871743" lon="2.153602"><ele>523.5</ele></trkpt>
   <trkpt lat="42.871854" lon="2.153638"><ele>523.25</ele></trkpt>
   <trkpt lat="42.872047" lon="2.153759"><ele>524.75</ele></trkpt>
   <trkpt lat="42.872174" lon="2.153871"><ele>526</ele></trkpt>
   <trkpt lat="42.872289" lon="2.15399"><ele>527</ele></trkpt>
   <trkpt lat="42.872377" lon="2.154103"><ele>527.5</ele></trkpt>
   <trkpt lat="42.872454" lon="2.154224"><ele>527.5</ele></trkpt>
   <trkpt lat="42.87252" lon="2.154351"><ele>528.5</ele></trkpt>
   <trkpt lat="42.872987" lon="2.155368"><ele>534</ele></trkpt>
   <trkpt lat="42.873386" lon="2.156153"><ele>538.75</ele></trkpt>
   <trkpt lat="42.873439" lon="2.156244"><ele>538.75</ele></trkpt>
   <trkpt lat="42.873514" lon="2.156323"><ele>539.5</ele></trkpt>
   <trkpt lat="42.873597" lon="2.156375"><ele>540.75</ele></trkpt>
   <trkpt lat="42.873667" lon="2.156404"><ele>541</ele></trkpt>
   <trkpt lat="42.873744" lon="2.156412"><ele>541.25</ele></trkpt>
   <trkpt lat="42.873812" lon="2.156405"><ele>542</ele></trkpt>
   <trkpt lat="42.873882" lon="2.156387"><ele>543</ele></trkpt>
   <trkpt lat="42.874048" lon="2.156321"><ele>545</ele></trkpt>
   <trkpt lat="42.874121" lon="2.156303"><ele>545.75</ele></trkpt>
   <trkpt lat="42.874193" lon="2.156303"><ele>546.25</ele></trkpt>
   <trkpt lat="42.87426" lon="2.156323"><ele>546.75</ele></trkpt>
   <trkpt lat="42.874321" lon="2.156353"><ele>547</ele></trkpt>
   <trkpt lat="42.874396" lon="2.156405"><ele>547</ele></trkpt>
   <trkpt lat="42.874463" lon="2.15647"><ele>547.5</ele></trkpt>
   <trkpt lat="42.874519" lon="2.156545"><ele>548.5</ele></trkpt>
   <trkpt lat="42.874568" lon="2.156632"><ele>549</ele></trkpt>
   <trkpt lat="42.874682" lon="2.156974"><ele>549.25</ele></trkpt>
   <trkpt lat="42.874733" lon="2.15707"><ele>550.25</ele></trkpt>
   <trkpt lat="42.874794" lon="2.157145"><ele>550.75</ele></trkpt>
   <trkpt lat="42.874873" lon="2.157206"><ele>551.25</ele></trkpt>
   <trkpt lat="42.874946" lon="2.157242"><ele>551.5</ele></trkpt>
   <trkpt lat="42.875183" lon="2.157273"><ele>553.5</ele></trkpt>
   <trkpt lat="42.875257" lon="2.157288"><ele>553.75</ele></trkpt>
   <trkpt lat="42.875334" lon="2.157319"><ele>554.75</ele></trkpt>
   <trkpt lat="42.875422" lon="2.157375"><ele>555.75</ele></trkpt>
   <trkpt lat="42.875488" lon="2.157432"><ele>556</ele></trkpt>
   <trkpt lat="42.875628" lon="2.157596"><ele>556.5</ele></trkpt>
   <trkpt lat="42.875711" lon="2.157661"><ele>557</ele></trkpt>
   <trkpt lat="42.875801" lon="2.157687"><ele>558</ele></trkpt>
   <trkpt lat="42.875885" lon="2.157694"><ele>558.5</ele></trkpt>
   <trkpt lat="42.875964" lon="2.157677"><ele>558.75</ele></trkpt>
   <trkpt lat="42.876219" lon="2.157541"><ele>560.75</ele></trkpt>
   <trkpt lat="42.876275" lon="2.157527"><ele>560.75</ele></trkpt>
   <trkpt lat="42.876335" lon="2.157528"><ele>560.5</ele></trkpt>
   <trkpt lat="42.876408" lon="2.15755"><ele>560.25</ele></trkpt>
   <trkpt lat="42.876489" lon="2.157591"><ele>562.25</ele></trkpt>
   <trkpt lat="42.876561" lon="2.157649"><ele>563.25</ele></trkpt>
   <trkpt lat="42.876627" lon="2.157724"><ele>563.75</ele></trkpt>
   <trkpt lat="42.876684" lon="2.157814"><ele>564</ele></trkpt>
   <trkpt lat="42.876736" lon="2.157923"><ele>565</ele></trkpt>
   <trkpt lat="42.876931" lon="2.158503"><ele>566.5</ele></trkpt>
   <trkpt lat="42.876986" lon="2.15863"><ele>566.75</ele></trkpt>
   <trkpt lat="42.877034" lon="2.158718"><ele>566.5</ele></trkpt>
   <trkpt lat="42.877084" lon="2.15879"><ele>566.75</ele></trkpt>
   <trkpt lat="42.877146" lon="2.15886"><ele>567.25</ele></trkpt>
   <trkpt lat="42.877212" lon="2.158915"><ele>568</ele></trkpt>
   <trkpt lat="42.877284" lon="2.158963"><ele>568.75</ele></trkpt>
   <trkpt lat="42.877374" lon="2.159006"><ele>569.5</ele></trkpt>
   <trkpt lat="42.877618" lon="2.159099"><ele>571</ele></trkpt>
   <trkpt lat="42.87772" lon="2.159125"><ele>571.25</ele></trkpt>
   <trkpt lat="42.87783" lon="2.159134"><ele>571.75</ele></trkpt>
   <trkpt lat="42.877999" lon="2.15912"><ele>573.25</ele></trkpt>
   <trkpt lat="42.878168" lon="2.159068"><ele>573.5</ele></trkpt>
   <trkpt lat="42.878254" lon="2.159017"><ele>573.75</ele></trkpt>
   <trkpt lat="42.878479" lon="2.158841"><ele>575.5</ele></trkpt>
   <trkpt lat="42.878578" lon="2.158736"><ele>576.25</ele></trkpt>
   <trkpt lat="42.878659" lon="2.158629"><ele>576</ele></trkpt>
   <trkpt lat="42.878724" lon="2.158526"><ele>576.75</ele></trkpt>
   <trkpt lat="42.878804" lon="2.158367"><ele>579</ele></trkpt>
   <trkpt lat="42.878874" lon="2.158203"><ele>579.75</ele></trkpt>
   <trkpt lat="42.878951" lon="2.157974"><ele>580</ele></trkpt>
   <trkpt lat="42.879114" lon="2.15731"><ele>584</ele></trkpt>
   <trkpt lat="42.879268" lon="2.156764"><ele>589</ele></trkpt>
   <trkpt lat="42.879337" lon="2.156525"><ele>589</ele></trkpt>
   <trkpt lat="42.879769" lon="2.15516"><ele>593.5</ele></trkpt>
   <trkpt lat="42.879806" lon="2.154962"><ele>595.25</ele></trkpt>
   <trkpt lat="42.879761" lon="2.154958"><ele>594.75</ele></trkpt>
   <trkpt lat="42.879721" lon="2.154955"><ele>594.5</ele></trkpt>
   <trkpt lat="42.879646" lon="2.155001"><ele>597.5</ele></trkpt>
   <trkpt lat="42.879595" lon="2.155079"><ele>598.75</ele></trkpt>
   <trkpt lat="42.879241" lon="2.156076"><ele>601.5</ele></trkpt>
   <trkpt lat="42.87901" lon="2.156624"><ele>603.75</ele></trkpt>
   <trkpt lat="42.878948" lon="2.156732"><ele>604.5</ele></trkpt>
   <trkpt lat="42.878877" lon="2.156839"><ele>606</ele></trkpt>
   <trkpt lat="42.878758" lon="2.156994"><ele>606.75</ele></trkpt>
   <trkpt lat="42.87866" lon="2.157099"><ele>608</ele></trkpt>
   <trkpt lat="42.878565" lon="2.157179"><ele>609</ele></trkpt>
   <trkpt lat="42.878477" lon="2.157224"><ele>609.25</ele></trkpt>
   <trkpt lat="42.878393" lon="2.157239"><ele>610</ele></trkpt>
   <trkpt lat="42.878316" lon="2.157231"><ele>610.75</ele></trkpt>
   <trkpt lat="42.878239" lon="2.157197"><ele>610.75</ele></trkpt>
   <trkpt lat="42.878158" lon="2.157136"><ele>611.25</ele></trkpt>
   <trkpt lat="42.878093" lon="2.157053"><ele>612</ele></trkpt>
   <trkpt lat="42.878027" lon="2.156937"><ele>612.75</ele></trkpt>
   <trkpt lat="42.877948" lon="2.156751"><ele>614.25</ele></trkpt>
   <trkpt lat="42.877801" lon="2.156319"><ele>617.75</ele></trkpt>
   <trkpt lat="42.877725" lon="2.156044"><ele>618.75</ele></trkpt>
   <trkpt lat="42.877672" lon="2.155892"><ele>619.5</ele></trkpt>
   <trkpt lat="42.877613" lon="2.155781"><ele>620.25</ele></trkpt>
   <trkpt lat="42.877398" lon="2.155476"><ele>623</ele></trkpt>
   <trkpt lat="42.877311" lon="2.155319"><ele>624.25</ele></trkpt>
   <trkpt lat="42.877022" lon="2.154732"><ele>628.25</ele></trkpt>
   <trkpt lat="42.87695" lon="2.154608"><ele>629.25</ele></trkpt>
   <trkpt lat="42.876879" lon="2.154502"><ele>629.75</ele></trkpt>
   <trkpt lat="42.876797" lon="2.154414"><ele>630.75</ele></trkpt>
   <trkpt lat="42.876722" lon="2.15435"><ele>631.75</ele></trkpt>
   <trkpt lat="42.876619" lon="2.154286"><ele>632.5</ele></trkpt>
   <trkpt lat="42.87608" lon="2.154012"><ele>637</ele></trkpt>
   <trkpt lat="42.875989" lon="2.15395"><ele>637.75</ele></trkpt>
   <trkpt lat="42.875912" lon="2.153885"><ele>638.5</ele></trkpt>
   <trkpt lat="42.875582" lon="2.153526"><ele>641.5</ele></trkpt>
   <trkpt lat="42.875423" lon="2.153388"><ele>642.75</ele></trkpt>
   <trkpt lat="42.875284" lon="2.153245"><ele>644.5</ele></trkpt>
   <trkpt lat="42.875023" lon="2.152946"><ele>645.75</ele></trkpt>
   <trkpt lat="42.874987" lon="2.152895"><ele>646</ele></trkpt>
   <trkpt lat="42.874965" lon="2.152829"><ele>646.5</ele></trkpt>
   <trkpt lat="42.874961" lon="2.152757"><ele>647.5</ele></trkpt>
   <trkpt lat="42.874988" lon="2.152711"><ele>648.75</ele></trkpt>
   <trkpt lat="42.875038" lon="2.152692"><ele>650.25</ele></trkpt>
   <trkpt lat="42.875095" lon="2.152717"><ele>650.75</ele></trkpt>
   <trkpt lat="42.875251" lon="2.152865"><ele>650.75</ele></trkpt>
   <trkpt lat="42.875334" lon="2.152919"><ele>651</ele></trkpt>
   <trkpt lat="42.875412" lon="2.152946"><ele>651.25</ele></trkpt>
   <trkpt lat="42.875487" lon="2.152956"><ele>652</ele></trkpt>
   <trkpt lat="42.875863" lon="2.152926"><ele>655</ele></trkpt>
   <trkpt lat="42.876161" lon="2.152945"><ele>657.75</ele></trkpt>
   <trkpt lat="42.87625" lon="2.15294"><ele>658</ele></trkpt>
   <trkpt lat="42.876324" lon="2.152922"><ele>658.5</ele></trkpt>
   <trkpt lat="42.87641" lon="2.152886"><ele>659.25</ele></trkpt>
   <trkpt lat="42.876538" lon="2.152802"><ele>660</ele></trkpt>
   <trkpt lat="42.876722" lon="2.152645"><ele>661.5</ele></trkpt>
   <trkpt lat="42.877096" lon="2.152254"><ele>665</ele></trkpt>
   <trkpt lat="42.877183" lon="2.152197"><ele>665.25</ele></trkpt>
   <trkpt lat="42.877264" lon="2.152165"><ele>666</ele></trkpt>
   <trkpt lat="42.877348" lon="2.152152"><ele>666.75</ele></trkpt>
   <trkpt lat="42.877497" lon="2.152153"><ele>668</ele></trkpt>
   <trkpt lat="42.877557" lon="2.152123"><ele>668</ele></trkpt>
   <trkpt lat="42.877603" lon="2.152065"><ele>668</ele></trkpt>
   <trkpt lat="42.877642" lon="2.151965"><ele>668.75</ele></trkpt>
   <trkpt lat="42.877666" lon="2.151859"><ele>669.25</ele></trkpt>
   <trkpt lat="42.877678" lon="2.151793"><ele>669.5</ele></trkpt>
   <trkpt lat="42.877512" lon="2.151727"><ele>670.5</ele></trkpt>
   <trkpt lat="42.877118" lon="2.151593"><ele>672</ele></trkpt>
   <trkpt lat="42.876981" lon="2.151575"><ele>672.5</ele></trkpt>
   <trkpt lat="42.876837" lon="2.151585"><ele>673.75</ele></trkpt>
   <trkpt lat="42.876442" lon="2.15172"><ele>676</ele></trkpt>
   <trkpt lat="42.876243" lon="2.151763"><ele>677</ele></trkpt>
   <trkpt lat="42.876063" lon="2.151758"><ele>678</ele></trkpt>
   <trkpt lat="42.875926" lon="2.151728"><ele>678.5</ele></trkpt>
   <trkpt lat="42.875767" lon="2.151658"><ele>679.75</ele></trkpt>
   <trkpt lat="42.875611" lon="2.151547"><ele>680.75</ele></trkpt>
   <trkpt lat="42.875462" lon="2.151401"><ele>681.75</ele></trkpt>
   <trkpt lat="42.875277" lon="2.151161"><ele>683.25</ele></trkpt>
   <trkpt lat="42.874992" lon="2.150783"><ele>686.25</ele></trkpt>
   <trkpt lat="42.874782" lon="2.150471"><ele>687.5</ele></trkpt>
   <trkpt lat="42.874682" lon="2.150251"><ele>688</ele></trkpt>
   <trkpt lat="42.874611" lon="2.150023"><ele>688.75</ele></trkpt>
   <trkpt lat="42.874564" lon="2.149746"><ele>690.25</ele></trkpt>
   <trkpt lat="42.874557" lon="2.14956"><ele>691</ele></trkpt>
   <trkpt lat="42.874581" lon="2.149347"><ele>691.75</ele></trkpt>
   <trkpt lat="42.874714" lon="2.148882"><ele>693.75</ele></trkpt>
   <trkpt lat="42.874749" lon="2.148648"><ele>694</ele></trkpt>
   <trkpt lat="42.87474" lon="2.148441"><ele>693.75</ele></trkpt>
   <trkpt lat="42.874693" lon="2.148248"><ele>693.75</ele></trkpt>
   <trkpt lat="42.874608" lon="2.148068"><ele>693.75</ele></trkpt>
   <trkpt lat="42.874505" lon="2.147918"><ele>694.75</ele></trkpt>
   <trkpt lat="42.874401" lon="2.147825"><ele>695.75</ele></trkpt>
   <trkpt lat="42.874109" lon="2.147677"><ele>697.5</ele></trkpt>
   <trkpt lat="42.873956" lon="2.147583"><ele>698.5</ele></trkpt>
   <trkpt lat="42.873792" lon="2.147429"><ele>699.5</ele></trkpt>
   <trkpt lat="42.87364" lon="2.147209"><ele>701.25</ele></trkpt>
   <trkpt lat="42.873535" lon="2.146995"><ele>702</ele></trkpt>
   <trkpt lat="42.873433" lon="2.146709"><ele>703.25</ele></trkpt>
   <trkpt lat="42.873341" lon="2.146376"><ele>705</ele></trkpt>
   <trkpt lat="42.873186" lon="2.145682"><ele>708</ele></trkpt>
   <trkpt lat="42.873094" lon="2.145165"><ele>710.5</ele></trkpt>
   <trkpt lat="42.87303" lon="2.144847"><ele>713</ele></trkpt>
   <trkpt lat="42.872957" lon="2.144624"><ele>714.75</ele></trkpt>
   <trkpt lat="42.872176" lon="2.142902"><ele>721.25</ele></trkpt>
   <trkpt lat="42.871549" lon="2.141711"><ele>726.25</ele></trkpt>
   <trkpt lat="42.87145" lon="2.141481"><ele>728</ele></trkpt>
   <trkpt lat="42.871091" lon="2.140386"><ele>733</ele></trkpt>
   <trkpt lat="42.871009" lon="2.140169"><ele>734.5</ele></trkpt>
   <trkpt lat="42.870898" lon="2.139977"><ele>735.75</ele></trkpt>
   <trkpt lat="42.870777" lon="2.139812"><ele>737</ele></trkpt>
   <trkpt lat="42.870642" lon="2.139686"><ele>737.75</ele></trkpt>
   <trkpt lat="42.870349" lon="2.139453"><ele>739.5</ele></trkpt>
   <trkpt lat="42.870217" lon="2.139287"><ele>739.5</ele></trkpt>
   <trkpt lat="42.870107" lon="2.13908"><ele>739.75</ele></trkpt>
   <trkpt lat="42.870056" lon="2.13893"><ele>741</ele></trkpt>
   <trkpt lat="42.870046" lon="2.138706"><ele>743.25</ele></trkpt>
   <trkpt lat="42.870085" lon="2.138527"><ele>745</ele></trkpt>
   <trkpt lat="42.870202" lon="2.138399"><ele>745.75</ele></trkpt>
   <trkpt lat="42.870343" lon="2.138336"><ele>745.5</ele></trkpt>
   <trkpt lat="42.870676" lon="2.138336"><ele>747.25</ele></trkpt>
   <trkpt lat="42.87081" lon="2.138309"><ele>748.5</ele></trkpt>
   <trkpt lat="42.871009" lon="2.138201"><ele>749.5</ele></trkpt>
   <trkpt lat="42.871184" lon="2.138135"><ele>750.75</ele></trkpt>
   <trkpt lat="42.87131" lon="2.138129"><ele>751</ele></trkpt>
   <trkpt lat="42.871429" lon="2.138165"><ele>751.75</ele></trkpt>
   <trkpt lat="42.871539" lon="2.138274"><ele>753.5</ele></trkpt>
   <trkpt lat="42.871585" lon="2.138388"><ele>753.5</ele></trkpt>
   <trkpt lat="42.871614" lon="2.138564"><ele>753.5</ele></trkpt>
   <trkpt lat="42.871597" lon="2.138708"><ele>753.5</ele></trkpt>
   <trkpt lat="42.871539" lon="2.138939"><ele>754</ele></trkpt>
   <trkpt lat="42.871501" lon="2.139144"><ele>754.25</ele></trkpt>
   <trkpt lat="42.871503" lon="2.139313"><ele>754.25</ele></trkpt>
   <trkpt lat="42.871537" lon="2.139497"><ele>754.75</ele></trkpt>
   <trkpt lat="42.871812" lon="2.140066"><ele>756.25</ele></trkpt>
   <trkpt lat="42.871917" lon="2.140211"><ele>758.5</ele></trkpt>
   <trkpt lat="42.872029" lon="2.140287"><ele>759</ele></trkpt>
   <trkpt lat="42.872135" lon="2.140287"><ele>759.25</ele></trkpt>
   <trkpt lat="42.87271" lon="2.140149"><ele>762.75</ele></trkpt>
   <trkpt lat="42.872844" lon="2.140091"><ele>763.5</ele></trkpt>
   <trkpt lat="42.87295" lon="2.14001"><ele>763.75</ele></trkpt>
   <trkpt lat="42.873341" lon="2.139498"><ele>765</ele></trkpt>
   <trkpt lat="42.873554" lon="2.139258"><ele>765.25</ele></trkpt>
   <trkpt lat="42.873874" lon="2.139019"><ele>766.25</ele></trkpt>
   <trkpt lat="42.873986" lon="2.138916"><ele>766.25</ele></trkpt>
   <trkpt lat="42.874074" lon="2.138772"><ele>766.75</ele></trkpt>
   <trkpt lat="42.874108" lon="2.138652"><ele>767.25</ele></trkpt>
   <trkpt lat="42.874118" lon="2.138472"><ele>767.75</ele></trkpt>
   <trkpt lat="42.874054" lon="2.1382"><ele>767.75</ele></trkpt>
   <trkpt lat="42.874031" lon="2.138021"><ele>768</ele></trkpt>
   <trkpt lat="42.874052" lon="2.137858"><ele>769</ele></trkpt>
   <trkpt lat="42.874152" lon="2.137707"><ele>770</ele></trkpt>
   <trkpt lat="42.874347" lon="2.137631"><ele>770.25</ele></trkpt>
   <trkpt lat="42.874516" lon="2.137555"><ele>770.5</ele></trkpt>
   <trkpt lat="42.874615" lon="2.137442"><ele>770.5</ele></trkpt>
   <trkpt lat="42.874666" lon="2.137304"><ele>771</ele></trkpt>
   <trkpt lat="42.87468" lon="2.137203"><ele>771.25</ele></trkpt>
   <trkpt lat="42.874681" lon="2.137103"><ele>772</ele></trkpt>
   <trkpt lat="42.874666" lon="2.136987"><ele>772.5</ele></trkpt>
   <trkpt lat="42.874637" lon="2.136885"><ele>773.25</ele></trkpt>
   <trkpt lat="42.874546" lon="2.13673"><ele>774.75</ele></trkpt>
   <trkpt lat="42.874383" lon="2.136635"><ele>774.5</ele></trkpt>
   <trkpt lat="42.874118" lon="2.136558"><ele>776.75</ele></trkpt>
   <trkpt lat="42.873775" lon="2.136503"><ele>777.25</ele></trkpt>
   <trkpt lat="42.87363" lon="2.136448"><ele>778</ele></trkpt>
   <trkpt lat="42.873435" lon="2.136273"><ele>779.5</ele></trkpt>
   <trkpt lat="42.873311" lon="2.136219"><ele>779.5</ele></trkpt>
   <trkpt lat="42.873112" lon="2.136198"><ele>781</ele></trkpt>
   <trkpt lat="42.872572" lon="2.136235"><ele>785.25</ele></trkpt>
   <trkpt lat="42.872454" lon="2.136294"><ele>785.75</ele></trkpt>
   <trkpt lat="42.872168" lon="2.136584"><ele>787.5</ele></trkpt>
   <trkpt lat="42.872039" lon="2.136643"><ele>788.25</ele></trkpt>
   <trkpt lat="42.871422" lon="2.136734"><ele>791</ele></trkpt>
   <trkpt lat="42.871278" lon="2.136724"><ele>791.75</ele></trkpt>
   <trkpt lat="42.871165" lon="2.136672"><ele>792.5</ele></trkpt>
   <trkpt lat="42.871096" lon="2.136569"><ele>793</ele></trkpt>
   <trkpt lat="42.871007" lon="2.136277"><ele>793.5</ele></trkpt>
   <trkpt lat="42.87093" lon="2.136057"><ele>795.25</ele></trkpt>
   <trkpt lat="42.870837" lon="2.135899"><ele>796.75</ele></trkpt>
   <trkpt lat="42.870496" lon="2.135467"><ele>798.75</ele></trkpt>
   <trkpt lat="42.870033" lon="2.134906"><ele>802</ele></trkpt>
   <trkpt lat="42.86972" lon="2.13454"><ele>803.75</ele></trkpt>
   <trkpt lat="42.869572" lon="2.134217"><ele>806</ele></trkpt>
   <trkpt lat="42.869365" lon="2.133912"><ele>808.25</ele></trkpt>
   <trkpt lat="42.869291" lon="2.133734"><ele>809</ele></trkpt>
   <trkpt lat="42.869243" lon="2.133506"><ele>810.75</ele></trkpt>
   <trkpt lat="42.869028" lon="2.133008"><ele>813.5</ele></trkpt>
   <trkpt lat="42.868775" lon="2.132636"><ele>815</ele></trkpt>
   <trkpt lat="42.868468" lon="2.132247"><ele>816</ele></trkpt>
   <trkpt lat="42.868151" lon="2.131886"><ele>814.25</ele></trkpt>
   <trkpt lat="42.868033" lon="2.131627"><ele>819.75</ele></trkpt>
   <trkpt lat="42.86798" lon="2.131312"><ele>819.5</ele></trkpt>
   <trkpt lat="42.867984" lon="2.130878"><ele>823.25</ele></trkpt>
   <trkpt lat="42.8679" lon="2.130634"><ele>824.5</ele></trkpt>
   <trkpt lat="42.867672" lon="2.130327"><ele>823.75</ele></trkpt>
   <trkpt lat="42.867324" lon="2.12989"><ele>827</ele></trkpt>
   <trkpt lat="42.86719" lon="2.12961"><ele>829.25</ele></trkpt>
   <trkpt lat="42.867107" lon="2.129332"><ele>830.5</ele></trkpt>
   <trkpt lat="42.86706" lon="2.128823"><ele>833.75</ele></trkpt>
   <trkpt lat="42.86699" lon="2.128533"><ele>835.5</ele></trkpt>
   <trkpt lat="42.866919" lon="2.128403"><ele>835.5</ele></trkpt>
   <trkpt lat="42.86685" lon="2.12831"><ele>836.5</ele></trkpt>
   <trkpt lat="42.866711" lon="2.128228"><ele>837.5</ele></trkpt>
   <trkpt lat="42.865866" lon="2.128011"><ele>841.75</ele></trkpt>
   <trkpt lat="42.86522" lon="2.127658"><ele>847.75</ele></trkpt>
   <trkpt lat="42.865002" lon="2.127563"><ele>847.5</ele></trkpt>
   <trkpt lat="42.864908" lon="2.127535"><ele>848.5</ele></trkpt>
   <trkpt lat="42.86483" lon="2.127527"><ele>849</ele></trkpt>
   <trkpt lat="42.864758" lon="2.127534"><ele>849.25</ele></trkpt>
   <trkpt lat="42.864553" lon="2.127621"><ele>850.25</ele></trkpt>
   <trkpt lat="42.864454" lon="2.127658"><ele>852.25</ele></trkpt>
   <trkpt lat="42.864396" lon="2.127659"><ele>852.75</ele></trkpt>
   <trkpt lat="42.864332" lon="2.127641"><ele>853.25</ele></trkpt>
   <trkpt lat="42.863684" lon="2.127309"><ele>855</ele></trkpt>
   <trkpt lat="42.863564" lon="2.127272"><ele>855.5</ele></trkpt>
   <trkpt lat="42.863363" lon="2.12724"><ele>857</ele></trkpt>
   <trkpt lat="42.862665" lon="2.127293"><ele>862.25</ele></trkpt>
   <trkpt lat="42.862596" lon="2.127273"><ele>862</ele></trkpt>
   <trkpt lat="42.862516" lon="2.127191"><ele>861.5</ele></trkpt>
   <trkpt lat="42.862428" lon="2.127032"><ele>861</ele></trkpt>
   <trkpt lat="42.862244" lon="2.126543"><ele>865</ele></trkpt>
   <trkpt lat="42.862231" lon="2.126508"><ele>865.25</ele></trkpt>
   <trkpt lat="42.861949" lon="2.125763"><ele>868.75</ele></trkpt>
   <trkpt lat="42.861933" lon="2.125717"><ele>869.25</ele></trkpt>
   <trkpt lat="42.861763" lon="2.125297"><ele>871.75</ele></trkpt>
   <trkpt lat="42.861677" lon="2.124985"><ele>872.5</ele></trkpt>
   <trkpt lat="42.861649" lon="2.124715"><ele>873.5</ele></trkpt>
   <trkpt lat="42.861637" lon="2.124334"><ele>875.5</ele></trkpt>
   <trkpt lat="42.861606" lon="2.122883"><ele>882.25</ele></trkpt>
   <trkpt lat="42.861613" lon="2.122336"><ele>884.25</ele></trkpt>
   <trkpt lat="42.861624" lon="2.122066"><ele>884.75</ele></trkpt>
   <trkpt lat="42.861653" lon="2.121807"><ele>884.25</ele></trkpt>
   <trkpt lat="42.861683" lon="2.121648"><ele>884.25</ele></trkpt>
   <trkpt lat="42.861744" lon="2.121431"><ele>885.5</ele></trkpt>

  </trkseg>
 </trk>
</gpx>