<?xml version="1.0" encoding="UTF-8"?>
<gpx 
 xmlns="http://www.topografix.com/GPX/1/1" 
 xmlns:xsi="http://www.w3.org/2001/XMLSchema-instance" 
 xsi:schemaLocation="http://www.topografix.com/GPX/1/1 http://www.topografix.com/GPX/1/1/gpx.xsd" 
 version="1.1" 
 creator="BRouter-Web 0.18.1">
 <trk>
  <name>Col du Saint-Barthelemy (15.8km, trimmed to true climb span)</name>
  <trkseg>
   <trkpt lat="45.747558" lon="7.401857"><ele>699</ele></trkpt>
   <trkpt lat="45.747809" lon="7.402302"><ele>703</ele></trkpt>
   <trkpt lat="45.747855" lon="7.402392"><ele>704.75</ele></trkpt>
   <trkpt lat="45.747893" lon="7.402527"><ele>705.5</ele></trkpt>
   <trkpt lat="45.747918" lon="7.40272"><ele>705</ele></trkpt>
   <trkpt lat="45.747936" lon="7.403133"><ele>703.25</ele></trkpt>
   <trkpt lat="45.74798" lon="7.403126"><ele>704.75</ele></trkpt>
   <trkpt lat="45.748011" lon="7.403093"><ele>705.5</ele></trkpt>
   <trkpt lat="45.748029" lon="7.403029"><ele>706.25</ele></trkpt>
   <trkpt lat="45.748032" lon="7.402956"><ele>707.25</ele></trkpt>
   <trkpt lat="45.747997" lon="7.40277"><ele>708.25</ele></trkpt>
   <trkpt lat="45.747999" lon="7.402319"><ele>711.5</ele></trkpt>
   <trkpt lat="45.747926" lon="7.402025"><ele>712.75</ele></trkpt>
   <trkpt lat="45.747851" lon="7.401765"><ele>714</ele></trkpt>
   <trkpt lat="45.747822" lon="7.40135"><ele>719.5</ele></trkpt>
   <trkpt lat="45.747825" lon="7.401083"><ele>720.5</ele></trkpt>
   <trkpt lat="45.747861" lon="7.400841"><ele>722</ele></trkpt>
   <trkpt lat="45.747894" lon="7.400701"><ele>723.25</ele></trkpt>
   <trkpt lat="45.747932" lon="7.400654"><ele>724.25</ele></trkpt>
   <trkpt lat="45.747971" lon="7.400647"><ele>725.25</ele></trkpt>
   <trkpt lat="45.748007" lon="7.400655"><ele>726</ele></trkpt>
   <trkpt lat="45.748034" lon="7.400697"><ele>726.5</ele></trkpt>
   <trkpt lat="45.748043" lon="7.40076"><ele>726.5</ele></trkpt>
   <trkpt lat="45.748026" lon="7.401013"><ele>726.75</ele></trkpt>
   <trkpt lat="45.74803" lon="7.401136"><ele>727</ele></trkpt>
   <trkpt lat="45.748043" lon="7.401219"><ele>727</ele></trkpt>
   <trkpt lat="45.748111" lon="7.401398"><ele>728.25</ele></trkpt>
   <trkpt lat="45.74853" lon="7.402165"><ele>735.5</ele></trkpt>
   <trkpt lat="45.748573" lon="7.402301"><ele>736.5</ele></trkpt>
   <trkpt lat="45.748616" lon="7.402538"><ele>738</ele></trkpt>
   <trkpt lat="45.748702" lon="7.403119"><ele>740.5</ele></trkpt>
   <trkpt lat="45.748669" lon="7.403459"><ele>743</ele></trkpt>
   <trkpt lat="45.748612" lon="7.403847"><ele>745.5</ele></trkpt>
   <trkpt lat="45.748661" lon="7.40419"><ele>745</ele></trkpt>
   <trkpt lat="45.748809" lon="7.404576"><ele>748.25</ele></trkpt>
   <trkpt lat="45.748947" lon="7.405335"><ele>749.75</ele></trkpt>
   <trkpt lat="45.74913" lon="7.405997"><ele>754.5</ele></trkpt>
   <trkpt lat="45.749199" lon="7.406244"><ele>755.75</ele></trkpt>
   <trkpt lat="45.749681" lon="7.406761"><ele>762.75</ele></trkpt>
   <trkpt lat="45.749765" lon="7.406869"><ele>765</ele></trkpt>
   <trkpt lat="45.749802" lon="7.407043"><ele>767</ele></trkpt>
   <trkpt lat="45.74974" lon="7.40738"><ele>769</ele></trkpt>
   <trkpt lat="45.749816" lon="7.408455"><ele>780.25</ele></trkpt>
   <trkpt lat="45.749896" lon="7.408642"><ele>783.5</ele></trkpt>
   <trkpt lat="45.75003" lon="7.409127"><ele>786.25</ele></trkpt>
   <trkpt lat="45.750326" lon="7.409339"><ele>790.25</ele></trkpt>
   <trkpt lat="45.750484" lon="7.409495"><ele>792</ele></trkpt>
   <trkpt lat="45.750513" lon="7.409632"><ele>792</ele></trkpt>
   <trkpt lat="45.750583" lon="7.409749"><ele>795.25</ele></trkpt>
   <trkpt lat="45.750647" lon="7.409735"><ele>797.75</ele></trkpt>
   <trkpt lat="45.75068" lon="7.409655"><ele>798.75</ele></trkpt>
   <trkpt lat="45.750665" lon="7.409568"><ele>798.25</ele></trkpt>
   <trkpt lat="45.750604" lon="7.409479"><ele>796.25</ele></trkpt>
   <trkpt lat="45.750538" lon="7.409412"><ele>794.75</ele></trkpt>
   <trkpt lat="45.750532" lon="7.409275"><ele>796.75</ele></trkpt>
   <trkpt lat="45.750597" lon="7.409222"><ele>800</ele></trkpt>
   <trkpt lat="45.750673" lon="7.409261"><ele>802.5</ele></trkpt>
   <trkpt lat="45.750743" lon="7.409437"><ele>801.25</ele></trkpt>
   <trkpt lat="45.750786" lon="7.409657"><ele>802.75</ele></trkpt>
   <trkpt lat="45.750721" lon="7.409883"><ele>802.5</ele></trkpt>
   <trkpt lat="45.750698" lon="7.410087"><ele>803.5</ele></trkpt>
   <trkpt lat="45.750717" lon="7.410308"><ele>806.5</ele></trkpt>
   <trkpt lat="45.750614" lon="7.410709"><ele>811.75</ele></trkpt>
   <trkpt lat="45.750505" lon="7.411055"><ele>813</ele></trkpt>
   <trkpt lat="45.75033" lon="7.411337"><ele>813.75</ele></trkpt>
   <trkpt lat="45.750231" lon="7.411611"><ele>816</ele></trkpt>
   <trkpt lat="45.750081" lon="7.411863"><ele>816.5</ele></trkpt>
   <trkpt lat="45.750108" lon="7.411943"><ele>818.75</ele></trkpt>
   <trkpt lat="45.750152" lon="7.412128"><ele>818.75</ele></trkpt>
   <trkpt lat="45.750164" lon="7.412207"><ele>818.75</ele></trkpt>
   <trkpt lat="45.750181" lon="7.412428"><ele>818.25</ele></trkpt>
   <trkpt lat="45.750199" lon="7.413169"><ele>821.5</ele></trkpt>
   <trkpt lat="45.750139" lon="7.413798"><ele>825</ele></trkpt>
   <trkpt lat="45.750064" lon="7.41448"><ele>829.5</ele></trkpt>
   <trkpt lat="45.750064" lon="7.414992"><ele>830.75</ele></trkpt>
   <trkpt lat="45.750031" lon="7.415504"><ele>832</ele></trkpt>
   <trkpt lat="45.749993" lon="7.41597"><ele>832.75</ele></trkpt>
   <trkpt lat="45.749986" lon="7.416452"><ele>834.5</ele></trkpt>
   <trkpt lat="45.750013" lon="7.416741"><ele>835.25</ele></trkpt>
   <trkpt lat="45.750143" lon="7.417497"><ele>837</ele></trkpt>
   <trkpt lat="45.750145" lon="7.417686"><ele>839</ele></trkpt>
   <trkpt lat="45.750132" lon="7.417809"><ele>840</ele></trkpt>
   <trkpt lat="45.75007" lon="7.418126"><ele>842.5</ele></trkpt>
   <trkpt lat="45.750044" lon="7.418219"><ele>843.25</ele></trkpt>
   <trkpt lat="45.750007" lon="7.418301"><ele>843.5</ele></trkpt>
   <trkpt lat="45.749921" lon="7.418388"><ele>843.5</ele></trkpt>
   <trkpt lat="45.749763" lon="7.418526"><ele>844.75</ele></trkpt>
   <trkpt lat="45.749662" lon="7.418625"><ele>844.75</ele></trkpt>
   <trkpt lat="45.749623" lon="7.418717"><ele>844.25</ele></trkpt>
   <trkpt lat="45.74961" lon="7.418866"><ele>845.25</ele></trkpt>
   <trkpt lat="45.749637" lon="7.419561"><ele>850.25</ele></trkpt>
   <trkpt lat="45.749603" lon="7.419888"><ele>852.75</ele></trkpt>
   <trkpt lat="45.749552" lon="7.420194"><ele>853.5</ele></trkpt>
   <trkpt lat="45.749533" lon="7.420405"><ele>853.25</ele></trkpt>
   <trkpt lat="45.749542" lon="7.420677"><ele>853.5</ele></trkpt>
   <trkpt lat="45.749638" lon="7.421098"><ele>858</ele></trkpt>
   <trkpt lat="45.749652" lon="7.421324"><ele>859.25</ele></trkpt>
   <trkpt lat="45.749618" lon="7.421546"><ele>860</ele></trkpt>
   <trkpt lat="45.74957" lon="7.421742"><ele>859.75</ele></trkpt>
   <trkpt lat="45.749564" lon="7.422027"><ele>861.25</ele></trkpt>
   <trkpt lat="45.749585" lon="7.422296"><ele>862.75</ele></trkpt>
   <trkpt lat="45.749674" lon="7.422549"><ele>865.75</ele></trkpt>
   <trkpt lat="45.749723" lon="7.422802"><ele>867</ele></trkpt>
   <trkpt lat="45.749745" lon="7.423015"><ele>870</ele></trkpt>
   <trkpt lat="45.749745" lon="7.423518"><ele>873.75</ele></trkpt>
   <trkpt lat="45.749715" lon="7.423977"><ele>875.25</ele></trkpt>
   <trkpt lat="45.749661" lon="7.424538"><ele>877.75</ele></trkpt>
   <trkpt lat="45.749695" lon="7.424747"><ele>880.25</ele></trkpt>
   <trkpt lat="45.74979" lon="7.425042"><ele>883</ele></trkpt>
   <trkpt lat="45.749837" lon="7.42538"><ele>886</ele></trkpt>
   <trkpt lat="45.749811" lon="7.425785"><ele>887.5</ele></trkpt>
   <trkpt lat="45.749864" lon="7.426206"><ele>889.75</ele></trkpt>
   <trkpt lat="45.749827" lon="7.426686"><ele>895</ele></trkpt>
   <trkpt lat="45.749727" lon="7.427204"><ele>897</ele></trkpt>
   <trkpt lat="45.749628" lon="7.42767"><ele>899.25</ele></trkpt>
   <trkpt lat="45.749665" lon="7.42794"><ele>901.5</ele></trkpt>
   <trkpt lat="45.749758" lon="7.428151"><ele>904.75</ele></trkpt>
   <trkpt lat="45.749779" lon="7.428324"><ele>904.5</ele></trkpt>
   <trkpt lat="45.749774" lon="7.428496"><ele>906.25</ele></trkpt>
   <trkpt lat="45.74975" lon="7.42869"><ele>907.5</ele></trkpt>
   <trkpt lat="45.749759" lon="7.428839"><ele>908.5</ele></trkpt>
   <trkpt lat="45.74982" lon="7.428984"><ele>909.75</ele></trkpt>
   <trkpt lat="45.749911" lon="7.429142"><ele>910.5</ele></trkpt>
   <trkpt lat="45.750005" lon="7.429226"><ele>912</ele></trkpt>
   <trkpt lat="45.750049" lon="7.429296"><ele>912</ele></trkpt>
   <trkpt lat="45.750099" lon="7.42936"><ele>913</ele></trkpt>
   <trkpt lat="45.750163" lon="7.42934"><ele>915.25</ele></trkpt>
   <trkpt lat="45.750204" lon="7.429267"><ele>917.25</ele></trkpt>
   <trkpt lat="45.750185" lon="7.429171"><ele>917.5</ele></trkpt>
   <trkpt lat="45.75007" lon="7.428958"><ele>917</ele></trkpt>
   <trkpt lat="45.750035" lon="7.428836"><ele>916.75</ele></trkpt>
   <trkpt lat="45.750041" lon="7.42865"><ele>917</ele></trkpt>
   <trkpt lat="45.750075" lon="7.428444"><ele>917.5</ele></trkpt>
   <trkpt lat="45.750104" lon="7.428095"><ele>919.75</ele></trkpt>
   <trkpt lat="45.750135" lon="7.427908"><ele>920.75</ele></trkpt>
   <trkpt lat="45.750171" lon="7.427872"><ele>922</ele></trkpt>
   <trkpt lat="45.750215" lon="7.427849"><ele>923.5</ele></trkpt>
   <trkpt lat="45.750264" lon="7.427878"><ele>925</ele></trkpt>
   <trkpt lat="45.7503" lon="7.427947"><ele>926.5</ele></trkpt>
   <trkpt lat="45.750428" lon="7.428555"><ele>928</ele></trkpt>
   <trkpt lat="45.750554" lon="7.428999"><ele>931.5</ele></trkpt>
   <trkpt lat="45.750616" lon="7.429118"><ele>933.75</ele></trkpt>
   <trkpt lat="45.750815" lon="7.429543"><ele>937.25</ele></trkpt>
   <trkpt lat="45.750868" lon="7.429708"><ele>937.25</ele></trkpt>
   <trkpt lat="45.750941" lon="7.430077"><ele>941</ele></trkpt>
   <trkpt lat="45.751039" lon="7.430427"><ele>943.25</ele></trkpt>
   <trkpt lat="45.751047" lon="7.43051"><ele>943.25</ele></trkpt>
   <trkpt lat="45.751052" lon="7.430606"><ele>943.5</ele></trkpt>
   <trkpt lat="45.751049" lon="7.430697"><ele>943.75</ele></trkpt>
   <trkpt lat="45.75099" lon="7.431074"><ele>944.25</ele></trkpt>
   <trkpt lat="45.750789" lon="7.431994"><ele>951.75</ele></trkpt>
   <trkpt lat="45.750685" lon="7.432504"><ele>955.5</ele></trkpt>
   <trkpt lat="45.75067" lon="7.432795"><ele>956.5</ele></trkpt>
   <trkpt lat="45.750667" lon="7.433047"><ele>958.25</ele></trkpt>
   <trkpt lat="45.750648" lon="7.433168"><ele>959</ele></trkpt>
   <trkpt lat="45.750616" lon="7.43329"><ele>958.75</ele></trkpt>
   <trkpt lat="45.750431" lon="7.433797"><ele>959.25</ele></trkpt>
   <trkpt lat="45.750391" lon="7.433987"><ele>960.25</ele></trkpt>
   <trkpt lat="45.750391" lon="7.434241"><ele>962.5</ele></trkpt>
   <trkpt lat="45.750439" lon="7.434736"><ele>965.5</ele></trkpt>
   <trkpt lat="45.750437" lon="7.434885"><ele>966.5</ele></trkpt>
   <trkpt lat="45.750413" lon="7.435041"><ele>967.5</ele></trkpt>
   <trkpt lat="45.750179" lon="7.435835"><ele>971.75</ele></trkpt>
   <trkpt lat="45.750099" lon="7.43608"><ele>975</ele></trkpt>
   <trkpt lat="45.750078" lon="7.436195"><ele>975.75</ele></trkpt>
   <trkpt lat="45.750064" lon="7.436403"><ele>977</ele></trkpt>
   <trkpt lat="45.750046" lon="7.436483"><ele>977.75</ele></trkpt>
   <trkpt lat="45.749996" lon="7.436572"><ele>977.75</ele></trkpt>
   <trkpt lat="45.749941" lon="7.436708"><ele>978.75</ele></trkpt>
   <trkpt lat="45.749894" lon="7.436854"><ele>979.75</ele></trkpt>
   <trkpt lat="45.749877" lon="7.436959"><ele>980.75</ele></trkpt>
   <trkpt lat="45.749855" lon="7.437253"><ele>982.75</ele></trkpt>
   <trkpt lat="45.749826" lon="7.437393"><ele>984</ele></trkpt>
   <trkpt lat="45.749764" lon="7.437578"><ele>985.25</ele></trkpt>
   <trkpt lat="45.74973" lon="7.43767"><ele>985.5</ele></trkpt>
   <trkpt lat="45.749592" lon="7.43806"><ele>988.25</ele></trkpt>
   <trkpt lat="45.749482" lon="7.438469"><ele>991.25</ele></trkpt>
   <trkpt lat="45.749383" lon="7.438796"><ele>993.25</ele></trkpt>
   <trkpt lat="45.749273" lon="7.439231"><ele>995.5</ele></trkpt>
   <trkpt lat="45.749249" lon="7.439358"><ele>996.5</ele></trkpt>
   <trkpt lat="45.749235" lon="7.439472"><ele>997.5</ele></trkpt>
   <trkpt lat="45.749233" lon="7.439574"><ele>998.75</ele></trkpt>
   <trkpt lat="45.749164" lon="7.44045"><ele>1004.75</ele></trkpt>
   <trkpt lat="45.749133" lon="7.440734"><ele>1005.75</ele></trkpt>
   <trkpt lat="45.749139" lon="7.440948"><ele>1006.75</ele></trkpt>
   <trkpt lat="45.74919" lon="7.441124"><ele>1008.5</ele></trkpt>
   <trkpt lat="45.749354" lon="7.441515"><ele>1011.5</ele></trkpt>
   <trkpt lat="45.749407" lon="7.441774"><ele>1013.5</ele></trkpt>
   <trkpt lat="45.749418" lon="7.441991"><ele>1014.75</ele></trkpt>
   <trkpt lat="45.749404" lon="7.442285"><ele>1016.5</ele></trkpt>
   <trkpt lat="45.749366" lon="7.442541"><ele>1018.25</ele></trkpt>
   <trkpt lat="45.749302" lon="7.442814"><ele>1021.25</ele></trkpt>
   <trkpt lat="45.749249" lon="7.443225"><ele>1023</ele></trkpt>
   <trkpt lat="45.749233" lon="7.443548"><ele>1024.5</ele></trkpt>
   <trkpt lat="45.749208" lon="7.443736"><ele>1025</ele></trkpt>
   <trkpt lat="45.749208" lon="7.443872"><ele>1025.75</ele></trkpt>
   <trkpt lat="45.749215" lon="7.444141"><ele>1028.5</ele></trkpt>
   <trkpt lat="45.749278" lon="7.44446"><ele>1029</ele></trkpt>
   <trkpt lat="45.74947" lon="7.445272"><ele>1036</ele></trkpt>
   <trkpt lat="45.749525" lon="7.44547"><ele>1037.75</ele></trkpt>
   <trkpt lat="45.749663" lon="7.445705"><ele>1039.5</ele></trkpt>
   <trkpt lat="45.749865" lon="7.445952"><ele>1042.5</ele></trkpt>
   <trkpt lat="45.749918" lon="7.446188"><ele>1044</ele></trkpt>
   <trkpt lat="45.749925" lon="7.446681"><ele>1046.75</ele></trkpt>
   <trkpt lat="45.74991" lon="7.446971"><ele>1048</ele></trkpt>
   <trkpt lat="45.74997" lon="7.447067"><ele>1050.25</ele></trkpt>
   <trkpt lat="45.750142" lon="7.447014"><ele>1053.25</ele></trkpt>
   <trkpt lat="45.750292" lon="7.446735"><ele>1054</ele></trkpt>
   <trkpt lat="45.750397" lon="7.446263"><ele>1055.25</ele></trkpt>
   <trkpt lat="45.750487" lon="7.445748"><ele>1058.75</ele></trkpt>
   <trkpt lat="45.750558" lon="7.44572"><ele>1060.25</ele></trkpt>
   <trkpt lat="45.750621" lon="7.445694"><ele>1061.5</ele></trkpt>
   <trkpt lat="45.750966" lon="7.445662"><ele>1065.5</ele></trkpt>
   <trkpt lat="45.751392" lon="7.445705"><ele>1067.25</ele></trkpt>
   <trkpt lat="45.751857" lon="7.445941"><ele>1071.25</ele></trkpt>
   <trkpt lat="45.752178" lon="7.446134"><ele>1073.25</ele></trkpt>
   <trkpt lat="45.752455" lon="7.445952"><ele>1077</ele></trkpt>
   <trkpt lat="45.752837" lon="7.445759"><ele>1078.75</ele></trkpt>
   <trkpt lat="45.753122" lon="7.445769"><ele>1080.5</ele></trkpt>
   <trkpt lat="45.753429" lon="7.445844"><ele>1080.75</ele></trkpt>
   <trkpt lat="45.753631" lon="7.445683"><ele>1084.25</ele></trkpt>
   <trkpt lat="45.753721" lon="7.445716"><ele>1084.25</ele></trkpt>
   <trkpt lat="45.753893" lon="7.446016"><ele>1083.5</ele></trkpt>
   <trkpt lat="45.754072" lon="7.446392"><ele>1084.75</ele></trkpt>
   <trkpt lat="45.754394" lon="7.447175"><ele>1086.5</ele></trkpt>
   <trkpt lat="45.754484" lon="7.447647"><ele>1087.75</ele></trkpt>
   <trkpt lat="45.754574" lon="7.448376"><ele>1089.5</ele></trkpt>
   <trkpt lat="45.754664" lon="7.44887"><ele>1089.25</ele></trkpt>
   <trkpt lat="45.754926" lon="7.449481"><ele>1089.25</ele></trkpt>
   <trkpt lat="45.75521" lon="7.450104"><ele>1089.25</ele></trkpt>
   <trkpt lat="45.755427" lon="7.450662"><ele>1089.5</ele></trkpt>
   <trkpt lat="45.755794" lon="7.451123"><ele>1089.25</ele></trkpt>
   <trkpt lat="45.756213" lon="7.451273"><ele>1091.75</ele></trkpt>
   <trkpt lat="45.756857" lon="7.451638"><ele>1092</ele></trkpt>
   <trkpt lat="45.757187" lon="7.452003"><ele>1093.5</ele></trkpt>
   <trkpt lat="45.757673" lon="7.452732"><ele>1093.75</ele></trkpt>
   <trkpt lat="45.757769" lon="7.452747"><ele>1096</ele></trkpt>
   <trkpt lat="45.757815" lon="7.452754"><ele>1095.75</ele></trkpt>
   <trkpt lat="45.757901" lon="7.452732"><ele>1095.5</ele></trkpt>
   <trkpt lat="45.758703" lon="7.452525"><ele>1098</ele></trkpt>
   <trkpt lat="45.759342" lon="7.452303"><ele>1101.25</ele></trkpt>
   <trkpt lat="45.759694" lon="7.452099"><ele>1103.25</ele></trkpt>
   <trkpt lat="45.760121" lon="7.451767"><ele>1107.75</ele></trkpt>
   <trkpt lat="45.760367" lon="7.451733"><ele>1110</ele></trkpt>
   <trkpt lat="45.760483" lon="7.451741"><ele>1110.75</ele></trkpt>
   <trkpt lat="45.76059" lon="7.45169"><ele>1112.75</ele></trkpt>
   <trkpt lat="45.760638" lon="7.451514"><ele>1115.75</ele></trkpt>
   <trkpt lat="45.760565" lon="7.451285"><ele>1117.5</ele></trkpt>
   <trkpt lat="45.760338" lon="7.451016"><ele>1120.75</ele></trkpt>
   <trkpt lat="45.759956" lon="7.450683"><ele>1126</ele></trkpt>
   <trkpt lat="45.759724" lon="7.450393"><ele>1128</ele></trkpt>
   <trkpt lat="45.759492" lon="7.448795"><ele>1139.25</ele></trkpt>
   <trkpt lat="45.75935" lon="7.448409"><ele>1141.5</ele></trkpt>
   <trkpt lat="45.759215" lon="7.448089"><ele>1144</ele></trkpt>
   <trkpt lat="45.759173" lon="7.448019"><ele>1144.5</ele></trkpt>
   <trkpt lat="45.759089" lon="7.447878"><ele>1145</ele></trkpt>
   <trkpt lat="45.759051" lon="7.447678"><ele>1146.25</ele></trkpt>
   <trkpt lat="45.75911" lon="7.447507"><ele>1149.5</ele></trkpt>
   <trkpt lat="45.75922" lon="7.447353"><ele>1152.25</ele></trkpt>
   <trkpt lat="45.759231" lon="7.447254"><ele>1153</ele></trkpt>
   <trkpt lat="45.759245" lon="7.447142"><ele>1155.25</ele></trkpt>
   <trkpt lat="45.759215" lon="7.446541"><ele>1164.75</ele></trkpt>
   <trkpt lat="45.758976" lon="7.445983"><ele>1168.25</ele></trkpt>
   <trkpt lat="45.758661" lon="7.445554"><ele>1171.5</ele></trkpt>
   <trkpt lat="45.758377" lon="7.445103"><ele>1173.25</ele></trkpt>
   <trkpt lat="45.757868" lon="7.444739"><ele>1179.25</ele></trkpt>
   <trkpt lat="45.757419" lon="7.444395"><ele>1186.25</ele></trkpt>
   <trkpt lat="45.757054" lon="7.443923"><ele>1193.25</ele></trkpt>
   <trkpt lat="45.756775" lon="7.443558"><ele>1199.75</ele></trkpt>
   <trkpt lat="45.756748" lon="7.44343"><ele>1208</ele></trkpt>
   <trkpt lat="45.756775" lon="7.443558"><ele>1199.75</ele></trkpt>
   <trkpt lat="45.757054" lon="7.443923"><ele>1193.25</ele></trkpt>
   <trkpt lat="45.75708" lon="7.44384"><ele>1196.5</ele></trkpt>
   <trkpt lat="45.757155" lon="7.443788"><ele>1199.5</ele></trkpt>
   <trkpt lat="45.757246" lon="7.443859"><ele>1198.75</ele></trkpt>
   <trkpt lat="45.757325" lon="7.443988"><ele>1198</ele></trkpt>
   <trkpt lat="45.757405" lon="7.444056"><ele>1198.25</ele></trkpt>
   <trkpt lat="45.757515" lon="7.444096"><ele>1199.75</ele></trkpt>
   <trkpt lat="45.757704" lon="7.444186"><ele>1200.75</ele></trkpt>
   <trkpt lat="45.757855" lon="7.444247"><ele>1201.25</ele></trkpt>
   <trkpt lat="45.757992" lon="7.444321"><ele>1200</ele></trkpt>
   <trkpt lat="45.758098" lon="7.444325"><ele>1201</ele></trkpt>
   <trkpt lat="45.758184" lon="7.444284"><ele>1203.25</ele></trkpt>
   <trkpt lat="45.758423" lon="7.444294"><ele>1201.75</ele></trkpt>
   <trkpt lat="45.758631" lon="7.444124"><ele>1207.5</ele></trkpt>
   <trkpt lat="45.758709" lon="7.444118"><ele>1209.75</ele></trkpt>
   <trkpt lat="45.758784" lon="7.444167"><ele>1208.75</ele></trkpt>
   <trkpt lat="45.758842" lon="7.444257"><ele>1208.5</ele></trkpt>
   <trkpt lat="45.758888" lon="7.444358"><ele>1208.5</ele></trkpt>
   <trkpt lat="45.758898" lon="7.444494"><ele>1206.5</ele></trkpt>
   <trkpt lat="45.758952" lon="7.444661"><ele>1205.5</ele></trkpt>
   <trkpt lat="45.759083" lon="7.444793"><ele>1207.5</ele></trkpt>
   <trkpt lat="45.759141" lon="7.44483"><ele>1208.75</ele></trkpt>
   <trkpt lat="45.759249" lon="7.444867"><ele>1210</ele></trkpt>
   <trkpt lat="45.75938" lon="7.444861"><ele>1212</ele></trkpt>
   <trkpt lat="45.759479" lon="7.444892"><ele>1213.75</ele></trkpt>
   <trkpt lat="45.759546" lon="7.444935"><ele>1216.25</ele></trkpt>
   <trkpt lat="45.759604" lon="7.445049"><ele>1216.25</ele></trkpt>
   <trkpt lat="45.759677" lon="7.445293"><ele>1214.25</ele></trkpt>
   <trkpt lat="45.75975" lon="7.445497"><ele>1216</ele></trkpt>
   <trkpt lat="45.759802" lon="7.445611"><ele>1216.25</ele></trkpt>
   <trkpt lat="45.759897" lon="7.445694"><ele>1218</ele></trkpt>
   <trkpt lat="45.760019" lon="7.44578"><ele>1220</ele></trkpt>
   <trkpt lat="45.760101" lon="7.445876"><ele>1221.5</ele></trkpt>
   <trkpt lat="45.760224" lon="7.44607"><ele>1221.5</ele></trkpt>
   <trkpt lat="45.76042" lon="7.446345"><ele>1224.25</ele></trkpt>
   <trkpt lat="45.760559" lon="7.446527"><ele>1229</ele></trkpt>
   <trkpt lat="45.760594" lon="7.446709"><ele>1228.25</ele></trkpt>
   <trkpt lat="45.760635" lon="7.446857"><ele>1227.5</ele></trkpt>
   <trkpt lat="45.760753" lon="7.446998"><ele>1229.5</ele></trkpt>
   <trkpt lat="45.760874" lon="7.447116"><ele>1230.75</ele></trkpt>
   <trkpt lat="45.760964" lon="7.447137"><ele>1232.25</ele></trkpt>
   <trkpt lat="45.761179" lon="7.447221"><ele>1234.5</ele></trkpt>
   <trkpt lat="45.761349" lon="7.447313"><ele>1235.25</ele></trkpt>
   <trkpt lat="45.761528" lon="7.447436"><ele>1237.5</ele></trkpt>
   <trkpt lat="45.761657" lon="7.447584"><ele>1238.25</ele></trkpt>
   <trkpt lat="45.761723" lon="7.447631"><ele>1238.75</ele></trkpt>
   <trkpt lat="45.761769" lon="7.4476"><ele>1240.75</ele></trkpt>
   <trkpt lat="45.761766" lon="7.447532"><ele>1242.75</ele></trkpt>
   <trkpt lat="45.761721" lon="7.447446"><ele>1244</ele></trkpt>
   <trkpt lat="45.761631" lon="7.447328"><ele>1244</ele></trkpt>
   <trkpt lat="45.761508" lon="7.4471"><ele>1246</ele></trkpt>
   <trkpt lat="45.761418" lon="7.44698"><ele>1246.5</ele></trkpt>
   <trkpt lat="45.761272" lon="7.446909"><ele>1246</ele></trkpt>
   <trkpt lat="45.761138" lon="7.446804"><ele>1247</ele></trkpt>
   <trkpt lat="45.761003" lon="7.446678"><ele>1247.5</ele></trkpt>
   <trkpt lat="45.760927" lon="7.446551"><ele>1248.25</ele></trkpt>
   <trkpt lat="45.760882" lon="7.446363"><ele>1251</ele></trkpt>
   <trkpt lat="45.760841" lon="7.446129"><ele>1254.75</ele></trkpt>
   <trkpt lat="45.7608" lon="7.446024"><ele>1255.5</ele></trkpt>
   <trkpt lat="45.760721" lon="7.445944"><ele>1254.5</ele></trkpt>
   <trkpt lat="45.760592" lon="7.445762"><ele>1255.5</ele></trkpt>
   <trkpt lat="45.760549" lon="7.445688"><ele>1255.5</ele></trkpt>
   <trkpt lat="45.760555" lon="7.445623"><ele>1257.5</ele></trkpt>
   <trkpt lat="45.76062" lon="7.445617"><ele>1259.25</ele></trkpt>
   <trkpt lat="45.760691" lon="7.445682"><ele>1259.75</ele></trkpt>
   <trkpt lat="45.760811" lon="7.445826"><ele>1260.25</ele></trkpt>
   <trkpt lat="45.760983" lon="7.445941"><ele>1261.5</ele></trkpt>
   <trkpt lat="45.761102" lon="7.446042"><ele>1263.25</ele></trkpt>
   <trkpt lat="45.761188" lon="7.446317"><ele>1261.5</ele></trkpt>
   <trkpt lat="45.761248" lon="7.446385"><ele>1262.25</ele></trkpt>
   <trkpt lat="45.761635" lon="7.446536"><ele>1266</ele></trkpt>
   <trkpt lat="45.761805" lon="7.446579"><ele>1267.5</ele></trkpt>
   <trkpt lat="45.761887" lon="7.446702"><ele>1266.75</ele></trkpt>
   <trkpt lat="45.761979" lon="7.446749"><ele>1268</ele></trkpt>
   <trkpt lat="45.76222" lon="7.446804"><ele>1269</ele></trkpt>
   <trkpt lat="45.762494" lon="7.446854"><ele>1269.75</ele></trkpt>
   <trkpt lat="45.762659" lon="7.446869"><ele>1270.25</ele></trkpt>
   <trkpt lat="45.76278" lon="7.44686"><ele>1270.75</ele></trkpt>
   <trkpt lat="45.763068" lon="7.446894"><ele>1271.25</ele></trkpt>
   <trkpt lat="45.763307" lon="7.446998"><ele>1273</ele></trkpt>
   <trkpt lat="45.763464" lon="7.447143"><ele>1274.5</ele></trkpt>
   <trkpt lat="45.763574" lon="7.447307"><ele>1274</ele></trkpt>
   <trkpt lat="45.763683" lon="7.447415"><ele>1274.75</ele></trkpt>
   <trkpt lat="45.763845" lon="7.447507"><ele>1276.75</ele></trkpt>
   <trkpt lat="45.764026" lon="7.447668"><ele>1277.75</ele></trkpt>
   <trkpt lat="45.76423" lon="7.448062"><ele>1280.5</ele></trkpt>
   <trkpt lat="45.764307" lon="7.448149"><ele>1280.75</ele></trkpt>
   <trkpt lat="45.764368" lon="7.448133"><ele>1281.25</ele></trkpt>
   <trkpt lat="45.764488" lon="7.447992"><ele>1284.5</ele></trkpt>
   <trkpt lat="45.764682" lon="7.447905"><ele>1285.5</ele></trkpt>
   <trkpt lat="45.76489" lon="7.44789"><ele>1282</ele></trkpt>
   <trkpt lat="45.765" lon="7.447868"><ele>1281.5</ele></trkpt>
   <trkpt lat="45.765121" lon="7.447714"><ele>1282.75</ele></trkpt>
   <trkpt lat="45.765265" lon="7.447443"><ele>1288.75</ele></trkpt>
   <trkpt lat="45.76557" lon="7.446835"><ele>1292.25</ele></trkpt>
   <trkpt lat="45.765674" lon="7.446548"><ele>1295.75</ele></trkpt>
   <trkpt lat="45.76573" lon="7.446437"><ele>1297.75</ele></trkpt>
   <trkpt lat="45.765923" lon="7.446246"><ele>1294.25</ele></trkpt>
   <trkpt lat="45.766044" lon="7.446027"><ele>1295</ele></trkpt>
   <trkpt lat="45.766188" lon="7.445645"><ele>1292.25</ele></trkpt>
   <trkpt lat="45.766282" lon="7.445367"><ele>1292.5</ele></trkpt>
   <trkpt lat="45.766412" lon="7.445176"><ele>1293.5</ele></trkpt>
   <trkpt lat="45.766687" lon="7.444889"><ele>1294.75</ele></trkpt>
   <trkpt lat="45.766898" lon="7.444642"><ele>1293.5</ele></trkpt>
   <trkpt lat="45.766975" lon="7.444513"><ele>1290.25</ele></trkpt>
   <trkpt lat="45.767027" lon="7.444325"><ele>1289.75</ele></trkpt>
   <trkpt lat="45.767055" lon="7.444099"><ele>1290</ele></trkpt>
   <trkpt lat="45.767081" lon="7.443785"><ele>1290.75</ele></trkpt>
   <trkpt lat="45.767212" lon="7.443467"><ele>1288.75</ele></trkpt>
   <trkpt lat="45.767352" lon="7.443304"><ele>1289.5</ele></trkpt>
   <trkpt lat="45.767535" lon="7.443242"><ele>1287.25</ele></trkpt>
   <trkpt lat="45.768014" lon="7.443131"><ele>1285.5</ele></trkpt>
   <trkpt lat="45.76813" lon="7.443079"><ele>1285</ele></trkpt>
   <trkpt lat="45.768262" lon="7.442934"><ele>1285.5</ele></trkpt>
   <trkpt lat="45.768387" lon="7.442736"><ele>1285.5</ele></trkpt>
   <trkpt lat="45.768434" lon="7.442625"><ele>1285.75</ele></trkpt>
   <trkpt lat="45.768572" lon="7.442486"><ele>1285.25</ele></trkpt>
   <trkpt lat="45.768883" lon="7.442289"><ele>1284.75</ele></trkpt>
   <trkpt lat="45.769017" lon="7.442258"><ele>1285</ele></trkpt>
   <trkpt lat="45.769208" lon="7.442289"><ele>1282.5</ele></trkpt>
   <trkpt lat="45.769499" lon="7.442317"><ele>1282</ele></trkpt>
   <trkpt lat="45.769961" lon="7.442274"><ele>1282</ele></trkpt>
   <trkpt lat="45.770131" lon="7.44223"><ele>1279.75</ele></trkpt>
   <trkpt lat="45.770284" lon="7.442116"><ele>1280.75</ele></trkpt>
   <trkpt lat="45.770407" lon="7.441974"><ele>1281.25</ele></trkpt>
   <trkpt lat="45.770497" lon="7.441789"><ele>1281.5</ele></trkpt>
   <trkpt lat="45.770589" lon="7.441638"><ele>1283.25</ele></trkpt>
   <trkpt lat="45.770663" lon="7.441626"><ele>1284.5</ele></trkpt>
   <trkpt lat="45.770798" lon="7.441681"><ele>1279.25</ele></trkpt>
   <trkpt lat="45.770949" lon="7.441694"><ele>1276.75</ele></trkpt>
   <trkpt lat="45.771125" lon="7.44166"><ele>1277.25</ele></trkpt>
   <trkpt lat="45.771338" lon="7.44158"><ele>1278</ele></trkpt>
   <trkpt lat="45.771467" lon="7.441496"><ele>1279.5</ele></trkpt>
   <trkpt lat="45.77157" lon="7.441484"><ele>1278</ele></trkpt>
   <trkpt lat="45.771667" lon="7.4415"><ele>1275.25</ele></trkpt>
   <trkpt lat="45.771788" lon="7.441478"><ele>1273.5</ele></trkpt>
   <trkpt lat="45.771902" lon="7.441373"><ele>1276</ele></trkpt>
   <trkpt lat="45.772037" lon="7.441203"><ele>1279</ele></trkpt>
   <trkpt lat="45.772207" lon="7.440947"><ele>1277</ele></trkpt>
   <trkpt lat="45.772306" lon="7.440855"><ele>1278.25</ele></trkpt>
   <trkpt lat="45.772375" lon="7.440849"><ele>1277.5</ele></trkpt>
   <trkpt lat="45.772455" lon="7.440947"><ele>1278</ele></trkpt>
   <trkpt lat="45.772472" lon="7.441043"><ele>1279.5</ele></trkpt>
   <trkpt lat="45.772414" lon="7.441339"><ele>1282.25</ele></trkpt>
   <trkpt lat="45.7723" lon="7.441743"><ele>1286.25</ele></trkpt>
   <trkpt lat="45.772252" lon="7.441857"><ele>1287.25</ele></trkpt>
   <trkpt lat="45.772123" lon="7.442024"><ele>1287.5</ele></trkpt>
   <trkpt lat="45.77194" lon="7.442206"><ele>1286.25</ele></trkpt>
   <trkpt lat="45.77168" lon="7.442604"><ele>1287.25</ele></trkpt>
   <trkpt lat="45.771585" lon="7.442906"><ele>1294</ele></trkpt>
   <trkpt lat="45.77154" lon="7.443091"><ele>1297.5</ele></trkpt>
   <trkpt lat="45.771469" lon="7.443242"><ele>1297.25</ele></trkpt>
   <trkpt lat="45.771351" lon="7.443526"><ele>1299.25</ele></trkpt>
   <trkpt lat="45.771172" lon="7.443742"><ele>1300</ele></trkpt>
   <trkpt lat="45.770901" lon="7.444121"><ele>1304</ele></trkpt>
   <trkpt lat="45.770757" lon="7.444417"><ele>1305.75</ele></trkpt>
   <trkpt lat="45.770643" lon="7.444692"><ele>1310.5</ele></trkpt>
   <trkpt lat="45.770544" lon="7.444799"><ele>1308</ele></trkpt>
   <trkpt lat="45.770473" lon="7.444923"><ele>1309.25</ele></trkpt>
   <trkpt lat="45.770443" lon="7.445142"><ele>1310.5</ele></trkpt>
   <trkpt lat="45.770471" lon="7.445395"><ele>1311</ele></trkpt>
   <trkpt lat="45.770703" lon="7.445984"><ele>1318</ele></trkpt>
   <trkpt lat="45.770734" lon="7.446311"><ele>1320</ele></trkpt>
   <trkpt lat="45.770731" lon="7.44673"><ele>1322.25</ele></trkpt>
   <trkpt lat="45.770658" lon="7.446995"><ele>1323.75</ele></trkpt>
   <trkpt lat="45.770501" lon="7.447328"><ele>1322.5</ele></trkpt>
   <trkpt lat="45.770381" lon="7.44756"><ele>1324</ele></trkpt>
   <trkpt lat="45.770142" lon="7.447982"><ele>1329</ele></trkpt>
   <trkpt lat="45.769951" lon="7.448306"><ele>1331</ele></trkpt>
   <trkpt lat="45.769854" lon="7.448439"><ele>1332.75</ele></trkpt>
   <trkpt lat="45.769766" lon="7.448602"><ele>1336.25</ele></trkpt>
   <trkpt lat="45.769725" lon="7.448815"><ele>1335.75</ele></trkpt>
   <trkpt lat="45.769718" lon="7.449077"><ele>1337</ele></trkpt>
   <trkpt lat="45.76974" lon="7.449241"><ele>1340.5</ele></trkpt>
   <trkpt lat="45.76972" lon="7.449364"><ele>1341.25</ele></trkpt>
   <trkpt lat="45.769643" lon="7.449558"><ele>1341</ele></trkpt>
   <trkpt lat="45.769576" lon="7.449786"><ele>1342.25</ele></trkpt>
   <trkpt lat="45.76951" lon="7.450308"><ele>1348.5</ele></trkpt>
   <trkpt lat="45.769449" lon="7.45045"><ele>1351.25</ele></trkpt>
   <trkpt lat="45.769284" lon="7.450564"><ele>1352</ele></trkpt>
   <trkpt lat="45.769107" lon="7.450653"><ele>1348</ele></trkpt>
   <trkpt lat="45.769077" lon="7.45073"><ele>1348</ele></trkpt>
   <trkpt lat="45.769073" lon="7.45094"><ele>1350.75</ele></trkpt>
   <trkpt lat="45.769107" lon="7.451187"><ele>1355</ele></trkpt>
   <trkpt lat="45.769114" lon="7.451399"><ele>1357</ele></trkpt>
   <trkpt lat="45.769058" lon="7.451578"><ele>1357.5</ele></trkpt>
   <trkpt lat="45.769002" lon="7.451813"><ele>1359</ele></trkpt>
   <trkpt lat="45.768976" lon="7.452001"><ele>1360</ele></trkpt>
   <trkpt lat="45.769006" lon="7.452133"><ele>1361.25</ele></trkpt>
   <trkpt lat="45.769204" lon="7.452513"><ele>1364.75</ele></trkpt>
   <trkpt lat="45.769305" lon="7.452747"><ele>1366</ele></trkpt>
   <trkpt lat="45.769376" lon="7.452985"><ele>1368</ele></trkpt>
   <trkpt lat="45.769417" lon="7.453219"><ele>1370.25</ele></trkpt>
   <trkpt lat="45.769406" lon="7.45345"><ele>1373.5</ele></trkpt>
   <trkpt lat="45.769331" lon="7.453639"><ele>1375.25</ele></trkpt>
   <trkpt lat="45.769245" lon="7.453901"><ele>1376</ele></trkpt>
   <trkpt lat="45.769223" lon="7.454076"><ele>1376.25</ele></trkpt>
   <trkpt lat="45.769238" lon="7.454243"><ele>1376.5</ele></trkpt>
   <trkpt lat="45.769307" lon="7.454363"><ele>1377</ele></trkpt>
   <trkpt lat="45.769363" lon="7.454366"><ele>1378.25</ele></trkpt>
   <trkpt lat="45.769361" lon="7.454092"><ele>1381</ele></trkpt>
   <trkpt lat="45.76937" lon="7.453965"><ele>1381</ele></trkpt>
   <trkpt lat="45.76943" lon="7.453842"><ele>1382.5</ele></trkpt>
   <trkpt lat="45.769568" lon="7.453706"><ele>1384.75</ele></trkpt>
   <trkpt lat="45.76972" lon="7.453537"><ele>1387.75</ele></trkpt>
   <trkpt lat="45.769854" lon="7.453275"><ele>1389.75</ele></trkpt>
   <trkpt lat="45.770129" lon="7.452479"><ele>1396.5</ele></trkpt>
   <trkpt lat="45.770304" lon="7.452026"><ele>1399.5</ele></trkpt>
   <trkpt lat="45.770387" lon="7.451813"><ele>1401.5</ele></trkpt>
   <trkpt lat="45.770534" lon="7.451464"><ele>1404.75</ele></trkpt>
   <trkpt lat="45.770716" lon="7.451131"><ele>1407.25</ele></trkpt>
   <trkpt lat="45.77082" lon="7.450869"><ele>1408.75</ele></trkpt>
   <trkpt lat="45.770837" lon="7.450638"><ele>1409.75</ele></trkpt>
   <trkpt lat="45.770826" lon="7.450437"><ele>1411.25</ele></trkpt>
   <trkpt lat="45.770805" lon="7.450212"><ele>1412.5</ele></trkpt>
   <trkpt lat="45.770807" lon="7.450042"><ele>1412.5</ele></trkpt>
   <trkpt lat="45.770854" lon="7.449925"><ele>1414</ele></trkpt>
   <trkpt lat="45.770944" lon="7.449762"><ele>1417</ele></trkpt>
   <trkpt lat="45.770975" lon="7.449598"><ele>1417.75</ele></trkpt>
   <trkpt lat="45.771022" lon="7.449265"><ele>1419.25</ele></trkpt>
   <trkpt lat="45.77105" lon="7.44916"><ele>1419.5</ele></trkpt>
   <trkpt lat="45.77116" lon="7.449015"><ele>1420.75</ele></trkpt>
   <trkpt lat="45.771329" lon="7.448871"><ele>1422.75</ele></trkpt>
   <trkpt lat="45.771407" lon="7.448775"><ele>1424.25</ele></trkpt>
   <trkpt lat="45.771454" lon="7.448769"><ele>1426.5</ele></trkpt>
   <trkpt lat="45.771489" lon="7.448833"><ele>1429</ele></trkpt>
   <trkpt lat="45.771411" lon="7.448991"><ele>1428</ele></trkpt>
   <trkpt lat="45.771299" lon="7.449139"><ele>1427.5</ele></trkpt>
   <trkpt lat="45.771237" lon="7.449265"><ele>1427.5</ele></trkpt>
   <trkpt lat="45.77122" lon="7.449389"><ele>1428.75</ele></trkpt>
   <trkpt lat="45.771233" lon="7.449589"><ele>1430.5</ele></trkpt>
   <trkpt lat="45.771263" lon="7.449725"><ele>1432</ele></trkpt>
   <trkpt lat="45.771267" lon="7.449839"><ele>1433.5</ele></trkpt>
   <trkpt lat="45.771243" lon="7.450009"><ele>1434.75</ele></trkpt>
   <trkpt lat="45.771243" lon="7.450194"><ele>1435.5</ele></trkpt>
   <trkpt lat="45.771297" lon="7.450397"><ele>1436</ele></trkpt>
   <trkpt lat="45.771323" lon="7.450564"><ele>1436.25</ele></trkpt>
   <trkpt lat="45.771327" lon="7.450739"><ele>1438.5</ele></trkpt>
   <trkpt lat="45.771321" lon="7.450977"><ele>1439.5</ele></trkpt>
   <trkpt lat="45.771448" lon="7.451834"><ele>1444.75</ele></trkpt>
   <trkpt lat="45.77151" lon="7.452334"><ele>1447.5</ele></trkpt>
   <trkpt lat="45.771573" lon="7.45275"><ele>1450</ele></trkpt>
   <trkpt lat="45.771699" lon="7.453102"><ele>1453.5</ele></trkpt>
   <trkpt lat="45.77197" lon="7.453998"><ele>1460.25</ele></trkpt>
   <trkpt lat="45.772001" lon="7.454127"><ele>1460.25</ele></trkpt>
   <trkpt lat="45.772093" lon="7.454238"><ele>1461</ele></trkpt>
   <trkpt lat="45.772272" lon="7.454302"><ele>1465</ele></trkpt>
   <trkpt lat="45.772427" lon="7.45433"><ele>1469</ele></trkpt>
   <trkpt lat="45.772513" lon="7.454514"><ele>1468.5</ele></trkpt>
   <trkpt lat="45.772464" lon="7.454659"><ele>1468.5</ele></trkpt>
   <trkpt lat="45.772376" lon="7.454764"><ele>1466.25</ele></trkpt>
   <trkpt lat="45.772294" lon="7.454881"><ele>1466.5</ele></trkpt>
   <trkpt lat="45.772261" lon="7.455055"><ele>1470</ele></trkpt>
   <trkpt lat="45.77227" lon="7.455381"><ele>1471.5</ele></trkpt>
   <trkpt lat="45.772241" lon="7.455624"><ele>1471.5</ele></trkpt>
   <trkpt lat="45.772252" lon="7.455931"><ele>1472.5</ele></trkpt>
   <trkpt lat="45.772279" lon="7.456216"><ele>1473.25</ele></trkpt>
   <trkpt lat="45.772363" lon="7.456507"><ele>1475.5</ele></trkpt>
   <trkpt lat="45.77259" lon="7.456928"><ele>1479.75</ele></trkpt>
   <trkpt lat="45.772703" lon="7.457159"><ele>1480.5</ele></trkpt>
   <trkpt lat="45.772769" lon="7.457226"><ele>1482.25</ele></trkpt>
   <trkpt lat="45.773107" lon="7.457575"><ele>1487.25</ele></trkpt>
   <trkpt lat="45.773574" lon="7.4579"><ele>1491</ele></trkpt>
   <trkpt lat="45.773597" lon="7.457916"><ele>1491</ele></trkpt>
   <trkpt lat="45.774287" lon="7.45836"><ele>1492.75</ele></trkpt>
   <trkpt lat="45.774817" lon="7.458729"><ele>1495.75</ele></trkpt>
   <trkpt lat="45.775184" lon="7.458947"><ele>1496.25</ele></trkpt>
   <trkpt lat="45.775287" lon="7.458963"><ele>1496.5</ele></trkpt>
   <trkpt lat="45.775453" lon="7.458881"><ele>1498.5</ele></trkpt>
   <trkpt lat="45.775902" lon="7.45859"><ele>1505.75</ele></trkpt>
   <trkpt lat="45.776111" lon="7.458405"><ele>1510</ele></trkpt>
   <trkpt lat="45.77622" lon="7.458384"><ele>1512</ele></trkpt>
   <trkpt lat="45.776269" lon="7.458487"><ele>1513.75</ele></trkpt>
   <trkpt lat="45.776274" lon="7.458608"><ele>1515.25</ele></trkpt>
   <trkpt lat="45.776277" lon="7.458688"><ele>1515.25</ele></trkpt>
   <trkpt lat="45.776223" lon="7.458959"><ele>1514.5</ele></trkpt>
   <trkpt lat="45.776206" lon="7.459177"><ele>1515.25</ele></trkpt>
   <trkpt lat="45.776232" lon="7.459308"><ele>1514.5</ele></trkpt>
   <trkpt lat="45.776338" lon="7.459394"><ele>1516.75</ele></trkpt>
   <trkpt lat="45.776466" lon="7.459427"><ele>1517.75</ele></trkpt>
   <trkpt lat="45.776604" lon="7.459407"><ele>1519.25</ele></trkpt>
   <trkpt lat="45.776773" lon="7.459362"><ele>1524.25</ele></trkpt>
   <trkpt lat="45.776876" lon="7.459423"><ele>1524</ele></trkpt>
   <trkpt lat="45.776953" lon="7.459509"><ele>1524.5</ele></trkpt>
   <trkpt lat="45.777099" lon="7.460006"><ele>1527.25</ele></trkpt>
   <trkpt lat="45.777211" lon="7.460273"><ele>1532.25</ele></trkpt>
   <trkpt lat="45.77732" lon="7.460622"><ele>1534.25</ele></trkpt>
   <trkpt lat="45.777434" lon="7.460811"><ele>1537.25</ele></trkpt>
   <trkpt lat="45.777558" lon="7.460934"><ele>1538.25</ele></trkpt>
   <trkpt lat="45.777738" lon="7.461037"><ele>1539.5</ele></trkpt>
   <trkpt lat="45.777953" lon="7.461135"><ele>1542.75</ele></trkpt>
   <trkpt lat="45.778104" lon="7.461238"><ele>1548.25</ele></trkpt>
   <trkpt lat="45.778199" lon="7.461456"><ele>1549</ele></trkpt>
   <trkpt lat="45.778256" lon="7.46164"><ele>1545.75</ele></trkpt>
   <trkpt lat="45.778331" lon="7.46178"><ele>1547</ele></trkpt>
   <trkpt lat="45.778577" lon="7.462084"><ele>1552</ele></trkpt>
   <trkpt lat="45.778766" lon="7.462223"><ele>1553.75</ele></trkpt>
   <trkpt lat="45.778863" lon="7.462211"><ele>1556.75</ele></trkpt>
   <trkpt lat="45.779032" lon="7.462145"><ele>1562.5</ele></trkpt>
   <trkpt lat="45.779115" lon="7.46217"><ele>1562.25</ele></trkpt>
   <trkpt lat="45.779287" lon="7.462293"><ele>1559.25</ele></trkpt>
   <trkpt lat="45.779422" lon="7.46233"><ele>1560.25</ele></trkpt>
   <trkpt lat="45.779542" lon="7.462408"><ele>1557.75</ele></trkpt>
   <trkpt lat="45.779651" lon="7.462404"><ele>1561.25</ele></trkpt>
   <trkpt lat="45.779722" lon="7.462318"><ele>1570.25</ele></trkpt>
   <trkpt lat="45.779814" lon="7.46231"><ele>1572.25</ele></trkpt>
   <trkpt lat="45.779903" lon="7.462466"><ele>1569.75</ele></trkpt>
   <trkpt lat="45.779871" lon="7.462921"><ele>1564.5</ele></trkpt>
   <trkpt lat="45.779914" lon="7.463114"><ele>1564.75</ele></trkpt>
   <trkpt lat="45.780046" lon="7.463266"><ele>1568</ele></trkpt>
   <trkpt lat="45.780078" lon="7.463455"><ele>1569.75</ele></trkpt>
   <trkpt lat="45.779957" lon="7.463788"><ele>1564.5</ele></trkpt>
   <trkpt lat="45.779863" lon="7.464104"><ele>1565</ele></trkpt>
   <trkpt lat="45.779826" lon="7.464351"><ele>1566.25</ele></trkpt>
   <trkpt lat="45.77982" lon="7.46449"><ele>1566.5</ele></trkpt>
   <trkpt lat="45.779837" lon="7.464687"><ele>1564.5</ele></trkpt>
   <trkpt lat="45.779972" lon="7.464958"><ele>1565.5</ele></trkpt>
   <trkpt lat="45.780072" lon="7.465278"><ele>1565.75</ele></trkpt>
   <trkpt lat="45.780152" lon="7.465479"><ele>1564.75</ele></trkpt>
   <trkpt lat="45.780272" lon="7.465664"><ele>1565.75</ele></trkpt>
   <trkpt lat="45.780421" lon="7.465697"><ele>1567.75</ele></trkpt>
   <trkpt lat="45.780541" lon="7.465763"><ele>1567.5</ele></trkpt>
   <trkpt lat="45.780765" lon="7.465964"><ele>1568.25</ele></trkpt>
   <trkpt lat="45.780954" lon="7.46619"><ele>1569.5</ele></trkpt>
   <trkpt lat="45.78102" lon="7.466465"><ele>1567.75</ele></trkpt>
   <trkpt lat="45.781097" lon="7.466711"><ele>1568.25</ele></trkpt>
   <trkpt lat="45.781232" lon="7.466933"><ele>1569.5</ele></trkpt>
   <trkpt lat="45.781315" lon="7.467167"><ele>1567.75</ele></trkpt>
   <trkpt lat="45.781363" lon="7.467426"><ele>1569.25</ele></trkpt>
   <trkpt lat="45.781346" lon="7.467729"><ele>1568</ele></trkpt>
   <trkpt lat="45.781289" lon="7.468054"><ele>1567.75</ele></trkpt>
   <trkpt lat="45.781274" lon="7.468288"><ele>1567.25</ele></trkpt>
   <trkpt lat="45.78136" lon="7.468559"><ele>1568.25</ele></trkpt>
   <trkpt lat="45.781489" lon="7.468723"><ele>1568.5</ele></trkpt>
   <trkpt lat="45.781741" lon="7.468859"><ele>1571</ele></trkpt>
   <trkpt lat="45.781937" lon="7.46895"><ele>1572.25</ele></trkpt>
   <trkpt lat="45.782044" lon="7.469039"><ele>1572</ele></trkpt>
   <trkpt lat="45.782174" lon="7.469162"><ele>1572</ele></trkpt>
   <trkpt lat="45.782218" lon="7.469185"><ele>1572.5</ele></trkpt>
   <trkpt lat="45.782372" lon="7.46923"><ele>1573</ele></trkpt>
   <trkpt lat="45.782456" lon="7.469237"><ele>1573.5</ele></trkpt>
   <trkpt lat="45.782675" lon="7.469246"><ele>1575</ele></trkpt>
   <trkpt lat="45.783439" lon="7.469204"><ele>1581.5</ele></trkpt>
   <trkpt lat="45.783628" lon="7.469261"><ele>1581.5</ele></trkpt>
   <trkpt lat="45.78372" lon="7.469245"><ele>1579.75</ele></trkpt>
   <trkpt lat="45.783826" lon="7.469089"><ele>1583</ele></trkpt>
   <trkpt lat="45.783975" lon="7.468891"><ele>1583</ele></trkpt>
   <trkpt lat="45.784109" lon="7.468653"><ele>1584.75</ele></trkpt>
   <trkpt lat="45.784407" lon="7.467902"><ele>1590.25</ele></trkpt>
   <trkpt lat="45.784527" lon="7.467758"><ele>1590.5</ele></trkpt>
   <trkpt lat="45.784725" lon="7.467619"><ele>1591.5</ele></trkpt>
   <trkpt lat="45.785206" lon="7.467454"><ele>1594.25</ele></trkpt>
   <trkpt lat="45.785509" lon="7.467376"><ele>1598.25</ele></trkpt>
   <trkpt lat="45.785716" lon="7.467389"><ele>1601.25</ele></trkpt>
   <trkpt lat="45.78593" lon="7.467541"><ele>1599.25</ele></trkpt>
   <trkpt lat="45.786096" lon="7.467594"><ele>1601</ele></trkpt>
   <trkpt lat="45.78624" lon="7.467565"><ele>1600.75</ele></trkpt>
   <trkpt lat="45.786526" lon="7.467344"><ele>1604</ele></trkpt>
   <trkpt lat="45.787254" lon="7.466607"><ele>1609.5</ele></trkpt>
   <trkpt lat="45.78733" lon="7.466498"><ele>1609.75</ele></trkpt>
   <trkpt lat="45.787402" lon="7.466416"><ele>1609.5</ele></trkpt>
   <trkpt lat="45.787525" lon="7.466182"><ele>1612</ele></trkpt>
   <trkpt lat="45.7876" lon="7.465935"><ele>1620</ele></trkpt>
   <trkpt lat="45.78774" lon="7.465779"><ele>1617</ele></trkpt>
   <trkpt lat="45.787889" lon="7.465672"><ele>1614</ele></trkpt>
   <trkpt lat="45.788215" lon="7.465385"><ele>1616.5</ele></trkpt>
   <trkpt lat="45.78859" lon="7.465073"><ele>1617.5</ele></trkpt>
   <trkpt lat="45.788733" lon="7.46489"><ele>1621</ele></trkpt>
   <trkpt lat="45.788849" lon="7.464759"><ele>1620</ele></trkpt>
   <trkpt lat="45.788935" lon="7.464756"><ele>1620.25</ele></trkpt>
   <trkpt lat="45.788994" lon="7.464851"><ele>1622.25</ele></trkpt>
   <trkpt lat="45.789" lon="7.464974"><ele>1621.5</ele></trkpt>
   <trkpt lat="45.78898" lon="7.465217"><ele>1618.25</ele></trkpt>
   <trkpt lat="45.788954" lon="7.465475"><ele>1616</ele></trkpt>
   <trkpt lat="45.788911" lon="7.465775"><ele>1615.75</ele></trkpt>
   <trkpt lat="45.788831" lon="7.466194"><ele>1613.75</ele></trkpt>
   <trkpt lat="45.788773" lon="7.466465"><ele>1612.75</ele></trkpt>
   <trkpt lat="45.788842" lon="7.46665"><ele>1613.75</ele></trkpt>
   <trkpt lat="45.78902" lon="7.466941"><ele>1611.75</ele></trkpt>
   <trkpt lat="45.789149" lon="7.467052"><ele>1613</ele></trkpt>
   <trkpt lat="45.789263" lon="7.467068"><ele>1611.75</ele></trkpt>
   <trkpt lat="45.789466" lon="7.467011"><ele>1612</ele></trkpt>
   <trkpt lat="45.789741" lon="7.466921"><ele>1615.5</ele></trkpt>
   <trkpt lat="45.790162" lon="7.46683"><ele>1615.25</ele></trkpt>
   <trkpt lat="45.790268" lon="7.466847"><ele>1614.25</ele></trkpt>
   <trkpt lat="45.790322" lon="7.466929"><ele>1614.5</ele></trkpt>
   <trkpt lat="45.790331" lon="7.467257"><ele>1611</ele></trkpt>
   <trkpt lat="45.790425" lon="7.467311"><ele>1610.75</ele></trkpt>
   <trkpt lat="45.790947" lon="7.467233"><ele>1613.25</ele></trkpt>
   <trkpt lat="45.791135" lon="7.467266"><ele>1614.25</ele></trkpt>
   <trkpt lat="45.791216" lon="7.467356"><ele>1613.75</ele></trkpt>
   <trkpt lat="45.791313" lon="7.46752"><ele>1610.75</ele></trkpt>
   <trkpt lat="45.791442" lon="7.467598"><ele>1611</ele></trkpt>
   <trkpt lat="45.791619" lon="7.467549"><ele>1613.5</ele></trkpt>
   <trkpt lat="45.791768" lon="7.467541"><ele>1613.25</ele></trkpt>
   <trkpt lat="45.791877" lon="7.46759"><ele>1610.75</ele></trkpt>
   <trkpt lat="45.791963" lon="7.467491"><ele>1613.75</ele></trkpt>
   <trkpt lat="45.792072" lon="7.467393"><ele>1615.25</ele></trkpt>
   <trkpt lat="45.792169" lon="7.467331"><ele>1616</ele></trkpt>
   <trkpt lat="45.792306" lon="7.467339"><ele>1615.25</ele></trkpt>
   <trkpt lat="45.792495" lon="7.467372"><ele>1615.25</ele></trkpt>
   <trkpt lat="45.79259" lon="7.467339"><ele>1612.5</ele></trkpt>
   <trkpt lat="45.792656" lon="7.467224"><ele>1614</ele></trkpt>
   <trkpt lat="45.792722" lon="7.467073"><ele>1614.75</ele></trkpt>
   <trkpt lat="45.79281" lon="7.467085"><ele>1614</ele></trkpt>
   <trkpt lat="45.792879" lon="7.467224"><ele>1615.5</ele></trkpt>
   <trkpt lat="45.792948" lon="7.467311"><ele>1617.75</ele></trkpt>
   <trkpt lat="45.792982" lon="7.467532"><ele>1613.5</ele></trkpt>
   <trkpt lat="45.793005" lon="7.467771"><ele>1611.25</ele></trkpt>
   <trkpt lat="45.793082" lon="7.467951"><ele>1613.75</ele></trkpt>
   <trkpt lat="45.793217" lon="7.468107"><ele>1612</ele></trkpt>
   <trkpt lat="45.793537" lon="7.468185"><ele>1613</ele></trkpt>
   <trkpt lat="45.793918" lon="7.468255"><ele>1614.25</ele></trkpt>
   <trkpt lat="45.79417" lon="7.468358"><ele>1612.75</ele></trkpt>
   <trkpt lat="45.795123" lon="7.468625"><ele>1615.25</ele></trkpt>
   <trkpt lat="45.79535" lon="7.46867"><ele>1616.75</ele></trkpt>
   <trkpt lat="45.795503" lon="7.468777"><ele>1617.5</ele></trkpt>
   <trkpt lat="45.795666" lon="7.468866"><ele>1617</ele></trkpt>
   <trkpt lat="45.795792" lon="7.468909"><ele>1616</ele></trkpt>
   <trkpt lat="45.796156" lon="7.468901"><ele>1618</ele></trkpt>
   <trkpt lat="45.796292" lon="7.468911"><ele>1619.5</ele></trkpt>
  </trkseg>
 </trk>
</gpx>
