<?xml version="1.0" encoding="UTF-8"?>
<!-- track-length = 10926 filtered ascend = 798 plain-ascend = 790 cost=13501 energy=0.2kwh time=2h 12m 57s -->
<gpx 
 xmlns="http://www.topografix.com/GPX/1/1" 
 xmlns:xsi="http://www.w3.org/2001/XMLSchema-instance" 
 xsi:schemaLocation="http://www.topografix.com/GPX/1/1 http://www.topografix.com/GPX/1/1/gpx.xsd" 
 version="1.1" 
 creator="BRouter-Web 0.18.1">
 <trk>
  <name>Arreau -&gt;Aspin (10.9km)</name>
  <trkseg>
      <trkpt lat="42.909303" lon="0.359927"><ele>695.25</ele></trkpt>
   <trkpt lat="42.909336" lon="0.359979"><ele>695.25</ele></trkpt>
   <trkpt lat="42.909352" lon="0.359963"><ele>696</ele></trkpt>
   <trkpt lat="42.909402" lon="0.359921"><ele>698</ele></trkpt>
   <trkpt lat="42.909448" lon="0.359894"><ele>699.75</ele></trkpt>
   <trkpt lat="42.909489" lon="0.35989"><ele>700</ele></trkpt>
   <trkpt lat="42.909536" lon="0.359898"><ele>700</ele></trkpt>
   <trkpt lat="42.909617" lon="0.359949"><ele>698.75</ele></trkpt>
   <trkpt lat="42.909696" lon="0.359982"><ele>698.25</ele></trkpt>
   <trkpt lat="42.909774" lon="0.360006"><ele>698.25</ele></trkpt>
   <trkpt lat="42.90985" lon="0.360017"><ele>699</ele></trkpt>
   <trkpt lat="42.909975" lon="0.359998"><ele>700.75</ele></trkpt>
   <trkpt lat="42.91015" lon="0.359954"><ele>701.75</ele></trkpt>
   <trkpt lat="42.910459" lon="0.35984"><ele>703.5</ele></trkpt>
   <trkpt lat="42.910819" lon="0.359667"><ele>704.25</ele></trkpt>
   <trkpt lat="42.910952" lon="0.359562"><ele>705.25</ele></trkpt>
   <trkpt lat="42.911179" lon="0.359332"><ele>706</ele></trkpt>
   <trkpt lat="42.911503" lon="0.359065"><ele>708</ele></trkpt>
   <trkpt lat="42.912014" lon="0.358682"><ele>713</ele></trkpt>
   <trkpt lat="42.912183" lon="0.358582"><ele>713.5</ele></trkpt>
   <trkpt lat="42.912475" lon="0.358424"><ele>714</ele></trkpt>
   <trkpt lat="42.912671" lon="0.358336"><ele>717.5</ele></trkpt>
   <trkpt lat="42.912869" lon="0.358277"><ele>720.25</ele></trkpt>
   <trkpt lat="42.912994" lon="0.358247"><ele>722</ele></trkpt>
   <trkpt lat="42.913265" lon="0.358221"><ele>724</ele></trkpt>
   <trkpt lat="42.913508" lon="0.358236"><ele>725</ele></trkpt>
   <trkpt lat="42.913753" lon="0.3583"><ele>727.75</ele></trkpt>
   <trkpt lat="42.913876" lon="0.358373"><ele>728.75</ele></trkpt>
   <trkpt lat="42.914141" lon="0.358602"><ele>730.25</ele></trkpt>
   <trkpt lat="42.914261" lon="0.358672"><ele>730.75</ele></trkpt>
   <trkpt lat="42.91439" lon="0.358731"><ele>731.75</ele></trkpt>
   <trkpt lat="42.914544" lon="0.358787"><ele>731.25</ele></trkpt>
   <trkpt lat="42.914639" lon="0.358788"><ele>731.75</ele></trkpt>
   <trkpt lat="42.914725" lon="0.358774"><ele>732.75</ele></trkpt>
   <trkpt lat="42.914772" lon="0.358741"><ele>732.75</ele></trkpt>
   <trkpt lat="42.914815" lon="0.358701"><ele>733</ele></trkpt>
   <trkpt lat="42.914851" lon="0.358636"><ele>733.25</ele></trkpt>
   <trkpt lat="42.914876" lon="0.358566"><ele>733.75</ele></trkpt>
   <trkpt lat="42.915016" lon="0.357469"><ele>739</ele></trkpt>
   <trkpt lat="42.915136" lon="0.357046"><ele>738.25</ele></trkpt>
   <trkpt lat="42.915302" lon="0.356626"><ele>740.5</ele></trkpt>
   <trkpt lat="42.915486" lon="0.356208"><ele>742.75</ele></trkpt>
   <trkpt lat="42.915632" lon="0.355852"><ele>743.5</ele></trkpt>
   <trkpt lat="42.915708" lon="0.355731"><ele>743</ele></trkpt>
   <trkpt lat="42.915782" lon="0.355644"><ele>743.25</ele></trkpt>
   <trkpt lat="42.91586" lon="0.355572"><ele>744</ele></trkpt>
   <trkpt lat="42.916071" lon="0.355453"><ele>745.25</ele></trkpt>
   <trkpt lat="42.916145" lon="0.355386"><ele>746</ele></trkpt>
   <trkpt lat="42.916186" lon="0.355314"><ele>746.5</ele></trkpt>
   <trkpt lat="42.916203" lon="0.355223"><ele>746.5</ele></trkpt>
   <trkpt lat="42.916193" lon="0.35472"><ele>744.25</ele></trkpt>
   <trkpt lat="42.9162" lon="0.354416"><ele>746.5</ele></trkpt>
   <trkpt lat="42.916238" lon="0.354119"><ele>747.25</ele></trkpt>
   <trkpt lat="42.916291" lon="0.35392"><ele>747</ele></trkpt>
   <trkpt lat="42.916383" lon="0.353681"><ele>747.25</ele></trkpt>
   <trkpt lat="42.916448" lon="0.353483"><ele>748</ele></trkpt>
   <trkpt lat="42.916505" lon="0.353212"><ele>749.5</ele></trkpt>
   <trkpt lat="42.916522" lon="0.353079"><ele>750.5</ele></trkpt>
   <trkpt lat="42.916515" lon="0.352503"><ele>749.5</ele></trkpt>
   <trkpt lat="42.916531" lon="0.35232"><ele>752.25</ele></trkpt>
   <trkpt lat="42.916615" lon="0.351979"><ele>754.25</ele></trkpt>
   <trkpt lat="42.916716" lon="0.351526"><ele>755.25</ele></trkpt>
   <trkpt lat="42.916756" lon="0.351396"><ele>755.5</ele></trkpt>
   <trkpt lat="42.916804" lon="0.351313"><ele>756.5</ele></trkpt>
   <trkpt lat="42.916864" lon="0.351239"><ele>756.75</ele></trkpt>
   <trkpt lat="42.917038" lon="0.351062"><ele>756.25</ele></trkpt>
   <trkpt lat="42.917185" lon="0.350867"><ele>755.75</ele></trkpt>
   <trkpt lat="42.917254" lon="0.350708"><ele>756.5</ele></trkpt>
   <trkpt lat="42.91733" lon="0.350491"><ele>757</ele></trkpt>
   <trkpt lat="42.917381" lon="0.35015"><ele>757.25</ele></trkpt>
   <trkpt lat="42.917386" lon="0.350037"><ele>757.25</ele></trkpt>
   <trkpt lat="42.917377" lon="0.349937"><ele>757.75</ele></trkpt>
   <trkpt lat="42.917334" lon="0.349784"><ele>759.75</ele></trkpt>
   <trkpt lat="42.917323" lon="0.349686"><ele>760.5</ele></trkpt>
   <trkpt lat="42.917328" lon="0.349584"><ele>761.25</ele></trkpt>
   <trkpt lat="42.917358" lon="0.34945"><ele>761</ele></trkpt>
   <trkpt lat="42.91744" lon="0.349262"><ele>761.5</ele></trkpt>
   <trkpt lat="42.917521" lon="0.349139"><ele>761.25</ele></trkpt>
   <trkpt lat="42.917617" lon="0.349036"><ele>762</ele></trkpt>
   <trkpt lat="42.91796" lon="0.34873"><ele>762.75</ele></trkpt>
   <trkpt lat="42.918026" lon="0.348654"><ele>763.5</ele></trkpt>
   <trkpt lat="42.918087" lon="0.348539"><ele>764.75</ele></trkpt>
   <trkpt lat="42.918129" lon="0.348415"><ele>765.75</ele></trkpt>
   <trkpt lat="42.91829" lon="0.347778"><ele>767.5</ele></trkpt>
   <trkpt lat="42.918339" lon="0.34764"><ele>766.75</ele></trkpt>
   <trkpt lat="42.918373" lon="0.347569"><ele>766.75</ele></trkpt>
   <trkpt lat="42.91848" lon="0.347428"><ele>766.25</ele></trkpt>
   <trkpt lat="42.918668" lon="0.347205"><ele>768</ele></trkpt>
   <trkpt lat="42.918849" lon="0.347037"><ele>768.5</ele></trkpt>
   <trkpt lat="42.919226" lon="0.346808"><ele>770.25</ele></trkpt>
   <trkpt lat="42.919343" lon="0.346724"><ele>770.75</ele></trkpt>
   <trkpt lat="42.919411" lon="0.346666"><ele>770.75</ele></trkpt>
   <trkpt lat="42.919451" lon="0.346619"><ele>771.25</ele></trkpt>
   <trkpt lat="42.919496" lon="0.34654"><ele>772.25</ele></trkpt>
   <trkpt lat="42.91982" lon="0.345832"><ele>774.75</ele></trkpt>
   <trkpt lat="42.919865" lon="0.345774"><ele>775.25</ele></trkpt>
   <trkpt lat="42.91993" lon="0.345737"><ele>774.25</ele></trkpt>
   <trkpt lat="42.919995" lon="0.345722"><ele>772.25</ele></trkpt>
   <trkpt lat="42.920057" lon="0.345733"><ele>772.5</ele></trkpt>
   <trkpt lat="42.920124" lon="0.345771"><ele>772.75</ele></trkpt>
   <trkpt lat="42.920187" lon="0.345828"><ele>773.5</ele></trkpt>
   <trkpt lat="42.920232" lon="0.345918"><ele>774.75</ele></trkpt>
   <trkpt lat="42.920254" lon="0.346022"><ele>776.25</ele></trkpt>
   <trkpt lat="42.92024" lon="0.34611"><ele>776.5</ele></trkpt>
   <trkpt lat="42.920171" lon="0.346309"><ele>777.25</ele></trkpt>
   <trkpt lat="42.920137" lon="0.346452"><ele>777</ele></trkpt>
   <trkpt lat="42.920124" lon="0.346588"><ele>777.25</ele></trkpt>
   <trkpt lat="42.920132" lon="0.346771"><ele>779.75</ele></trkpt>
   <trkpt lat="42.920118" lon="0.346856"><ele>780.75</ele></trkpt>
   <trkpt lat="42.920092" lon="0.346916"><ele>781</ele></trkpt>
   <trkpt lat="42.920048" lon="0.346971"><ele>781.25</ele></trkpt>
   <trkpt lat="42.91998" lon="0.347028"><ele>781.25</ele></trkpt>
   <trkpt lat="42.919939" lon="0.347078"><ele>782</ele></trkpt>
   <trkpt lat="42.919959" lon="0.347106"><ele>783.5</ele></trkpt>
   <trkpt lat="42.919976" lon="0.347117"><ele>784.5</ele></trkpt>
   <trkpt lat="42.920039" lon="0.347087"><ele>785.25</ele></trkpt>
   <trkpt lat="42.920157" lon="0.346975"><ele>784.5</ele></trkpt>
   <trkpt lat="42.920224" lon="0.3469"><ele>784.75</ele></trkpt>
   <trkpt lat="42.92026" lon="0.346841"><ele>785.5</ele></trkpt>
   <trkpt lat="42.920287" lon="0.346776"><ele>786</ele></trkpt>
   <trkpt lat="42.920295" lon="0.346718"><ele>785.75</ele></trkpt>
   <trkpt lat="42.9203" lon="0.346514"><ele>785.75</ele></trkpt>
   <trkpt lat="42.920359" lon="0.346322"><ele>788.25</ele></trkpt>
   <trkpt lat="42.92066" lon="0.345625"><ele>796.25</ele></trkpt>
   <trkpt lat="42.920731" lon="0.34548"><ele>796.25</ele></trkpt>
   <trkpt lat="42.920773" lon="0.345432"><ele>796.75</ele></trkpt>
   <trkpt lat="42.920834" lon="0.345388"><ele>798.25</ele></trkpt>
   <trkpt lat="42.921154" lon="0.345235"><ele>803.75</ele></trkpt>
   <trkpt lat="42.921232" lon="0.345158"><ele>804.25</ele></trkpt>
   <trkpt lat="42.921371" lon="0.344956"><ele>804.75</ele></trkpt>
   <trkpt lat="42.92144" lon="0.344842"><ele>807</ele></trkpt>
   <trkpt lat="42.921681" lon="0.344392"><ele>811.5</ele></trkpt>
   <trkpt lat="42.921913" lon="0.344053"><ele>816</ele></trkpt>
   <trkpt lat="42.922452" lon="0.343345"><ele>823.75</ele></trkpt>
   <trkpt lat="42.922608" lon="0.343195"><ele>826</ele></trkpt>
   <trkpt lat="42.922743" lon="0.343089"><ele>827.75</ele></trkpt>
   <trkpt lat="42.922957" lon="0.342865"><ele>831.25</ele></trkpt>
   <trkpt lat="42.92319" lon="0.34257"><ele>834.75</ele></trkpt>
   <trkpt lat="42.923398" lon="0.342324"><ele>837.25</ele></trkpt>
   <trkpt lat="42.923562" lon="0.342152"><ele>839.75</ele></trkpt>
   <trkpt lat="42.924016" lon="0.341728"><ele>845.25</ele></trkpt>
   <trkpt lat="42.924136" lon="0.341654"><ele>846.25</ele></trkpt>
   <trkpt lat="42.924392" lon="0.341557"><ele>850.5</ele></trkpt>
   <trkpt lat="42.924503" lon="0.341491"><ele>852</ele></trkpt>
   <trkpt lat="42.924625" lon="0.341398"><ele>853.5</ele></trkpt>
   <trkpt lat="42.924971" lon="0.34106"><ele>858.25</ele></trkpt>
   <trkpt lat="42.925044" lon="0.341023"><ele>858</ele></trkpt>
   <trkpt lat="42.9251" lon="0.341013"><ele>857.25</ele></trkpt>
   <trkpt lat="42.925189" lon="0.341027"><ele>857.25</ele></trkpt>
   <trkpt lat="42.925257" lon="0.341056"><ele>858.5</ele></trkpt>
   <trkpt lat="42.925363" lon="0.341115"><ele>861.25</ele></trkpt>
   <trkpt lat="42.925459" lon="0.34118"><ele>864.25</ele></trkpt>
   <trkpt lat="42.925596" lon="0.341196"><ele>864.25</ele></trkpt>
   <trkpt lat="42.925785" lon="0.341186"><ele>865</ele></trkpt>
   <trkpt lat="42.925993" lon="0.341219"><ele>864.75</ele></trkpt>
   <trkpt lat="42.926084" lon="0.341286"><ele>866.75</ele></trkpt>
   <trkpt lat="42.926172" lon="0.341369"><ele>869.25</ele></trkpt>
   <trkpt lat="42.926315" lon="0.341475"><ele>871</ele></trkpt>
   <trkpt lat="42.926442" lon="0.341524"><ele>871.25</ele></trkpt>
   <trkpt lat="42.926645" lon="0.341567"><ele>872.5</ele></trkpt>
   <trkpt lat="42.926758" lon="0.341565"><ele>874.5</ele></trkpt>
   <trkpt lat="42.926856" lon="0.341544"><ele>875.5</ele></trkpt>
   <trkpt lat="42.92695" lon="0.341514"><ele>876.25</ele></trkpt>
   <trkpt lat="42.927209" lon="0.341378"><ele>877</ele></trkpt>
   <trkpt lat="42.92737" lon="0.341308"><ele>879.5</ele></trkpt>
   <trkpt lat="42.92748" lon="0.341291"><ele>882</ele></trkpt>
   <trkpt lat="42.927775" lon="0.341314"><ele>884</ele></trkpt>
   <trkpt lat="42.928113" lon="0.341302"><ele>888.5</ele></trkpt>
   <trkpt lat="42.928574" lon="0.341307"><ele>893.75</ele></trkpt>
   <trkpt lat="42.928817" lon="0.341346"><ele>896.75</ele></trkpt>
   <trkpt lat="42.929081" lon="0.341362"><ele>900.5</ele></trkpt>
   <trkpt lat="42.929367" lon="0.34131"><ele>902.5</ele></trkpt>
   <trkpt lat="42.929486" lon="0.341259"><ele>903.5</ele></trkpt>
   <trkpt lat="42.929654" lon="0.34115"><ele>904.5</ele></trkpt>
   <trkpt lat="42.929783" lon="0.34111"><ele>905.75</ele></trkpt>
   <trkpt lat="42.929877" lon="0.341101"><ele>907</ele></trkpt>
   <trkpt lat="42.930168" lon="0.341137"><ele>911.75</ele></trkpt>
   <trkpt lat="42.930235" lon="0.341136"><ele>912.5</ele></trkpt>
   <trkpt lat="42.930306" lon="0.341095"><ele>912</ele></trkpt>
   <trkpt lat="42.930427" lon="0.341072"><ele>912.5</ele></trkpt>
   <trkpt lat="42.930762" lon="0.341054"><ele>917</ele></trkpt>
   <trkpt lat="42.930819" lon="0.341037"><ele>917.75</ele></trkpt>
   <trkpt lat="42.930877" lon="0.341004"><ele>919</ele></trkpt>
   <trkpt lat="42.93107" lon="0.340808"><ele>921</ele></trkpt>
   <trkpt lat="42.931112" lon="0.340752"><ele>921.5</ele></trkpt>
   <trkpt lat="42.931239" lon="0.340511"><ele>924</ele></trkpt>
   <trkpt lat="42.931271" lon="0.340507"><ele>924.5</ele></trkpt>
   <trkpt lat="42.931288" lon="0.340519"><ele>924.75</ele></trkpt>
   <trkpt lat="42.931298" lon="0.340568"><ele>925</ele></trkpt>
   <trkpt lat="42.931266" lon="0.340729"><ele>926.5</ele></trkpt>
   <trkpt lat="42.931059" lon="0.341166"><ele>929.5</ele></trkpt>
   <trkpt lat="42.930983" lon="0.341271"><ele>931.75</ele></trkpt>
   <trkpt lat="42.93084" lon="0.34142"><ele>934.25</ele></trkpt>
   <trkpt lat="42.930631" lon="0.341583"><ele>936.5</ele></trkpt>
   <trkpt lat="42.930462" lon="0.341695"><ele>938.25</ele></trkpt>
   <trkpt lat="42.930291" lon="0.341783"><ele>939</ele></trkpt>
   <trkpt lat="42.93015" lon="0.341868"><ele>940.25</ele></trkpt>
   <trkpt lat="42.929922" lon="0.342055"><ele>942.5</ele></trkpt>
   <trkpt lat="42.929842" lon="0.342147"><ele>942.5</ele></trkpt>
   <trkpt lat="42.929813" lon="0.342203"><ele>943.25</ele></trkpt>
   <trkpt lat="42.929793" lon="0.342273"><ele>944.25</ele></trkpt>
   <trkpt lat="42.929764" lon="0.342555"><ele>949.75</ele></trkpt>
   <trkpt lat="42.929722" lon="0.342647"><ele>950</ele></trkpt>
   <trkpt lat="42.929686" lon="0.342709"><ele>951.75</ele></trkpt>
   <trkpt lat="42.929639" lon="0.342748"><ele>953.25</ele></trkpt>
   <trkpt lat="42.929596" lon="0.342765"><ele>953.75</ele></trkpt>
   <trkpt lat="42.92952" lon="0.342754"><ele>953.5</ele></trkpt>
   <trkpt lat="42.929167" lon="0.342699"><ele>956.5</ele></trkpt>
   <trkpt lat="42.929085" lon="0.342663"><ele>956.75</ele></trkpt>
   <trkpt lat="42.928894" lon="0.3425"><ele>957.75</ele></trkpt>
   <trkpt lat="42.928847" lon="0.342482"><ele>957</ele></trkpt>
   <trkpt lat="42.9288" lon="0.342491"><ele>956.75</ele></trkpt>
   <trkpt lat="42.928771" lon="0.342513"><ele>957.5</ele></trkpt>
   <trkpt lat="42.928751" lon="0.342552"><ele>958.5</ele></trkpt>
   <trkpt lat="42.928751" lon="0.342594"><ele>959.75</ele></trkpt>
   <trkpt lat="42.928765" lon="0.342649"><ele>961.5</ele></trkpt>
   <trkpt lat="42.928797" lon="0.342683"><ele>962.25</ele></trkpt>
   <trkpt lat="42.929185" lon="0.342895"><ele>964.25</ele></trkpt>
   <trkpt lat="42.929568" lon="0.343093"><ele>970</ele></trkpt>
   <trkpt lat="42.929788" lon="0.343165"><ele>973.25</ele></trkpt>
   <trkpt lat="42.929836" lon="0.343157"><ele>975</ele></trkpt>
   <trkpt lat="42.929877" lon="0.343127"><ele>975.25</ele></trkpt>
   <trkpt lat="42.930053" lon="0.342863"><ele>973.5</ele></trkpt>
   <trkpt lat="42.930112" lon="0.342805"><ele>974</ele></trkpt>
   <trkpt lat="42.930196" lon="0.342745"><ele>974.75</ele></trkpt>
   <trkpt lat="42.930741" lon="0.342525"><ele>979.75</ele></trkpt>
   <trkpt lat="42.930804" lon="0.342514"><ele>980.75</ele></trkpt>
   <trkpt lat="42.930903" lon="0.342516"><ele>983</ele></trkpt>
   <trkpt lat="42.930961" lon="0.342509"><ele>983.5</ele></trkpt>
   <trkpt lat="42.93127" lon="0.342353"><ele>983.25</ele></trkpt>
   <trkpt lat="42.931296" lon="0.342349"><ele>984</ele></trkpt>
   <trkpt lat="42.931315" lon="0.342361"><ele>985</ele></trkpt>
   <trkpt lat="42.931325" lon="0.342386"><ele>986</ele></trkpt>
   <trkpt lat="42.931328" lon="0.342415"><ele>987.25</ele></trkpt>
   <trkpt lat="42.931311" lon="0.342452"><ele>988.25</ele></trkpt>
   <trkpt lat="42.931191" lon="0.342509"><ele>988</ele></trkpt>
   <trkpt lat="42.930983" lon="0.342625"><ele>990</ele></trkpt>
   <trkpt lat="42.930709" lon="0.342806"><ele>991.75</ele></trkpt>
   <trkpt lat="42.930222" lon="0.343217"><ele>995.25</ele></trkpt>
   <trkpt lat="42.930162" lon="0.343296"><ele>995.5</ele></trkpt>
   <trkpt lat="42.930097" lon="0.343413"><ele>997</ele></trkpt>
   <trkpt lat="42.929982" lon="0.34372"><ele>1003</ele></trkpt>
   <trkpt lat="42.929936" lon="0.343797"><ele>1003.75</ele></trkpt>
   <trkpt lat="42.929894" lon="0.343851"><ele>1004.5</ele></trkpt>
   <trkpt lat="42.92984" lon="0.343881"><ele>1004.75</ele></trkpt>
   <trkpt lat="42.929532" lon="0.343968"><ele>1005.25</ele></trkpt>
   <trkpt lat="42.929288" lon="0.344013"><ele>1006.75</ele></trkpt>
   <trkpt lat="42.928949" lon="0.344102"><ele>1009.5</ele></trkpt>
   <trkpt lat="42.928418" lon="0.34427"><ele>1013.25</ele></trkpt>
   <trkpt lat="42.928232" lon="0.344321"><ele>1014.75</ele></trkpt>
   <trkpt lat="42.927978" lon="0.344349"><ele>1015.75</ele></trkpt>
   <trkpt lat="42.927782" lon="0.344347"><ele>1016.75</ele></trkpt>
   <trkpt lat="42.927302" lon="0.344317"><ele>1020</ele></trkpt>
   <trkpt lat="42.927229" lon="0.344323"><ele>1020.25</ele></trkpt>
   <trkpt lat="42.9272" lon="0.344338"><ele>1020.25</ele></trkpt>
   <trkpt lat="42.927176" lon="0.34437"><ele>1020.75</ele></trkpt>
   <trkpt lat="42.927174" lon="0.344409"><ele>1021.5</ele></trkpt>
   <trkpt lat="42.927289" lon="0.344414"><ele>1022.25</ele></trkpt>
   <trkpt lat="42.92737" lon="0.344439"><ele>1022.75</ele></trkpt>
   <trkpt lat="42.927444" lon="0.344493"><ele>1023.5</ele></trkpt>
   <trkpt lat="42.928092" lon="0.345154"><ele>1029.5</ele></trkpt>
   <trkpt lat="42.928126" lon="0.345215"><ele>1030.5</ele></trkpt>
   <trkpt lat="42.928148" lon="0.345291"><ele>1031.25</ele></trkpt>
   <trkpt lat="42.928152" lon="0.345362"><ele>1032</ele></trkpt>
   <trkpt lat="42.928132" lon="0.345479"><ele>1033</ele></trkpt>
   <trkpt lat="42.927966" lon="0.345961"><ele>1035.75</ele></trkpt>
   <trkpt lat="42.927938" lon="0.346122"><ele>1036.5</ele></trkpt>
   <trkpt lat="42.927932" lon="0.346396"><ele>1037.75</ele></trkpt>
   <trkpt lat="42.927957" lon="0.34716"><ele>1042.5</ele></trkpt>
   <trkpt lat="42.927951" lon="0.34728"><ele>1043.25</ele></trkpt>
   <trkpt lat="42.927934" lon="0.347425"><ele>1044.75</ele></trkpt>
   <trkpt lat="42.92787" lon="0.347629"><ele>1046.25</ele></trkpt>
   <trkpt lat="42.927731" lon="0.34787"><ele>1048</ele></trkpt>
   <trkpt lat="42.927311" lon="0.348471"><ele>1051.5</ele></trkpt>
   <trkpt lat="42.927181" lon="0.348644"><ele>1053</ele></trkpt>
   <trkpt lat="42.926839" lon="0.349041"><ele>1056</ele></trkpt>
   <trkpt lat="42.926717" lon="0.349217"><ele>1057.75</ele></trkpt>
   <trkpt lat="42.926508" lon="0.349566"><ele>1060.5</ele></trkpt>
   <trkpt lat="42.926215" lon="0.350117"><ele>1064.5</ele></trkpt>
   <trkpt lat="42.925938" lon="0.350743"><ele>1068.5</ele></trkpt>
   <trkpt lat="42.925709" lon="0.351318"><ele>1072.25</ele></trkpt>
   <trkpt lat="42.925564" lon="0.351651"><ele>1073.75</ele></trkpt>
   <trkpt lat="42.925445" lon="0.352018"><ele>1076.75</ele></trkpt>
   <trkpt lat="42.92537" lon="0.352366"><ele>1079.25</ele></trkpt>
   <trkpt lat="42.925288" lon="0.352825"><ele>1081.75</ele></trkpt>
   <trkpt lat="42.925229" lon="0.353083"><ele>1082.75</ele></trkpt>
   <trkpt lat="42.924959" lon="0.353905"><ele>1087.25</ele></trkpt>
   <trkpt lat="42.924951" lon="0.354019"><ele>1087.75</ele></trkpt>
   <trkpt lat="42.924967" lon="0.354127"><ele>1088.5</ele></trkpt>
   <trkpt lat="42.924995" lon="0.354176"><ele>1088.75</ele></trkpt>
   <trkpt lat="42.925039" lon="0.354211"><ele>1088.75</ele></trkpt>
   <trkpt lat="42.9251" lon="0.354221"><ele>1089</ele></trkpt>
   <trkpt lat="42.925142" lon="0.354206"><ele>1089.5</ele></trkpt>
   <trkpt lat="42.925185" lon="0.354167"><ele>1090.25</ele></trkpt>
   <trkpt lat="42.925215" lon="0.354119"><ele>1090.5</ele></trkpt>
   <trkpt lat="42.92524" lon="0.354044"><ele>1091</ele></trkpt>
   <trkpt lat="42.92527" lon="0.353762"><ele>1092.25</ele></trkpt>
   <trkpt lat="42.925292" lon="0.353679"><ele>1093</ele></trkpt>
   <trkpt lat="42.925329" lon="0.353577"><ele>1093.5</ele></trkpt>
   <trkpt lat="42.925478" lon="0.353333"><ele>1095.25</ele></trkpt>
   <trkpt lat="42.92566" lon="0.353063"><ele>1098</ele></trkpt>
   <trkpt lat="42.925783" lon="0.352902"><ele>1099.75</ele></trkpt>
   <trkpt lat="42.926" lon="0.352653"><ele>1102.5</ele></trkpt>
   <trkpt lat="42.926113" lon="0.352504"><ele>1104</ele></trkpt>
   <trkpt lat="42.926453" lon="0.352"><ele>1109.5</ele></trkpt>
   <trkpt lat="42.926751" lon="0.35153"><ele>1112.75</ele></trkpt>
   <trkpt lat="42.926849" lon="0.351405"><ele>1114</ele></trkpt>
   <trkpt lat="42.92691" lon="0.351348"><ele>1115</ele></trkpt>
   <trkpt lat="42.926963" lon="0.351319"><ele>1115.75</ele></trkpt>
   <trkpt lat="42.927036" lon="0.351293"><ele>1116.25</ele></trkpt>
   <trkpt lat="42.927125" lon="0.351278"><ele>1116.75</ele></trkpt>
   <trkpt lat="42.927432" lon="0.351275"><ele>1120.5</ele></trkpt>
   <trkpt lat="42.927621" lon="0.351253"><ele>1122.5</ele></trkpt>
   <trkpt lat="42.927798" lon="0.3512"><ele>1124</ele></trkpt>
   <trkpt lat="42.928046" lon="0.351101"><ele>1125.75</ele></trkpt>
   <trkpt lat="42.928192" lon="0.351024"><ele>1127.75</ele></trkpt>
   <trkpt lat="42.928385" lon="0.350905"><ele>1129.75</ele></trkpt>
   <trkpt lat="42.928663" lon="0.350698"><ele>1133</ele></trkpt>
   <trkpt lat="42.928702" lon="0.35067"><ele>1133.5</ele></trkpt>
   <trkpt lat="42.92898" lon="0.350434"><ele>1136.75</ele></trkpt>
   <trkpt lat="42.929465" lon="0.349951"><ele>1142.75</ele></trkpt>
   <trkpt lat="42.930455" lon="0.349022"><ele>1155.25</ele></trkpt>
   <trkpt lat="42.930615" lon="0.34885"><ele>1157.25</ele></trkpt>
   <trkpt lat="42.930826" lon="0.348602"><ele>1159.5</ele></trkpt>
   <trkpt lat="42.931097" lon="0.3483"><ele>1163</ele></trkpt>
   <trkpt lat="42.93146" lon="0.347872"><ele>1168.5</ele></trkpt>
   <trkpt lat="42.931619" lon="0.347721"><ele>1169.25</ele></trkpt>
   <trkpt lat="42.931919" lon="0.347464"><ele>1173</ele></trkpt>
   <trkpt lat="42.932123" lon="0.347301"><ele>1175</ele></trkpt>
   <trkpt lat="42.932244" lon="0.347214"><ele>1176.25</ele></trkpt>
   <trkpt lat="42.932683" lon="0.347021"><ele>1181</ele></trkpt>
   <trkpt lat="42.932851" lon="0.346932"><ele>1182.5</ele></trkpt>
   <trkpt lat="42.933257" lon="0.346682"><ele>1187</ele></trkpt>
   <trkpt lat="42.9334" lon="0.346606"><ele>1188.25</ele></trkpt>
   <trkpt lat="42.934048" lon="0.346339"><ele>1195.25</ele></trkpt>
   <trkpt lat="42.934205" lon="0.346262"><ele>1196.5</ele></trkpt>
   <trkpt lat="42.934837" lon="0.345873"><ele>1203.25</ele></trkpt>
   <trkpt lat="42.935" lon="0.345763"><ele>1204.25</ele></trkpt>
   <trkpt lat="42.935165" lon="0.345637"><ele>1206.5</ele></trkpt>
   <trkpt lat="42.936138" lon="0.344802"><ele>1217.5</ele></trkpt>
   <trkpt lat="42.93625" lon="0.344693"><ele>1218.75</ele></trkpt>
   <trkpt lat="42.936339" lon="0.344589"><ele>1219.25</ele></trkpt>
   <trkpt lat="42.936654" lon="0.344176"><ele>1223.5</ele></trkpt>
   <trkpt lat="42.937225" lon="0.343521"><ele>1229.75</ele></trkpt>
   <trkpt lat="42.937344" lon="0.343401"><ele>1231.75</ele></trkpt>
   <trkpt lat="42.937646" lon="0.343126"><ele>1234.5</ele></trkpt>
   <trkpt lat="42.937889" lon="0.34292"><ele>1237.5</ele></trkpt>
   <trkpt lat="42.938051" lon="0.342765"><ele>1239.25</ele></trkpt>
   <trkpt lat="42.938277" lon="0.342498"><ele>1240</ele></trkpt>
   <trkpt lat="42.938396" lon="0.342326"><ele>1243</ele></trkpt>
   <trkpt lat="42.938499" lon="0.342146"><ele>1245</ele></trkpt>
   <trkpt lat="42.938587" lon="0.341946"><ele>1245.75</ele></trkpt>
   <trkpt lat="42.938601" lon="0.341877"><ele>1246.5</ele></trkpt>
   <trkpt lat="42.938603" lon="0.341817"><ele>1246.5</ele></trkpt>
   <trkpt lat="42.93859" lon="0.341749"><ele>1246</ele></trkpt>
   <trkpt lat="42.938467" lon="0.341533"><ele>1244.25</ele></trkpt>
   <trkpt lat="42.938438" lon="0.341452"><ele>1245</ele></trkpt>
   <trkpt lat="42.938394" lon="0.341236"><ele>1248.75</ele></trkpt>
   <trkpt lat="42.938366" lon="0.341178"><ele>1248.75</ele></trkpt>
   <trkpt lat="42.938334" lon="0.341137"><ele>1248.25</ele></trkpt>
   <trkpt lat="42.938283" lon="0.341091"><ele>1248.5</ele></trkpt>
   <trkpt lat="42.938095" lon="0.341014"><ele>1246.75</ele></trkpt>
   <trkpt lat="42.938019" lon="0.340955"><ele>1246.75</ele></trkpt>
   <trkpt lat="42.93798" lon="0.340894"><ele>1248</ele></trkpt>
   <trkpt lat="42.937949" lon="0.340819"><ele>1249.5</ele></trkpt>
   <trkpt lat="42.93793" lon="0.340736"><ele>1250</ele></trkpt>
   <trkpt lat="42.937924" lon="0.340623"><ele>1251.25</ele></trkpt>
   <trkpt lat="42.937937" lon="0.340471"><ele>1252.75</ele></trkpt>
   <trkpt lat="42.937958" lon="0.34035"><ele>1253.75</ele></trkpt>
   <trkpt lat="42.938019" lon="0.340158"><ele>1256</ele></trkpt>
   <trkpt lat="42.938072" lon="0.340041"><ele>1257.75</ele></trkpt>
   <trkpt lat="42.938218" lon="0.339785"><ele>1260.5</ele></trkpt>
   <trkpt lat="42.938317" lon="0.339631"><ele>1261.5</ele></trkpt>
   <trkpt lat="42.938611" lon="0.339253"><ele>1266</ele></trkpt>
   <trkpt lat="42.938843" lon="0.338892"><ele>1270</ele></trkpt>
   <trkpt lat="42.939184" lon="0.338247"><ele>1274.75</ele></trkpt>
   <trkpt lat="42.939288" lon="0.338036"><ele>1277</ele></trkpt>
   <trkpt lat="42.939404" lon="0.337766"><ele>1279</ele></trkpt>
   <trkpt lat="42.939508" lon="0.33746"><ele>1280.25</ele></trkpt>
   <trkpt lat="42.939572" lon="0.337332"><ele>1280.75</ele></trkpt>
   <trkpt lat="42.939626" lon="0.337265"><ele>1282</ele></trkpt>
   <trkpt lat="42.939688" lon="0.337203"><ele>1282.75</ele></trkpt>
   <trkpt lat="42.939775" lon="0.337141"><ele>1284.25</ele></trkpt>
   <trkpt lat="42.939893" lon="0.337079"><ele>1287.5</ele></trkpt>
   <trkpt lat="42.94002" lon="0.336998"><ele>1289.5</ele></trkpt>
   <trkpt lat="42.940181" lon="0.336863"><ele>1290</ele></trkpt>
   <trkpt lat="42.940288" lon="0.336767"><ele>1290</ele></trkpt>
   <trkpt lat="42.940646" lon="0.33639"><ele>1293.75</ele></trkpt>
   <trkpt lat="42.94076" lon="0.33623"><ele>1294</ele></trkpt>
   <trkpt lat="42.940914" lon="0.335925"><ele>1293.25</ele></trkpt>
   <trkpt lat="42.940974" lon="0.335797"><ele>1293.75</ele></trkpt>
   <trkpt lat="42.941068" lon="0.335516"><ele>1296.25</ele></trkpt>
   <trkpt lat="42.94113" lon="0.335417"><ele>1297.5</ele></trkpt>
   <trkpt lat="42.941183" lon="0.335383"><ele>1298</ele></trkpt>
   <trkpt lat="42.941246" lon="0.335367"><ele>1298.5</ele></trkpt>
   <trkpt lat="42.941301" lon="0.335383"><ele>1299.25</ele></trkpt>
   <trkpt lat="42.941349" lon="0.335427"><ele>1300</ele></trkpt>
   <trkpt lat="42.941382" lon="0.335494"><ele>1301</ele></trkpt>
   <trkpt lat="42.941403" lon="0.335571"><ele>1302.5</ele></trkpt>
   <trkpt lat="42.941403" lon="0.33565"><ele>1303.25</ele></trkpt>
   <trkpt lat="42.941387" lon="0.33576"><ele>1304</ele></trkpt>
   <trkpt lat="42.941359" lon="0.335841"><ele>1304.5</ele></trkpt>
   <trkpt lat="42.941296" lon="0.335937"><ele>1305.75</ele></trkpt>
   <trkpt lat="42.941229" lon="0.336004"><ele>1306</ele></trkpt>
   <trkpt lat="42.941076" lon="0.336105"><ele>1303.25</ele></trkpt>
   <trkpt lat="42.941021" lon="0.336161"><ele>1303.25</ele></trkpt>
   <trkpt lat="42.940967" lon="0.33625"><ele>1304.75</ele></trkpt>
   <trkpt lat="42.940839" lon="0.336579"><ele>1313</ele></trkpt>
   <trkpt lat="42.940778" lon="0.336714"><ele>1315</ele></trkpt>
   <trkpt lat="42.94067" lon="0.336902"><ele>1316</ele></trkpt>
   <trkpt lat="42.940551" lon="0.337092"><ele>1316.5</ele></trkpt>
   <trkpt lat="42.940407" lon="0.337295"><ele>1317.5</ele></trkpt>
   <trkpt lat="42.94034" lon="0.337413"><ele>1317.75</ele></trkpt>
   <trkpt lat="42.940291" lon="0.337534"><ele>1318</ele></trkpt>
   <trkpt lat="42.940259" lon="0.337641"><ele>1318</ele></trkpt>
   <trkpt lat="42.940223" lon="0.33785"><ele>1319.25</ele></trkpt>
   <trkpt lat="42.940111" lon="0.338697"><ele>1325.25</ele></trkpt>
   <trkpt lat="42.940064" lon="0.339277"><ele>1328.5</ele></trkpt>
   <trkpt lat="42.940056" lon="0.339593"><ele>1330.25</ele></trkpt>
   <trkpt lat="42.940062" lon="0.339924"><ele>1332.25</ele></trkpt>
   <trkpt lat="42.940088" lon="0.340303"><ele>1335.25</ele></trkpt>
   <trkpt lat="42.940119" lon="0.340556"><ele>1337.25</ele></trkpt>
   <trkpt lat="42.940168" lon="0.340807"><ele>1337</ele></trkpt>
   <trkpt lat="42.940198" lon="0.340903"><ele>1336.75</ele></trkpt>
   <trkpt lat="42.940229" lon="0.340964"><ele>1336.75</ele></trkpt>
   <trkpt lat="42.940281" lon="0.341023"><ele>1337.5</ele></trkpt>
   <trkpt lat="42.940411" lon="0.34111"><ele>1340.25</ele></trkpt>
   <trkpt lat="42.940478" lon="0.341164"><ele>1341.75</ele></trkpt>
   <trkpt lat="42.940519" lon="0.341221"><ele>1342.75</ele></trkpt>
   <trkpt lat="42.940552" lon="0.341315"><ele>1343.25</ele></trkpt>
   <trkpt lat="42.940567" lon="0.341426"><ele>1344</ele></trkpt>
   <trkpt lat="42.940566" lon="0.341557"><ele>1345.25</ele></trkpt>
   <trkpt lat="42.940548" lon="0.341746"><ele>1346.25</ele></trkpt>
   <trkpt lat="42.940418" lon="0.342817"><ele>1353.75</ele></trkpt>
   <trkpt lat="42.940363" lon="0.343487"><ele>1358</ele></trkpt>
   <trkpt lat="42.940365" lon="0.343657"><ele>1359.5</ele></trkpt>
   <trkpt lat="42.94038" lon="0.343829"><ele>1360.25</ele></trkpt>
   <trkpt lat="42.940409" lon="0.344005"><ele>1360.75</ele></trkpt>
   <trkpt lat="42.940561" lon="0.344487"><ele>1362.75</ele></trkpt>
   <trkpt lat="42.940615" lon="0.344638"><ele>1362.5</ele></trkpt>
   <trkpt lat="42.94067" lon="0.344732"><ele>1362.75</ele></trkpt>
   <trkpt lat="42.940746" lon="0.344756"><ele>1363.25</ele></trkpt>
   <trkpt lat="42.940822" lon="0.344742"><ele>1365</ele></trkpt>
   <trkpt lat="42.940892" lon="0.344651"><ele>1366</ele></trkpt>
   <trkpt lat="42.940911" lon="0.344557"><ele>1367.75</ele></trkpt>
   <trkpt lat="42.940889" lon="0.344464"><ele>1369.25</ele></trkpt>
   <trkpt lat="42.940821" lon="0.344344"><ele>1370</ele></trkpt>
   <trkpt lat="42.940756" lon="0.344256"><ele>1369.25</ele></trkpt>
   <trkpt lat="42.940705" lon="0.344135"><ele>1369</ele></trkpt>
   <trkpt lat="42.940694" lon="0.343983"><ele>1369.75</ele></trkpt>
   <trkpt lat="42.940718" lon="0.343686"><ele>1371.75</ele></trkpt>
   <trkpt lat="42.940771" lon="0.343392"><ele>1373.5</ele></trkpt>
   <trkpt lat="42.941188" lon="0.341864"><ele>1386.25</ele></trkpt>
   <trkpt lat="42.941246" lon="0.34158"><ele>1388.25</ele></trkpt>
   <trkpt lat="42.941285" lon="0.341314"><ele>1389.25</ele></trkpt>
   <trkpt lat="42.941368" lon="0.340637"><ele>1393.75</ele></trkpt>
   <trkpt lat="42.941449" lon="0.340181"><ele>1398.25</ele></trkpt>
   <trkpt lat="42.941561" lon="0.339722"><ele>1401.25</ele></trkpt>
   <trkpt lat="42.941634" lon="0.33946"><ele>1404</ele></trkpt>
   <trkpt lat="42.941832" lon="0.338823"><ele>1410.5</ele></trkpt>
   <trkpt lat="42.941955" lon="0.338464"><ele>1412.25</ele></trkpt>
   <trkpt lat="42.942067" lon="0.338168"><ele>1413</ele></trkpt>
   <trkpt lat="42.942156" lon="0.337962"><ele>1414</ele></trkpt>
   <trkpt lat="42.942245" lon="0.337788"><ele>1415.25</ele></trkpt>
   <trkpt lat="42.942333" lon="0.337676"><ele>1416</ele></trkpt>
   <trkpt lat="42.942391" lon="0.337643"><ele>1417.25</ele></trkpt>
   <trkpt lat="42.942552" lon="0.337604"><ele>1422.5</ele></trkpt>
   <trkpt lat="42.942614" lon="0.337582"><ele>1424.5</ele></trkpt>
   <trkpt lat="42.942697" lon="0.33753"><ele>1425.75</ele></trkpt>
   <trkpt lat="42.942764" lon="0.337462"><ele>1425</ele></trkpt>
   <trkpt lat="42.943207" lon="0.336951"><ele>1428</ele></trkpt>
   <trkpt lat="42.94325" lon="0.336867"><ele>1429</ele></trkpt>
   <trkpt lat="42.943281" lon="0.336781"><ele>1429.25</ele></trkpt>
   <trkpt lat="42.943304" lon="0.336669"><ele>1428.75</ele></trkpt>
   <trkpt lat="42.943309" lon="0.336402"><ele>1426.25</ele></trkpt>
   <trkpt lat="42.943277" lon="0.335762"><ele>1423.75</ele></trkpt>
   <trkpt lat="42.943278" lon="0.335578"><ele>1425</ele></trkpt>
   <trkpt lat="42.943289" lon="0.335467"><ele>1426.25</ele></trkpt>
   <trkpt lat="42.943335" lon="0.335253"><ele>1431</ele></trkpt>
   <trkpt lat="42.94381" lon="0.33368"><ele>1454.5</ele></trkpt>
   <trkpt lat="42.943839" lon="0.333551"><ele>1456</ele></trkpt>
   <trkpt lat="42.943853" lon="0.333418"><ele>1456.5</ele></trkpt>
   <trkpt lat="42.943864" lon="0.333175"><ele>1457.5</ele></trkpt>
   <trkpt lat="42.943835" lon="0.332339"><ele>1462.5</ele></trkpt>
   <trkpt lat="42.943803" lon="0.332106"><ele>1464.75</ele></trkpt>
   <trkpt lat="42.943768" lon="0.332009"><ele>1465</ele></trkpt>
   <trkpt lat="42.943733" lon="0.331949"><ele>1464.25</ele></trkpt>
   <trkpt lat="42.943693" lon="0.33191"><ele>1463.25</ele></trkpt>
   <trkpt lat="42.943635" lon="0.331876"><ele>1461.25</ele></trkpt>
   <trkpt lat="42.943453" lon="0.331813"><ele>1455.75</ele></trkpt>
   <trkpt lat="42.943393" lon="0.331769"><ele>1455.25</ele></trkpt>
   <trkpt lat="42.943353" lon="0.331708"><ele>1456</ele></trkpt>
   <trkpt lat="42.943318" lon="0.331623"><ele>1457.75</ele></trkpt>
   <trkpt lat="42.943225" lon="0.33129"><ele>1465</ele></trkpt>
   <trkpt lat="42.943196" lon="0.331213"><ele>1466</ele></trkpt>
   <trkpt lat="42.943157" lon="0.33115"><ele>1466</ele></trkpt>
   <trkpt lat="42.943117" lon="0.331107"><ele>1465.25</ele></trkpt>
   <trkpt lat="42.942955" lon="0.331011"><ele>1461.5</ele></trkpt>
   <trkpt lat="42.942918" lon="0.330948"><ele>1462</ele></trkpt>
   <trkpt lat="42.942895" lon="0.330877"><ele>1463.5</ele></trkpt>
   <trkpt lat="42.942883" lon="0.330751"><ele>1465.75</ele></trkpt>
   <trkpt lat="42.942889" lon="0.330556"><ele>1468.75</ele></trkpt>
   <trkpt lat="42.942881" lon="0.330388"><ele>1469</ele></trkpt>
   <trkpt lat="42.942815" lon="0.329589"><ele>1474</ele></trkpt>
   <trkpt lat="42.942787" lon="0.329449"><ele>1474.5</ele></trkpt>
   <trkpt lat="42.942755" lon="0.32936"><ele>1474.75</ele></trkpt>
   <trkpt lat="42.942715" lon="0.329289"><ele>1474.25</ele></trkpt>
   <trkpt lat="42.942641" lon="0.329191"><ele>1473</ele></trkpt>
   <trkpt lat="42.942572" lon="0.329015"><ele>1473.5</ele></trkpt>
   <trkpt lat="42.942536" lon="0.328877"><ele>1475</ele></trkpt>
   <trkpt lat="42.942493" lon="0.328639"><ele>1477.75</ele></trkpt>
   <trkpt lat="42.942471" lon="0.328549"><ele>1478.5</ele></trkpt>
   <trkpt lat="42.942326" lon="0.328152"><ele>1482</ele></trkpt>
   <trkpt lat="42.942295" lon="0.32805"><ele>1483.5</ele></trkpt>
   <trkpt lat="42.942271" lon="0.327925"><ele>1484.25</ele></trkpt>
   <trkpt lat="42.942257" lon="0.327787"><ele>1485.25</ele></trkpt>
   <trkpt lat="42.942264" lon="0.327606"><ele>1486.5</ele></trkpt>
   <trkpt lat="42.942298" lon="0.327471"><ele>1487.5</ele></trkpt>
   <trkpt lat="42.942332" lon="0.327382"><ele>1488</ele></trkpt>
   <trkpt lat="42.942382" lon="0.327277"><ele>1488.25</ele></trkpt>
   <trkpt lat="42.942429" lon="0.327202"><ele>1488.5</ele></trkpt>

  </trkseg>
 </trk>
</gpx>