<?xml version="1.0" encoding="UTF-8"?>
<!-- track-length = 10611 filtered ascend = 534 plain-ascend = 477 cost=14315 energy=0.2kwh time=1h 33m 15s -->
<gpx 
 xmlns="http://www.topografix.com/GPX/1/1" 
 xmlns:xsi="http://www.w3.org/2001/XMLSchema-instance" 
 xsi:schemaLocation="http://www.topografix.com/GPX/1/1 http://www.topografix.com/GPX/1/1/gpx.xsd" 
 version="1.1" 
 creator="BRouter-Web 0.18.1">
 <trk>
  <name>Fougax -&gt; Montségur (10.6km)</name>
  <trkseg>
      <trkpt lat="42.884422" lon="1.897671"><ele>540.5</ele></trkpt>
   <trkpt lat="42.884389" lon="1.897632"><ele>540.75</ele></trkpt>
   <trkpt lat="42.88418" lon="1.897454"><ele>541.25</ele></trkpt>
   <trkpt lat="42.883897" lon="1.897173"><ele>541.25</ele></trkpt>
   <trkpt lat="42.883686" lon="1.896915"><ele>541.5</ele></trkpt>
   <trkpt lat="42.88354" lon="1.896657"><ele>541.75</ele></trkpt>
   <trkpt lat="42.883414" lon="1.896479"><ele>541.75</ele></trkpt>
   <trkpt lat="42.883271" lon="1.896359"><ele>542</ele></trkpt>
   <trkpt lat="42.88263" lon="1.896024"><ele>542</ele></trkpt>
   <trkpt lat="42.882518" lon="1.895964"><ele>542</ele></trkpt>
   <trkpt lat="42.882376" lon="1.895867"><ele>541.75</ele></trkpt>
   <trkpt lat="42.881963" lon="1.895495"><ele>542.25</ele></trkpt>
   <trkpt lat="42.881839" lon="1.895386"><ele>542.75</ele></trkpt>
   <trkpt lat="42.881643" lon="1.895215"><ele>543</ele></trkpt>
   <trkpt lat="42.881328" lon="1.895009"><ele>543.5</ele></trkpt>
   <trkpt lat="42.880839" lon="1.894728"><ele>544.75</ele></trkpt>
   <trkpt lat="42.880707" lon="1.894625"><ele>545</ele></trkpt>
   <trkpt lat="42.880645" lon="1.894511"><ele>545.25</ele></trkpt>
   <trkpt lat="42.880602" lon="1.894403"><ele>545.25</ele></trkpt>
   <trkpt lat="42.880428" lon="1.894026"><ele>546.25</ele></trkpt>
   <trkpt lat="42.880449" lon="1.89398"><ele>546.5</ele></trkpt>
   <trkpt lat="42.880454" lon="1.893885"><ele>547.25</ele></trkpt>
   <trkpt lat="42.880439" lon="1.89337"><ele>548.5</ele></trkpt>
   <trkpt lat="42.880517" lon="1.893058"><ele>549.5</ele></trkpt>
   <trkpt lat="42.880528" lon="1.892741"><ele>550.75</ele></trkpt>
   <trkpt lat="42.880525" lon="1.892429"><ele>551.5</ele></trkpt>
   <trkpt lat="42.880524" lon="1.892311"><ele>551.5</ele></trkpt>
   <trkpt lat="42.880508" lon="1.892175"><ele>551.25</ele></trkpt>
   <trkpt lat="42.880457" lon="1.891945"><ele>550.75</ele></trkpt>
   <trkpt lat="42.880223" lon="1.891303"><ele>549.5</ele></trkpt>
   <trkpt lat="42.880195" lon="1.89117"><ele>549.25</ele></trkpt>
   <trkpt lat="42.88019" lon="1.891031"><ele>549.25</ele></trkpt>
   <trkpt lat="42.8802" lon="1.890909"><ele>549.5</ele></trkpt>
   <trkpt lat="42.880287" lon="1.890611"><ele>550.75</ele></trkpt>
   <trkpt lat="42.880501" lon="1.889756"><ele>551.5</ele></trkpt>
   <trkpt lat="42.88071" lon="1.888976"><ele>553.5</ele></trkpt>
   <trkpt lat="42.881003" lon="1.888299"><ele>555.75</ele></trkpt>
   <trkpt lat="42.881568" lon="1.886993"><ele>558</ele></trkpt>
   <trkpt lat="42.881672" lon="1.886793"><ele>558.5</ele></trkpt>
   <trkpt lat="42.881847" lon="1.886547"><ele>559.75</ele></trkpt>
   <trkpt lat="42.882149" lon="1.886266"><ele>563.25</ele></trkpt>
   <trkpt lat="42.882225" lon="1.88616"><ele>561</ele></trkpt>
   <trkpt lat="42.882259" lon="1.886045"><ele>562</ele></trkpt>
   <trkpt lat="42.882252" lon="1.885898"><ele>561.5</ele></trkpt>
   <trkpt lat="42.882185" lon="1.885501"><ele>559.75</ele></trkpt>
   <trkpt lat="42.882194" lon="1.885274"><ele>560.75</ele></trkpt>
   <trkpt lat="42.882277" lon="1.884688"><ele>562.5</ele></trkpt>
   <trkpt lat="42.882355" lon="1.884464"><ele>562.75</ele></trkpt>
   <trkpt lat="42.88248" lon="1.884253"><ele>563</ele></trkpt>
   <trkpt lat="42.882892" lon="1.88374"><ele>565.25</ele></trkpt>
   <trkpt lat="42.88301" lon="1.883528"><ele>565.5</ele></trkpt>
   <trkpt lat="42.883089" lon="1.883288"><ele>566.25</ele></trkpt>
   <trkpt lat="42.883154" lon="1.882946"><ele>567.5</ele></trkpt>
   <trkpt lat="42.883197" lon="1.882571"><ele>568.5</ele></trkpt>
   <trkpt lat="42.883209" lon="1.882177"><ele>569.75</ele></trkpt>
   <trkpt lat="42.883192" lon="1.881844"><ele>570.25</ele></trkpt>
   <trkpt lat="42.883196" lon="1.881554"><ele>571.5</ele></trkpt>
   <trkpt lat="42.883215" lon="1.881322"><ele>572.75</ele></trkpt>
   <trkpt lat="42.883268" lon="1.881004"><ele>573.5</ele></trkpt>
   <trkpt lat="42.883395" lon="1.880464"><ele>576.25</ele></trkpt>
   <trkpt lat="42.883502" lon="1.879972"><ele>578.25</ele></trkpt>
   <trkpt lat="42.883581" lon="1.879437"><ele>578.25</ele></trkpt>
   <trkpt lat="42.883648" lon="1.878846"><ele>580</ele></trkpt>
   <trkpt lat="42.883802" lon="1.877362"><ele>582.75</ele></trkpt>
   <trkpt lat="42.883813" lon="1.877076"><ele>582.75</ele></trkpt>
   <trkpt lat="42.883788" lon="1.876512"><ele>583.75</ele></trkpt>
   <trkpt lat="42.883793" lon="1.876232"><ele>584</ele></trkpt>
   <trkpt lat="42.88382" lon="1.875905"><ele>584.5</ele></trkpt>
   <trkpt lat="42.883844" lon="1.875475"><ele>584.25</ele></trkpt>
   <trkpt lat="42.883839" lon="1.875149"><ele>584.25</ele></trkpt>
   <trkpt lat="42.883799" lon="1.874811"><ele>585</ele></trkpt>
   <trkpt lat="42.883695" lon="1.874343"><ele>586.25</ele></trkpt>
   <trkpt lat="42.883675" lon="1.874177"><ele>586.25</ele></trkpt>
   <trkpt lat="42.88369" lon="1.874001"><ele>586.25</ele></trkpt>
   <trkpt lat="42.883894" lon="1.873149"><ele>585.25</ele></trkpt>
   <trkpt lat="42.883918" lon="1.87295"><ele>587</ele></trkpt>
   <trkpt lat="42.883989" lon="1.871709"><ele>589.5</ele></trkpt>
   <trkpt lat="42.884093" lon="1.869221"><ele>589.5</ele></trkpt>
   <trkpt lat="42.884106" lon="1.868872"><ele>590.25</ele></trkpt>
   <trkpt lat="42.884098" lon="1.868599"><ele>591</ele></trkpt>
   <trkpt lat="42.884009" lon="1.867854"><ele>592.25</ele></trkpt>
   <trkpt lat="42.883837" lon="1.866561"><ele>596.25</ele></trkpt>
   <trkpt lat="42.8838" lon="1.866388"><ele>597</ele></trkpt>
   <trkpt lat="42.883738" lon="1.866232"><ele>597</ele></trkpt>
   <trkpt lat="42.883541" lon="1.866029"><ele>596.75</ele></trkpt>
   <trkpt lat="42.883337" lon="1.865808"><ele>599.75</ele></trkpt>
   <trkpt lat="42.883129" lon="1.865629"><ele>601</ele></trkpt>
   <trkpt lat="42.882898" lon="1.865463"><ele>602</ele></trkpt>
   <trkpt lat="42.882648" lon="1.865327"><ele>602.5</ele></trkpt>
   <trkpt lat="42.882432" lon="1.865224"><ele>603.25</ele></trkpt>
   <trkpt lat="42.882146" lon="1.865105"><ele>604.25</ele></trkpt>
   <trkpt lat="42.881792" lon="1.864997"><ele>604</ele></trkpt>
   <trkpt lat="42.881691" lon="1.864949"><ele>606</ele></trkpt>
   <trkpt lat="42.881633" lon="1.864894"><ele>607.75</ele></trkpt>
   <trkpt lat="42.881585" lon="1.864826"><ele>609.25</ele></trkpt>
   <trkpt lat="42.881558" lon="1.864732"><ele>610.75</ele></trkpt>
   <trkpt lat="42.881522" lon="1.864384"><ele>611.25</ele></trkpt>
   <trkpt lat="42.881435" lon="1.86393"><ele>606.25</ele></trkpt>
   <trkpt lat="42.881439" lon="1.863679"><ele>606.25</ele></trkpt>
   <trkpt lat="42.881488" lon="1.863503"><ele>608</ele></trkpt>
   <trkpt lat="42.881715" lon="1.862981"><ele>609</ele></trkpt>
   <trkpt lat="42.881761" lon="1.862757"><ele>610.75</ele></trkpt>
   <trkpt lat="42.881762" lon="1.862533"><ele>612.25</ele></trkpt>
   <trkpt lat="42.881727" lon="1.862304"><ele>613</ele></trkpt>
   <trkpt lat="42.8815" lon="1.861689"><ele>617</ele></trkpt>
   <trkpt lat="42.881248" lon="1.860903"><ele>621.25</ele></trkpt>
   <trkpt lat="42.881226" lon="1.86078"><ele>621.5</ele></trkpt>
   <trkpt lat="42.88123" lon="1.860611"><ele>622</ele></trkpt>
   <trkpt lat="42.881261" lon="1.860432"><ele>622.5</ele></trkpt>
   <trkpt lat="42.881417" lon="1.859779"><ele>626</ele></trkpt>
   <trkpt lat="42.881487" lon="1.859613"><ele>627</ele></trkpt>
   <trkpt lat="42.881636" lon="1.859406"><ele>628.75</ele></trkpt>
   <trkpt lat="42.88167" lon="1.859318"><ele>630</ele></trkpt>
   <trkpt lat="42.881671" lon="1.859199"><ele>630</ele></trkpt>
   <trkpt lat="42.881647" lon="1.858903"><ele>630</ele></trkpt>
   <trkpt lat="42.881659" lon="1.858751"><ele>631.5</ele></trkpt>
   <trkpt lat="42.881685" lon="1.85863"><ele>633.5</ele></trkpt>
   <trkpt lat="42.881818" lon="1.858133"><ele>636.25</ele></trkpt>
   <trkpt lat="42.881838" lon="1.857971"><ele>636.75</ele></trkpt>
   <trkpt lat="42.881832" lon="1.857837"><ele>637</ele></trkpt>
   <trkpt lat="42.881814" lon="1.857704"><ele>637.75</ele></trkpt>
   <trkpt lat="42.881659" lon="1.857119"><ele>641</ele></trkpt>
   <trkpt lat="42.881629" lon="1.856886"><ele>641.5</ele></trkpt>
   <trkpt lat="42.881515" lon="1.855741"><ele>645.75</ele></trkpt>
   <trkpt lat="42.881509" lon="1.855547"><ele>646.75</ele></trkpt>
   <trkpt lat="42.881522" lon="1.854892"><ele>648</ele></trkpt>
   <trkpt lat="42.881517" lon="1.854621"><ele>649.5</ele></trkpt>
   <trkpt lat="42.881485" lon="1.854366"><ele>649.75</ele></trkpt>
   <trkpt lat="42.881173" lon="1.852921"><ele>652.5</ele></trkpt>
   <trkpt lat="42.880935" lon="1.85145"><ele>656</ele></trkpt>
   <trkpt lat="42.880543" lon="1.850198"><ele>660.25</ele></trkpt>
   <trkpt lat="42.880436" lon="1.849596"><ele>660.25</ele></trkpt>
   <trkpt lat="42.880362" lon="1.848909"><ele>664.5</ele></trkpt>
   <trkpt lat="42.880307" lon="1.848213"><ele>665.5</ele></trkpt>
   <trkpt lat="42.880298" lon="1.847747"><ele>667.5</ele></trkpt>
   <trkpt lat="42.880339" lon="1.847102"><ele>669.5</ele></trkpt>
   <trkpt lat="42.880318" lon="1.845985"><ele>675</ele></trkpt>
   <trkpt lat="42.880337" lon="1.844874"><ele>678</ele></trkpt>
   <trkpt lat="42.880313" lon="1.844117"><ele>680.75</ele></trkpt>
   <trkpt lat="42.880315" lon="1.843848"><ele>682.75</ele></trkpt>
   <trkpt lat="42.880349" lon="1.843663"><ele>684.75</ele></trkpt>
   <trkpt lat="42.880387" lon="1.8435"><ele>686</ele></trkpt>
   <trkpt lat="42.88056" lon="1.843042"><ele>691</ele></trkpt>
   <trkpt lat="42.880617" lon="1.842874"><ele>692.25</ele></trkpt>
   <trkpt lat="42.88065" lon="1.842708"><ele>693</ele></trkpt>
   <trkpt lat="42.880707" lon="1.842295"><ele>694</ele></trkpt>
   <trkpt lat="42.880736" lon="1.842222"><ele>694.75</ele></trkpt>
   <trkpt lat="42.880776" lon="1.842161"><ele>695.5</ele></trkpt>
   <trkpt lat="42.880864" lon="1.842071"><ele>697</ele></trkpt>
   <trkpt lat="42.881147" lon="1.841852"><ele>700</ele></trkpt>
   <trkpt lat="42.881323" lon="1.841703"><ele>700.5</ele></trkpt>
   <trkpt lat="42.881416" lon="1.841608"><ele>700.5</ele></trkpt>
   <trkpt lat="42.881546" lon="1.841454"><ele>699.75</ele></trkpt>
   <trkpt lat="42.881644" lon="1.84129"><ele>700.5</ele></trkpt>
   <trkpt lat="42.881692" lon="1.841173"><ele>701.75</ele></trkpt>
   <trkpt lat="42.881728" lon="1.841055"><ele>703</ele></trkpt>
   <trkpt lat="42.881749" lon="1.84095"><ele>704.25</ele></trkpt>
   <trkpt lat="42.88175" lon="1.84086"><ele>705.25</ele></trkpt>
   <trkpt lat="42.88173" lon="1.840768"><ele>705.5</ele></trkpt>
   <trkpt lat="42.881698" lon="1.840711"><ele>705.75</ele></trkpt>
   <trkpt lat="42.881657" lon="1.840676"><ele>706</ele></trkpt>
   <trkpt lat="42.881617" lon="1.840663"><ele>706</ele></trkpt>
   <trkpt lat="42.881563" lon="1.840663"><ele>706.5</ele></trkpt>
   <trkpt lat="42.881509" lon="1.840683"><ele>706.5</ele></trkpt>
   <trkpt lat="42.881457" lon="1.840736"><ele>706</ele></trkpt>
   <trkpt lat="42.881391" lon="1.840843"><ele>704.75</ele></trkpt>
   <trkpt lat="42.881328" lon="1.840911"><ele>704.5</ele></trkpt>
   <trkpt lat="42.881236" lon="1.840966"><ele>705</ele></trkpt>
   <trkpt lat="42.881112" lon="1.841004"><ele>706</ele></trkpt>
   <trkpt lat="42.880664" lon="1.84109"><ele>709.5</ele></trkpt>
   <trkpt lat="42.880551" lon="1.841102"><ele>710.25</ele></trkpt>
   <trkpt lat="42.88043" lon="1.841115"><ele>711</ele></trkpt>
   <trkpt lat="42.880264" lon="1.841109"><ele>713.25</ele></trkpt>
   <trkpt lat="42.880177" lon="1.841128"><ele>714.5</ele></trkpt>
   <trkpt lat="42.880061" lon="1.841198"><ele>714.75</ele></trkpt>
   <trkpt lat="42.879964" lon="1.841285"><ele>714.5</ele></trkpt>
   <trkpt lat="42.879585" lon="1.841699"><ele>715.5</ele></trkpt>
   <trkpt lat="42.87937" lon="1.841969"><ele>715.5</ele></trkpt>
   <trkpt lat="42.879291" lon="1.842049"><ele>715</ele></trkpt>
   <trkpt lat="42.879206" lon="1.842082"><ele>716.25</ele></trkpt>
   <trkpt lat="42.879122" lon="1.842065"><ele>718.5</ele></trkpt>
   <trkpt lat="42.878838" lon="1.841879"><ele>729</ele></trkpt>
   <trkpt lat="42.878725" lon="1.841853"><ele>731.25</ele></trkpt>
   <trkpt lat="42.878593" lon="1.841858"><ele>732</ele></trkpt>
   <trkpt lat="42.878348" lon="1.841912"><ele>730.5</ele></trkpt>
   <trkpt lat="42.877829" lon="1.841876"><ele>733.25</ele></trkpt>
   <trkpt lat="42.877645" lon="1.841833"><ele>732.75</ele></trkpt>
   <trkpt lat="42.87746" lon="1.841745"><ele>733.75</ele></trkpt>
   <trkpt lat="42.877285" lon="1.841626"><ele>733.5</ele></trkpt>
   <trkpt lat="42.877098" lon="1.841422"><ele>732.75</ele></trkpt>
   <trkpt lat="42.877039" lon="1.841331"><ele>732.75</ele></trkpt>
   <trkpt lat="42.877001" lon="1.841232"><ele>734.25</ele></trkpt>
   <trkpt lat="42.87696" lon="1.841047"><ele>739.75</ele></trkpt>
   <trkpt lat="42.876914" lon="1.840914"><ele>743.25</ele></trkpt>
   <trkpt lat="42.876807" lon="1.840742"><ele>748.5</ele></trkpt>
   <trkpt lat="42.876723" lon="1.840658"><ele>750.75</ele></trkpt>
   <trkpt lat="42.876404" lon="1.840422"><ele>754.75</ele></trkpt>
   <trkpt lat="42.876234" lon="1.840315"><ele>756</ele></trkpt>
   <trkpt lat="42.87606" lon="1.840178"><ele>762.75</ele></trkpt>
   <trkpt lat="42.875959" lon="1.840127"><ele>764</ele></trkpt>
   <trkpt lat="42.875585" lon="1.840045"><ele>754.25</ele></trkpt>
   <trkpt lat="42.875488" lon="1.839997"><ele>754.25</ele></trkpt>
   <trkpt lat="42.875381" lon="1.839885"><ele>764</ele></trkpt>
   <trkpt lat="42.875136" lon="1.839694"><ele>771.5</ele></trkpt>
   <trkpt lat="42.874887" lon="1.839424"><ele>785.5</ele></trkpt>
   <trkpt lat="42.874748" lon="1.839286"><ele>789.25</ele></trkpt>
   <trkpt lat="42.874525" lon="1.839128"><ele>783</ele></trkpt>
   <trkpt lat="42.874412" lon="1.839037"><ele>778.5</ele></trkpt>
   <trkpt lat="42.874334" lon="1.838947"><ele>778.5</ele></trkpt>
   <trkpt lat="42.87401" lon="1.838436"><ele>777.75</ele></trkpt>
   <trkpt lat="42.873888" lon="1.838332"><ele>775</ele></trkpt>
   <trkpt lat="42.873721" lon="1.838251"><ele>775.75</ele></trkpt>
   <trkpt lat="42.87351" lon="1.838187"><ele>775.75</ele></trkpt>
   <trkpt lat="42.873303" lon="1.838139"><ele>777.25</ele></trkpt>
   <trkpt lat="42.873017" lon="1.838098"><ele>779</ele></trkpt>
   <trkpt lat="42.872779" lon="1.838091"><ele>779.75</ele></trkpt>
   <trkpt lat="42.872666" lon="1.838112"><ele>782</ele></trkpt>
   <trkpt lat="42.87258" lon="1.838162"><ele>783.25</ele></trkpt>
   <trkpt lat="42.87248" lon="1.838257"><ele>784.25</ele></trkpt>
   <trkpt lat="42.872402" lon="1.838304"><ele>785.25</ele></trkpt>
   <trkpt lat="42.872348" lon="1.8383"><ele>786.25</ele></trkpt>
   <trkpt lat="42.872313" lon="1.838261"><ele>787.75</ele></trkpt>
   <trkpt lat="42.872295" lon="1.838206"><ele>789</ele></trkpt>
   <trkpt lat="42.8723" lon="1.838134"><ele>790.5</ele></trkpt>
   <trkpt lat="42.872348" lon="1.838059"><ele>790.75</ele></trkpt>
   <trkpt lat="42.872487" lon="1.837976"><ele>790.25</ele></trkpt>
   <trkpt lat="42.872655" lon="1.837909"><ele>790</ele></trkpt>
   <trkpt lat="42.872735" lon="1.837904"><ele>788.75</ele></trkpt>
   <trkpt lat="42.872866" lon="1.837917"><ele>787.25</ele></trkpt>
   <trkpt lat="42.872914" lon="1.8379"><ele>788</ele></trkpt>
   <trkpt lat="42.872949" lon="1.837867"><ele>789.25</ele></trkpt>
   <trkpt lat="42.872969" lon="1.837826"><ele>791</ele></trkpt>
   <trkpt lat="42.872975" lon="1.837769"><ele>793.5</ele></trkpt>
   <trkpt lat="42.872968" lon="1.837728"><ele>795.5</ele></trkpt>
   <trkpt lat="42.87294" lon="1.837686"><ele>797.5</ele></trkpt>
   <trkpt lat="42.872903" lon="1.837664"><ele>798.5</ele></trkpt>
   <trkpt lat="42.872845" lon="1.837661"><ele>798.75</ele></trkpt>
   <trkpt lat="42.872356" lon="1.837841"><ele>799</ele></trkpt>
   <trkpt lat="42.872153" lon="1.837961"><ele>800</ele></trkpt>
   <trkpt lat="42.871879" lon="1.838209"><ele>802.5</ele></trkpt>
   <trkpt lat="42.871742" lon="1.838324"><ele>803</ele></trkpt>
   <trkpt lat="42.871695" lon="1.838346"><ele>803.75</ele></trkpt>
   <trkpt lat="42.87166" lon="1.83834"><ele>804.25</ele></trkpt>
   <trkpt lat="42.871624" lon="1.838316"><ele>804.5</ele></trkpt>
   <trkpt lat="42.871598" lon="1.838283"><ele>805.5</ele></trkpt>
   <trkpt lat="42.871587" lon="1.838212"><ele>807</ele></trkpt>
   <trkpt lat="42.871598" lon="1.838141"><ele>808</ele></trkpt>
   <trkpt lat="42.871627" lon="1.838101"><ele>807.75</ele></trkpt>
   <trkpt lat="42.871831" lon="1.838003"><ele>807.75</ele></trkpt>
   <trkpt lat="42.871953" lon="1.837911"><ele>809.25</ele></trkpt>
   <trkpt lat="42.872256" lon="1.837604"><ele>812.25</ele></trkpt>
   <trkpt lat="42.872332" lon="1.837546"><ele>813.25</ele></trkpt>
   <trkpt lat="42.872741" lon="1.837385"><ele>811.75</ele></trkpt>
   <trkpt lat="42.872785" lon="1.837336"><ele>813</ele></trkpt>
   <trkpt lat="42.872806" lon="1.837268"><ele>816.25</ele></trkpt>
   <trkpt lat="42.872802" lon="1.837211"><ele>818.75</ele></trkpt>
   <trkpt lat="42.872782" lon="1.837178"><ele>820.5</ele></trkpt>
   <trkpt lat="42.87275" lon="1.837152"><ele>822.75</ele></trkpt>
   <trkpt lat="42.872703" lon="1.837146"><ele>824</ele></trkpt>
   <trkpt lat="42.872638" lon="1.837169"><ele>824</ele></trkpt>
   <trkpt lat="42.871956" lon="1.837587"><ele>822.75</ele></trkpt>
   <trkpt lat="42.871757" lon="1.837695"><ele>825.25</ele></trkpt>
   <trkpt lat="42.871402" lon="1.837827"><ele>826.5</ele></trkpt>
   <trkpt lat="42.870968" lon="1.837949"><ele>833.25</ele></trkpt>
   <trkpt lat="42.87066" lon="1.837938"><ele>836.75</ele></trkpt>
   <trkpt lat="42.869523" lon="1.837807"><ele>845.5</ele></trkpt>
   <trkpt lat="42.869264" lon="1.837701"><ele>846.75</ele></trkpt>
   <trkpt lat="42.86907" lon="1.837539"><ele>848.5</ele></trkpt>
   <trkpt lat="42.86892" lon="1.837354"><ele>850.25</ele></trkpt>
   <trkpt lat="42.868696" lon="1.836939"><ele>854.25</ele></trkpt>
   <trkpt lat="42.868117" lon="1.835822"><ele>863.5</ele></trkpt>
   <trkpt lat="42.867945" lon="1.835465"><ele>865.5</ele></trkpt>
   <trkpt lat="42.867858" lon="1.835298"><ele>866.75</ele></trkpt>
   <trkpt lat="42.867746" lon="1.835094"><ele>868</ele></trkpt>
   <trkpt lat="42.867612" lon="1.834875"><ele>869.75</ele></trkpt>
   <trkpt lat="42.867426" lon="1.834656"><ele>871.5</ele></trkpt>
   <trkpt lat="42.867328" lon="1.834578"><ele>872.5</ele></trkpt>
   <trkpt lat="42.867267" lon="1.834546"><ele>872.75</ele></trkpt>
   <trkpt lat="42.866909" lon="1.834458"><ele>873.75</ele></trkpt>
   <trkpt lat="42.866739" lon="1.834414"><ele>874.25</ele></trkpt>
   <trkpt lat="42.866245" lon="1.834263"><ele>876.25</ele></trkpt>
   <trkpt lat="42.866089" lon="1.834174"><ele>877.25</ele></trkpt>
   <trkpt lat="42.865993" lon="1.834032"><ele>876.75</ele></trkpt>
   <trkpt lat="42.865854" lon="1.833739"><ele>878.5</ele></trkpt>
   <trkpt lat="42.865746" lon="1.83344"><ele>879.75</ele></trkpt>
   <trkpt lat="42.865668" lon="1.833231"><ele>881.5</ele></trkpt>
   <trkpt lat="42.865233" lon="1.831985"><ele>890.5</ele></trkpt>
   <trkpt lat="42.865183" lon="1.831821"><ele>891</ele></trkpt>
   <trkpt lat="42.865163" lon="1.831695"><ele>891.25</ele></trkpt>
   <trkpt lat="42.865164" lon="1.831563"><ele>892.25</ele></trkpt>
   <trkpt lat="42.865191" lon="1.83145"><ele>893</ele></trkpt>
   <trkpt lat="42.865228" lon="1.831326"><ele>894.25</ele></trkpt>
   <trkpt lat="42.865298" lon="1.83118"><ele>895.25</ele></trkpt>
   <trkpt lat="42.865351" lon="1.831116"><ele>895.75</ele></trkpt>
   <trkpt lat="42.865413" lon="1.831075"><ele>896.25</ele></trkpt>
   <trkpt lat="42.865496" lon="1.831044"><ele>896.75</ele></trkpt>
   <trkpt lat="42.865596" lon="1.831034"><ele>897.25</ele></trkpt>
   <trkpt lat="42.865694" lon="1.831064"><ele>897</ele></trkpt>
   <trkpt lat="42.86642" lon="1.831547"><ele>896.5</ele></trkpt>
   <trkpt lat="42.86663" lon="1.831655"><ele>896.75</ele></trkpt>
   <trkpt lat="42.867219" lon="1.831822"><ele>898.5</ele></trkpt>
   <trkpt lat="42.867544" lon="1.831942"><ele>899.5</ele></trkpt>
   <trkpt lat="42.867807" lon="1.832063"><ele>901.75</ele></trkpt>
   <trkpt lat="42.868047" lon="1.832227"><ele>902.75</ele></trkpt>
   <trkpt lat="42.868192" lon="1.832321"><ele>902.75</ele></trkpt>
   <trkpt lat="42.868358" lon="1.83241"><ele>903.25</ele></trkpt>
   <trkpt lat="42.868623" lon="1.832518"><ele>904.5</ele></trkpt>
   <trkpt lat="42.868977" lon="1.832582"><ele>908.25</ele></trkpt>
   <trkpt lat="42.869253" lon="1.832573"><ele>911.75</ele></trkpt>
   <trkpt lat="42.869437" lon="1.832528"><ele>913.25</ele></trkpt>
   <trkpt lat="42.870315" lon="1.83233"><ele>921.75</ele></trkpt>
   <trkpt lat="42.870755" lon="1.832323"><ele>925.5</ele></trkpt>
   <trkpt lat="42.871182" lon="1.832332"><ele>930</ele></trkpt>
   <trkpt lat="42.871325" lon="1.832328"><ele>931.75</ele></trkpt>
   <trkpt lat="42.871409" lon="1.832295"><ele>933.25</ele></trkpt>
   <trkpt lat="42.871461" lon="1.832236"><ele>934.75</ele></trkpt>
   <trkpt lat="42.871484" lon="1.832173"><ele>936</ele></trkpt>
   <trkpt lat="42.871478" lon="1.83211"><ele>937</ele></trkpt>
   <trkpt lat="42.871442" lon="1.832058"><ele>937</ele></trkpt>
   <trkpt lat="42.871362" lon="1.831989"><ele>937</ele></trkpt>
   <trkpt lat="42.871232" lon="1.831878"><ele>938</ele></trkpt>
   <trkpt lat="42.871047" lon="1.831676"><ele>940.25</ele></trkpt>
   <trkpt lat="42.87075" lon="1.831493"><ele>942.75</ele></trkpt>
   <trkpt lat="42.870718" lon="1.831468"><ele>943.5</ele></trkpt>
   <trkpt lat="42.870696" lon="1.83142"><ele>944.75</ele></trkpt>
   <trkpt lat="42.870695" lon="1.831371"><ele>946</ele></trkpt>
   <trkpt lat="42.86997" lon="1.831276"><ele>958.5</ele></trkpt>
   <trkpt lat="42.869603" lon="1.831294"><ele>962.25</ele></trkpt>
   <trkpt lat="42.869475" lon="1.831196"><ele>966.75</ele></trkpt>
   <trkpt lat="42.869344" lon="1.830943"><ele>971.5</ele></trkpt>
   <trkpt lat="42.869232" lon="1.830557"><ele>977.5</ele></trkpt>
   <trkpt lat="42.8692" lon="1.830335"><ele>980.25</ele></trkpt>
   <trkpt lat="42.869224" lon="1.830195"><ele>982</ele></trkpt>
   <trkpt lat="42.86932" lon="1.830093"><ele>982.75</ele></trkpt>
   <trkpt lat="42.869984" lon="1.829806"><ele>985</ele></trkpt>
   <trkpt lat="42.870435" lon="1.829675"><ele>987.75</ele></trkpt>
   <trkpt lat="42.87061" lon="1.829648"><ele>988.75</ele></trkpt>
   <trkpt lat="42.871351" lon="1.829626"><ele>992.25</ele></trkpt>
   <trkpt lat="42.871484" lon="1.829629"><ele>992.75</ele></trkpt>
   <trkpt lat="42.871777" lon="1.829656"><ele>993.25</ele></trkpt>
   <trkpt lat="42.871901" lon="1.829677"><ele>993.5</ele></trkpt>
   <trkpt lat="42.872012" lon="1.829739"><ele>993.5</ele></trkpt>
   <trkpt lat="42.872089" lon="1.829762"><ele>993.25</ele></trkpt>
   <trkpt lat="42.872167" lon="1.829763"><ele>993.25</ele></trkpt>
   <trkpt lat="42.872249" lon="1.829746"><ele>993.75</ele></trkpt>
   <trkpt lat="42.872311" lon="1.829723"><ele>994.75</ele></trkpt>
   <trkpt lat="42.872382" lon="1.829681"><ele>996</ele></trkpt>
   <trkpt lat="42.8727" lon="1.829439"><ele>1005</ele></trkpt>
   <trkpt lat="42.873045" lon="1.829132"><ele>1010.5</ele></trkpt>
   <trkpt lat="42.873229" lon="1.828985"><ele>1014.25</ele></trkpt>
   <trkpt lat="42.873413" lon="1.828807"><ele>1018.25</ele></trkpt>
   <trkpt lat="42.873546" lon="1.828691"><ele>1020.75</ele></trkpt>
   <trkpt lat="42.873801" lon="1.828532"><ele>1025</ele></trkpt>
   <trkpt lat="42.873851" lon="1.828546"><ele>1026.25</ele></trkpt>
   <trkpt lat="42.873916" lon="1.828477"><ele>1027</ele></trkpt>
   <trkpt lat="42.873988" lon="1.82838"><ele>1027.5</ele></trkpt>
   <trkpt lat="42.874104" lon="1.82817"><ele>1028.75</ele></trkpt>
   <trkpt lat="42.874153" lon="1.828058"><ele>1029.5</ele></trkpt>
   <trkpt lat="42.874198" lon="1.827932"><ele>1030.5</ele></trkpt>
   <trkpt lat="42.874223" lon="1.827826"><ele>1031.5</ele></trkpt>
   <trkpt lat="42.874239" lon="1.82771"><ele>1032.5</ele></trkpt>
   <trkpt lat="42.874236" lon="1.827572"><ele>1033.25</ele></trkpt>
   <trkpt lat="42.874226" lon="1.827504"><ele>1033.25</ele></trkpt>
   <trkpt lat="42.874191" lon="1.827363"><ele>1034.25</ele></trkpt>
   <trkpt lat="42.874158" lon="1.827268"><ele>1035</ele></trkpt>
   <trkpt lat="42.874098" lon="1.827156"><ele>1036</ele></trkpt>
   <trkpt lat="42.873985" lon="1.826981"><ele>1037.75</ele></trkpt>
   <trkpt lat="42.873932" lon="1.826863"><ele>1039</ele></trkpt>
   <trkpt lat="42.873904" lon="1.826739"><ele>1040.25</ele></trkpt>
   <trkpt lat="42.873896" lon="1.826609"><ele>1041.5</ele></trkpt>
   <trkpt lat="42.873905" lon="1.826477"><ele>1042.75</ele></trkpt>
   <trkpt lat="42.874012" lon="1.825908"><ele>1050.75</ele></trkpt>
   <trkpt lat="42.874036" lon="1.825624"><ele>1051.75</ele></trkpt>
   <trkpt lat="42.874042" lon="1.824856"><ele>1056</ele></trkpt>
   <trkpt lat="42.874049" lon="1.824635"><ele>1059</ele></trkpt>

  </trkseg>
 </trk>
</gpx>