<?xml version="1.0" encoding="UTF-8"?>
<!-- track-length = 14078 filtered ascend = 980 plain-ascend = 894 cost=19558 energy=0.3kwh time=2h 42m 35s -->
<gpx 
 xmlns="http://www.topografix.com/GPX/1/1" 
 xmlns:xsi="http://www.w3.org/2001/XMLSchema-instance" 
 xsi:schemaLocation="http://www.topografix.com/GPX/1/1 http://www.topografix.com/GPX/1/1/gpx.xsd" 
 version="1.1" 
 creator="BRouter-Web 0.18.1">
 <trk>
  <name>col de la sarenne (14.1km)</name>
  <trkseg>
      <trkpt lat="45.047537" lon="6.141361"><ele>1051.75</ele></trkpt>
   <trkpt lat="45.047536" lon="6.141124"><ele>1052</ele></trkpt>
   <trkpt lat="45.047567" lon="6.141114"><ele>1055</ele></trkpt>
   <trkpt lat="45.047592" lon="6.141106"><ele>1057.25</ele></trkpt>
   <trkpt lat="45.047617" lon="6.141081"><ele>1059.75</ele></trkpt>
   <trkpt lat="45.047632" lon="6.141052"><ele>1061.5</ele></trkpt>
   <trkpt lat="45.047612" lon="6.140672"><ele>1063.5</ele></trkpt>
   <trkpt lat="45.047602" lon="6.140136"><ele>1068.25</ele></trkpt>
   <trkpt lat="45.047633" lon="6.1397"><ele>1073.25</ele></trkpt>
   <trkpt lat="45.04761" lon="6.139371"><ele>1076.25</ele></trkpt>
   <trkpt lat="45.047593" lon="6.139285"><ele>1076.25</ele></trkpt>
   <trkpt lat="45.047502" lon="6.138932"><ele>1077.25</ele></trkpt>
   <trkpt lat="45.047488" lon="6.138829"><ele>1077.5</ele></trkpt>
   <trkpt lat="45.047476" lon="6.138707"><ele>1077.5</ele></trkpt>
   <trkpt lat="45.047475" lon="6.138638"><ele>1078</ele></trkpt>
   <trkpt lat="45.047491" lon="6.138566"><ele>1079</ele></trkpt>
   <trkpt lat="45.047519" lon="6.138528"><ele>1080.5</ele></trkpt>
   <trkpt lat="45.047568" lon="6.138519"><ele>1082.75</ele></trkpt>
   <trkpt lat="45.047588" lon="6.138529"><ele>1083.75</ele></trkpt>
   <trkpt lat="45.047605" lon="6.138538"><ele>1084.5</ele></trkpt>
   <trkpt lat="45.047626" lon="6.138587"><ele>1086</ele></trkpt>
   <trkpt lat="45.047638" lon="6.138664"><ele>1086.5</ele></trkpt>
   <trkpt lat="45.047638" lon="6.138835"><ele>1085.5</ele></trkpt>
   <trkpt lat="45.047648" lon="6.138923"><ele>1085.25</ele></trkpt>
   <trkpt lat="45.047667" lon="6.138994"><ele>1085</ele></trkpt>
   <trkpt lat="45.047827" lon="6.139296"><ele>1089.25</ele></trkpt>
   <trkpt lat="45.047877" lon="6.139421"><ele>1091</ele></trkpt>
   <trkpt lat="45.047901" lon="6.139521"><ele>1092</ele></trkpt>
   <trkpt lat="45.047943" lon="6.139869"><ele>1094.25</ele></trkpt>
   <trkpt lat="45.047994" lon="6.14011"><ele>1098</ele></trkpt>
   <trkpt lat="45.048072" lon="6.140372"><ele>1103.5</ele></trkpt>
   <trkpt lat="45.048089" lon="6.140462"><ele>1104.5</ele></trkpt>
   <trkpt lat="45.048098" lon="6.140543"><ele>1104.75</ele></trkpt>
   <trkpt lat="45.0481" lon="6.140929"><ele>1102</ele></trkpt>
   <trkpt lat="45.048124" lon="6.141076"><ele>1102.5</ele></trkpt>
   <trkpt lat="45.048194" lon="6.141312"><ele>1105.25</ele></trkpt>
   <trkpt lat="45.048378" lon="6.141667"><ele>1114</ele></trkpt>
   <trkpt lat="45.048429" lon="6.141804"><ele>1116</ele></trkpt>
   <trkpt lat="45.04846" lon="6.141887"><ele>1117.25</ele></trkpt>
   <trkpt lat="45.048712" lon="6.142789"><ele>1123.75</ele></trkpt>
   <trkpt lat="45.048735" lon="6.142894"><ele>1124.5</ele></trkpt>
   <trkpt lat="45.048756" lon="6.143025"><ele>1125</ele></trkpt>
   <trkpt lat="45.048752" lon="6.143248"><ele>1124.25</ele></trkpt>
   <trkpt lat="45.048759" lon="6.14333"><ele>1124.5</ele></trkpt>
   <trkpt lat="45.04878" lon="6.143374"><ele>1126</ele></trkpt>
   <trkpt lat="45.048808" lon="6.143398"><ele>1127.75</ele></trkpt>
   <trkpt lat="45.048852" lon="6.14341"><ele>1130.75</ele></trkpt>
   <trkpt lat="45.048876" lon="6.143395"><ele>1132.25</ele></trkpt>
   <trkpt lat="45.048892" lon="6.143347"><ele>1133</ele></trkpt>
   <trkpt lat="45.0489" lon="6.143271"><ele>1133.75</ele></trkpt>
   <trkpt lat="45.048879" lon="6.142699"><ele>1136</ele></trkpt>
   <trkpt lat="45.048842" lon="6.142051"><ele>1142</ele></trkpt>
   <trkpt lat="45.048842" lon="6.141948"><ele>1143.5</ele></trkpt>
   <trkpt lat="45.04885" lon="6.141429"><ele>1149</ele></trkpt>
   <trkpt lat="45.048872" lon="6.141237"><ele>1150.75</ele></trkpt>
   <trkpt lat="45.048907" lon="6.141091"><ele>1152.75</ele></trkpt>
   <trkpt lat="45.048978" lon="6.140865"><ele>1155.25</ele></trkpt>
   <trkpt lat="45.049036" lon="6.140681"><ele>1157.25</ele></trkpt>
   <trkpt lat="45.049131" lon="6.140436"><ele>1159</ele></trkpt>
   <trkpt lat="45.049213" lon="6.140312"><ele>1160.25</ele></trkpt>
   <trkpt lat="45.049456" lon="6.140021"><ele>1161.75</ele></trkpt>
   <trkpt lat="45.049513" lon="6.139993"><ele>1162</ele></trkpt>
   <trkpt lat="45.049556" lon="6.140006"><ele>1163</ele></trkpt>
   <trkpt lat="45.049572" lon="6.140039"><ele>1164.5</ele></trkpt>
   <trkpt lat="45.049585" lon="6.140065"><ele>1165.5</ele></trkpt>
   <trkpt lat="45.049584" lon="6.140126"><ele>1167.5</ele></trkpt>
   <trkpt lat="45.049546" lon="6.140202"><ele>1169</ele></trkpt>
   <trkpt lat="45.049396" lon="6.140451"><ele>1171</ele></trkpt>
   <trkpt lat="45.049338" lon="6.14058"><ele>1171.25</ele></trkpt>
   <trkpt lat="45.049299" lon="6.140708"><ele>1171.25</ele></trkpt>
   <trkpt lat="45.049262" lon="6.140933"><ele>1172</ele></trkpt>
   <trkpt lat="45.049266" lon="6.141077"><ele>1173.5</ele></trkpt>
   <trkpt lat="45.049281" lon="6.141166"><ele>1174.25</ele></trkpt>
   <trkpt lat="45.04932" lon="6.141307"><ele>1175.5</ele></trkpt>
   <trkpt lat="45.049348" lon="6.141386"><ele>1176.5</ele></trkpt>
   <trkpt lat="45.04946" lon="6.141672"><ele>1179.25</ele></trkpt>
   <trkpt lat="45.04958" lon="6.141978"><ele>1180</ele></trkpt>
   <trkpt lat="45.049595" lon="6.142008"><ele>1180</ele></trkpt>
   <trkpt lat="45.049701" lon="6.142171"><ele>1181.75</ele></trkpt>
   <trkpt lat="45.04981" lon="6.142343"><ele>1182.25</ele></trkpt>
   <trkpt lat="45.049815" lon="6.142351"><ele>1182.25</ele></trkpt>
   <trkpt lat="45.049826" lon="6.142371"><ele>1182.25</ele></trkpt>
   <trkpt lat="45.049868" lon="6.142447"><ele>1182</ele></trkpt>
   <trkpt lat="45.049927" lon="6.142578"><ele>1182</ele></trkpt>
   <trkpt lat="45.049958" lon="6.142665"><ele>1181.75</ele></trkpt>
   <trkpt lat="45.049983" lon="6.142704"><ele>1182</ele></trkpt>
   <trkpt lat="45.050003" lon="6.142719"><ele>1182.25</ele></trkpt>
   <trkpt lat="45.050064" lon="6.142735"><ele>1182.5</ele></trkpt>
   <trkpt lat="45.050076" lon="6.14274"><ele>1182.75</ele></trkpt>
   <trkpt lat="45.050151" lon="6.142772"><ele>1183</ele></trkpt>
   <trkpt lat="45.050205" lon="6.142789"><ele>1183.25</ele></trkpt>
   <trkpt lat="45.050367" lon="6.142877"><ele>1183.75</ele></trkpt>
   <trkpt lat="45.050423" lon="6.142908"><ele>1183.75</ele></trkpt>
   <trkpt lat="45.050541" lon="6.142988"><ele>1184.25</ele></trkpt>
   <trkpt lat="45.050634" lon="6.14306"><ele>1185.25</ele></trkpt>
   <trkpt lat="45.050672" lon="6.143078"><ele>1185.5</ele></trkpt>
   <trkpt lat="45.050751" lon="6.143093"><ele>1186</ele></trkpt>
   <trkpt lat="45.050895" lon="6.143085"><ele>1186.5</ele></trkpt>
   <trkpt lat="45.050979" lon="6.143069"><ele>1186.5</ele></trkpt>
   <trkpt lat="45.051225" lon="6.143002"><ele>1186.5</ele></trkpt>
   <trkpt lat="45.051377" lon="6.142947"><ele>1186.25</ele></trkpt>
   <trkpt lat="45.051935" lon="6.142718"><ele>1185.25</ele></trkpt>
   <trkpt lat="45.052046" lon="6.142704"><ele>1185.75</ele></trkpt>
   <trkpt lat="45.052115" lon="6.142715"><ele>1186.25</ele></trkpt>
   <trkpt lat="45.052169" lon="6.142736"><ele>1187</ele></trkpt>
   <trkpt lat="45.052248" lon="6.142776"><ele>1187.75</ele></trkpt>
   <trkpt lat="45.052365" lon="6.142859"><ele>1189</ele></trkpt>
   <trkpt lat="45.052458" lon="6.142954"><ele>1191.25</ele></trkpt>
   <trkpt lat="45.052804" lon="6.143329"><ele>1195.75</ele></trkpt>
   <trkpt lat="45.053065" lon="6.143693"><ele>1194</ele></trkpt>
   <trkpt lat="45.053242" lon="6.143989"><ele>1193.75</ele></trkpt>
   <trkpt lat="45.053404" lon="6.144178"><ele>1195</ele></trkpt>
   <trkpt lat="45.053585" lon="6.144318"><ele>1199.25</ele></trkpt>
   <trkpt lat="45.053842" lon="6.144515"><ele>1199.25</ele></trkpt>
   <trkpt lat="45.054174" lon="6.14455"><ele>1193.25</ele></trkpt>
   <trkpt lat="45.054269" lon="6.144596"><ele>1192</ele></trkpt>
   <trkpt lat="45.054327" lon="6.144641"><ele>1192.5</ele></trkpt>
   <trkpt lat="45.054443" lon="6.144808"><ele>1197.5</ele></trkpt>
   <trkpt lat="45.054608" lon="6.144995"><ele>1201</ele></trkpt>
   <trkpt lat="45.055079" lon="6.145278"><ele>1199.25</ele></trkpt>
   <trkpt lat="45.055202" lon="6.145382"><ele>1200</ele></trkpt>
   <trkpt lat="45.055666" lon="6.145546"><ele>1193.75</ele></trkpt>
   <trkpt lat="45.055792" lon="6.145618"><ele>1192.75</ele></trkpt>
   <trkpt lat="45.055913" lon="6.145634"><ele>1190.75</ele></trkpt>
   <trkpt lat="45.056184" lon="6.145618"><ele>1183.25</ele></trkpt>
   <trkpt lat="45.056462" lon="6.14567"><ele>1175</ele></trkpt>
   <trkpt lat="45.056604" lon="6.14578"><ele>1171.5</ele></trkpt>
   <trkpt lat="45.056961" lon="6.146468"><ele>1182</ele></trkpt>
   <trkpt lat="45.057052" lon="6.146567"><ele>1180</ele></trkpt>
   <trkpt lat="45.057187" lon="6.146672"><ele>1176</ele></trkpt>
   <trkpt lat="45.057266" lon="6.146749"><ele>1174.5</ele></trkpt>
   <trkpt lat="45.057331" lon="6.146894"><ele>1178</ele></trkpt>
   <trkpt lat="45.057412" lon="6.147047"><ele>1179.75</ele></trkpt>
   <trkpt lat="45.057522" lon="6.147149"><ele>1177.5</ele></trkpt>
   <trkpt lat="45.057645" lon="6.147192"><ele>1175.5</ele></trkpt>
   <trkpt lat="45.057825" lon="6.147213"><ele>1171.25</ele></trkpt>
   <trkpt lat="45.057941" lon="6.147278"><ele>1170.75</ele></trkpt>
   <trkpt lat="45.058016" lon="6.147356"><ele>1171</ele></trkpt>
   <trkpt lat="45.058223" lon="6.147597"><ele>1173</ele></trkpt>
   <trkpt lat="45.058508" lon="6.147863"><ele>1174.75</ele></trkpt>
   <trkpt lat="45.058727" lon="6.147992"><ele>1179</ele></trkpt>
   <trkpt lat="45.059144" lon="6.148322"><ele>1191.25</ele></trkpt>
   <trkpt lat="45.059418" lon="6.148632"><ele>1197</ele></trkpt>
   <trkpt lat="45.05958" lon="6.148876"><ele>1197</ele></trkpt>
   <trkpt lat="45.059769" lon="6.149277"><ele>1195.75</ele></trkpt>
   <trkpt lat="45.059798" lon="6.149334"><ele>1195.25</ele></trkpt>
   <trkpt lat="45.05984" lon="6.14947"><ele>1193</ele></trkpt>
   <trkpt lat="45.059884" lon="6.149545"><ele>1191.25</ele></trkpt>
   <trkpt lat="45.059942" lon="6.149576"><ele>1190.75</ele></trkpt>
   <trkpt lat="45.059986" lon="6.149512"><ele>1193.25</ele></trkpt>
   <trkpt lat="45.05999" lon="6.149426"><ele>1196.25</ele></trkpt>
   <trkpt lat="45.059597" lon="6.148407"><ele>1210.5</ele></trkpt>
   <trkpt lat="45.059428" lon="6.147669"><ele>1218.75</ele></trkpt>
   <trkpt lat="45.05906" lon="6.14671"><ele>1223.25</ele></trkpt>
   <trkpt lat="45.059029" lon="6.14659"><ele>1224.5</ele></trkpt>
   <trkpt lat="45.059019" lon="6.14648"><ele>1226.25</ele></trkpt>
   <trkpt lat="45.059077" lon="6.146458"><ele>1229</ele></trkpt>
   <trkpt lat="45.059131" lon="6.146529"><ele>1230</ele></trkpt>
   <trkpt lat="45.059317" lon="6.146856"><ele>1229.25</ele></trkpt>
   <trkpt lat="45.059815" lon="6.147255"><ele>1234.75</ele></trkpt>
   <trkpt lat="45.060089" lon="6.147452"><ele>1238.5</ele></trkpt>
   <trkpt lat="45.060738" lon="6.148055"><ele>1248.5</ele></trkpt>
   <trkpt lat="45.060955" lon="6.148207"><ele>1251.5</ele></trkpt>
   <trkpt lat="45.061538" lon="6.148556"><ele>1259.25</ele></trkpt>
   <trkpt lat="45.062142" lon="6.14883"><ele>1265.75</ele></trkpt>
   <trkpt lat="45.06224" lon="6.148899"><ele>1266</ele></trkpt>
   <trkpt lat="45.062413" lon="6.149095"><ele>1264.5</ele></trkpt>
   <trkpt lat="45.062592" lon="6.149245"><ele>1265</ele></trkpt>
   <trkpt lat="45.062812" lon="6.149333"><ele>1269.25</ele></trkpt>
   <trkpt lat="45.062995" lon="6.149395"><ele>1273.25</ele></trkpt>
   <trkpt lat="45.063142" lon="6.149514"><ele>1275</ele></trkpt>
   <trkpt lat="45.063506" lon="6.149846"><ele>1280.5</ele></trkpt>
   <trkpt lat="45.063928" lon="6.15026"><ele>1286.5</ele></trkpt>
   <trkpt lat="45.064326" lon="6.150702"><ele>1287.25</ele></trkpt>
   <trkpt lat="45.064652" lon="6.150998"><ele>1289.5</ele></trkpt>
   <trkpt lat="45.064756" lon="6.151121"><ele>1289.75</ele></trkpt>
   <trkpt lat="45.064784" lon="6.151098"><ele>1291.25</ele></trkpt>
   <trkpt lat="45.064819" lon="6.151089"><ele>1292.5</ele></trkpt>
   <trkpt lat="45.064871" lon="6.151128"><ele>1293.25</ele></trkpt>
   <trkpt lat="45.065106" lon="6.151386"><ele>1295.75</ele></trkpt>
   <trkpt lat="45.065883" lon="6.152109"><ele>1305.25</ele></trkpt>
   <trkpt lat="45.066225" lon="6.152442"><ele>1308.75</ele></trkpt>
   <trkpt lat="45.0664" lon="6.15255"><ele>1311.5</ele></trkpt>
   <trkpt lat="45.066567" lon="6.152629"><ele>1314.25</ele></trkpt>
   <trkpt lat="45.066658" lon="6.152696"><ele>1315.25</ele></trkpt>
   <trkpt lat="45.066903" lon="6.152906"><ele>1317.5</ele></trkpt>
   <trkpt lat="45.067126" lon="6.153117"><ele>1319.75</ele></trkpt>
   <trkpt lat="45.067382" lon="6.153344"><ele>1322</ele></trkpt>
   <trkpt lat="45.067524" lon="6.153408"><ele>1323.5</ele></trkpt>
   <trkpt lat="45.067709" lon="6.153427"><ele>1326.25</ele></trkpt>
   <trkpt lat="45.06823" lon="6.15344"><ele>1333.75</ele></trkpt>
   <trkpt lat="45.068381" lon="6.153477"><ele>1335.75</ele></trkpt>
   <trkpt lat="45.068581" lon="6.153568"><ele>1338</ele></trkpt>
   <trkpt lat="45.06879" lon="6.153703"><ele>1339.75</ele></trkpt>
   <trkpt lat="45.068994" lon="6.153798"><ele>1341.75</ele></trkpt>
   <trkpt lat="45.069155" lon="6.153828"><ele>1343.75</ele></trkpt>
   <trkpt lat="45.069296" lon="6.153813"><ele>1345.75</ele></trkpt>
   <trkpt lat="45.069453" lon="6.153768"><ele>1348</ele></trkpt>
   <trkpt lat="45.069724" lon="6.153649"><ele>1351.25</ele></trkpt>
   <trkpt lat="45.070271" lon="6.153602"><ele>1356</ele></trkpt>
   <trkpt lat="45.070305" lon="6.153613"><ele>1356.25</ele></trkpt>
   <trkpt lat="45.070386" lon="6.15363"><ele>1357.25</ele></trkpt>
   <trkpt lat="45.070599" lon="6.153697"><ele>1359.5</ele></trkpt>
   <trkpt lat="45.071061" lon="6.154076"><ele>1363</ele></trkpt>
   <trkpt lat="45.071214" lon="6.15424"><ele>1364.25</ele></trkpt>
   <trkpt lat="45.071266" lon="6.154368"><ele>1364.25</ele></trkpt>
   <trkpt lat="45.071311" lon="6.154629"><ele>1363.5</ele></trkpt>
   <trkpt lat="45.071317" lon="6.154664"><ele>1363.5</ele></trkpt>
   <trkpt lat="45.071349" lon="6.154803"><ele>1363.25</ele></trkpt>
   <trkpt lat="45.071434" lon="6.15496"><ele>1363.75</ele></trkpt>
   <trkpt lat="45.07146" lon="6.155108"><ele>1363</ele></trkpt>
   <trkpt lat="45.071464" lon="6.155159"><ele>1362.5</ele></trkpt>
   <trkpt lat="45.071495" lon="6.155267"><ele>1362.25</ele></trkpt>
   <trkpt lat="45.071611" lon="6.155481"><ele>1362.25</ele></trkpt>
   <trkpt lat="45.071656" lon="6.155518"><ele>1363</ele></trkpt>
   <trkpt lat="45.071703" lon="6.155585"><ele>1363.25</ele></trkpt>
   <trkpt lat="45.071852" lon="6.155749"><ele>1363.75</ele></trkpt>
   <trkpt lat="45.071886" lon="6.155772"><ele>1364.25</ele></trkpt>
   <trkpt lat="45.071982" lon="6.155878"><ele>1364.75</ele></trkpt>
   <trkpt lat="45.072084" lon="6.155968"><ele>1365.5</ele></trkpt>
   <trkpt lat="45.072704" lon="6.156525"><ele>1368.25</ele></trkpt>
   <trkpt lat="45.072947" lon="6.156701"><ele>1369.25</ele></trkpt>
   <trkpt lat="45.073336" lon="6.156915"><ele>1370.75</ele></trkpt>
   <trkpt lat="45.073455" lon="6.157007"><ele>1371.25</ele></trkpt>
   <trkpt lat="45.073576" lon="6.157118"><ele>1371</ele></trkpt>
   <trkpt lat="45.073808" lon="6.15738"><ele>1371.25</ele></trkpt>
   <trkpt lat="45.07388" lon="6.157446"><ele>1371.75</ele></trkpt>
   <trkpt lat="45.073944" lon="6.157493"><ele>1372.5</ele></trkpt>
   <trkpt lat="45.074175" lon="6.157613"><ele>1376.25</ele></trkpt>
   <trkpt lat="45.074251" lon="6.157675"><ele>1376.75</ele></trkpt>
   <trkpt lat="45.074524" lon="6.157995"><ele>1373.25</ele></trkpt>
   <trkpt lat="45.074635" lon="6.158093"><ele>1372</ele></trkpt>
   <trkpt lat="45.074706" lon="6.158115"><ele>1372.75</ele></trkpt>
   <trkpt lat="45.074804" lon="6.158121"><ele>1373.5</ele></trkpt>
   <trkpt lat="45.075076" lon="6.158072"><ele>1377.75</ele></trkpt>
   <trkpt lat="45.0752" lon="6.158061"><ele>1379</ele></trkpt>
   <trkpt lat="45.075286" lon="6.158065"><ele>1379.5</ele></trkpt>
   <trkpt lat="45.075408" lon="6.158093"><ele>1379.5</ele></trkpt>
   <trkpt lat="45.075531" lon="6.158142"><ele>1378.75</ele></trkpt>
   <trkpt lat="45.075877" lon="6.158305"><ele>1377</ele></trkpt>
   <trkpt lat="45.076029" lon="6.158347"><ele>1377</ele></trkpt>
   <trkpt lat="45.076143" lon="6.158352"><ele>1377.25</ele></trkpt>
   <trkpt lat="45.076266" lon="6.158338"><ele>1377.75</ele></trkpt>
   <trkpt lat="45.076417" lon="6.158297"><ele>1378.5</ele></trkpt>
   <trkpt lat="45.076519" lon="6.158251"><ele>1378</ele></trkpt>
   <trkpt lat="45.076595" lon="6.1582"><ele>1378.25</ele></trkpt>
   <trkpt lat="45.076703" lon="6.158086"><ele>1380.25</ele></trkpt>
   <trkpt lat="45.076799" lon="6.158001"><ele>1381.75</ele></trkpt>
   <trkpt lat="45.076872" lon="6.157954"><ele>1382.5</ele></trkpt>
   <trkpt lat="45.076951" lon="6.157928"><ele>1382.5</ele></trkpt>
   <trkpt lat="45.077066" lon="6.157924"><ele>1382</ele></trkpt>
   <trkpt lat="45.07782" lon="6.158007"><ele>1383</ele></trkpt>
   <trkpt lat="45.077982" lon="6.157994"><ele>1385</ele></trkpt>
   <trkpt lat="45.078042" lon="6.157998"><ele>1385.5</ele></trkpt>
   <trkpt lat="45.078104" lon="6.15801"><ele>1386</ele></trkpt>
   <trkpt lat="45.078175" lon="6.158035"><ele>1386.25</ele></trkpt>
   <trkpt lat="45.078331" lon="6.158125"><ele>1385.5</ele></trkpt>
   <trkpt lat="45.078864" lon="6.15852"><ele>1381.5</ele></trkpt>
   <trkpt lat="45.079109" lon="6.158722"><ele>1380</ele></trkpt>
   <trkpt lat="45.079235" lon="6.158778"><ele>1381</ele></trkpt>
   <trkpt lat="45.079525" lon="6.158874"><ele>1384.5</ele></trkpt>
   <trkpt lat="45.079654" lon="6.158942"><ele>1385.25</ele></trkpt>
   <trkpt lat="45.079714" lon="6.158978"><ele>1385.5</ele></trkpt>
   <trkpt lat="45.079839" lon="6.159084"><ele>1384.75</ele></trkpt>
   <trkpt lat="45.08013" lon="6.159383"><ele>1382.5</ele></trkpt>
   <trkpt lat="45.08045" lon="6.159655"><ele>1384</ele></trkpt>
   <trkpt lat="45.080577" lon="6.15978"><ele>1384.25</ele></trkpt>
   <trkpt lat="45.080717" lon="6.159927"><ele>1385</ele></trkpt>
   <trkpt lat="45.081194" lon="6.160476"><ele>1387.5</ele></trkpt>
   <trkpt lat="45.081422" lon="6.160724"><ele>1388</ele></trkpt>
   <trkpt lat="45.08154" lon="6.160833"><ele>1388.75</ele></trkpt>
   <trkpt lat="45.081855" lon="6.161065"><ele>1391.25</ele></trkpt>
   <trkpt lat="45.082231" lon="6.161358"><ele>1391.75</ele></trkpt>
   <trkpt lat="45.082407" lon="6.161474"><ele>1392.75</ele></trkpt>
   <trkpt lat="45.082418" lon="6.161415"><ele>1393.5</ele></trkpt>
   <trkpt lat="45.082411" lon="6.161378"><ele>1393.75</ele></trkpt>
   <trkpt lat="45.082395" lon="6.16134"><ele>1394.5</ele></trkpt>
   <trkpt lat="45.082348" lon="6.161272"><ele>1395.5</ele></trkpt>
   <trkpt lat="45.082063" lon="6.161024"><ele>1396.25</ele></trkpt>
   <trkpt lat="45.081901" lon="6.16087"><ele>1397</ele></trkpt>
   <trkpt lat="45.081763" lon="6.160673"><ele>1398.5</ele></trkpt>
   <trkpt lat="45.081654" lon="6.160467"><ele>1400.5</ele></trkpt>
   <trkpt lat="45.081601" lon="6.160328"><ele>1402</ele></trkpt>
   <trkpt lat="45.081486" lon="6.159957"><ele>1404.25</ele></trkpt>
   <trkpt lat="45.081424" lon="6.159803"><ele>1405.25</ele></trkpt>
   <trkpt lat="45.081386" lon="6.159731"><ele>1405.75</ele></trkpt>
   <trkpt lat="45.081266" lon="6.159586"><ele>1406</ele></trkpt>
   <trkpt lat="45.081253" lon="6.159564"><ele>1406.25</ele></trkpt>
   <trkpt lat="45.081248" lon="6.159515"><ele>1407.25</ele></trkpt>
   <trkpt lat="45.081257" lon="6.159481"><ele>1408.25</ele></trkpt>
   <trkpt lat="45.081273" lon="6.159461"><ele>1409</ele></trkpt>
   <trkpt lat="45.081298" lon="6.159451"><ele>1409.75</ele></trkpt>
   <trkpt lat="45.081337" lon="6.159456"><ele>1410.5</ele></trkpt>
   <trkpt lat="45.081373" lon="6.15948"><ele>1410.75</ele></trkpt>
   <trkpt lat="45.081426" lon="6.159548"><ele>1410.25</ele></trkpt>
   <trkpt lat="45.08164" lon="6.159925"><ele>1409</ele></trkpt>
   <trkpt lat="45.081685" lon="6.159991"><ele>1409.25</ele></trkpt>
   <trkpt lat="45.08177" lon="6.160091"><ele>1410</ele></trkpt>
   <trkpt lat="45.081845" lon="6.160154"><ele>1410.75</ele></trkpt>
   <trkpt lat="45.08194" lon="6.160216"><ele>1412.5</ele></trkpt>
   <trkpt lat="45.082045" lon="6.16027"><ele>1413.75</ele></trkpt>
   <trkpt lat="45.08217" lon="6.160307"><ele>1415.5</ele></trkpt>
   <trkpt lat="45.082245" lon="6.16032"><ele>1416.25</ele></trkpt>
   <trkpt lat="45.082359" lon="6.160328"><ele>1417.5</ele></trkpt>
   <trkpt lat="45.082631" lon="6.160324"><ele>1420.5</ele></trkpt>
   <trkpt lat="45.082709" lon="6.160331"><ele>1421.25</ele></trkpt>
   <trkpt lat="45.082829" lon="6.160365"><ele>1422.75</ele></trkpt>
   <trkpt lat="45.082935" lon="6.160416"><ele>1424</ele></trkpt>
   <trkpt lat="45.083042" lon="6.160495"><ele>1424.75</ele></trkpt>
   <trkpt lat="45.083216" lon="6.160643"><ele>1426</ele></trkpt>
   <trkpt lat="45.083506" lon="6.160952"><ele>1427.75</ele></trkpt>
   <trkpt lat="45.08358" lon="6.161025"><ele>1427.75</ele></trkpt>
   <trkpt lat="45.083741" lon="6.161157"><ele>1428.5</ele></trkpt>
   <trkpt lat="45.083879" lon="6.161235"><ele>1429.5</ele></trkpt>
   <trkpt lat="45.083971" lon="6.161264"><ele>1430.25</ele></trkpt>
   <trkpt lat="45.084121" lon="6.161297"><ele>1431.75</ele></trkpt>
   <trkpt lat="45.084245" lon="6.161314"><ele>1432.75</ele></trkpt>
   <trkpt lat="45.084361" lon="6.161316"><ele>1433.75</ele></trkpt>
   <trkpt lat="45.084568" lon="6.161288"><ele>1435.75</ele></trkpt>
   <trkpt lat="45.085395" lon="6.161118"><ele>1442.5</ele></trkpt>
   <trkpt lat="45.085537" lon="6.161111"><ele>1443.75</ele></trkpt>
   <trkpt lat="45.085729" lon="6.161146"><ele>1445.75</ele></trkpt>
   <trkpt lat="45.08597" lon="6.161222"><ele>1447.75</ele></trkpt>
   <trkpt lat="45.086123" lon="6.161325"><ele>1448.25</ele></trkpt>
   <trkpt lat="45.086209" lon="6.161401"><ele>1447.75</ele></trkpt>
   <trkpt lat="45.086244" lon="6.161422"><ele>1447.5</ele></trkpt>
   <trkpt lat="45.086277" lon="6.161431"><ele>1447.75</ele></trkpt>
   <trkpt lat="45.086352" lon="6.161418"><ele>1448.75</ele></trkpt>
   <trkpt lat="45.086397" lon="6.1614"><ele>1449.75</ele></trkpt>
   <trkpt lat="45.086466" lon="6.161356"><ele>1451.25</ele></trkpt>
   <trkpt lat="45.086607" lon="6.161245"><ele>1455</ele></trkpt>
   <trkpt lat="45.086644" lon="6.161222"><ele>1455.75</ele></trkpt>
   <trkpt lat="45.08668" lon="6.161213"><ele>1456.5</ele></trkpt>
   <trkpt lat="45.086812" lon="6.161213"><ele>1458.25</ele></trkpt>
   <trkpt lat="45.086978" lon="6.161233"><ele>1460</ele></trkpt>
   <trkpt lat="45.087069" lon="6.161262"><ele>1460.75</ele></trkpt>
   <trkpt lat="45.087257" lon="6.161339"><ele>1462</ele></trkpt>
   <trkpt lat="45.087299" lon="6.161346"><ele>1462.5</ele></trkpt>
   <trkpt lat="45.087399" lon="6.161341"><ele>1464.5</ele></trkpt>
   <trkpt lat="45.087453" lon="6.161353"><ele>1465.25</ele></trkpt>
   <trkpt lat="45.087569" lon="6.161425"><ele>1465.5</ele></trkpt>
   <trkpt lat="45.087642" lon="6.161459"><ele>1466</ele></trkpt>
   <trkpt lat="45.087835" lon="6.161527"><ele>1468</ele></trkpt>
   <trkpt lat="45.088033" lon="6.161674"><ele>1468.25</ele></trkpt>
   <trkpt lat="45.088191" lon="6.161819"><ele>1470</ele></trkpt>
   <trkpt lat="45.088529" lon="6.162164"><ele>1473.5</ele></trkpt>
   <trkpt lat="45.08861" lon="6.162263"><ele>1474</ele></trkpt>
   <trkpt lat="45.088783" lon="6.162535"><ele>1473.75</ele></trkpt>
   <trkpt lat="45.088874" lon="6.162647"><ele>1474.25</ele></trkpt>
   <trkpt lat="45.089109" lon="6.16282"><ele>1478.75</ele></trkpt>
   <trkpt lat="45.08925" lon="6.162941"><ele>1480.75</ele></trkpt>
   <trkpt lat="45.089306" lon="6.162998"><ele>1481.25</ele></trkpt>
   <trkpt lat="45.089458" lon="6.163181"><ele>1482.5</ele></trkpt>
   <trkpt lat="45.089523" lon="6.16324"><ele>1483.25</ele></trkpt>
   <trkpt lat="45.089566" lon="6.16327"><ele>1483.75</ele></trkpt>
   <trkpt lat="45.089611" lon="6.16329"><ele>1484.5</ele></trkpt>
   <trkpt lat="45.089728" lon="6.163328"><ele>1487</ele></trkpt>
   <trkpt lat="45.089806" lon="6.163342"><ele>1488.25</ele></trkpt>
   <trkpt lat="45.089847" lon="6.163356"><ele>1488.75</ele></trkpt>
   <trkpt lat="45.089889" lon="6.163384"><ele>1489</ele></trkpt>
   <trkpt lat="45.08992" lon="6.16341"><ele>1489.25</ele></trkpt>
   <trkpt lat="45.089989" lon="6.163493"><ele>1489.25</ele></trkpt>
   <trkpt lat="45.090099" lon="6.163647"><ele>1487.75</ele></trkpt>
   <trkpt lat="45.090158" lon="6.16369"><ele>1487.25</ele></trkpt>
   <trkpt lat="45.090207" lon="6.163697"><ele>1487.25</ele></trkpt>
   <trkpt lat="45.090252" lon="6.163685"><ele>1487.75</ele></trkpt>
   <trkpt lat="45.09029" lon="6.163653"><ele>1488.75</ele></trkpt>
   <trkpt lat="45.090509" lon="6.163347"><ele>1497.25</ele></trkpt>
   <trkpt lat="45.090561" lon="6.163291"><ele>1498.75</ele></trkpt>
   <trkpt lat="45.090594" lon="6.163268"><ele>1499.75</ele></trkpt>
   <trkpt lat="45.090633" lon="6.163258"><ele>1500.75</ele></trkpt>
   <trkpt lat="45.090678" lon="6.163252"><ele>1501.5</ele></trkpt>
   <trkpt lat="45.090718" lon="6.163259"><ele>1502</ele></trkpt>
   <trkpt lat="45.090762" lon="6.163276"><ele>1502.25</ele></trkpt>
   <trkpt lat="45.09086" lon="6.163337"><ele>1502.25</ele></trkpt>
   <trkpt lat="45.091013" lon="6.163462"><ele>1501.75</ele></trkpt>
   <trkpt lat="45.091071" lon="6.163499"><ele>1502</ele></trkpt>
   <trkpt lat="45.091373" lon="6.163652"><ele>1504.75</ele></trkpt>
   <trkpt lat="45.091442" lon="6.163697"><ele>1505.25</ele></trkpt>
   <trkpt lat="45.091724" lon="6.163924"><ele>1507.5</ele></trkpt>
   <trkpt lat="45.091904" lon="6.164114"><ele>1509.25</ele></trkpt>
   <trkpt lat="45.091939" lon="6.16414"><ele>1510</ele></trkpt>
   <trkpt lat="45.092015" lon="6.164168"><ele>1510</ele></trkpt>
   <trkpt lat="45.092126" lon="6.164187"><ele>1509.75</ele></trkpt>
   <trkpt lat="45.092157" lon="6.164185"><ele>1510</ele></trkpt>
   <trkpt lat="45.092184" lon="6.164175"><ele>1510.5</ele></trkpt>
   <trkpt lat="45.092224" lon="6.164137"><ele>1511.25</ele></trkpt>
   <trkpt lat="45.092281" lon="6.163884"><ele>1515</ele></trkpt>
   <trkpt lat="45.092303" lon="6.163758"><ele>1516</ele></trkpt>
   <trkpt lat="45.092333" lon="6.163424"><ele>1517.75</ele></trkpt>
   <trkpt lat="45.092332" lon="6.163298"><ele>1518.25</ele></trkpt>
   <trkpt lat="45.092319" lon="6.16305"><ele>1519</ele></trkpt>
   <trkpt lat="45.092323" lon="6.163003"><ele>1519.5</ele></trkpt>
   <trkpt lat="45.092331" lon="6.162969"><ele>1519.75</ele></trkpt>
   <trkpt lat="45.092346" lon="6.162941"><ele>1520.25</ele></trkpt>
   <trkpt lat="45.09239" lon="6.162914"><ele>1521</ele></trkpt>
   <trkpt lat="45.092418" lon="6.162914"><ele>1521.25</ele></trkpt>
   <trkpt lat="45.092478" lon="6.162951"><ele>1521.5</ele></trkpt>
   <trkpt lat="45.092569" lon="6.163054"><ele>1521.75</ele></trkpt>
   <trkpt lat="45.092644" lon="6.163125"><ele>1522.25</ele></trkpt>
   <trkpt lat="45.092825" lon="6.163273"><ele>1523.75</ele></trkpt>
   <trkpt lat="45.092872" lon="6.163303"><ele>1524</ele></trkpt>
   <trkpt lat="45.092913" lon="6.163316"><ele>1524.5</ele></trkpt>
   <trkpt lat="45.093469" lon="6.163402"><ele>1528.75</ele></trkpt>
   <trkpt lat="45.093849" lon="6.163533"><ele>1532</ele></trkpt>
   <trkpt lat="45.093894" lon="6.163541"><ele>1532.5</ele></trkpt>
   <trkpt lat="45.093929" lon="6.163538"><ele>1532.75</ele></trkpt>
   <trkpt lat="45.093987" lon="6.163515"><ele>1533.5</ele></trkpt>
   <trkpt lat="45.094209" lon="6.163267"><ele>1536.75</ele></trkpt>
   <trkpt lat="45.094303" lon="6.163189"><ele>1538.25</ele></trkpt>
   <trkpt lat="45.094421" lon="6.163125"><ele>1540</ele></trkpt>
   <trkpt lat="45.094537" lon="6.163098"><ele>1541.25</ele></trkpt>
   <trkpt lat="45.094614" lon="6.163098"><ele>1541.75</ele></trkpt>
   <trkpt lat="45.095141" lon="6.163204"><ele>1546.25</ele></trkpt>
   <trkpt lat="45.095443" lon="6.163239"><ele>1549.25</ele></trkpt>
   <trkpt lat="45.095599" lon="6.163243"><ele>1551</ele></trkpt>
   <trkpt lat="45.09576" lon="6.163272"><ele>1552.25</ele></trkpt>
   <trkpt lat="45.09581" lon="6.163291"><ele>1552.75</ele></trkpt>
   <trkpt lat="45.09611" lon="6.163504"><ele>1555.25</ele></trkpt>
   <trkpt lat="45.096178" lon="6.163553"><ele>1556</ele></trkpt>
   <trkpt lat="45.096325" lon="6.163663"><ele>1557.75</ele></trkpt>
   <trkpt lat="45.096383" lon="6.163716"><ele>1558.5</ele></trkpt>
   <trkpt lat="45.096459" lon="6.163822"><ele>1558.75</ele></trkpt>
   <trkpt lat="45.096533" lon="6.16398"><ele>1559</ele></trkpt>
   <trkpt lat="45.096561" lon="6.16402"><ele>1559</ele></trkpt>
   <trkpt lat="45.096623" lon="6.164056"><ele>1559.25</ele></trkpt>
   <trkpt lat="45.096683" lon="6.164052"><ele>1559.75</ele></trkpt>
   <trkpt lat="45.096721" lon="6.164034"><ele>1560.25</ele></trkpt>
   <trkpt lat="45.096841" lon="6.163962"><ele>1561.5</ele></trkpt>
   <trkpt lat="45.097058" lon="6.163814"><ele>1564.75</ele></trkpt>
   <trkpt lat="45.097147" lon="6.163766"><ele>1566.25</ele></trkpt>
   <trkpt lat="45.097224" lon="6.163763"><ele>1567.25</ele></trkpt>
   <trkpt lat="45.09729" lon="6.163803"><ele>1569</ele></trkpt>
   <trkpt lat="45.097354" lon="6.163879"><ele>1569.75</ele></trkpt>
   <trkpt lat="45.097387" lon="6.163933"><ele>1570</ele></trkpt>
   <trkpt lat="45.097547" lon="6.164253"><ele>1569.5</ele></trkpt>
   <trkpt lat="45.097575" lon="6.16429"><ele>1569.5</ele></trkpt>
   <trkpt lat="45.097595" lon="6.164307"><ele>1569.75</ele></trkpt>
   <trkpt lat="45.097621" lon="6.16431"><ele>1570.25</ele></trkpt>
   <trkpt lat="45.097641" lon="6.1643"><ele>1571</ele></trkpt>
   <trkpt lat="45.097656" lon="6.164277"><ele>1572</ele></trkpt>
   <trkpt lat="45.097661" lon="6.164249"><ele>1572.75</ele></trkpt>
   <trkpt lat="45.097658" lon="6.16422"><ele>1573.25</ele></trkpt>
   <trkpt lat="45.097646" lon="6.164183"><ele>1573.75</ele></trkpt>
   <trkpt lat="45.097592" lon="6.164096"><ele>1573.75</ele></trkpt>
   <trkpt lat="45.097567" lon="6.164033"><ele>1574</ele></trkpt>
   <trkpt lat="45.097529" lon="6.163908"><ele>1574.75</ele></trkpt>
   <trkpt lat="45.097485" lon="6.163714"><ele>1577</ele></trkpt>
   <trkpt lat="45.097434" lon="6.163527"><ele>1579</ele></trkpt>
   <trkpt lat="45.097381" lon="6.163372"><ele>1580</ele></trkpt>
   <trkpt lat="45.097258" lon="6.163074"><ele>1580.75</ele></trkpt>
   <trkpt lat="45.09717" lon="6.162885"><ele>1581</ele></trkpt>
   <trkpt lat="45.097113" lon="6.162784"><ele>1581</ele></trkpt>
   <trkpt lat="45.097053" lon="6.162694"><ele>1581</ele></trkpt>
   <trkpt lat="45.096942" lon="6.162548"><ele>1580.25</ele></trkpt>
   <trkpt lat="45.096931" lon="6.162523"><ele>1580.25</ele></trkpt>
   <trkpt lat="45.096929" lon="6.162494"><ele>1580.75</ele></trkpt>
   <trkpt lat="45.096938" lon="6.162467"><ele>1581.5</ele></trkpt>
   <trkpt lat="45.096954" lon="6.162449"><ele>1582.25</ele></trkpt>
   <trkpt lat="45.096996" lon="6.162439"><ele>1583.75</ele></trkpt>
   <trkpt lat="45.097041" lon="6.162463"><ele>1584.5</ele></trkpt>
   <trkpt lat="45.097327" lon="6.162847"><ele>1586.75</ele></trkpt>
   <trkpt lat="45.097531" lon="6.163153"><ele>1589.5</ele></trkpt>
   <trkpt lat="45.097596" lon="6.163239"><ele>1590.5</ele></trkpt>
   <trkpt lat="45.097937" lon="6.163579"><ele>1596.5</ele></trkpt>
   <trkpt lat="45.098163" lon="6.163857"><ele>1598.25</ele></trkpt>
   <trkpt lat="45.098428" lon="6.164123"><ele>1598.5</ele></trkpt>
   <trkpt lat="45.098657" lon="6.164308"><ele>1601.5</ele></trkpt>
   <trkpt lat="45.098835" lon="6.164459"><ele>1604.25</ele></trkpt>
   <trkpt lat="45.099171" lon="6.164688"><ele>1608</ele></trkpt>
   <trkpt lat="45.099251" lon="6.164735"><ele>1608</ele></trkpt>
   <trkpt lat="45.099307" lon="6.164755"><ele>1608.25</ele></trkpt>
   <trkpt lat="45.099364" lon="6.164766"><ele>1609</ele></trkpt>
   <trkpt lat="45.099489" lon="6.164768"><ele>1610.75</ele></trkpt>
   <trkpt lat="45.099659" lon="6.164729"><ele>1613.25</ele></trkpt>
   <trkpt lat="45.099781" lon="6.164714"><ele>1614.25</ele></trkpt>
   <trkpt lat="45.099993" lon="6.164716"><ele>1615</ele></trkpt>
   <trkpt lat="45.100026" lon="6.164713"><ele>1615</ele></trkpt>
   <trkpt lat="45.100069" lon="6.16469"><ele>1615</ele></trkpt>
   <trkpt lat="45.100087" lon="6.164671"><ele>1615.25</ele></trkpt>
   <trkpt lat="45.100096" lon="6.164634"><ele>1616</ele></trkpt>
   <trkpt lat="45.100093" lon="6.164599"><ele>1616.5</ele></trkpt>
   <trkpt lat="45.100084" lon="6.164579"><ele>1616.75</ele></trkpt>
   <trkpt lat="45.100057" lon="6.164553"><ele>1617.25</ele></trkpt>
   <trkpt lat="45.099959" lon="6.164509"><ele>1618</ele></trkpt>
   <trkpt lat="45.099759" lon="6.164481"><ele>1618.25</ele></trkpt>
   <trkpt lat="45.099565" lon="6.164485"><ele>1618</ele></trkpt>
   <trkpt lat="45.099428" lon="6.164461"><ele>1618.25</ele></trkpt>
   <trkpt lat="45.099291" lon="6.164383"><ele>1617.75</ele></trkpt>
   <trkpt lat="45.099155" lon="6.164282"><ele>1618</ele></trkpt>
   <trkpt lat="45.099084" lon="6.1642"><ele>1618</ele></trkpt>
   <trkpt lat="45.099035" lon="6.16412"><ele>1618.5</ele></trkpt>
   <trkpt lat="45.09902" lon="6.164083"><ele>1618.75</ele></trkpt>
   <trkpt lat="45.098999" lon="6.163955"><ele>1620.5</ele></trkpt>
   <trkpt lat="45.098998" lon="6.16372"><ele>1624.25</ele></trkpt>
   <trkpt lat="45.09899" lon="6.163632"><ele>1625.5</ele></trkpt>
   <trkpt lat="45.098949" lon="6.163516"><ele>1626.75</ele></trkpt>
   <trkpt lat="45.098922" lon="6.163459"><ele>1627.25</ele></trkpt>
   <trkpt lat="45.098787" lon="6.163282"><ele>1627.5</ele></trkpt>
   <trkpt lat="45.098659" lon="6.16308"><ele>1629.25</ele></trkpt>
   <trkpt lat="45.098506" lon="6.162809"><ele>1631</ele></trkpt>
   <trkpt lat="45.098371" lon="6.162545"><ele>1634</ele></trkpt>
   <trkpt lat="45.098276" lon="6.16234"><ele>1635.75</ele></trkpt>
   <trkpt lat="45.098225" lon="6.162195"><ele>1637</ele></trkpt>
   <trkpt lat="45.098182" lon="6.162005"><ele>1638.5</ele></trkpt>
   <trkpt lat="45.09811" lon="6.161583"><ele>1641</ele></trkpt>
   <trkpt lat="45.098031" lon="6.161345"><ele>1640.25</ele></trkpt>
   <trkpt lat="45.098022" lon="6.161279"><ele>1640.25</ele></trkpt>
   <trkpt lat="45.098035" lon="6.161205"><ele>1641</ele></trkpt>
   <trkpt lat="45.098059" lon="6.161168"><ele>1641.75</ele></trkpt>
   <trkpt lat="45.098108" lon="6.161146"><ele>1644</ele></trkpt>
   <trkpt lat="45.098147" lon="6.161158"><ele>1645.5</ele></trkpt>
   <trkpt lat="45.098185" lon="6.16119"><ele>1647</ele></trkpt>
   <trkpt lat="45.098212" lon="6.161239"><ele>1647.75</ele></trkpt>
   <trkpt lat="45.098222" lon="6.161271"><ele>1647.75</ele></trkpt>
   <trkpt lat="45.098241" lon="6.161371"><ele>1647.75</ele></trkpt>
   <trkpt lat="45.098281" lon="6.161665"><ele>1646.75</ele></trkpt>
   <trkpt lat="45.098311" lon="6.161765"><ele>1646.5</ele></trkpt>
   <trkpt lat="45.098331" lon="6.161812"><ele>1646.75</ele></trkpt>
   <trkpt lat="45.098352" lon="6.161853"><ele>1646.75</ele></trkpt>
   <trkpt lat="45.098381" lon="6.16189"><ele>1647.25</ele></trkpt>
   <trkpt lat="45.098532" lon="6.162049"><ele>1649.5</ele></trkpt>
   <trkpt lat="45.098565" lon="6.16208"><ele>1650</ele></trkpt>
   <trkpt lat="45.098671" lon="6.162154"><ele>1651.5</ele></trkpt>
   <trkpt lat="45.09877" lon="6.16219"><ele>1653</ele></trkpt>
   <trkpt lat="45.098862" lon="6.162202"><ele>1654.75</ele></trkpt>
   <trkpt lat="45.099009" lon="6.162189"><ele>1656.5</ele></trkpt>
   <trkpt lat="45.099045" lon="6.162175"><ele>1657</ele></trkpt>
   <trkpt lat="45.099416" lon="6.161928"><ele>1663.25</ele></trkpt>
   <trkpt lat="45.099473" lon="6.161899"><ele>1663.75</ele></trkpt>
   <trkpt lat="45.099511" lon="6.161888"><ele>1664</ele></trkpt>
   <trkpt lat="45.099571" lon="6.161888"><ele>1663.75</ele></trkpt>
   <trkpt lat="45.099701" lon="6.161908"><ele>1662.75</ele></trkpt>
   <trkpt lat="45.099758" lon="6.161895"><ele>1663</ele></trkpt>
   <trkpt lat="45.099779" lon="6.161882"><ele>1663.25</ele></trkpt>
   <trkpt lat="45.099794" lon="6.161862"><ele>1663.75</ele></trkpt>
   <trkpt lat="45.099806" lon="6.161823"><ele>1664.75</ele></trkpt>
   <trkpt lat="45.099801" lon="6.161774"><ele>1666</ele></trkpt>
   <trkpt lat="45.099793" lon="6.16175"><ele>1666.5</ele></trkpt>
   <trkpt lat="45.09977" lon="6.161717"><ele>1667.5</ele></trkpt>
   <trkpt lat="45.099722" lon="6.161691"><ele>1668.25</ele></trkpt>
   <trkpt lat="45.099627" lon="6.161669"><ele>1668.75</ele></trkpt>
   <trkpt lat="45.099555" lon="6.161638"><ele>1669.5</ele></trkpt>
   <trkpt lat="45.099523" lon="6.161618"><ele>1670</ele></trkpt>
   <trkpt lat="45.099428" lon="6.161534"><ele>1671.75</ele></trkpt>
   <trkpt lat="45.099278" lon="6.161383"><ele>1673.75</ele></trkpt>
   <trkpt lat="45.099203" lon="6.161289"><ele>1675</ele></trkpt>
   <trkpt lat="45.099018" lon="6.160971"><ele>1678.5</ele></trkpt>
   <trkpt lat="45.098966" lon="6.160899"><ele>1679.25</ele></trkpt>
   <trkpt lat="45.098938" lon="6.160869"><ele>1679.75</ele></trkpt>
   <trkpt lat="45.098883" lon="6.160828"><ele>1680</ele></trkpt>
   <trkpt lat="45.098705" lon="6.160753"><ele>1680</ele></trkpt>
   <trkpt lat="45.098588" lon="6.160679"><ele>1679.75</ele></trkpt>
   <trkpt lat="45.098544" lon="6.160624"><ele>1679.5</ele></trkpt>
   <trkpt lat="45.09853" lon="6.160575"><ele>1680.5</ele></trkpt>
   <trkpt lat="45.098531" lon="6.160556"><ele>1681</ele></trkpt>
   <trkpt lat="45.098553" lon="6.160504"><ele>1683</ele></trkpt>
   <trkpt lat="45.098581" lon="6.160491"><ele>1684.25</ele></trkpt>
   <trkpt lat="45.09861" lon="6.160493"><ele>1685.25</ele></trkpt>
   <trkpt lat="45.098643" lon="6.160514"><ele>1685.25</ele></trkpt>
   <trkpt lat="45.098679" lon="6.160557"><ele>1684.5</ele></trkpt>
   <trkpt lat="45.09873" lon="6.160602"><ele>1684</ele></trkpt>
   <trkpt lat="45.098769" lon="6.160618"><ele>1684</ele></trkpt>
   <trkpt lat="45.098823" lon="6.160622"><ele>1684.5</ele></trkpt>
   <trkpt lat="45.098888" lon="6.160603"><ele>1685.75</ele></trkpt>
   <trkpt lat="45.099137" lon="6.160479"><ele>1690.75</ele></trkpt>
   <trkpt lat="45.099289" lon="6.16044"><ele>1693</ele></trkpt>
   <trkpt lat="45.099374" lon="6.160436"><ele>1694.25</ele></trkpt>
   <trkpt lat="45.099428" lon="6.160442"><ele>1694.5</ele></trkpt>
   <trkpt lat="45.099472" lon="6.160457"><ele>1694.75</ele></trkpt>
   <trkpt lat="45.099664" lon="6.160548"><ele>1695.25</ele></trkpt>
   <trkpt lat="45.099873" lon="6.160669"><ele>1695.25</ele></trkpt>
   <trkpt lat="45.099927" lon="6.160669"><ele>1696</ele></trkpt>
   <trkpt lat="45.099947" lon="6.160644"><ele>1697.25</ele></trkpt>
   <trkpt lat="45.099954" lon="6.160602"><ele>1698.5</ele></trkpt>
   <trkpt lat="45.099945" lon="6.160554"><ele>1700</ele></trkpt>
   <trkpt lat="45.099924" lon="6.16052"><ele>1700.5</ele></trkpt>
   <trkpt lat="45.099711" lon="6.160381"><ele>1700.75</ele></trkpt>
   <trkpt lat="45.099649" lon="6.160331"><ele>1701</ele></trkpt>
   <trkpt lat="45.099515" lon="6.160177"><ele>1703</ele></trkpt>
   <trkpt lat="45.09944" lon="6.160108"><ele>1703.75</ele></trkpt>
   <trkpt lat="45.099397" lon="6.160088"><ele>1703.75</ele></trkpt>
   <trkpt lat="45.099283" lon="6.160058"><ele>1703.5</ele></trkpt>
   <trkpt lat="45.099229" lon="6.160018"><ele>1704</ele></trkpt>
   <trkpt lat="45.099218" lon="6.160004"><ele>1704.25</ele></trkpt>
   <trkpt lat="45.099206" lon="6.159967"><ele>1705.25</ele></trkpt>
   <trkpt lat="45.099206" lon="6.159897"><ele>1707</ele></trkpt>
   <trkpt lat="45.099221" lon="6.159861"><ele>1708</ele></trkpt>
   <trkpt lat="45.099264" lon="6.159824"><ele>1709.25</ele></trkpt>
   <trkpt lat="45.099289" lon="6.159819"><ele>1709.75</ele></trkpt>
   <trkpt lat="45.099335" lon="6.159827"><ele>1710</ele></trkpt>
   <trkpt lat="45.099503" lon="6.159935"><ele>1709.5</ele></trkpt>
   <trkpt lat="45.099576" lon="6.159966"><ele>1710.25</ele></trkpt>
   <trkpt lat="45.099814" lon="6.160041"><ele>1712.5</ele></trkpt>
   <trkpt lat="45.099859" lon="6.160066"><ele>1712.5</ele></trkpt>
   <trkpt lat="45.10001" lon="6.160187"><ele>1712.5</ele></trkpt>
   <trkpt lat="45.100037" lon="6.160194"><ele>1712.75</ele></trkpt>
   <trkpt lat="45.100055" lon="6.16019"><ele>1713.25</ele></trkpt>
   <trkpt lat="45.10008" lon="6.16017"><ele>1714.5</ele></trkpt>
   <trkpt lat="45.100092" lon="6.160149"><ele>1715.25</ele></trkpt>
   <trkpt lat="45.100106" lon="6.160089"><ele>1717.25</ele></trkpt>
   <trkpt lat="45.100102" lon="6.160043"><ele>1718.25</ele></trkpt>
   <trkpt lat="45.100074" lon="6.159964"><ele>1719.75</ele></trkpt>
   <trkpt lat="45.100042" lon="6.159921"><ele>1720.25</ele></trkpt>
   <trkpt lat="45.09999" lon="6.159882"><ele>1720</ele></trkpt>
   <trkpt lat="45.099846" lon="6.159803"><ele>1719.75</ele></trkpt>
   <trkpt lat="45.09974" lon="6.159715"><ele>1720.5</ele></trkpt>
   <trkpt lat="45.099173" lon="6.159037"><ele>1729.25</ele></trkpt>
   <trkpt lat="45.099117" lon="6.15898"><ele>1730.25</ele></trkpt>
   <trkpt lat="45.099014" lon="6.158912"><ele>1731.75</ele></trkpt>
   <trkpt lat="45.098844" lon="6.158856"><ele>1732.25</ele></trkpt>
   <trkpt lat="45.0988" lon="6.158821"><ele>1732.5</ele></trkpt>
   <trkpt lat="45.098778" lon="6.158794"><ele>1732.75</ele></trkpt>
   <trkpt lat="45.098741" lon="6.158736"><ele>1733.25</ele></trkpt>
   <trkpt lat="45.098713" lon="6.158675"><ele>1733.5</ele></trkpt>
   <trkpt lat="45.09859" lon="6.158219"><ele>1739.25</ele></trkpt>
   <trkpt lat="45.098554" lon="6.158139"><ele>1740.25</ele></trkpt>
   <trkpt lat="45.09848" lon="6.158015"><ele>1741.5</ele></trkpt>
   <trkpt lat="45.098344" lon="6.15783"><ele>1743.5</ele></trkpt>
   <trkpt lat="45.09799" lon="6.157507"><ele>1747.25</ele></trkpt>
   <trkpt lat="45.097906" lon="6.157399"><ele>1748.5</ele></trkpt>
   <trkpt lat="45.097707" lon="6.157098"><ele>1753.5</ele></trkpt>
   <trkpt lat="45.097576" lon="6.156947"><ele>1755.25</ele></trkpt>
   <trkpt lat="45.097442" lon="6.15683"><ele>1756.5</ele></trkpt>
   <trkpt lat="45.097277" lon="6.156728"><ele>1757.5</ele></trkpt>
   <trkpt lat="45.096931" lon="6.15648"><ele>1762.25</ele></trkpt>
   <trkpt lat="45.096853" lon="6.15644"><ele>1763</ele></trkpt>
   <trkpt lat="45.09667" lon="6.1564"><ele>1763.5</ele></trkpt>
   <trkpt lat="45.096649" lon="6.156395"><ele>1763.75</ele></trkpt>
   <trkpt lat="45.096559" lon="6.156376"><ele>1764.25</ele></trkpt>
   <trkpt lat="45.096503" lon="6.156356"><ele>1765</ele></trkpt>
   <trkpt lat="45.096454" lon="6.156332"><ele>1765.75</ele></trkpt>
   <trkpt lat="45.096317" lon="6.15626"><ele>1767.5</ele></trkpt>
   <trkpt lat="45.09623" lon="6.156202"><ele>1768.5</ele></trkpt>
   <trkpt lat="45.096094" lon="6.156093"><ele>1770</ele></trkpt>
   <trkpt lat="45.095954" lon="6.155921"><ele>1771.75</ele></trkpt>
   <trkpt lat="45.095907" lon="6.15584"><ele>1772.75</ele></trkpt>
   <trkpt lat="45.095806" lon="6.155615"><ele>1776.25</ele></trkpt>
   <trkpt lat="45.095692" lon="6.155396"><ele>1779</ele></trkpt>
   <trkpt lat="45.095533" lon="6.155163"><ele>1780.75</ele></trkpt>
   <trkpt lat="45.095433" lon="6.15505"><ele>1782.25</ele></trkpt>
   <trkpt lat="45.095382" lon="6.155002"><ele>1782.75</ele></trkpt>
   <trkpt lat="45.094968" lon="6.154673"><ele>1787</ele></trkpt>
   <trkpt lat="45.094773" lon="6.154454"><ele>1789.75</ele></trkpt>
   <trkpt lat="45.094483" lon="6.154158"><ele>1793.25</ele></trkpt>
   <trkpt lat="45.094367" lon="6.154013"><ele>1794.5</ele></trkpt>
   <trkpt lat="45.094176" lon="6.153698"><ele>1798.75</ele></trkpt>
   <trkpt lat="45.093859" lon="6.153259"><ele>1805</ele></trkpt>
   <trkpt lat="45.093808" lon="6.153202"><ele>1805.75</ele></trkpt>
   <trkpt lat="45.093504" lon="6.15295"><ele>1809.25</ele></trkpt>
   <trkpt lat="45.093391" lon="6.152865"><ele>1810.5</ele></trkpt>
   <trkpt lat="45.093295" lon="6.152817"><ele>1811</ele></trkpt>
   <trkpt lat="45.093244" lon="6.152799"><ele>1811.25</ele></trkpt>
   <trkpt lat="45.093032" lon="6.15276"><ele>1811.25</ele></trkpt>
   <trkpt lat="45.093004" lon="6.15275"><ele>1811.25</ele></trkpt>
   <trkpt lat="45.092984" lon="6.152736"><ele>1811.5</ele></trkpt>
   <trkpt lat="45.092971" lon="6.152715"><ele>1812.25</ele></trkpt>
   <trkpt lat="45.092969" lon="6.152683"><ele>1813.25</ele></trkpt>
   <trkpt lat="45.092972" lon="6.152657"><ele>1814.25</ele></trkpt>
   <trkpt lat="45.092983" lon="6.152636"><ele>1815</ele></trkpt>
   <trkpt lat="45.093001" lon="6.15262"><ele>1815.75</ele></trkpt>
   <trkpt lat="45.093049" lon="6.152605"><ele>1816.5</ele></trkpt>
   <trkpt lat="45.093075" lon="6.152608"><ele>1816.75</ele></trkpt>
   <trkpt lat="45.093601" lon="6.152749"><ele>1820</ele></trkpt>
   <trkpt lat="45.093871" lon="6.152787"><ele>1823.25</ele></trkpt>
   <trkpt lat="45.093991" lon="6.152821"><ele>1824.75</ele></trkpt>
   <trkpt lat="45.094106" lon="6.152873"><ele>1825.75</ele></trkpt>
   <trkpt lat="45.094495" lon="6.153022"><ele>1830.75</ele></trkpt>
   <trkpt lat="45.094803" lon="6.153202"><ele>1834.5</ele></trkpt>
   <trkpt lat="45.095373" lon="6.153472"><ele>1841.75</ele></trkpt>
   <trkpt lat="45.095625" lon="6.153569"><ele>1845.75</ele></trkpt>
   <trkpt lat="45.096103" lon="6.153773"><ele>1851.75</ele></trkpt>
   <trkpt lat="45.096249" lon="6.153851"><ele>1853.75</ele></trkpt>
   <trkpt lat="45.096389" lon="6.153939"><ele>1856</ele></trkpt>
   <trkpt lat="45.096502" lon="6.154045"><ele>1856.5</ele></trkpt>
   <trkpt lat="45.096615" lon="6.154138"><ele>1857.75</ele></trkpt>
   <trkpt lat="45.096712" lon="6.154203"><ele>1858.75</ele></trkpt>
   <trkpt lat="45.096805" lon="6.154255"><ele>1859.25</ele></trkpt>
   <trkpt lat="45.096995" lon="6.154339"><ele>1862.25</ele></trkpt>
   <trkpt lat="45.097073" lon="6.154388"><ele>1862.5</ele></trkpt>
   <trkpt lat="45.097239" lon="6.154515"><ele>1862.5</ele></trkpt>
   <trkpt lat="45.09729" lon="6.154521"><ele>1863.25</ele></trkpt>
   <trkpt lat="45.097321" lon="6.154484"><ele>1865.75</ele></trkpt>
   <trkpt lat="45.097329" lon="6.154438"><ele>1867.75</ele></trkpt>
   <trkpt lat="45.09732" lon="6.154398"><ele>1869.25</ele></trkpt>
   <trkpt lat="45.097308" lon="6.15438"><ele>1869.75</ele></trkpt>
   <trkpt lat="45.097258" lon="6.154337"><ele>1869.75</ele></trkpt>
   <trkpt lat="45.097087" lon="6.154219"><ele>1869</ele></trkpt>
   <trkpt lat="45.096993" lon="6.154132"><ele>1869.75</ele></trkpt>
   <trkpt lat="45.096838" lon="6.15398"><ele>1871</ele></trkpt>
   <trkpt lat="45.096715" lon="6.153825"><ele>1873</ele></trkpt>
   <trkpt lat="45.09663" lon="6.153702"><ele>1875</ele></trkpt>
   <trkpt lat="45.09659" lon="6.153669"><ele>1875.25</ele></trkpt>
   <trkpt lat="45.096425" lon="6.153559"><ele>1875.25</ele></trkpt>
   <trkpt lat="45.09621" lon="6.153332"><ele>1878.25</ele></trkpt>
   <trkpt lat="45.096081" lon="6.153206"><ele>1879.25</ele></trkpt>
   <trkpt lat="45.096043" lon="6.153158"><ele>1879.75</ele></trkpt>
   <trkpt lat="45.095988" lon="6.153069"><ele>1881.5</ele></trkpt>
   <trkpt lat="45.095838" lon="6.152782"><ele>1886</ele></trkpt>
   <trkpt lat="45.095776" lon="6.152681"><ele>1887.75</ele></trkpt>
   <trkpt lat="45.095747" lon="6.152644"><ele>1888.5</ele></trkpt>
   <trkpt lat="45.095611" lon="6.152517"><ele>1889</ele></trkpt>
   <trkpt lat="45.095576" lon="6.152473"><ele>1889.5</ele></trkpt>
   <trkpt lat="45.095295" lon="6.152065"><ele>1895.25</ele></trkpt>
   <trkpt lat="45.095167" lon="6.151915"><ele>1898.5</ele></trkpt>
   <trkpt lat="45.095098" lon="6.151861"><ele>1899.25</ele></trkpt>
   <trkpt lat="45.095063" lon="6.151843"><ele>1899.5</ele></trkpt>
   <trkpt lat="45.094812" lon="6.151762"><ele>1899.25</ele></trkpt>
   <trkpt lat="45.094749" lon="6.151718"><ele>1900.75</ele></trkpt>
   <trkpt lat="45.094591" lon="6.151549"><ele>1906</ele></trkpt>
   <trkpt lat="45.094557" lon="6.151529"><ele>1906.25</ele></trkpt>
   <trkpt lat="45.094382" lon="6.151483"><ele>1905.5</ele></trkpt>
   <trkpt lat="45.09429" lon="6.151453"><ele>1905.5</ele></trkpt>
   <trkpt lat="45.094206" lon="6.151408"><ele>1906.5</ele></trkpt>
   <trkpt lat="45.094143" lon="6.151355"><ele>1908</ele></trkpt>
   <trkpt lat="45.094007" lon="6.151168"><ele>1912.75</ele></trkpt>
   <trkpt lat="45.093968" lon="6.151122"><ele>1913.75</ele></trkpt>
   <trkpt lat="45.093914" lon="6.151074"><ele>1914</ele></trkpt>
   <trkpt lat="45.093854" lon="6.151056"><ele>1914.25</ele></trkpt>
   <trkpt lat="45.093796" lon="6.151058"><ele>1914.5</ele></trkpt>
   <trkpt lat="45.093743" lon="6.151084"><ele>1913.5</ele></trkpt>
   <trkpt lat="45.0937" lon="6.151127"><ele>1911.5</ele></trkpt>
   <trkpt lat="45.093652" lon="6.151154"><ele>1910.25</ele></trkpt>
   <trkpt lat="45.093609" lon="6.151156"><ele>1910.5</ele></trkpt>
   <trkpt lat="45.093554" lon="6.151117"><ele>1910.5</ele></trkpt>
   <trkpt lat="45.093479" lon="6.151016"><ele>1913</ele></trkpt>
   <trkpt lat="45.093407" lon="6.15087"><ele>1917.75</ele></trkpt>
   <trkpt lat="45.09336" lon="6.150827"><ele>1918.25</ele></trkpt>
   <trkpt lat="45.093332" lon="6.150816"><ele>1918</ele></trkpt>
   <trkpt lat="45.093276" lon="6.150813"><ele>1918.25</ele></trkpt>
   <trkpt lat="45.093139" lon="6.150857"><ele>1916.25</ele></trkpt>
   <trkpt lat="45.093072" lon="6.150854"><ele>1916.75</ele></trkpt>
   <trkpt lat="45.093037" lon="6.150819"><ele>1918</ele></trkpt>
   <trkpt lat="45.092977" lon="6.150703"><ele>1922</ele></trkpt>
   <trkpt lat="45.092935" lon="6.150643"><ele>1924</ele></trkpt>
   <trkpt lat="45.09291" lon="6.150618"><ele>1924.75</ele></trkpt>
   <trkpt lat="45.092829" lon="6.150573"><ele>1925.75</ele></trkpt>
   <trkpt lat="45.092718" lon="6.150552"><ele>1926.75</ele></trkpt>
   <trkpt lat="45.092691" lon="6.150555"><ele>1926.75</ele></trkpt>
   <trkpt lat="45.092573" lon="6.150599"><ele>1925.25</ele></trkpt>
   <trkpt lat="45.092425" lon="6.150602"><ele>1925</ele></trkpt>
   <trkpt lat="45.092353" lon="6.150571"><ele>1926.25</ele></trkpt>
   <trkpt lat="45.092212" lon="6.150467"><ele>1930.75</ele></trkpt>
   <trkpt lat="45.091993" lon="6.150394"><ele>1929.25</ele></trkpt>
   <trkpt lat="45.091971" lon="6.150372"><ele>1929.5</ele></trkpt>
   <trkpt lat="45.091939" lon="6.150315"><ele>1930.5</ele></trkpt>
   <trkpt lat="45.091857" lon="6.150027"><ele>1935</ele></trkpt>
   <trkpt lat="45.09181" lon="6.149899"><ele>1936.75</ele></trkpt>
   <trkpt lat="45.091703" lon="6.149676"><ele>1938.75</ele></trkpt>
   <trkpt lat="45.091627" lon="6.149568"><ele>1939.75</ele></trkpt>
   <trkpt lat="45.091494" lon="6.149465"><ele>1940</ele></trkpt>
   <trkpt lat="45.091459" lon="6.14943"><ele>1940.5</ele></trkpt>
   <trkpt lat="45.091377" lon="6.149314"><ele>1943</ele></trkpt>
   <trkpt lat="45.091343" lon="6.14925"><ele>1944.75</ele></trkpt>
   <trkpt lat="45.091308" lon="6.149202"><ele>1946</ele></trkpt>
   <trkpt lat="45.091273" lon="6.149162"><ele>1946.75</ele></trkpt>
   <trkpt lat="45.091163" lon="6.14907"><ele>1948</ele></trkpt>
   <trkpt lat="45.091052" lon="6.148986"><ele>1950</ele></trkpt>
   <trkpt lat="45.09101" lon="6.148963"><ele>1950.75</ele></trkpt>
   <trkpt lat="45.090909" lon="6.148932"><ele>1951.5</ele></trkpt>
   <trkpt lat="45.090825" lon="6.148949"><ele>1950.5</ele></trkpt>
   <trkpt lat="45.090644" lon="6.149061"><ele>1951</ele></trkpt>
   <trkpt lat="45.090575" lon="6.149081"><ele>1952</ele></trkpt>
   <trkpt lat="45.090402" lon="6.149111"><ele>1955.25</ele></trkpt>
   <trkpt lat="45.090285" lon="6.149162"><ele>1956.75</ele></trkpt>
   <trkpt lat="45.090245" lon="6.149193"><ele>1957.25</ele></trkpt>
   <trkpt lat="45.0902" lon="6.149257"><ele>1957</ele></trkpt>
   <trkpt lat="45.090125" lon="6.149415"><ele>1956.5</ele></trkpt>
   <trkpt lat="45.090088" lon="6.149466"><ele>1957</ele></trkpt>
   <trkpt lat="45.090063" lon="6.149489"><ele>1958</ele></trkpt>
   <trkpt lat="45.090022" lon="6.149507"><ele>1959.75</ele></trkpt>
   <trkpt lat="45.089983" lon="6.149499"><ele>1961.5</ele></trkpt>
   <trkpt lat="45.089968" lon="6.149487"><ele>1962</ele></trkpt>
   <trkpt lat="45.089956" lon="6.14947"><ele>1962.75</ele></trkpt>
   <trkpt lat="45.089943" lon="6.149421"><ele>1963.75</ele></trkpt>
   <trkpt lat="45.089943" lon="6.149364"><ele>1964.5</ele></trkpt>
   <trkpt lat="45.089952" lon="6.149324"><ele>1964.75</ele></trkpt>
   <trkpt lat="45.089979" lon="6.149253"><ele>1964.5</ele></trkpt>
   <trkpt lat="45.090039" lon="6.149139"><ele>1964.75</ele></trkpt>
   <trkpt lat="45.090136" lon="6.149011"><ele>1966</ele></trkpt>
   <trkpt lat="45.090227" lon="6.148911"><ele>1966.5</ele></trkpt>
   <trkpt lat="45.090382" lon="6.14877"><ele>1968.5</ele></trkpt>
   <trkpt lat="45.090399" lon="6.148752"><ele>1969</ele></trkpt>
   <trkpt lat="45.090412" lon="6.14873"><ele>1969.75</ele></trkpt>
   <trkpt lat="45.090416" lon="6.148712"><ele>1970.5</ele></trkpt>
   <trkpt lat="45.090416" lon="6.148692"><ele>1971.25</ele></trkpt>
   <trkpt lat="45.090413" lon="6.148675"><ele>1971.75</ele></trkpt>
   <trkpt lat="45.090405" lon="6.148663"><ele>1972.5</ele></trkpt>
   <trkpt lat="45.090395" lon="6.148655"><ele>1972.75</ele></trkpt>
   <trkpt lat="45.090348" lon="6.148652"><ele>1973.25</ele></trkpt>
   <trkpt lat="45.090264" lon="6.148698"><ele>1972.5</ele></trkpt>
   <trkpt lat="45.09002" lon="6.148875"><ele>1973.75</ele></trkpt>
   <trkpt lat="45.089858" lon="6.148979"><ele>1976.5</ele></trkpt>
   <trkpt lat="45.089766" lon="6.149061"><ele>1977.75</ele></trkpt>
   <trkpt lat="45.089705" lon="6.149128"><ele>1978.25</ele></trkpt>
   <trkpt lat="45.089651" lon="6.14918"><ele>1978</ele></trkpt>
   <trkpt lat="45.089629" lon="6.149198"><ele>1978.25</ele></trkpt>
   <trkpt lat="45.089604" lon="6.149215"><ele>1978.5</ele></trkpt>
   <trkpt lat="45.08958" lon="6.149227"><ele>1978.75</ele></trkpt>
   <trkpt lat="45.089555" lon="6.149238"><ele>1979</ele></trkpt>
   <trkpt lat="45.089533" lon="6.149245"><ele>1979.25</ele></trkpt>
   <trkpt lat="45.089511" lon="6.149251"><ele>1979.75</ele></trkpt>
   <trkpt lat="45.089468" lon="6.149254"><ele>1980.5</ele></trkpt>
   <trkpt lat="45.089427" lon="6.149246"><ele>1981.25</ele></trkpt>
   <trkpt lat="45.089286" lon="6.149183"><ele>1983</ele></trkpt>
   <trkpt lat="45.089217" lon="6.149162"><ele>1983.5</ele></trkpt>
   <trkpt lat="45.089137" lon="6.149159"><ele>1984.25</ele></trkpt>
   <trkpt lat="45.089014" lon="6.149182"><ele>1985</ele></trkpt>
   <trkpt lat="45.088949" lon="6.149221"><ele>1985.5</ele></trkpt>
   <trkpt lat="45.088905" lon="6.149264"><ele>1986</ele></trkpt>
   <trkpt lat="45.08889" lon="6.149285"><ele>1986.25</ele></trkpt>
   <trkpt lat="45.08886" lon="6.149326"><ele>1986.5</ele></trkpt>
   <trkpt lat="45.088837" lon="6.149352"><ele>1986.75</ele></trkpt>
   <trkpt lat="45.088816" lon="6.149371"><ele>1986.75</ele></trkpt>
   <trkpt lat="45.088794" lon="6.149384"><ele>1987</ele></trkpt>
   <trkpt lat="45.088776" lon="6.149393"><ele>1987</ele></trkpt>
   <trkpt lat="45.088754" lon="6.149401"><ele>1987.25</ele></trkpt>
   <trkpt lat="45.088596" lon="6.149399"><ele>1988</ele></trkpt>
   <trkpt lat="45.088487" lon="6.149369"><ele>1989.25</ele></trkpt>
   <trkpt lat="45.088368" lon="6.149326"><ele>1990.5</ele></trkpt>
   <trkpt lat="45.088099" lon="6.149192"><ele>1993.5</ele></trkpt>
   <trkpt lat="45.088006" lon="6.149149"><ele>1994.75</ele></trkpt>
   <trkpt lat="45.087833" lon="6.149095"><ele>1997.25</ele></trkpt>
   <trkpt lat="45.087658" lon="6.149063"><ele>1998.75</ele></trkpt>
   <trkpt lat="45.08753" lon="6.149058"><ele>1999.75</ele></trkpt>

  </trkseg>
 </trk>
</gpx>