<?xml version='1.0' encoding='UTF-8'?>
<gpx version="1.1" creator="polkadotbike-trim" xmlns="http://www.topografix.com/GPX/1/1">
  <trk>
    <name>Côte De Belmont</name>
    <trkseg>
      <trkpt lat="53.638134" lon="-2.494490">
        <ele>245.00</ele>
      </trkpt>
      <trkpt lat="53.638314" lon="-2.495549">
        <ele>252.75</ele>
      </trkpt>
      <trkpt lat="53.638323" lon="-2.495632">
        <ele>253.25</ele>
      </trkpt>
      <trkpt lat="53.638328" lon="-2.495681">
        <ele>253.25</ele>
      </trkpt>
      <trkpt lat="53.638366" lon="-2.496057">
        <ele>254.00</ele>
      </trkpt>
      <trkpt lat="53.638402" lon="-2.496519">
        <ele>254.75</ele>
      </trkpt>
      <trkpt lat="53.638597" lon="-2.499032">
        <ele>252.25</ele>
      </trkpt>
      <trkpt lat="53.638630" lon="-2.499457">
        <ele>252.00</ele>
      </trkpt>
      <trkpt lat="53.638541" lon="-2.500555">
        <ele>251.25</ele>
      </trkpt>
      <trkpt lat="53.638490" lon="-2.500821">
        <ele>250.50</ele>
      </trkpt>
      <trkpt lat="53.638396" lon="-2.501050">
        <ele>251.25</ele>
      </trkpt>
      <trkpt lat="53.638163" lon="-2.501320">
        <ele>252.50</ele>
      </trkpt>
      <trkpt lat="53.638078" lon="-2.501594">
        <ele>253.75</ele>
      </trkpt>
      <trkpt lat="53.638026" lon="-2.502132">
        <ele>256.00</ele>
      </trkpt>
      <trkpt lat="53.638045" lon="-2.504086">
        <ele>259.75</ele>
      </trkpt>
      <trkpt lat="53.638183" lon="-2.505601">
        <ele>262.25</ele>
      </trkpt>
      <trkpt lat="53.638196" lon="-2.506255">
        <ele>262.50</ele>
      </trkpt>
      <trkpt lat="53.638283" lon="-2.506762">
        <ele>262.00</ele>
      </trkpt>
      <trkpt lat="53.638267" lon="-2.507903">
        <ele>266.25</ele>
      </trkpt>
      <trkpt lat="53.638283" lon="-2.508520">
        <ele>267.75</ele>
      </trkpt>
      <trkpt lat="53.638376" lon="-2.509429">
        <ele>271.25</ele>
      </trkpt>
      <trkpt lat="53.638450" lon="-2.510012">
        <ele>275.00</ele>
      </trkpt>
      <trkpt lat="53.638531" lon="-2.510445">
        <ele>276.75</ele>
      </trkpt>
      <trkpt lat="53.638698" lon="-2.510950">
        <ele>278.50</ele>
      </trkpt>
      <trkpt lat="53.638789" lon="-2.511427">
        <ele>281.50</ele>
      </trkpt>
      <trkpt lat="53.638976" lon="-2.512434">
        <ele>287.75</ele>
      </trkpt>
      <trkpt lat="53.639072" lon="-2.512964">
        <ele>290.50</ele>
      </trkpt>
      <trkpt lat="53.639120" lon="-2.513391">
        <ele>292.00</ele>
      </trkpt>
      <trkpt lat="53.639211" lon="-2.513788">
        <ele>295.25</ele>
      </trkpt>
      <trkpt lat="53.639280" lon="-2.514171">
        <ele>297.25</ele>
      </trkpt>
      <trkpt lat="53.639252" lon="-2.514397">
        <ele>297.75</ele>
      </trkpt>
      <trkpt lat="53.639164" lon="-2.514774">
        <ele>298.75</ele>
      </trkpt>
      <trkpt lat="53.639160" lon="-2.514848">
        <ele>298.75</ele>
      </trkpt>
      <trkpt lat="53.639151" lon="-2.515018">
        <ele>298.50</ele>
      </trkpt>
      <trkpt lat="53.639180" lon="-2.516001">
        <ele>302.50</ele>
      </trkpt>
      <trkpt lat="53.639181" lon="-2.516021">
        <ele>302.50</ele>
      </trkpt>
      <trkpt lat="53.639223" lon="-2.516672">
        <ele>306.25</ele>
      </trkpt>
      <trkpt lat="53.639319" lon="-2.517505">
        <ele>309.75</ele>
      </trkpt>
      <trkpt lat="53.639376" lon="-2.518137">
        <ele>309.75</ele>
      </trkpt>
      <trkpt lat="53.639338" lon="-2.518460">
        <ele>311.25</ele>
      </trkpt>
      <trkpt lat="53.639209" lon="-2.518997">
        <ele>312.75</ele>
      </trkpt>
      <trkpt lat="53.639149" lon="-2.519419">
        <ele>313.75</ele>
      </trkpt>
      <trkpt lat="53.639144" lon="-2.519900">
        <ele>315.50</ele>
      </trkpt>
      <trkpt lat="53.639206" lon="-2.520347">
        <ele>317.00</ele>
      </trkpt>
      <trkpt lat="53.639199" lon="-2.520428">
        <ele>317.25</ele>
      </trkpt>
      <trkpt lat="53.639180" lon="-2.520643">
        <ele>318.25</ele>
      </trkpt>
      <trkpt lat="53.639080" lon="-2.520812">
        <ele>318.75</ele>
      </trkpt>
      <trkpt lat="53.638912" lon="-2.521052">
        <ele>319.75</ele>
      </trkpt>
      <trkpt lat="53.638693" lon="-2.521583">
        <ele>320.75</ele>
      </trkpt>
      <trkpt lat="53.638596" lon="-2.521976">
        <ele>321.25</ele>
      </trkpt>
      <trkpt lat="53.638499" lon="-2.522515">
        <ele>323.00</ele>
      </trkpt>
      <trkpt lat="53.638387" lon="-2.522946">
        <ele>323.75</ele>
      </trkpt>
      <trkpt lat="53.638163" lon="-2.523324">
        <ele>325.00</ele>
      </trkpt>
      <trkpt lat="53.638125" lon="-2.523389">
        <ele>325.25</ele>
      </trkpt>
      <trkpt lat="53.638104" lon="-2.523425">
        <ele>325.25</ele>
      </trkpt>
    </trkseg>
  </trk>
</gpx>