<?xml version="1.0" encoding="UTF-8"?>
<!-- track-length = 11086 filtered ascend = 398 plain-ascend = 387 cost=21459 energy=0.1kwh time=1h 18m 5s -->
<gpx 
 xmlns="http://www.topografix.com/GPX/1/1" 
 xmlns:xsi="http://www.w3.org/2001/XMLSchema-instance" 
 xsi:schemaLocation="http://www.topografix.com/GPX/1/1 http://www.topografix.com/GPX/1/1/gpx.xsd" 
 version="1.1" 
 creator="BRouter-Web 0.18.1">
 <trk>
  <name>Viladecans -&gt; Begues (11.1km)</name>
  <trkseg>
   <trkpt lat="41.307658" lon="2.027283"><ele>14</ele></trkpt>
   <trkpt lat="41.308194" lon="2.026831"><ele>14</ele></trkpt>
   <trkpt lat="41.30822" lon="2.026809"><ele>14</ele></trkpt>
   <trkpt lat="41.308477" lon="2.026595"><ele>14</ele></trkpt>
   <trkpt lat="41.308564" lon="2.026522"><ele>14</ele></trkpt>
   <trkpt lat="41.308836" lon="2.026291"><ele>14.25</ele></trkpt>
   <trkpt lat="41.308952" lon="2.026218"><ele>14.5</ele></trkpt>
   <trkpt lat="41.308976" lon="2.026205"><ele>14.5</ele></trkpt>
   <trkpt lat="41.309012" lon="2.026184"><ele>14.75</ele></trkpt>
   <trkpt lat="41.309059" lon="2.026211"><ele>14.5</ele></trkpt>
   <trkpt lat="41.309093" lon="2.026211"><ele>14.5</ele></trkpt>
   <trkpt lat="41.309127" lon="2.026196"><ele>14.5</ele></trkpt>
   <trkpt lat="41.309156" lon="2.026166"><ele>14.75</ele></trkpt>
   <trkpt lat="41.309183" lon="2.026099"><ele>14.25</ele></trkpt>
   <trkpt lat="41.309282" lon="2.026012"><ele>11.5</ele></trkpt>
   <trkpt lat="41.30931" lon="2.025985"><ele>11</ele></trkpt>
   <trkpt lat="41.309539" lon="2.025758"><ele>12.25</ele></trkpt>
   <trkpt lat="41.309649" lon="2.025646"><ele>11.5</ele></trkpt>
   <trkpt lat="41.310273" lon="2.025016"><ele>8</ele></trkpt>
   <trkpt lat="41.31033" lon="2.024958"><ele>8</ele></trkpt>
   <trkpt lat="41.310513" lon="2.024779"><ele>8</ele></trkpt>
   <trkpt lat="41.310904" lon="2.024397"><ele>8</ele></trkpt>
   <trkpt lat="41.311735" lon="2.02358"><ele>9</ele></trkpt>
   <trkpt lat="41.311756" lon="2.023559"><ele>9</ele></trkpt>
   <trkpt lat="41.311831" lon="2.023469"><ele>9</ele></trkpt>
   <trkpt lat="41.311855" lon="2.023424"><ele>9</ele></trkpt>
   <trkpt lat="41.311898" lon="2.023433"><ele>9</ele></trkpt>
   <trkpt lat="41.31192" lon="2.023429"><ele>9</ele></trkpt>
   <trkpt lat="41.31197" lon="2.023397"><ele>9</ele></trkpt>
   <trkpt lat="41.312005" lon="2.023339"><ele>9</ele></trkpt>
   <trkpt lat="41.312015" lon="2.023293"><ele>9.25</ele></trkpt>
   <trkpt lat="41.312078" lon="2.023311"><ele>9.25</ele></trkpt>
   <trkpt lat="41.312149" lon="2.023272"><ele>9.5</ele></trkpt>
   <trkpt lat="41.31264" lon="2.022896"><ele>10</ele></trkpt>
   <trkpt lat="41.312709" lon="2.02282"><ele>10</ele></trkpt>
   <trkpt lat="41.312735" lon="2.022733"><ele>10</ele></trkpt>
   <trkpt lat="41.312751" lon="2.022744"><ele>10</ele></trkpt>
   <trkpt lat="41.312794" lon="2.022757"><ele>9.75</ele></trkpt>
   <trkpt lat="41.312839" lon="2.02275"><ele>9.75</ele></trkpt>
   <trkpt lat="41.312879" lon="2.022724"><ele>9.5</ele></trkpt>
   <trkpt lat="41.31291" lon="2.022682"><ele>9.5</ele></trkpt>
   <trkpt lat="41.312931" lon="2.022617"><ele>9.75</ele></trkpt>
   <trkpt lat="41.312931" lon="2.022547"><ele>9.75</ele></trkpt>
   <trkpt lat="41.312923" lon="2.022513"><ele>9.75</ele></trkpt>
   <trkpt lat="41.312891" lon="2.022452"><ele>10</ele></trkpt>
   <trkpt lat="41.312843" lon="2.022415"><ele>10</ele></trkpt>
   <trkpt lat="41.314402" lon="2.02121"><ele>11.25</ele></trkpt>
   <trkpt lat="41.314497" lon="2.021158"><ele>11.25</ele></trkpt>
   <trkpt lat="41.314611" lon="2.021086"><ele>11.5</ele></trkpt>
   <trkpt lat="41.314685" lon="2.021101"><ele>11.75</ele></trkpt>
   <trkpt lat="41.315185" lon="2.020702"><ele>12.5</ele></trkpt>
   <trkpt lat="41.315208" lon="2.020729"><ele>12.5</ele></trkpt>
   <trkpt lat="41.315295" lon="2.020832"><ele>13</ele></trkpt>
   <trkpt lat="41.315417" lon="2.020742"><ele>13</ele></trkpt>
   <trkpt lat="41.315456" lon="2.020709"><ele>13</ele></trkpt>
   <trkpt lat="41.315482" lon="2.020685"><ele>13</ele></trkpt>
   <trkpt lat="41.315568" lon="2.020615"><ele>13</ele></trkpt>
   <trkpt lat="41.315596" lon="2.020581"><ele>13</ele></trkpt>
   <trkpt lat="41.315607" lon="2.020567"><ele>13</ele></trkpt>
   <trkpt lat="41.315613" lon="2.02056"><ele>13</ele></trkpt>
   <trkpt lat="41.315649" lon="2.020515"><ele>12.75</ele></trkpt>
   <trkpt lat="41.315772" lon="2.020424"><ele>12</ele></trkpt>
   <trkpt lat="41.315649" lon="2.020515"><ele>12.75</ele></trkpt>
   <trkpt lat="41.315613" lon="2.02056"><ele>13</ele></trkpt>
   <trkpt lat="41.315607" lon="2.020567"><ele>13</ele></trkpt>
   <trkpt lat="41.315596" lon="2.020581"><ele>13</ele></trkpt>
   <trkpt lat="41.315568" lon="2.020615"><ele>13</ele></trkpt>
   <trkpt lat="41.315529" lon="2.020571"><ele>13</ele></trkpt>
   <trkpt lat="41.315433" lon="2.020468"><ele>13</ele></trkpt>
   <trkpt lat="41.314907" lon="2.019938"><ele>11.75</ele></trkpt>
   <trkpt lat="41.314401" lon="2.019429"><ele>10.75</ele></trkpt>
   <trkpt lat="41.314326" lon="2.019354"><ele>10.25</ele></trkpt>
   <trkpt lat="41.31391" lon="2.018947"><ele>10</ele></trkpt>
   <trkpt lat="41.313865" lon="2.018903"><ele>10</ele></trkpt>
   <trkpt lat="41.313864" lon="2.01888"><ele>9.75</ele></trkpt>
   <trkpt lat="41.313871" lon="2.018862"><ele>9.75</ele></trkpt>
   <trkpt lat="41.313906" lon="2.018794"><ele>10</ele></trkpt>
   <trkpt lat="41.313867" lon="2.018737"><ele>9.75</ele></trkpt>
   <trkpt lat="41.313832" lon="2.018686"><ele>9.75</ele></trkpt>
   <trkpt lat="41.313562" lon="2.018403"><ele>9</ele></trkpt>
   <trkpt lat="41.313464" lon="2.018302"><ele>9</ele></trkpt>
   <trkpt lat="41.313387" lon="2.018211"><ele>9</ele></trkpt>
   <trkpt lat="41.312609" lon="2.017426"><ele>9</ele></trkpt>
   <trkpt lat="41.312011" lon="2.016815"><ele>8</ele></trkpt>
   <trkpt lat="41.311934" lon="2.016748"><ele>8</ele></trkpt>
   <trkpt lat="41.311894" lon="2.016711"><ele>8</ele></trkpt>
   <trkpt lat="41.311822" lon="2.01662"><ele>8</ele></trkpt>
   <trkpt lat="41.311766" lon="2.016562"><ele>8.25</ele></trkpt>
   <trkpt lat="41.311661" lon="2.016461"><ele>8.5</ele></trkpt>
   <trkpt lat="41.311034" lon="2.015806"><ele>9</ele></trkpt>
   <trkpt lat="41.311026" lon="2.015799"><ele>9</ele></trkpt>
   <trkpt lat="41.311005" lon="2.015753"><ele>9</ele></trkpt>
   <trkpt lat="41.310948" lon="2.015696"><ele>9</ele></trkpt>
   <trkpt lat="41.310875" lon="2.015623"><ele>9</ele></trkpt>
   <trkpt lat="41.310857" lon="2.01563"><ele>9</ele></trkpt>
   <trkpt lat="41.31081" lon="2.015582"><ele>8.75</ele></trkpt>
   <trkpt lat="41.30999" lon="2.014756"><ele>9.75</ele></trkpt>
   <trkpt lat="41.309514" lon="2.014277"><ele>9</ele></trkpt>
   <trkpt lat="41.309406" lon="2.014167"><ele>9</ele></trkpt>
   <trkpt lat="41.309317" lon="2.014078"><ele>9</ele></trkpt>
   <trkpt lat="41.308472" lon="2.013227"><ele>10</ele></trkpt>
   <trkpt lat="41.308418" lon="2.013179"><ele>10</ele></trkpt>
   <trkpt lat="41.308374" lon="2.013128"><ele>10</ele></trkpt>
   <trkpt lat="41.308337" lon="2.013056"><ele>10</ele></trkpt>
   <trkpt lat="41.30831" lon="2.012982"><ele>10</ele></trkpt>
   <trkpt lat="41.308289" lon="2.012868"><ele>10</ele></trkpt>
   <trkpt lat="41.308244" lon="2.012768"><ele>10.25</ele></trkpt>
   <trkpt lat="41.308147" lon="2.012628"><ele>10.75</ele></trkpt>
   <trkpt lat="41.308053" lon="2.01256"><ele>11</ele></trkpt>
   <trkpt lat="41.307999" lon="2.012545"><ele>11</ele></trkpt>
   <trkpt lat="41.307946" lon="2.012532"><ele>11.25</ele></trkpt>
   <trkpt lat="41.307947" lon="2.012499"><ele>11.25</ele></trkpt>
   <trkpt lat="41.307851" lon="2.012402"><ele>11.75</ele></trkpt>
   <trkpt lat="41.307797" lon="2.012347"><ele>11.75</ele></trkpt>
   <trkpt lat="41.30762" lon="2.012167"><ele>12</ele></trkpt>
   <trkpt lat="41.307186" lon="2.011724"><ele>13</ele></trkpt>
   <trkpt lat="41.306966" lon="2.011504"><ele>13.75</ele></trkpt>
   <trkpt lat="41.30681" lon="2.011354"><ele>14</ele></trkpt>
   <trkpt lat="41.306765" lon="2.01131"><ele>14</ele></trkpt>
   <trkpt lat="41.306645" lon="2.011238"><ele>13.75</ele></trkpt>
   <trkpt lat="41.306656" lon="2.011255"><ele>14</ele></trkpt>
   <trkpt lat="41.306645" lon="2.011238"><ele>13.75</ele></trkpt>
   <trkpt lat="41.306591" lon="2.011196"><ele>13.5</ele></trkpt>
   <trkpt lat="41.306586" lon="2.011096"><ele>13.25</ele></trkpt>
   <trkpt lat="41.306584" lon="2.011054"><ele>13.25</ele></trkpt>
   <trkpt lat="41.306463" lon="2.008299"><ele>14</ele></trkpt>
   <trkpt lat="41.306463" lon="2.008278"><ele>14</ele></trkpt>
   <trkpt lat="41.306435" lon="2.007915"><ele>15.25</ele></trkpt>
   <trkpt lat="41.306474" lon="2.007688"><ele>16</ele></trkpt>
   <trkpt lat="41.306583" lon="2.007464"><ele>16.75</ele></trkpt>
   <trkpt lat="41.306957" lon="2.006909"><ele>18.75</ele></trkpt>
   <trkpt lat="41.307213" lon="2.006578"><ele>19.5</ele></trkpt>
   <trkpt lat="41.307579" lon="2.006178"><ele>20.25</ele></trkpt>
   <trkpt lat="41.307741" lon="2.006031"><ele>20.5</ele></trkpt>
   <trkpt lat="41.307983" lon="2.005846"><ele>20.75</ele></trkpt>
   <trkpt lat="41.308206" lon="2.00567"><ele>21.75</ele></trkpt>
   <trkpt lat="41.308293" lon="2.005593"><ele>21.75</ele></trkpt>
   <trkpt lat="41.308312" lon="2.005602"><ele>21.75</ele></trkpt>
   <trkpt lat="41.308349" lon="2.005595"><ele>21.75</ele></trkpt>
   <trkpt lat="41.308374" lon="2.00557"><ele>21.75</ele></trkpt>
   <trkpt lat="41.308378" lon="2.005562"><ele>21.75</ele></trkpt>
   <trkpt lat="41.308387" lon="2.005505"><ele>21.75</ele></trkpt>
   <trkpt lat="41.30837" lon="2.005458"><ele>22</ele></trkpt>
   <trkpt lat="41.308354" lon="2.005442"><ele>22</ele></trkpt>
   <trkpt lat="41.308332" lon="2.005432"><ele>21.75</ele></trkpt>
   <trkpt lat="41.308293" lon="2.005442"><ele>21.75</ele></trkpt>
   <trkpt lat="41.308285" lon="2.005409"><ele>21.75</ele></trkpt>
   <trkpt lat="41.308273" lon="2.005371"><ele>21.5</ele></trkpt>
   <trkpt lat="41.30826" lon="2.005329"><ele>21.5</ele></trkpt>
   <trkpt lat="41.308033" lon="2.004513"><ele>19.75</ele></trkpt>
   <trkpt lat="41.308025" lon="2.004485"><ele>19.75</ele></trkpt>
   <trkpt lat="41.308018" lon="2.004377"><ele>20</ele></trkpt>
   <trkpt lat="41.308034" lon="2.00437"><ele>20</ele></trkpt>
   <trkpt lat="41.308052" lon="2.004346"><ele>20.25</ele></trkpt>
   <trkpt lat="41.308056" lon="2.004302"><ele>20.5</ele></trkpt>
   <trkpt lat="41.308437" lon="2.003968"><ele>21.5</ele></trkpt>
   <trkpt lat="41.308853" lon="2.002749"><ele>29</ele></trkpt>
   <trkpt lat="41.308867" lon="2.002702"><ele>29.25</ele></trkpt>
   <trkpt lat="41.309013" lon="2.002405"><ele>31</ele></trkpt>
   <trkpt lat="41.309152" lon="2.002207"><ele>31.75</ele></trkpt>
   <trkpt lat="41.309209" lon="2.002177"><ele>32.25</ele></trkpt>
   <trkpt lat="41.309283" lon="2.002107"><ele>32.5</ele></trkpt>
   <trkpt lat="41.309319" lon="2.00205"><ele>32.75</ele></trkpt>
   <trkpt lat="41.309347" lon="2.001986"><ele>32.5</ele></trkpt>
   <trkpt lat="41.309372" lon="2.00188"><ele>33</ele></trkpt>
   <trkpt lat="41.309376" lon="2.001806"><ele>33.5</ele></trkpt>
   <trkpt lat="41.30937" lon="2.001732"><ele>34</ele></trkpt>
   <trkpt lat="41.309354" lon="2.001661"><ele>34.25</ele></trkpt>
   <trkpt lat="41.309329" lon="2.001594"><ele>34.5</ele></trkpt>
   <trkpt lat="41.309295" lon="2.001535"><ele>34.5</ele></trkpt>
   <trkpt lat="41.309254" lon="2.001485"><ele>34.25</ele></trkpt>
   <trkpt lat="41.309153" lon="2.001276"><ele>33.75</ele></trkpt>
   <trkpt lat="41.309106" lon="2.000834"><ele>33.5</ele></trkpt>
   <trkpt lat="41.309115" lon="2.000696"><ele>33.75</ele></trkpt>
   <trkpt lat="41.309115" lon="2.000653"><ele>34</ele></trkpt>
   <trkpt lat="41.309132" lon="2.000331"><ele>34.5</ele></trkpt>
   <trkpt lat="41.309158" lon="1.999827"><ele>35.75</ele></trkpt>
   <trkpt lat="41.309169" lon="1.999709"><ele>36</ele></trkpt>
   <trkpt lat="41.309194" lon="1.999708"><ele>36</ele></trkpt>
   <trkpt lat="41.309217" lon="1.999693"><ele>36.25</ele></trkpt>
   <trkpt lat="41.309233" lon="1.999667"><ele>36.5</ele></trkpt>
   <trkpt lat="41.30924" lon="1.999635"><ele>36.5</ele></trkpt>
   <trkpt lat="41.309236" lon="1.999601"><ele>36.5</ele></trkpt>
   <trkpt lat="41.309223" lon="1.999573"><ele>36.5</ele></trkpt>
   <trkpt lat="41.309202" lon="1.999554"><ele>36.5</ele></trkpt>
   <trkpt lat="41.309177" lon="1.999548"><ele>36.5</ele></trkpt>
   <trkpt lat="41.309281" lon="1.998661"><ele>38.25</ele></trkpt>
   <trkpt lat="41.309297" lon="1.998522"><ele>38.5</ele></trkpt>
   <trkpt lat="41.30941" lon="1.997922"><ele>40</ele></trkpt>
   <trkpt lat="41.309477" lon="1.997445"><ele>42.5</ele></trkpt>
   <trkpt lat="41.309497" lon="1.997244"><ele>42.5</ele></trkpt>
   <trkpt lat="41.309518" lon="1.997093"><ele>43.25</ele></trkpt>
   <trkpt lat="41.309559" lon="1.996811"><ele>44.25</ele></trkpt>
   <trkpt lat="41.309587" lon="1.99662"><ele>45</ele></trkpt>
   <trkpt lat="41.309619" lon="1.996407"><ele>45.25</ele></trkpt>
   <trkpt lat="41.309665" lon="1.996181"><ele>46.25</ele></trkpt>
   <trkpt lat="41.309758" lon="1.995724"><ele>48.75</ele></trkpt>
   <trkpt lat="41.309852" lon="1.995268"><ele>50.25</ele></trkpt>
   <trkpt lat="41.309886" lon="1.995101"><ele>50.5</ele></trkpt>
   <trkpt lat="41.309873" lon="1.995005"><ele>50.5</ele></trkpt>
   <trkpt lat="41.309898" lon="1.994846"><ele>51</ele></trkpt>
   <trkpt lat="41.30991" lon="1.994697"><ele>51.25</ele></trkpt>
   <trkpt lat="41.309911" lon="1.99445"><ele>52</ele></trkpt>
   <trkpt lat="41.309933" lon="1.994446"><ele>52.25</ele></trkpt>
   <trkpt lat="41.309954" lon="1.994425"><ele>52.5</ele></trkpt>
   <trkpt lat="41.309965" lon="1.994393"><ele>53</ele></trkpt>
   <trkpt lat="41.309964" lon="1.994363"><ele>53.25</ele></trkpt>
   <trkpt lat="41.309953" lon="1.994337"><ele>53.25</ele></trkpt>
   <trkpt lat="41.309932" lon="1.994317"><ele>53.25</ele></trkpt>
   <trkpt lat="41.30991" lon="1.994313"><ele>53.25</ele></trkpt>
   <trkpt lat="41.309885" lon="1.994325"><ele>52.75</ele></trkpt>
   <trkpt lat="41.309798" lon="1.99411"><ele>54.25</ele></trkpt>
   <trkpt lat="41.309629" lon="1.99372"><ele>54</ele></trkpt>
   <trkpt lat="41.309367" lon="1.993279"><ele>53.5</ele></trkpt>
   <trkpt lat="41.308964" lon="1.992586"><ele>54</ele></trkpt>
   <trkpt lat="41.308932" lon="1.992531"><ele>54.5</ele></trkpt>
   <trkpt lat="41.308881" lon="1.992445"><ele>54.75</ele></trkpt>
   <trkpt lat="41.30877" lon="1.99225"><ele>54</ele></trkpt>
   <trkpt lat="41.308229" lon="1.991287"><ele>55.5</ele></trkpt>
   <trkpt lat="41.308147" lon="1.99113"><ele>56.25</ele></trkpt>
   <trkpt lat="41.308133" lon="1.991094"><ele>56.5</ele></trkpt>
   <trkpt lat="41.308119" lon="1.990998"><ele>56.75</ele></trkpt>
   <trkpt lat="41.308041" lon="1.990814"><ele>57</ele></trkpt>
   <trkpt lat="41.308022" lon="1.990773"><ele>57.5</ele></trkpt>
   <trkpt lat="41.307982" lon="1.990683"><ele>58.25</ele></trkpt>
   <trkpt lat="41.307967" lon="1.990589"><ele>59</ele></trkpt>
   <trkpt lat="41.307944" lon="1.990532"><ele>59.25</ele></trkpt>
   <trkpt lat="41.307857" lon="1.990259"><ele>59.75</ele></trkpt>
   <trkpt lat="41.307812" lon="1.990131"><ele>59.25</ele></trkpt>
   <trkpt lat="41.307799" lon="1.990091"><ele>59.25</ele></trkpt>
   <trkpt lat="41.307725" lon="1.989917"><ele>58</ele></trkpt>
   <trkpt lat="41.307659" lon="1.989798"><ele>58.5</ele></trkpt>
   <trkpt lat="41.307543" lon="1.989633"><ele>60</ele></trkpt>
   <trkpt lat="41.307112" lon="1.989196"><ele>65.25</ele></trkpt>
   <trkpt lat="41.307019" lon="1.989113"><ele>67.25</ele></trkpt>
   <trkpt lat="41.306812" lon="1.988927"><ele>70.25</ele></trkpt>
   <trkpt lat="41.306721" lon="1.988796"><ele>70.75</ele></trkpt>
   <trkpt lat="41.306679" lon="1.98871"><ele>70.75</ele></trkpt>
   <trkpt lat="41.306654" lon="1.988629"><ele>70.5</ele></trkpt>
   <trkpt lat="41.306638" lon="1.98855"><ele>70.75</ele></trkpt>
   <trkpt lat="41.306632" lon="1.988401"><ele>71.5</ele></trkpt>
   <trkpt lat="41.306663" lon="1.988084"><ele>73.75</ele></trkpt>
   <trkpt lat="41.3067" lon="1.987877"><ele>75.75</ele></trkpt>
   <trkpt lat="41.306769" lon="1.987645"><ele>76.5</ele></trkpt>
   <trkpt lat="41.306811" lon="1.987555"><ele>76.75</ele></trkpt>
   <trkpt lat="41.306977" lon="1.987284"><ele>79.25</ele></trkpt>
   <trkpt lat="41.30706" lon="1.987113"><ele>80.25</ele></trkpt>
   <trkpt lat="41.307091" lon="1.986989"><ele>80.5</ele></trkpt>
   <trkpt lat="41.307109" lon="1.986866"><ele>80.75</ele></trkpt>
   <trkpt lat="41.307134" lon="1.986607"><ele>81.75</ele></trkpt>
   <trkpt lat="41.307153" lon="1.986329"><ele>82.5</ele></trkpt>
   <trkpt lat="41.307193" lon="1.985945"><ele>84.5</ele></trkpt>
   <trkpt lat="41.307385" lon="1.98501"><ele>88.75</ele></trkpt>
   <trkpt lat="41.307399" lon="1.984894"><ele>90</ele></trkpt>
   <trkpt lat="41.307417" lon="1.984316"><ele>93</ele></trkpt>
   <trkpt lat="41.307427" lon="1.984213"><ele>93</ele></trkpt>
   <trkpt lat="41.307444" lon="1.984125"><ele>93.25</ele></trkpt>
   <trkpt lat="41.307501" lon="1.983951"><ele>94.25</ele></trkpt>
   <trkpt lat="41.307566" lon="1.983846"><ele>95</ele></trkpt>
   <trkpt lat="41.307654" lon="1.983752"><ele>95.75</ele></trkpt>
   <trkpt lat="41.307761" lon="1.983659"><ele>96.5</ele></trkpt>
   <trkpt lat="41.307997" lon="1.983481"><ele>98</ele></trkpt>
   <trkpt lat="41.308147" lon="1.983394"><ele>99.25</ele></trkpt>
   <trkpt lat="41.308305" lon="1.983364"><ele>100.5</ele></trkpt>
   <trkpt lat="41.308534" lon="1.983335"><ele>101.25</ele></trkpt>
   <trkpt lat="41.308667" lon="1.983291"><ele>102.5</ele></trkpt>
   <trkpt lat="41.308748" lon="1.983224"><ele>103.5</ele></trkpt>
   <trkpt lat="41.308795" lon="1.983151"><ele>103.5</ele></trkpt>
   <trkpt lat="41.308821" lon="1.983011"><ele>103.5</ele></trkpt>
   <trkpt lat="41.308814" lon="1.982951"><ele>104.5</ele></trkpt>
   <trkpt lat="41.308755" lon="1.982823"><ele>106</ele></trkpt>
   <trkpt lat="41.308389" lon="1.982363"><ele>108</ele></trkpt>
   <trkpt lat="41.308355" lon="1.982297"><ele>107.75</ele></trkpt>
   <trkpt lat="41.30834" lon="1.982222"><ele>108.25</ele></trkpt>
   <trkpt lat="41.308351" lon="1.982105"><ele>109.25</ele></trkpt>
   <trkpt lat="41.308376" lon="1.982"><ele>111</ele></trkpt>
   <trkpt lat="41.308423" lon="1.981901"><ele>111.75</ele></trkpt>
   <trkpt lat="41.308489" lon="1.981802"><ele>111.25</ele></trkpt>
   <trkpt lat="41.308697" lon="1.981576"><ele>113.5</ele></trkpt>
   <trkpt lat="41.308781" lon="1.98144"><ele>113.5</ele></trkpt>
   <trkpt lat="41.308805" lon="1.981363"><ele>113.5</ele></trkpt>
   <trkpt lat="41.308812" lon="1.981295"><ele>114.5</ele></trkpt>
   <trkpt lat="41.308809" lon="1.981233"><ele>115</ele></trkpt>
   <trkpt lat="41.308778" lon="1.98111"><ele>115.75</ele></trkpt>
   <trkpt lat="41.308729" lon="1.980961"><ele>116.25</ele></trkpt>
   <trkpt lat="41.308717" lon="1.980847"><ele>117.5</ele></trkpt>
   <trkpt lat="41.308725" lon="1.980732"><ele>117.25</ele></trkpt>
   <trkpt lat="41.30877" lon="1.980592"><ele>117.75</ele></trkpt>
   <trkpt lat="41.308848" lon="1.980456"><ele>118.5</ele></trkpt>
   <trkpt lat="41.308963" lon="1.980338"><ele>120.5</ele></trkpt>
   <trkpt lat="41.309218" lon="1.980124"><ele>123.5</ele></trkpt>
   <trkpt lat="41.309259" lon="1.980081"><ele>123.5</ele></trkpt>
   <trkpt lat="41.309325" lon="1.979962"><ele>123</ele></trkpt>
   <trkpt lat="41.309357" lon="1.979838"><ele>122.75</ele></trkpt>
   <trkpt lat="41.309373" lon="1.979724"><ele>122</ele></trkpt>
   <trkpt lat="41.309364" lon="1.979586"><ele>123.5</ele></trkpt>
   <trkpt lat="41.309337" lon="1.979339"><ele>125.75</ele></trkpt>
   <trkpt lat="41.309326" lon="1.979156"><ele>127.25</ele></trkpt>
   <trkpt lat="41.309326" lon="1.978992"><ele>127</ele></trkpt>
   <trkpt lat="41.309346" lon="1.978756"><ele>127.25</ele></trkpt>
   <trkpt lat="41.309387" lon="1.978501"><ele>128.25</ele></trkpt>
   <trkpt lat="41.309971" lon="1.975921"><ele>147.5</ele></trkpt>
   <trkpt lat="41.310036" lon="1.975741"><ele>149.75</ele></trkpt>
   <trkpt lat="41.310135" lon="1.975565"><ele>153.75</ele></trkpt>
   <trkpt lat="41.310201" lon="1.975466"><ele>154.5</ele></trkpt>
   <trkpt lat="41.310265" lon="1.975399"><ele>154.75</ele></trkpt>
   <trkpt lat="41.31039" lon="1.975293"><ele>154.25</ele></trkpt>
   <trkpt lat="41.310767" lon="1.975017"><ele>155</ele></trkpt>
   <trkpt lat="41.310824" lon="1.974964"><ele>155.25</ele></trkpt>
   <trkpt lat="41.310873" lon="1.9749"><ele>156.25</ele></trkpt>
   <trkpt lat="41.310961" lon="1.974748"><ele>158</ele></trkpt>
   <trkpt lat="41.311" lon="1.974638"><ele>159</ele></trkpt>
   <trkpt lat="41.31103" lon="1.974522"><ele>159.75</ele></trkpt>
   <trkpt lat="41.311146" lon="1.973854"><ele>163.5</ele></trkpt>
   <trkpt lat="41.31124" lon="1.97331"><ele>166</ele></trkpt>
   <trkpt lat="41.311341" lon="1.973033"><ele>167.75</ele></trkpt>
   <trkpt lat="41.311383" lon="1.972965"><ele>168.5</ele></trkpt>
   <trkpt lat="41.311467" lon="1.972887"><ele>169.5</ele></trkpt>
   <trkpt lat="41.311663" lon="1.972775"><ele>170.75</ele></trkpt>
   <trkpt lat="41.311749" lon="1.972695"><ele>172.5</ele></trkpt>
   <trkpt lat="41.3118" lon="1.972599"><ele>172.75</ele></trkpt>
   <trkpt lat="41.311972" lon="1.972064"><ele>175</ele></trkpt>
   <trkpt lat="41.312109" lon="1.971712"><ele>175.75</ele></trkpt>
   <trkpt lat="41.312414" lon="1.971077"><ele>180.5</ele></trkpt>
   <trkpt lat="41.312535" lon="1.970817"><ele>183</ele></trkpt>
   <trkpt lat="41.312595" lon="1.970689"><ele>185</ele></trkpt>
   <trkpt lat="41.313247" lon="1.969025"><ele>192</ele></trkpt>
   <trkpt lat="41.313305" lon="1.968877"><ele>195.5</ele></trkpt>
   <trkpt lat="41.313556" lon="1.968295"><ele>200.5</ele></trkpt>
   <trkpt lat="41.313618" lon="1.968116"><ele>203.5</ele></trkpt>
   <trkpt lat="41.313648" lon="1.967978"><ele>205.25</ele></trkpt>
   <trkpt lat="41.313663" lon="1.96787"><ele>206.75</ele></trkpt>
   <trkpt lat="41.313672" lon="1.967751"><ele>208</ele></trkpt>
   <trkpt lat="41.313665" lon="1.967157"><ele>212.5</ele></trkpt>
   <trkpt lat="41.313685" lon="1.966967"><ele>213.75</ele></trkpt>
   <trkpt lat="41.313743" lon="1.966736"><ele>215.5</ele></trkpt>
   <trkpt lat="41.313814" lon="1.966576"><ele>216.25</ele></trkpt>
   <trkpt lat="41.313966" lon="1.966362"><ele>218.25</ele></trkpt>
   <trkpt lat="41.314042" lon="1.966254"><ele>218.25</ele></trkpt>
   <trkpt lat="41.314063" lon="1.966195"><ele>218</ele></trkpt>
   <trkpt lat="41.314108" lon="1.966135"><ele>218.5</ele></trkpt>
   <trkpt lat="41.31416" lon="1.966067"><ele>219.25</ele></trkpt>
   <trkpt lat="41.314256" lon="1.96592"><ele>220.5</ele></trkpt>
   <trkpt lat="41.31456" lon="1.965456"><ele>225.75</ele></trkpt>
   <trkpt lat="41.314631" lon="1.96533"><ele>226</ele></trkpt>
   <trkpt lat="41.314669" lon="1.965212"><ele>226.5</ele></trkpt>
   <trkpt lat="41.314682" lon="1.965128"><ele>227</ele></trkpt>
   <trkpt lat="41.314686" lon="1.965016"><ele>227</ele></trkpt>
   <trkpt lat="41.31468" lon="1.964927"><ele>227.5</ele></trkpt>
   <trkpt lat="41.314631" lon="1.964716"><ele>228</ele></trkpt>
   <trkpt lat="41.314625" lon="1.964565"><ele>228.5</ele></trkpt>
   <trkpt lat="41.314648" lon="1.96434"><ele>230.25</ele></trkpt>
   <trkpt lat="41.314764" lon="1.963722"><ele>233.75</ele></trkpt>
   <trkpt lat="41.314789" lon="1.963495"><ele>235</ele></trkpt>
   <trkpt lat="41.31478" lon="1.96328"><ele>235.5</ele></trkpt>
   <trkpt lat="41.314756" lon="1.963129"><ele>236</ele></trkpt>
   <trkpt lat="41.314728" lon="1.962956"><ele>236</ele></trkpt>
   <trkpt lat="41.31472" lon="1.962856"><ele>235.75</ele></trkpt>
   <trkpt lat="41.314718" lon="1.962691"><ele>236</ele></trkpt>
   <trkpt lat="41.314742" lon="1.962289"><ele>237</ele></trkpt>
   <trkpt lat="41.314772" lon="1.961659"><ele>237.5</ele></trkpt>
   <trkpt lat="41.314809" lon="1.961022"><ele>241</ele></trkpt>
   <trkpt lat="41.314818" lon="1.960931"><ele>241.75</ele></trkpt>
   <trkpt lat="41.314839" lon="1.960836"><ele>242</ele></trkpt>
   <trkpt lat="41.314918" lon="1.960618"><ele>243.5</ele></trkpt>
   <trkpt lat="41.31504" lon="1.960329"><ele>244.5</ele></trkpt>
   <trkpt lat="41.31515" lon="1.959997"><ele>245.75</ele></trkpt>
   <trkpt lat="41.315193" lon="1.959908"><ele>245.75</ele></trkpt>
   <trkpt lat="41.31524" lon="1.959836"><ele>245.5</ele></trkpt>
   <trkpt lat="41.31531" lon="1.959765"><ele>245.5</ele></trkpt>
   <trkpt lat="41.315556" lon="1.959639"><ele>250.5</ele></trkpt>
   <trkpt lat="41.315624" lon="1.959585"><ele>252.25</ele></trkpt>
   <trkpt lat="41.315657" lon="1.959536"><ele>253</ele></trkpt>
   <trkpt lat="41.315697" lon="1.95945"><ele>253.75</ele></trkpt>
   <trkpt lat="41.315721" lon="1.95936"><ele>253</ele></trkpt>
   <trkpt lat="41.31574" lon="1.959249"><ele>252</ele></trkpt>
   <trkpt lat="41.315757" lon="1.95905"><ele>251</ele></trkpt>
   <trkpt lat="41.315788" lon="1.958791"><ele>251</ele></trkpt>
   <trkpt lat="41.315821" lon="1.958522"><ele>252</ele></trkpt>
   <trkpt lat="41.315828" lon="1.958458"><ele>252.25</ele></trkpt>
   <trkpt lat="41.315818" lon="1.958346"><ele>253.5</ele></trkpt>
   <trkpt lat="41.315796" lon="1.958272"><ele>254.5</ele></trkpt>
   <trkpt lat="41.315758" lon="1.958186"><ele>256</ele></trkpt>
   <trkpt lat="41.315669" lon="1.957977"><ele>257.5</ele></trkpt>
   <trkpt lat="41.315633" lon="1.957868"><ele>257</ele></trkpt>
   <trkpt lat="41.315601" lon="1.957704"><ele>257</ele></trkpt>
   <trkpt lat="41.3156" lon="1.957651"><ele>257.25</ele></trkpt>
   <trkpt lat="41.3156" lon="1.957643"><ele>257.25</ele></trkpt>
   <trkpt lat="41.315609" lon="1.957521"><ele>257.25</ele></trkpt>
   <trkpt lat="41.315625" lon="1.957429"><ele>258.5</ele></trkpt>
   <trkpt lat="41.315675" lon="1.957285"><ele>261</ele></trkpt>
   <trkpt lat="41.315909" lon="1.956822"><ele>265.75</ele></trkpt>
   <trkpt lat="41.316244" lon="1.956125"><ele>272.25</ele></trkpt>
   <trkpt lat="41.316312" lon="1.955891"><ele>272.5</ele></trkpt>
   <trkpt lat="41.316414" lon="1.955471"><ele>271.75</ele></trkpt>
   <trkpt lat="41.316639" lon="1.954955"><ele>275.5</ele></trkpt>
   <trkpt lat="41.31668" lon="1.954893"><ele>275.75</ele></trkpt>
   <trkpt lat="41.316743" lon="1.954845"><ele>277.75</ele></trkpt>
   <trkpt lat="41.316796" lon="1.954842"><ele>278.5</ele></trkpt>
   <trkpt lat="41.316828" lon="1.954853"><ele>278.75</ele></trkpt>
   <trkpt lat="41.316863" lon="1.954868"><ele>278.75</ele></trkpt>
   <trkpt lat="41.3169" lon="1.954901"><ele>278.25</ele></trkpt>
   <trkpt lat="41.316934" lon="1.95494"><ele>277.5</ele></trkpt>
   <trkpt lat="41.317011" lon="1.955053"><ele>278.5</ele></trkpt>
   <trkpt lat="41.317152" lon="1.9553"><ele>277.5</ele></trkpt>
   <trkpt lat="41.317241" lon="1.955394"><ele>279</ele></trkpt>
   <trkpt lat="41.317486" lon="1.955609"><ele>280.25</ele></trkpt>
   <trkpt lat="41.317607" lon="1.955759"><ele>282.25</ele></trkpt>
   <trkpt lat="41.317704" lon="1.955937"><ele>281.75</ele></trkpt>
   <trkpt lat="41.317865" lon="1.95625"><ele>281.25</ele></trkpt>
   <trkpt lat="41.318032" lon="1.956424"><ele>281.5</ele></trkpt>
   <trkpt lat="41.318228" lon="1.956701"><ele>281.5</ele></trkpt>
   <trkpt lat="41.318215" lon="1.95691"><ele>278.75</ele></trkpt>
   <trkpt lat="41.318326" lon="1.957506"><ele>276.5</ele></trkpt>
   <trkpt lat="41.318523" lon="1.957841"><ele>274.75</ele></trkpt>
   <trkpt lat="41.318688" lon="1.958096"><ele>274.5</ele></trkpt>
   <trkpt lat="41.31879" lon="1.958288"><ele>274</ele></trkpt>
   <trkpt lat="41.318909" lon="1.958298"><ele>277</ele></trkpt>
   <trkpt lat="41.318971" lon="1.958246"><ele>276.5</ele></trkpt>
   <trkpt lat="41.319022" lon="1.958176"><ele>276.5</ele></trkpt>
   <trkpt lat="41.319119" lon="1.957913"><ele>277</ele></trkpt>
   <trkpt lat="41.319163" lon="1.957753"><ele>277</ele></trkpt>
   <trkpt lat="41.31919" lon="1.957263"><ele>277</ele></trkpt>
   <trkpt lat="41.31922" lon="1.957144"><ele>277.25</ele></trkpt>
   <trkpt lat="41.319337" lon="1.956985"><ele>277</ele></trkpt>
   <trkpt lat="41.319495" lon="1.956811"><ele>276.5</ele></trkpt>
   <trkpt lat="41.319631" lon="1.956695"><ele>275</ele></trkpt>
   <trkpt lat="41.319636" lon="1.956544"><ele>275.75</ele></trkpt>
   <trkpt lat="41.319608" lon="1.956196"><ele>277</ele></trkpt>
   <trkpt lat="41.319563" lon="1.956026"><ele>278.5</ele></trkpt>
   <trkpt lat="41.319496" lon="1.955879"><ele>279.75</ele></trkpt>
   <trkpt lat="41.3194" lon="1.955748"><ele>281</ele></trkpt>
   <trkpt lat="41.319279" lon="1.955667"><ele>282.75</ele></trkpt>
   <trkpt lat="41.319229" lon="1.955546"><ele>281.5</ele></trkpt>
   <trkpt lat="41.319186" lon="1.955418"><ele>282.25</ele></trkpt>
   <trkpt lat="41.319175" lon="1.955326"><ele>282.5</ele></trkpt>
   <trkpt lat="41.319177" lon="1.955253"><ele>282.5</ele></trkpt>
   <trkpt lat="41.319187" lon="1.955175"><ele>282.5</ele></trkpt>
   <trkpt lat="41.319252" lon="1.954929"><ele>281.5</ele></trkpt>
   <trkpt lat="41.319282" lon="1.954781"><ele>283</ele></trkpt>
   <trkpt lat="41.319288" lon="1.954628"><ele>285.25</ele></trkpt>
   <trkpt lat="41.319237" lon="1.954267"><ele>288.5</ele></trkpt>
   <trkpt lat="41.319239" lon="1.954121"><ele>286.5</ele></trkpt>
   <trkpt lat="41.319293" lon="1.953775"><ele>289.5</ele></trkpt>
   <trkpt lat="41.3194" lon="1.953232"><ele>292</ele></trkpt>
   <trkpt lat="41.31944" lon="1.953126"><ele>290.5</ele></trkpt>
   <trkpt lat="41.319492" lon="1.953056"><ele>291</ele></trkpt>
   <trkpt lat="41.319548" lon="1.953023"><ele>292.25</ele></trkpt>
   <trkpt lat="41.319631" lon="1.953005"><ele>293.5</ele></trkpt>
   <trkpt lat="41.319725" lon="1.953018"><ele>293.75</ele></trkpt>
   <trkpt lat="41.319815" lon="1.953049"><ele>294.75</ele></trkpt>
   <trkpt lat="41.319882" lon="1.953095"><ele>295.5</ele></trkpt>
   <trkpt lat="41.319945" lon="1.953161"><ele>295.75</ele></trkpt>
   <trkpt lat="41.320125" lon="1.953391"><ele>296</ele></trkpt>
   <trkpt lat="41.320176" lon="1.953433"><ele>296.5</ele></trkpt>
   <trkpt lat="41.320227" lon="1.953461"><ele>297.5</ele></trkpt>
   <trkpt lat="41.320391" lon="1.95349"><ele>299.75</ele></trkpt>
   <trkpt lat="41.320702" lon="1.953515"><ele>302</ele></trkpt>
   <trkpt lat="41.320869" lon="1.953509"><ele>302.25</ele></trkpt>
   <trkpt lat="41.320953" lon="1.953462"><ele>302.5</ele></trkpt>
   <trkpt lat="41.321047" lon="1.953353"><ele>304</ele></trkpt>
   <trkpt lat="41.321139" lon="1.953113"><ele>304.25</ele></trkpt>
   <trkpt lat="41.321208" lon="1.952901"><ele>307.25</ele></trkpt>
   <trkpt lat="41.321291" lon="1.95273"><ele>310.5</ele></trkpt>
   <trkpt lat="41.321374" lon="1.952618"><ele>310</ele></trkpt>
   <trkpt lat="41.321641" lon="1.952341"><ele>311.5</ele></trkpt>
   <trkpt lat="41.321701" lon="1.952241"><ele>311.25</ele></trkpt>
   <trkpt lat="41.321736" lon="1.952164"><ele>312.75</ele></trkpt>
   <trkpt lat="41.32176" lon="1.952038"><ele>315.5</ele></trkpt>
   <trkpt lat="41.32176" lon="1.951939"><ele>317.75</ele></trkpt>
   <trkpt lat="41.3217" lon="1.951653"><ele>314.5</ele></trkpt>
   <trkpt lat="41.321712" lon="1.951446"><ele>316.75</ele></trkpt>
   <trkpt lat="41.321782" lon="1.951267"><ele>319.5</ele></trkpt>
   <trkpt lat="41.321899" lon="1.9511"><ele>321.75</ele></trkpt>
   <trkpt lat="41.32203" lon="1.951006"><ele>322.75</ele></trkpt>
   <trkpt lat="41.322216" lon="1.950941"><ele>323.75</ele></trkpt>
   <trkpt lat="41.32253" lon="1.950907"><ele>324.5</ele></trkpt>
   <trkpt lat="41.322824" lon="1.950815"><ele>327.5</ele></trkpt>
   <trkpt lat="41.323039" lon="1.950711"><ele>329.5</ele></trkpt>
   <trkpt lat="41.323244" lon="1.950591"><ele>330.5</ele></trkpt>
   <trkpt lat="41.323426" lon="1.950495"><ele>332.75</ele></trkpt>
   <trkpt lat="41.323564" lon="1.950425"><ele>334.25</ele></trkpt>
   <trkpt lat="41.323731" lon="1.950383"><ele>335.25</ele></trkpt>
   <trkpt lat="41.323901" lon="1.950367"><ele>336</ele></trkpt>
   <trkpt lat="41.324176" lon="1.950365"><ele>337.25</ele></trkpt>
   <trkpt lat="41.324343" lon="1.950381"><ele>340.75</ele></trkpt>
   <trkpt lat="41.324449" lon="1.950424"><ele>342.25</ele></trkpt>
   <trkpt lat="41.324556" lon="1.950429"><ele>342</ele></trkpt>
   <trkpt lat="41.324663" lon="1.950409"><ele>342.25</ele></trkpt>
   <trkpt lat="41.324764" lon="1.950348"><ele>342.75</ele></trkpt>
   <trkpt lat="41.324932" lon="1.950206"><ele>344.5</ele></trkpt>
   <trkpt lat="41.325291" lon="1.949849"><ele>348.5</ele></trkpt>
   <trkpt lat="41.325427" lon="1.949758"><ele>349.25</ele></trkpt>
   <trkpt lat="41.325519" lon="1.949716"><ele>349.5</ele></trkpt>
   <trkpt lat="41.325579" lon="1.949697"><ele>349.75</ele></trkpt>
   <trkpt lat="41.325785" lon="1.94969"><ele>351</ele></trkpt>
   <trkpt lat="41.325876" lon="1.949685"><ele>351</ele></trkpt>
   <trkpt lat="41.325952" lon="1.949646"><ele>350.5</ele></trkpt>
   <trkpt lat="41.325988" lon="1.949559"><ele>350.75</ele></trkpt>
   <trkpt lat="41.325997" lon="1.949483"><ele>351.25</ele></trkpt>
   <trkpt lat="41.325977" lon="1.949422"><ele>352</ele></trkpt>
   <trkpt lat="41.325948" lon="1.94937"><ele>353</ele></trkpt>
   <trkpt lat="41.325879" lon="1.949336"><ele>354.75</ele></trkpt>
   <trkpt lat="41.325824" lon="1.949326"><ele>356.25</ele></trkpt>
   <trkpt lat="41.32574" lon="1.949343"><ele>357</ele></trkpt>
   <trkpt lat="41.324756" lon="1.949749"><ele>361.75</ele></trkpt>
   <trkpt lat="41.324616" lon="1.949763"><ele>362.75</ele></trkpt>
   <trkpt lat="41.324539" lon="1.949756"><ele>363.25</ele></trkpt>
   <trkpt lat="41.324043" lon="1.949513"><ele>369</ele></trkpt>
   <trkpt lat="41.323871" lon="1.949511"><ele>369.25</ele></trkpt>
   <trkpt lat="41.323206" lon="1.949635"><ele>375.5</ele></trkpt>
   <trkpt lat="41.322916" lon="1.949699"><ele>377.5</ele></trkpt>
   <trkpt lat="41.322686" lon="1.949828"><ele>376.5</ele></trkpt>
   <trkpt lat="41.322613" lon="1.949846"><ele>377.25</ele></trkpt>
   <trkpt lat="41.322547" lon="1.949846"><ele>378.25</ele></trkpt>
   <trkpt lat="41.322533" lon="1.949832"><ele>378.75</ele></trkpt>
   <trkpt lat="41.322502" lon="1.949767"><ele>380.25</ele></trkpt>
   <trkpt lat="41.322502" lon="1.949718"><ele>381.25</ele></trkpt>
   <trkpt lat="41.322517" lon="1.949672"><ele>384</ele></trkpt>
   <trkpt lat="41.322543" lon="1.94964"><ele>385.5</ele></trkpt>
   <trkpt lat="41.322608" lon="1.949597"><ele>386.25</ele></trkpt>
   <trkpt lat="41.322673" lon="1.949576"><ele>385.5</ele></trkpt>
   <trkpt lat="41.323004" lon="1.949463"><ele>383</ele></trkpt>
   <trkpt lat="41.323463" lon="1.949281"><ele>387.25</ele></trkpt>
   <trkpt lat="41.323845" lon="1.949116"><ele>389.25</ele></trkpt>
   <trkpt lat="41.324084" lon="1.949082"><ele>391.75</ele></trkpt>
   <trkpt lat="41.324422" lon="1.949121"><ele>392.75</ele></trkpt>
   <trkpt lat="41.324603" lon="1.949105"><ele>393</ele></trkpt>
   <trkpt lat="41.324722" lon="1.949063"><ele>394.25</ele></trkpt>
   <trkpt lat="41.324812" lon="1.948996"><ele>394.75</ele></trkpt>
   <trkpt lat="41.324995" lon="1.948837"><ele>397</ele></trkpt>
   <trkpt lat="41.325149" lon="1.948666"><ele>398.5</ele></trkpt>
   <trkpt lat="41.325247" lon="1.94851"><ele>398.25</ele></trkpt>
   <trkpt lat="41.325334" lon="1.948332"><ele>397.75</ele></trkpt>
   <trkpt lat="41.325475" lon="1.948012"><ele>401.75</ele></trkpt>
   <trkpt lat="41.325682" lon="1.947674"><ele>400.75</ele></trkpt>
   <trkpt lat="41.325835" lon="1.947479"><ele>402.5</ele></trkpt>
   <trkpt lat="41.325976" lon="1.947328"><ele>404</ele></trkpt>
   <trkpt lat="41.326102" lon="1.947237"><ele>403.75</ele></trkpt>
   <trkpt lat="41.326256" lon="1.947153"><ele>405.25</ele></trkpt>
   <trkpt lat="41.326479" lon="1.947047"><ele>405.5</ele></trkpt>
   <trkpt lat="41.326564" lon="1.946986"><ele>405.75</ele></trkpt>
   <trkpt lat="41.326683" lon="1.946828"><ele>406</ele></trkpt>
   <trkpt lat="41.326751" lon="1.946753"><ele>406.25</ele></trkpt>
   <trkpt lat="41.326821" lon="1.946706"><ele>406.5</ele></trkpt>
   <trkpt lat="41.326882" lon="1.946672"><ele>406.75</ele></trkpt>
   <trkpt lat="41.326945" lon="1.946669"><ele>407</ele></trkpt>
   <trkpt lat="41.327002" lon="1.946636"><ele>407</ele></trkpt>
   <trkpt lat="41.32703" lon="1.946605"><ele>407</ele></trkpt>
   <trkpt lat="41.327052" lon="1.946566"><ele>407</ele></trkpt>
   <trkpt lat="41.327068" lon="1.946522"><ele>407</ele></trkpt>
   <trkpt lat="41.327076" lon="1.946475"><ele>407</ele></trkpt>
   <trkpt lat="41.327077" lon="1.946428"><ele>407</ele></trkpt>
   <trkpt lat="41.32707" lon="1.946382"><ele>406.75</ele></trkpt>
   <trkpt lat="41.327037" lon="1.946302"><ele>406.75</ele></trkpt>
   <trkpt lat="41.327033" lon="1.946168"><ele>406.25</ele></trkpt>
   <trkpt lat="41.327042" lon="1.946095"><ele>406.25</ele></trkpt>
   <trkpt lat="41.327053" lon="1.946026"><ele>406.25</ele></trkpt>
   <trkpt lat="41.327433" lon="1.94501"><ele>403.25</ele></trkpt>
   <trkpt lat="41.32754" lon="1.944623"><ele>401.75</ele></trkpt>
   <trkpt lat="41.327609" lon="1.944327"><ele>400.75</ele></trkpt>
   <trkpt lat="41.327691" lon="1.943828"><ele>399.25</ele></trkpt>
   <trkpt lat="41.327734" lon="1.943483"><ele>397.75</ele></trkpt>
   <trkpt lat="41.327499" lon="1.943404"><ele>398.5</ele></trkpt>
  </trkseg>
 </trk>
</gpx>