<?xml version="1.0" encoding="UTF-8"?>
<!-- track-length = 11741 filtered ascend = 552 plain-ascend = 544 cost=15775 energy=0.2kwh time=1h 39m 17s -->
<gpx 
 xmlns="http://www.topografix.com/GPX/1/1" 
 xmlns:xsi="http://www.w3.org/2001/XMLSchema-instance" 
 xsi:schemaLocation="http://www.topografix.com/GPX/1/1 http://www.topografix.com/GPX/1/1/gpx.xsd" 
 version="1.1" 
 creator="BRouter-Web 0.18.1">
 <trk>
  <name>Vif -&gt; Monteynard (11.7km)</name>
  <trkseg>
   <trkpt lat="45.039592" lon="5.705289"><ele>375.5</ele></trkpt>
   <trkpt lat="45.039382" lon="5.705252"><ele>376.75</ele></trkpt>
   <trkpt lat="45.039327" lon="5.705253"><ele>376.75</ele></trkpt>
   <trkpt lat="45.039233" lon="5.705279"><ele>377</ele></trkpt>
   <trkpt lat="45.039133" lon="5.705354"><ele>378.25</ele></trkpt>
   <trkpt lat="45.03896" lon="5.705535"><ele>379.5</ele></trkpt>
   <trkpt lat="45.038853" lon="5.705613"><ele>379.75</ele></trkpt>
   <trkpt lat="45.038817" lon="5.705635"><ele>380.25</ele></trkpt>
   <trkpt lat="45.038531" lon="5.705718"><ele>380.75</ele></trkpt>
   <trkpt lat="45.038458" lon="5.705759"><ele>381</ele></trkpt>
   <trkpt lat="45.0384" lon="5.705812"><ele>381.5</ele></trkpt>
   <trkpt lat="45.038277" lon="5.705913"><ele>382.75</ele></trkpt>
   <trkpt lat="45.038242" lon="5.705924"><ele>383</ele></trkpt>
   <trkpt lat="45.038184" lon="5.705911"><ele>383.5</ele></trkpt>
   <trkpt lat="45.038148" lon="5.705882"><ele>383.75</ele></trkpt>
   <trkpt lat="45.038128" lon="5.705837"><ele>384</ele></trkpt>
   <trkpt lat="45.038115" lon="5.705786"><ele>384.5</ele></trkpt>
   <trkpt lat="45.038111" lon="5.705731"><ele>385</ele></trkpt>
   <trkpt lat="45.03813" lon="5.70559"><ele>385.5</ele></trkpt>
   <trkpt lat="45.038172" lon="5.705398"><ele>385.25</ele></trkpt>
   <trkpt lat="45.03818" lon="5.705199"><ele>386.25</ele></trkpt>
   <trkpt lat="45.038179" lon="5.704898"><ele>387.5</ele></trkpt>
   <trkpt lat="45.038184" lon="5.704784"><ele>388</ele></trkpt>
   <trkpt lat="45.038204" lon="5.704566"><ele>389.25</ele></trkpt>
   <trkpt lat="45.038224" lon="5.704455"><ele>390</ele></trkpt>
   <trkpt lat="45.038261" lon="5.704229"><ele>389.5</ele></trkpt>
   <trkpt lat="45.038258" lon="5.704179"><ele>389.5</ele></trkpt>
   <trkpt lat="45.038245" lon="5.704134"><ele>389.25</ele></trkpt>
   <trkpt lat="45.03821" lon="5.704075"><ele>389.25</ele></trkpt>
   <trkpt lat="45.038139" lon="5.704018"><ele>389</ele></trkpt>
   <trkpt lat="45.038119" lon="5.703923"><ele>388.25</ele></trkpt>
   <trkpt lat="45.037905" lon="5.703808"><ele>387.75</ele></trkpt>
   <trkpt lat="45.037583" lon="5.703634"><ele>386.75</ele></trkpt>
   <trkpt lat="45.037503" lon="5.703571"><ele>386.25</ele></trkpt>
   <trkpt lat="45.037293" lon="5.703377"><ele>386.75</ele></trkpt>
   <trkpt lat="45.037129" lon="5.703149"><ele>387.75</ele></trkpt>
   <trkpt lat="45.036905" lon="5.7028"><ele>389.25</ele></trkpt>
   <trkpt lat="45.036841" lon="5.702651"><ele>389</ele></trkpt>
   <trkpt lat="45.036688" lon="5.702362"><ele>390.25</ele></trkpt>
   <trkpt lat="45.03646" lon="5.702098"><ele>389.75</ele></trkpt>
   <trkpt lat="45.035951" lon="5.701534"><ele>387.5</ele></trkpt>
   <trkpt lat="45.035847" lon="5.701441"><ele>387.25</ele></trkpt>
   <trkpt lat="45.035832" lon="5.701429"><ele>387.25</ele></trkpt>
   <trkpt lat="45.035735" lon="5.701393"><ele>386.5</ele></trkpt>
   <trkpt lat="45.035549" lon="5.701358"><ele>385.5</ele></trkpt>
   <trkpt lat="45.035287" lon="5.701433"><ele>387.25</ele></trkpt>
   <trkpt lat="45.03517" lon="5.701433"><ele>387.5</ele></trkpt>
   <trkpt lat="45.034295" lon="5.701281"><ele>389.5</ele></trkpt>
   <trkpt lat="45.033416" lon="5.701095"><ele>389.5</ele></trkpt>
   <trkpt lat="45.032814" lon="5.70102"><ele>394.5</ele></trkpt>
   <trkpt lat="45.032685" lon="5.701018"><ele>395.25</ele></trkpt>
   <trkpt lat="45.031835" lon="5.701004"><ele>399</ele></trkpt>
   <trkpt lat="45.031519" lon="5.701035"><ele>400.75</ele></trkpt>
   <trkpt lat="45.030791" lon="5.701061"><ele>405</ele></trkpt>
   <trkpt lat="45.030746" lon="5.701065"><ele>405.25</ele></trkpt>
   <trkpt lat="45.030503" lon="5.70109"><ele>406.25</ele></trkpt>
   <trkpt lat="45.030208" lon="5.701137"><ele>408</ele></trkpt>
   <trkpt lat="45.030121" lon="5.701173"><ele>408</ele></trkpt>
   <trkpt lat="45.030047" lon="5.701228"><ele>408.25</ele></trkpt>
   <trkpt lat="45.03005" lon="5.701666"><ele>408.75</ele></trkpt>
   <trkpt lat="45.030065" lon="5.701753"><ele>409</ele></trkpt>
   <trkpt lat="45.030078" lon="5.701829"><ele>409</ele></trkpt>
   <trkpt lat="45.030089" lon="5.701987"><ele>409.5</ele></trkpt>
   <trkpt lat="45.03008" lon="5.70208"><ele>410</ele></trkpt>
   <trkpt lat="45.030064" lon="5.702173"><ele>410.5</ele></trkpt>
   <trkpt lat="45.030031" lon="5.702304"><ele>411.5</ele></trkpt>
   <trkpt lat="45.029967" lon="5.702516"><ele>413</ele></trkpt>
   <trkpt lat="45.029942" lon="5.70263"><ele>414</ele></trkpt>
   <trkpt lat="45.029905" lon="5.703029"><ele>415.25</ele></trkpt>
   <trkpt lat="45.029904" lon="5.703153"><ele>415.5</ele></trkpt>
   <trkpt lat="45.029949" lon="5.703588"><ele>417.5</ele></trkpt>
   <trkpt lat="45.029953" lon="5.703714"><ele>418.25</ele></trkpt>
   <trkpt lat="45.029933" lon="5.704052"><ele>419.5</ele></trkpt>
   <trkpt lat="45.029931" lon="5.704066"><ele>419.75</ele></trkpt>
   <trkpt lat="45.029886" lon="5.704302"><ele>421.25</ele></trkpt>
   <trkpt lat="45.029832" lon="5.704478"><ele>422.75</ele></trkpt>
   <trkpt lat="45.029811" lon="5.704518"><ele>423.25</ele></trkpt>
   <trkpt lat="45.029735" lon="5.704652"><ele>425</ele></trkpt>
   <trkpt lat="45.029686" lon="5.704717"><ele>426</ele></trkpt>
   <trkpt lat="45.029634" lon="5.704772"><ele>426.75</ele></trkpt>
   <trkpt lat="45.029536" lon="5.70484"><ele>428</ele></trkpt>
   <trkpt lat="45.029214" lon="5.705051"><ele>432</ele></trkpt>
   <trkpt lat="45.029151" lon="5.705097"><ele>432.25</ele></trkpt>
   <trkpt lat="45.02908" lon="5.705163"><ele>432.75</ele></trkpt>
   <trkpt lat="45.029023" lon="5.705233"><ele>433.5</ele></trkpt>
   <trkpt lat="45.028922" lon="5.705392"><ele>436.25</ele></trkpt>
   <trkpt lat="45.028665" lon="5.705856"><ele>443</ele></trkpt>
   <trkpt lat="45.028531" lon="5.70591"><ele>443</ele></trkpt>
   <trkpt lat="45.028431" lon="5.705941"><ele>443</ele></trkpt>
   <trkpt lat="45.02826" lon="5.705989"><ele>443.5</ele></trkpt>
   <trkpt lat="45.028194" lon="5.706005"><ele>443.5</ele></trkpt>
   <trkpt lat="45.028106" lon="5.706024"><ele>443.5</ele></trkpt>
   <trkpt lat="45.028017" lon="5.706029"><ele>443.5</ele></trkpt>
   <trkpt lat="45.027948" lon="5.706015"><ele>443.75</ele></trkpt>
   <trkpt lat="45.027699" lon="5.705916"><ele>443.5</ele></trkpt>
   <trkpt lat="45.027577" lon="5.705863"><ele>443.5</ele></trkpt>
   <trkpt lat="45.027497" lon="5.705839"><ele>444</ele></trkpt>
   <trkpt lat="45.027412" lon="5.705826"><ele>443.5</ele></trkpt>
   <trkpt lat="45.027302" lon="5.705841"><ele>443.25</ele></trkpt>
   <trkpt lat="45.027277" lon="5.705862"><ele>443.25</ele></trkpt>
   <trkpt lat="45.027262" lon="5.705874"><ele>443.25</ele></trkpt>
   <trkpt lat="45.027247" lon="5.705887"><ele>443.25</ele></trkpt>
   <trkpt lat="45.027176" lon="5.70599"><ele>443</ele></trkpt>
   <trkpt lat="45.026964" lon="5.706397"><ele>442.25</ele></trkpt>
   <trkpt lat="45.026873" lon="5.706517"><ele>442</ele></trkpt>
   <trkpt lat="45.026769" lon="5.706611"><ele>442</ele></trkpt>
   <trkpt lat="45.026706" lon="5.706643"><ele>441.75</ele></trkpt>
   <trkpt lat="45.026598" lon="5.706697"><ele>441.75</ele></trkpt>
   <trkpt lat="45.026213" lon="5.70683"><ele>442.5</ele></trkpt>
   <trkpt lat="45.026064" lon="5.706865"><ele>443.25</ele></trkpt>
   <trkpt lat="45.025981" lon="5.706867"><ele>443.75</ele></trkpt>
   <trkpt lat="45.025922" lon="5.706855"><ele>444</ele></trkpt>
   <trkpt lat="45.025839" lon="5.706837"><ele>444.5</ele></trkpt>
   <trkpt lat="45.025275" lon="5.706647"><ele>447.75</ele></trkpt>
   <trkpt lat="45.025223" lon="5.706613"><ele>447.75</ele></trkpt>
   <trkpt lat="45.024978" lon="5.706543"><ele>448.75</ele></trkpt>
   <trkpt lat="45.024916" lon="5.706535"><ele>449</ele></trkpt>
   <trkpt lat="45.024836" lon="5.706554"><ele>449.5</ele></trkpt>
   <trkpt lat="45.024804" lon="5.706512"><ele>449.25</ele></trkpt>
   <trkpt lat="45.024761" lon="5.706497"><ele>449.5</ele></trkpt>
   <trkpt lat="45.024698" lon="5.706495"><ele>449.75</ele></trkpt>
   <trkpt lat="45.024607" lon="5.706497"><ele>449.75</ele></trkpt>
   <trkpt lat="45.024514" lon="5.706514"><ele>449.75</ele></trkpt>
   <trkpt lat="45.024426" lon="5.706552"><ele>450</ele></trkpt>
   <trkpt lat="45.024245" lon="5.706535"><ele>450.5</ele></trkpt>
   <trkpt lat="45.024046" lon="5.706501"><ele>451.75</ele></trkpt>
   <trkpt lat="45.023722" lon="5.706418"><ele>452.5</ele></trkpt>
   <trkpt lat="45.023492" lon="5.706338"><ele>452.75</ele></trkpt>
   <trkpt lat="45.023265" lon="5.70624"><ele>454.5</ele></trkpt>
   <trkpt lat="45.0232" lon="5.706186"><ele>455.25</ele></trkpt>
   <trkpt lat="45.022885" lon="5.706063"><ele>457.75</ele></trkpt>
   <trkpt lat="45.022793" lon="5.706028"><ele>458.25</ele></trkpt>
   <trkpt lat="45.022508" lon="5.705956"><ele>460.25</ele></trkpt>
   <trkpt lat="45.022433" lon="5.705948"><ele>460.75</ele></trkpt>
   <trkpt lat="45.022226" lon="5.70587"><ele>462</ele></trkpt>
   <trkpt lat="45.021879" lon="5.70574"><ele>465</ele></trkpt>
   <trkpt lat="45.021513" lon="5.705606"><ele>467.75</ele></trkpt>
   <trkpt lat="45.0214" lon="5.705516"><ele>467.75</ele></trkpt>
   <trkpt lat="45.021259" lon="5.705483"><ele>468.5</ele></trkpt>
   <trkpt lat="45.021177" lon="5.705461"><ele>468.5</ele></trkpt>
   <trkpt lat="45.021088" lon="5.705475"><ele>469</ele></trkpt>
   <trkpt lat="45.020908" lon="5.705539"><ele>469.5</ele></trkpt>
   <trkpt lat="45.020775" lon="5.705583"><ele>470.25</ele></trkpt>
   <trkpt lat="45.020569" lon="5.7056"><ele>470.75</ele></trkpt>
   <trkpt lat="45.020116" lon="5.705537"><ele>472.25</ele></trkpt>
   <trkpt lat="45.019869" lon="5.705478"><ele>473.75</ele></trkpt>
   <trkpt lat="45.019674" lon="5.705462"><ele>474.75</ele></trkpt>
   <trkpt lat="45.019272" lon="5.705446"><ele>475.75</ele></trkpt>
   <trkpt lat="45.019072" lon="5.705428"><ele>476</ele></trkpt>
   <trkpt lat="45.018977" lon="5.705402"><ele>476.25</ele></trkpt>
   <trkpt lat="45.018879" lon="5.705347"><ele>476.5</ele></trkpt>
   <trkpt lat="45.018737" lon="5.705205"><ele>477.5</ele></trkpt>
   <trkpt lat="45.018449" lon="5.704823"><ele>478</ele></trkpt>
   <trkpt lat="45.018264" lon="5.704625"><ele>478.25</ele></trkpt>
   <trkpt lat="45.018176" lon="5.704553"><ele>478.75</ele></trkpt>
   <trkpt lat="45.017475" lon="5.704067"><ele>480.5</ele></trkpt>
   <trkpt lat="45.017335" lon="5.703984"><ele>481</ele></trkpt>
   <trkpt lat="45.017186" lon="5.703923"><ele>481.5</ele></trkpt>
   <trkpt lat="45.01708" lon="5.703893"><ele>481.5</ele></trkpt>
   <trkpt lat="45.016959" lon="5.703863"><ele>481.25</ele></trkpt>
   <trkpt lat="45.016805" lon="5.703851"><ele>481.75</ele></trkpt>
   <trkpt lat="45.016649" lon="5.703854"><ele>482.25</ele></trkpt>
   <trkpt lat="45.016481" lon="5.703873"><ele>482.5</ele></trkpt>
   <trkpt lat="45.016367" lon="5.703897"><ele>483</ele></trkpt>
   <trkpt lat="45.016061" lon="5.704033"><ele>484.25</ele></trkpt>
   <trkpt lat="45.015586" lon="5.704292"><ele>486.25</ele></trkpt>
   <trkpt lat="45.015373" lon="5.704391"><ele>486.25</ele></trkpt>
   <trkpt lat="45.01529" lon="5.704414"><ele>485.5</ele></trkpt>
   <trkpt lat="45.015204" lon="5.704412"><ele>485.75</ele></trkpt>
   <trkpt lat="45.01511" lon="5.704391"><ele>486</ele></trkpt>
   <trkpt lat="45.015048" lon="5.704365"><ele>486</ele></trkpt>
   <trkpt lat="45.014994" lon="5.704326"><ele>486.25</ele></trkpt>
   <trkpt lat="45.01494" lon="5.704271"><ele>486.75</ele></trkpt>
   <trkpt lat="45.014706" lon="5.703935"><ele>487.5</ele></trkpt>
   <trkpt lat="45.014586" lon="5.703799"><ele>488.5</ele></trkpt>
   <trkpt lat="45.014278" lon="5.703506"><ele>488.75</ele></trkpt>
   <trkpt lat="45.013988" lon="5.703234"><ele>490</ele></trkpt>
   <trkpt lat="45.013906" lon="5.703105"><ele>490</ele></trkpt>
   <trkpt lat="45.013855" lon="5.702971"><ele>490.75</ele></trkpt>
   <trkpt lat="45.013817" lon="5.702771"><ele>491.25</ele></trkpt>
   <trkpt lat="45.013809" lon="5.702519"><ele>491</ele></trkpt>
   <trkpt lat="45.013809" lon="5.702268"><ele>491.5</ele></trkpt>
   <trkpt lat="45.013798" lon="5.702112"><ele>491.75</ele></trkpt>
   <trkpt lat="45.013782" lon="5.70204"><ele>492</ele></trkpt>
   <trkpt lat="45.013756" lon="5.70197"><ele>492.75</ele></trkpt>
   <trkpt lat="45.013702" lon="5.701886"><ele>493.25</ele></trkpt>
   <trkpt lat="45.013635" lon="5.70182"><ele>494</ele></trkpt>
   <trkpt lat="45.013564" lon="5.701789"><ele>494</ele></trkpt>
   <trkpt lat="45.013489" lon="5.70179"><ele>494</ele></trkpt>
   <trkpt lat="45.013027" lon="5.701938"><ele>496.5</ele></trkpt>
   <trkpt lat="45.012865" lon="5.702002"><ele>497.25</ele></trkpt>
   <trkpt lat="45.012562" lon="5.702171"><ele>498.5</ele></trkpt>
   <trkpt lat="45.012407" lon="5.702225"><ele>499.25</ele></trkpt>
   <trkpt lat="45.01237" lon="5.70223"><ele>499.5</ele></trkpt>
   <trkpt lat="45.012303" lon="5.702221"><ele>499.5</ele></trkpt>
   <trkpt lat="45.012197" lon="5.702187"><ele>499.75</ele></trkpt>
   <trkpt lat="45.012094" lon="5.702131"><ele>500.5</ele></trkpt>
   <trkpt lat="45.011869" lon="5.701963"><ele>502.75</ele></trkpt>
   <trkpt lat="45.011696" lon="5.701797"><ele>503.25</ele></trkpt>
   <trkpt lat="45.011491" lon="5.7016"><ele>503.25</ele></trkpt>
   <trkpt lat="45.01144" lon="5.701551"><ele>503.25</ele></trkpt>
   <trkpt lat="45.01142" lon="5.701528"><ele>503.25</ele></trkpt>
   <trkpt lat="45.011367" lon="5.701459"><ele>503.25</ele></trkpt>
   <trkpt lat="45.010996" lon="5.700988"><ele>505.75</ele></trkpt>
   <trkpt lat="45.010936" lon="5.700914"><ele>506</ele></trkpt>
   <trkpt lat="45.01079" lon="5.700702"><ele>507.25</ele></trkpt>
   <trkpt lat="45.010666" lon="5.700576"><ele>508</ele></trkpt>
   <trkpt lat="45.010605" lon="5.70052"><ele>508.75</ele></trkpt>
   <trkpt lat="45.010484" lon="5.700427"><ele>510.25</ele></trkpt>
   <trkpt lat="45.010232" lon="5.70027"><ele>512.25</ele></trkpt>
   <trkpt lat="45.010088" lon="5.70022"><ele>513.25</ele></trkpt>
   <trkpt lat="45.01003" lon="5.700211"><ele>513.75</ele></trkpt>
   <trkpt lat="45.009776" lon="5.700222"><ele>514.75</ele></trkpt>
   <trkpt lat="45.009712" lon="5.700226"><ele>515</ele></trkpt>
   <trkpt lat="45.009664" lon="5.700229"><ele>515.25</ele></trkpt>
   <trkpt lat="45.009566" lon="5.700237"><ele>516</ele></trkpt>
   <trkpt lat="45.00946" lon="5.700246"><ele>516.75</ele></trkpt>
   <trkpt lat="45.00944" lon="5.700248"><ele>516.75</ele></trkpt>
   <trkpt lat="45.009404" lon="5.700252"><ele>517</ele></trkpt>
   <trkpt lat="45.009004" lon="5.700301"><ele>518.5</ele></trkpt>
   <trkpt lat="45.008179" lon="5.700378"><ele>523.25</ele></trkpt>
   <trkpt lat="45.007897" lon="5.700397"><ele>525</ele></trkpt>
   <trkpt lat="45.007497" lon="5.700418"><ele>527.5</ele></trkpt>
   <trkpt lat="45.007379" lon="5.700439"><ele>528</ele></trkpt>
   <trkpt lat="45.007245" lon="5.700479"><ele>529.25</ele></trkpt>
   <trkpt lat="45.006841" lon="5.700672"><ele>532.25</ele></trkpt>
   <trkpt lat="45.006648" lon="5.700736"><ele>533.5</ele></trkpt>
   <trkpt lat="45.006473" lon="5.700767"><ele>535</ele></trkpt>
   <trkpt lat="45.006239" lon="5.700795"><ele>537</ele></trkpt>
   <trkpt lat="45.006001" lon="5.700791"><ele>538</ele></trkpt>
   <trkpt lat="45.005687" lon="5.700759"><ele>539.5</ele></trkpt>
   <trkpt lat="45.005432" lon="5.700747"><ele>541.5</ele></trkpt>
   <trkpt lat="45.005354" lon="5.700757"><ele>542.25</ele></trkpt>
   <trkpt lat="45.00518" lon="5.700817"><ele>544</ele></trkpt>
   <trkpt lat="45.004404" lon="5.701379"><ele>546.75</ele></trkpt>
   <trkpt lat="45.004255" lon="5.70145"><ele>551.25</ele></trkpt>
   <trkpt lat="45.004062" lon="5.701479"><ele>552</ele></trkpt>
   <trkpt lat="45.003951" lon="5.701485"><ele>552</ele></trkpt>
   <trkpt lat="45.003827" lon="5.701477"><ele>551</ele></trkpt>
   <trkpt lat="45.003659" lon="5.70144"><ele>549.25</ele></trkpt>
   <trkpt lat="45.003601" lon="5.701414"><ele>549.25</ele></trkpt>
   <trkpt lat="45.003547" lon="5.701369"><ele>549.5</ele></trkpt>
   <trkpt lat="45.003496" lon="5.701322"><ele>550</ele></trkpt>
   <trkpt lat="45.003446" lon="5.70125"><ele>550.75</ele></trkpt>
   <trkpt lat="45.003417" lon="5.701188"><ele>551</ele></trkpt>
   <trkpt lat="45.003328" lon="5.700788"><ele>553.25</ele></trkpt>
   <trkpt lat="45.003276" lon="5.700601"><ele>556.25</ele></trkpt>
   <trkpt lat="45.003181" lon="5.700371"><ele>556</ele></trkpt>
   <trkpt lat="45.002908" lon="5.699811"><ele>558</ele></trkpt>
   <trkpt lat="45.002833" lon="5.6997"><ele>557.75</ele></trkpt>
   <trkpt lat="45.002741" lon="5.699585"><ele>558.5</ele></trkpt>
   <trkpt lat="45.002631" lon="5.699494"><ele>559.5</ele></trkpt>
   <trkpt lat="45.002404" lon="5.699378"><ele>561.75</ele></trkpt>
   <trkpt lat="45.00225" lon="5.699312"><ele>564</ele></trkpt>
   <trkpt lat="45.001964" lon="5.699224"><ele>566</ele></trkpt>
   <trkpt lat="45.001842" lon="5.699217"><ele>566.5</ele></trkpt>
   <trkpt lat="45.001703" lon="5.699221"><ele>567.25</ele></trkpt>
   <trkpt lat="45.001441" lon="5.69926"><ele>568.25</ele></trkpt>
   <trkpt lat="45.001191" lon="5.699288"><ele>571.5</ele></trkpt>
   <trkpt lat="45.001114" lon="5.699287"><ele>572.5</ele></trkpt>
   <trkpt lat="45.000736" lon="5.699186"><ele>573.75</ele></trkpt>
   <trkpt lat="45.000499" lon="5.699136"><ele>573.5</ele></trkpt>
   <trkpt lat="45.000354" lon="5.699115"><ele>573.5</ele></trkpt>
   <trkpt lat="45.000234" lon="5.699118"><ele>574.75</ele></trkpt>
   <trkpt lat="45.000055" lon="5.69915"><ele>578.25</ele></trkpt>
   <trkpt lat="44.999981" lon="5.699177"><ele>580</ele></trkpt>
   <trkpt lat="44.999825" lon="5.6993"><ele>582</ele></trkpt>
   <trkpt lat="44.99973" lon="5.699361"><ele>583.25</ele></trkpt>
   <trkpt lat="44.999641" lon="5.699405"><ele>584.5</ele></trkpt>
   <trkpt lat="44.999515" lon="5.699434"><ele>586</ele></trkpt>
   <trkpt lat="44.999309" lon="5.699483"><ele>586</ele></trkpt>
   <trkpt lat="44.99901" lon="5.699532"><ele>589</ele></trkpt>
   <trkpt lat="44.998763" lon="5.699529"><ele>590.5</ele></trkpt>
   <trkpt lat="44.998528" lon="5.699455"><ele>591.5</ele></trkpt>
   <trkpt lat="44.998432" lon="5.699412"><ele>593.25</ele></trkpt>
   <trkpt lat="44.998278" lon="5.699316"><ele>595.25</ele></trkpt>
   <trkpt lat="44.99767" lon="5.698785"><ele>599.5</ele></trkpt>
   <trkpt lat="44.997316" lon="5.69849"><ele>601.75</ele></trkpt>
   <trkpt lat="44.996837" lon="5.69819"><ele>604.5</ele></trkpt>
   <trkpt lat="44.996572" lon="5.698065"><ele>606.5</ele></trkpt>
   <trkpt lat="44.996149" lon="5.697981"><ele>612.5</ele></trkpt>
   <trkpt lat="44.995826" lon="5.697893"><ele>615.5</ele></trkpt>
   <trkpt lat="44.99559" lon="5.697767"><ele>615.75</ele></trkpt>
   <trkpt lat="44.995433" lon="5.697702"><ele>616.5</ele></trkpt>
   <trkpt lat="44.995297" lon="5.697666"><ele>618</ele></trkpt>
   <trkpt lat="44.994026" lon="5.697548"><ele>634.5</ele></trkpt>
   <trkpt lat="44.993303" lon="5.697551"><ele>644</ele></trkpt>
   <trkpt lat="44.993" lon="5.69748"><ele>643.25</ele></trkpt>
   <trkpt lat="44.99273" lon="5.697428"><ele>642.5</ele></trkpt>
   <trkpt lat="44.992506" lon="5.697424"><ele>644</ele></trkpt>
   <trkpt lat="44.992206" lon="5.697439"><ele>646</ele></trkpt>
   <trkpt lat="44.991995" lon="5.69746"><ele>646.25</ele></trkpt>
   <trkpt lat="44.991897" lon="5.697475"><ele>646</ele></trkpt>
   <trkpt lat="44.991753" lon="5.697522"><ele>645.25</ele></trkpt>
   <trkpt lat="44.991662" lon="5.697601"><ele>646</ele></trkpt>
   <trkpt lat="44.991617" lon="5.697655"><ele>646</ele></trkpt>
   <trkpt lat="44.991545" lon="5.697778"><ele>647.5</ele></trkpt>
   <trkpt lat="44.991435" lon="5.698012"><ele>651</ele></trkpt>
   <trkpt lat="44.991372" lon="5.698102"><ele>651.75</ele></trkpt>
   <trkpt lat="44.991179" lon="5.698279"><ele>649.75</ele></trkpt>
   <trkpt lat="44.991134" lon="5.698356"><ele>650.5</ele></trkpt>
   <trkpt lat="44.99108" lon="5.69847"><ele>652.25</ele></trkpt>
   <trkpt lat="44.990908" lon="5.698867"><ele>659.25</ele></trkpt>
   <trkpt lat="44.990825" lon="5.698985"><ele>660.75</ele></trkpt>
   <trkpt lat="44.990492" lon="5.69937"><ele>666</ele></trkpt>
   <trkpt lat="44.990308" lon="5.699545"><ele>668.75</ele></trkpt>
   <trkpt lat="44.990204" lon="5.699614"><ele>670</ele></trkpt>
   <trkpt lat="44.990112" lon="5.699647"><ele>670.5</ele></trkpt>
   <trkpt lat="44.989937" lon="5.699618"><ele>670.25</ele></trkpt>
   <trkpt lat="44.989865" lon="5.699549"><ele>670.5</ele></trkpt>
   <trkpt lat="44.989815" lon="5.699472"><ele>670.5</ele></trkpt>
   <trkpt lat="44.989778" lon="5.699379"><ele>670.25</ele></trkpt>
   <trkpt lat="44.989739" lon="5.699198"><ele>670.25</ele></trkpt>
   <trkpt lat="44.989682" lon="5.698854"><ele>669.25</ele></trkpt>
   <trkpt lat="44.989601" lon="5.698658"><ele>669</ele></trkpt>
   <trkpt lat="44.989548" lon="5.698594"><ele>669.75</ele></trkpt>
   <trkpt lat="44.989468" lon="5.69853"><ele>670.75</ele></trkpt>
   <trkpt lat="44.989379" lon="5.698497"><ele>671.5</ele></trkpt>
   <trkpt lat="44.989293" lon="5.698489"><ele>672.75</ele></trkpt>
   <trkpt lat="44.989135" lon="5.69849"><ele>675.25</ele></trkpt>
   <trkpt lat="44.988934" lon="5.698519"><ele>676.25</ele></trkpt>
   <trkpt lat="44.988702" lon="5.698576"><ele>678.5</ele></trkpt>
   <trkpt lat="44.988478" lon="5.698663"><ele>680.5</ele></trkpt>
   <trkpt lat="44.988154" lon="5.698831"><ele>682.25</ele></trkpt>
   <trkpt lat="44.98809" lon="5.69889"><ele>683.25</ele></trkpt>
   <trkpt lat="44.988043" lon="5.69895"><ele>684</ele></trkpt>
   <trkpt lat="44.987983" lon="5.699041"><ele>684.75</ele></trkpt>
   <trkpt lat="44.987933" lon="5.699156"><ele>686</ele></trkpt>
   <trkpt lat="44.987783" lon="5.699559"><ele>690</ele></trkpt>
   <trkpt lat="44.987731" lon="5.699673"><ele>692</ele></trkpt>
   <trkpt lat="44.987651" lon="5.699773"><ele>693</ele></trkpt>
   <trkpt lat="44.987579" lon="5.699827"><ele>693.25</ele></trkpt>
   <trkpt lat="44.987539" lon="5.699841"><ele>692.75</ele></trkpt>
   <trkpt lat="44.987488" lon="5.699858"><ele>692.5</ele></trkpt>
   <trkpt lat="44.987408" lon="5.699861"><ele>693.25</ele></trkpt>
   <trkpt lat="44.987128" lon="5.699764"><ele>692.5</ele></trkpt>
   <trkpt lat="44.987031" lon="5.699761"><ele>692.75</ele></trkpt>
   <trkpt lat="44.986958" lon="5.699788"><ele>693.75</ele></trkpt>
   <trkpt lat="44.986886" lon="5.699843"><ele>693.5</ele></trkpt>
   <trkpt lat="44.986809" lon="5.699937"><ele>694</ele></trkpt>
   <trkpt lat="44.986652" lon="5.700284"><ele>699.5</ele></trkpt>
   <trkpt lat="44.986585" lon="5.700413"><ele>700</ele></trkpt>
   <trkpt lat="44.986437" lon="5.700673"><ele>702.75</ele></trkpt>
   <trkpt lat="44.986355" lon="5.700795"><ele>703.5</ele></trkpt>
   <trkpt lat="44.986277" lon="5.700905"><ele>704.5</ele></trkpt>
   <trkpt lat="44.986165" lon="5.701035"><ele>705</ele></trkpt>
   <trkpt lat="44.98599" lon="5.701195"><ele>706.5</ele></trkpt>
   <trkpt lat="44.985846" lon="5.701309"><ele>707.75</ele></trkpt>
   <trkpt lat="44.985742" lon="5.701376"><ele>708.75</ele></trkpt>
   <trkpt lat="44.985361" lon="5.701534"><ele>709.25</ele></trkpt>
   <trkpt lat="44.984713" lon="5.701839"><ele>717.5</ele></trkpt>
   <trkpt lat="44.984405" lon="5.701918"><ele>719.25</ele></trkpt>
   <trkpt lat="44.984207" lon="5.702014"><ele>721</ele></trkpt>
   <trkpt lat="44.983994" lon="5.70215"><ele>722.75</ele></trkpt>
   <trkpt lat="44.983759" lon="5.702511"><ele>727.75</ele></trkpt>
   <trkpt lat="44.983581" lon="5.702641"><ele>729.25</ele></trkpt>
   <trkpt lat="44.983135" lon="5.702908"><ele>733</ele></trkpt>
   <trkpt lat="44.982986" lon="5.702953"><ele>734</ele></trkpt>
   <trkpt lat="44.98285" lon="5.702962"><ele>734.5</ele></trkpt>
   <trkpt lat="44.982712" lon="5.702928"><ele>734.75</ele></trkpt>
   <trkpt lat="44.982557" lon="5.702872"><ele>735.5</ele></trkpt>
   <trkpt lat="44.982402" lon="5.702849"><ele>736.25</ele></trkpt>
   <trkpt lat="44.982305" lon="5.70287"><ele>737</ele></trkpt>
   <trkpt lat="44.981956" lon="5.70299"><ele>740</ele></trkpt>
   <trkpt lat="44.98176" lon="5.703073"><ele>741.25</ele></trkpt>
   <trkpt lat="44.981389" lon="5.703231"><ele>743.5</ele></trkpt>
   <trkpt lat="44.98115" lon="5.703331"><ele>744.75</ele></trkpt>
   <trkpt lat="44.980912" lon="5.703404"><ele>746.25</ele></trkpt>
   <trkpt lat="44.980786" lon="5.703472"><ele>747.5</ele></trkpt>
   <trkpt lat="44.980747" lon="5.703498"><ele>748</ele></trkpt>
   <trkpt lat="44.980626" lon="5.703508"><ele>748.25</ele></trkpt>
   <trkpt lat="44.980582" lon="5.703512"><ele>748.5</ele></trkpt>
   <trkpt lat="44.980283" lon="5.703478"><ele>749</ele></trkpt>
   <trkpt lat="44.980207" lon="5.703469"><ele>749</ele></trkpt>
   <trkpt lat="44.980069" lon="5.703469"><ele>749.25</ele></trkpt>
   <trkpt lat="44.979888" lon="5.703503"><ele>749.75</ele></trkpt>
   <trkpt lat="44.979391" lon="5.703698"><ele>752.75</ele></trkpt>
   <trkpt lat="44.979267" lon="5.70374"><ele>753.25</ele></trkpt>
   <trkpt lat="44.979138" lon="5.703769"><ele>753.75</ele></trkpt>
   <trkpt lat="44.979033" lon="5.703783"><ele>754.75</ele></trkpt>
   <trkpt lat="44.978878" lon="5.703769"><ele>755.75</ele></trkpt>
   <trkpt lat="44.978573" lon="5.70369"><ele>756.25</ele></trkpt>
   <trkpt lat="44.978551" lon="5.70369"><ele>756.5</ele></trkpt>
   <trkpt lat="44.978472" lon="5.703697"><ele>757</ele></trkpt>
   <trkpt lat="44.978454" lon="5.703702"><ele>757.25</ele></trkpt>
   <trkpt lat="44.978334" lon="5.703724"><ele>758.5</ele></trkpt>
   <trkpt lat="44.978091" lon="5.703746"><ele>759.75</ele></trkpt>
   <trkpt lat="44.977459" lon="5.703821"><ele>764.5</ele></trkpt>
   <trkpt lat="44.976849" lon="5.703871"><ele>766.75</ele></trkpt>
   <trkpt lat="44.976748" lon="5.703883"><ele>766.75</ele></trkpt>
   <trkpt lat="44.976482" lon="5.703906"><ele>767.75</ele></trkpt>
   <trkpt lat="44.976281" lon="5.70392"><ele>768.5</ele></trkpt>
   <trkpt lat="44.976196" lon="5.703941"><ele>769</ele></trkpt>
   <trkpt lat="44.97596" lon="5.703949"><ele>770.25</ele></trkpt>
   <trkpt lat="44.975146" lon="5.703931"><ele>777.5</ele></trkpt>
   <trkpt lat="44.9749" lon="5.703931"><ele>779.75</ele></trkpt>
   <trkpt lat="44.974239" lon="5.703934"><ele>784</ele></trkpt>
   <trkpt lat="44.974156" lon="5.703905"><ele>784</ele></trkpt>
   <trkpt lat="44.973472" lon="5.703908"><ele>789.5</ele></trkpt>
   <trkpt lat="44.973421" lon="5.703908"><ele>790</ele></trkpt>
   <trkpt lat="44.973293" lon="5.703896"><ele>791.25</ele></trkpt>
   <trkpt lat="44.973126" lon="5.703896"><ele>792.5</ele></trkpt>
   <trkpt lat="44.972692" lon="5.703878"><ele>795.25</ele></trkpt>
   <trkpt lat="44.971391" lon="5.703836"><ele>804.75</ele></trkpt>
   <trkpt lat="44.971349" lon="5.703834"><ele>805</ele></trkpt>
   <trkpt lat="44.969984" lon="5.703809"><ele>814.5</ele></trkpt>
   <trkpt lat="44.969792" lon="5.703799"><ele>816</ele></trkpt>
   <trkpt lat="44.969681" lon="5.703778"><ele>816.75</ele></trkpt>
   <trkpt lat="44.969527" lon="5.703729"><ele>818</ele></trkpt>
   <trkpt lat="44.969376" lon="5.703633"><ele>819.5</ele></trkpt>
   <trkpt lat="44.969066" lon="5.703344"><ele>821.5</ele></trkpt>
   <trkpt lat="44.968199" lon="5.702612"><ele>826.25</ele></trkpt>
   <trkpt lat="44.968081" lon="5.702513"><ele>826.75</ele></trkpt>
   <trkpt lat="44.968066" lon="5.702533"><ele>827</ele></trkpt>
   <trkpt lat="44.968051" lon="5.702552"><ele>827</ele></trkpt>
   <trkpt lat="44.968033" lon="5.702574"><ele>827.25</ele></trkpt>
   <trkpt lat="44.967255" lon="5.702772"><ele>834.5</ele></trkpt>
   <trkpt lat="44.967187" lon="5.702795"><ele>835.25</ele></trkpt>
   <trkpt lat="44.966957" lon="5.702857"><ele>837</ele></trkpt>
   <trkpt lat="44.966782" lon="5.702894"><ele>838.5</ele></trkpt>
   <trkpt lat="44.966616" lon="5.702913"><ele>839.75</ele></trkpt>
   <trkpt lat="44.966403" lon="5.70292"><ele>840.75</ele></trkpt>
   <trkpt lat="44.966217" lon="5.702936"><ele>842</ele></trkpt>
   <trkpt lat="44.965951" lon="5.703063"><ele>843.5</ele></trkpt>
   <trkpt lat="44.965811" lon="5.703118"><ele>844.25</ele></trkpt>
   <trkpt lat="44.965348" lon="5.703202"><ele>847.25</ele></trkpt>
   <trkpt lat="44.965234" lon="5.703219"><ele>847.75</ele></trkpt>
   <trkpt lat="44.964438" lon="5.703364"><ele>852</ele></trkpt>
   <trkpt lat="44.964395" lon="5.703388"><ele>851.5</ele></trkpt>
   <trkpt lat="44.963983" lon="5.703741"><ele>852.25</ele></trkpt>
   <trkpt lat="44.963776" lon="5.703963"><ele>853.75</ele></trkpt>
  </trkseg>
 </trk>
</gpx>
