<?xml version="1.0" encoding="UTF-8"?>
<!-- track-length = 19228 filtered ascend = 845 plain-ascend = 672 cost=27316 energy=0.2kwh time=2h 19m 34s -->
<gpx 
 xmlns="http://www.topografix.com/GPX/1/1" 
 xmlns:xsi="http://www.w3.org/2001/XMLSchema-instance" 
 xsi:schemaLocation="http://www.topografix.com/GPX/1/1 http://www.topografix.com/GPX/1/1/gpx.xsd" 
 version="1.1" 
 creator="BRouter-Web 0.18.1">
 <trk>
  <name>Luz-Saint-Sauveur -&gt; Gavarnie (19.2km)</name>
  <trkseg>
   <trkpt lat="42.872476" lon="-0.005046"><ele>703.75</ele></trkpt>
   <trkpt lat="42.872339" lon="-0.005056"><ele>703.75</ele></trkpt>
   <trkpt lat="42.872334" lon="-0.004989"><ele>704</ele></trkpt>
   <trkpt lat="42.872323" lon="-0.004857"><ele>705</ele></trkpt>
   <trkpt lat="42.872236" lon="-0.004992"><ele>704</ele></trkpt>
   <trkpt lat="42.872134" lon="-0.005151"><ele>703.5</ele></trkpt>
   <trkpt lat="42.871868" lon="-0.005562"><ele>701.75</ele></trkpt>
   <trkpt lat="42.871696" lon="-0.005829"><ele>700</ele></trkpt>
   <trkpt lat="42.871684" lon="-0.005849"><ele>699.75</ele></trkpt>
   <trkpt lat="42.871453" lon="-0.006222"><ele>699.5</ele></trkpt>
   <trkpt lat="42.871282" lon="-0.006499"><ele>698</ele></trkpt>
   <trkpt lat="42.871097" lon="-0.006793"><ele>696</ele></trkpt>
   <trkpt lat="42.871066" lon="-0.006842"><ele>695.75</ele></trkpt>
   <trkpt lat="42.870969" lon="-0.007003"><ele>695</ele></trkpt>
   <trkpt lat="42.870888" lon="-0.007138"><ele>694.5</ele></trkpt>
   <trkpt lat="42.870717" lon="-0.0074"><ele>694</ele></trkpt>
   <trkpt lat="42.870639" lon="-0.00752"><ele>693.75</ele></trkpt>
   <trkpt lat="42.870501" lon="-0.007738"><ele>693</ele></trkpt>
   <trkpt lat="42.870454" lon="-0.00781"><ele>692.75</ele></trkpt>
   <trkpt lat="42.870347" lon="-0.007984"><ele>692.25</ele></trkpt>
   <trkpt lat="42.869989" lon="-0.008556"><ele>690.5</ele></trkpt>
   <trkpt lat="42.869954" lon="-0.008612"><ele>690.25</ele></trkpt>
   <trkpt lat="42.869851" lon="-0.008775"><ele>690.5</ele></trkpt>
   <trkpt lat="42.869796" lon="-0.008867"><ele>690.5</ele></trkpt>
   <trkpt lat="42.869669" lon="-0.009064"><ele>690</ele></trkpt>
   <trkpt lat="42.869385" lon="-0.009522"><ele>687</ele></trkpt>
   <trkpt lat="42.869329" lon="-0.009585"><ele>686.75</ele></trkpt>
   <trkpt lat="42.86925" lon="-0.009656"><ele>686</ele></trkpt>
   <trkpt lat="42.869151" lon="-0.009708"><ele>685</ele></trkpt>
   <trkpt lat="42.868852" lon="-0.009738"><ele>683.75</ele></trkpt>
   <trkpt lat="42.868425" lon="-0.009797"><ele>683</ele></trkpt>
   <trkpt lat="42.868102" lon="-0.009834"><ele>683</ele></trkpt>
   <trkpt lat="42.867818" lon="-0.009875"><ele>683</ele></trkpt>
   <trkpt lat="42.867615" lon="-0.009852"><ele>683.5</ele></trkpt>
   <trkpt lat="42.86723" lon="-0.00972"><ele>687</ele></trkpt>
   <trkpt lat="42.866706" lon="-0.009553"><ele>691.25</ele></trkpt>
   <trkpt lat="42.866619" lon="-0.009503"><ele>692.25</ele></trkpt>
   <trkpt lat="42.866537" lon="-0.009427"><ele>693.5</ele></trkpt>
   <trkpt lat="42.866286" lon="-0.009066"><ele>698.75</ele></trkpt>
   <trkpt lat="42.866179" lon="-0.008995"><ele>700.25</ele></trkpt>
   <trkpt lat="42.865204" lon="-0.00864"><ele>712.5</ele></trkpt>
   <trkpt lat="42.864962" lon="-0.008543"><ele>714</ele></trkpt>
   <trkpt lat="42.864524" lon="-0.008367"><ele>716.5</ele></trkpt>
   <trkpt lat="42.86439" lon="-0.008313"><ele>717.5</ele></trkpt>
   <trkpt lat="42.864096" lon="-0.008142"><ele>720.75</ele></trkpt>
   <trkpt lat="42.863744" lon="-0.007878"><ele>724.25</ele></trkpt>
   <trkpt lat="42.863646" lon="-0.007804"><ele>724</ele></trkpt>
   <trkpt lat="42.862909" lon="-0.007181"><ele>727</ele></trkpt>
   <trkpt lat="42.862801" lon="-0.00703"><ele>726.75</ele></trkpt>
   <trkpt lat="42.862682" lon="-0.006786"><ele>727.25</ele></trkpt>
   <trkpt lat="42.862505" lon="-0.006302"><ele>731</ele></trkpt>
   <trkpt lat="42.862376" lon="-0.005988"><ele>738.25</ele></trkpt>
   <trkpt lat="42.862325" lon="-0.005923"><ele>739.5</ele></trkpt>
   <trkpt lat="42.862287" lon="-0.005909"><ele>739</ele></trkpt>
   <trkpt lat="42.861664" lon="-0.005879"><ele>739</ele></trkpt>
   <trkpt lat="42.861391" lon="-0.005873"><ele>741.25</ele></trkpt>
   <trkpt lat="42.861084" lon="-0.005853"><ele>743</ele></trkpt>
   <trkpt lat="42.860676" lon="-0.005756"><ele>741.25</ele></trkpt>
   <trkpt lat="42.860461" lon="-0.00569"><ele>737.5</ele></trkpt>
   <trkpt lat="42.860292" lon="-0.005579"><ele>737</ele></trkpt>
   <trkpt lat="42.860166" lon="-0.00547"><ele>737</ele></trkpt>
   <trkpt lat="42.860053" lon="-0.005335"><ele>738.5</ele></trkpt>
   <trkpt lat="42.859911" lon="-0.005072"><ele>745.5</ele></trkpt>
   <trkpt lat="42.859851" lon="-0.005018"><ele>746.25</ele></trkpt>
   <trkpt lat="42.859792" lon="-0.004996"><ele>745.25</ele></trkpt>
   <trkpt lat="42.859713" lon="-0.004986"><ele>743.5</ele></trkpt>
   <trkpt lat="42.859403" lon="-0.00506"><ele>733.75</ele></trkpt>
   <trkpt lat="42.859328" lon="-0.005044"><ele>734.25</ele></trkpt>
   <trkpt lat="42.859263" lon="-0.005012"><ele>735.75</ele></trkpt>
   <trkpt lat="42.859058" lon="-0.00485"><ele>745.5</ele></trkpt>
   <trkpt lat="42.858969" lon="-0.004822"><ele>747.25</ele></trkpt>
   <trkpt lat="42.8589" lon="-0.00482"><ele>747.25</ele></trkpt>
   <trkpt lat="42.858517" lon="-0.00486"><ele>746.75</ele></trkpt>
   <trkpt lat="42.858412" lon="-0.00488"><ele>746.75</ele></trkpt>
   <trkpt lat="42.858348" lon="-0.004898"><ele>746.25</ele></trkpt>
   <trkpt lat="42.858293" lon="-0.004926"><ele>745.5</ele></trkpt>
   <trkpt lat="42.85824" lon="-0.004975"><ele>743.5</ele></trkpt>
   <trkpt lat="42.85813" lon="-0.005117"><ele>737.25</ele></trkpt>
   <trkpt lat="42.857971" lon="-0.00523"><ele>733.25</ele></trkpt>
   <trkpt lat="42.857793" lon="-0.005341"><ele>729.5</ele></trkpt>
   <trkpt lat="42.857646" lon="-0.005418"><ele>725.75</ele></trkpt>
   <trkpt lat="42.8575" lon="-0.005432"><ele>725.75</ele></trkpt>
   <trkpt lat="42.857366" lon="-0.005422"><ele>725.25</ele></trkpt>
   <trkpt lat="42.857233" lon="-0.005356"><ele>728.75</ele></trkpt>
   <trkpt lat="42.856724" lon="-0.005034"><ele>741.5</ele></trkpt>
   <trkpt lat="42.856606" lon="-0.004979"><ele>743.5</ele></trkpt>
   <trkpt lat="42.856461" lon="-0.004942"><ele>744</ele></trkpt>
   <trkpt lat="42.855908" lon="-0.004952"><ele>750.25</ele></trkpt>
   <trkpt lat="42.855779" lon="-0.004999"><ele>753</ele></trkpt>
   <trkpt lat="42.855132" lon="-0.005481"><ele>746.75</ele></trkpt>
   <trkpt lat="42.854856" lon="-0.005662"><ele>750.5</ele></trkpt>
   <trkpt lat="42.854569" lon="-0.005789"><ele>758.25</ele></trkpt>
   <trkpt lat="42.85437" lon="-0.005839"><ele>762.25</ele></trkpt>
   <trkpt lat="42.854161" lon="-0.005849"><ele>766.5</ele></trkpt>
   <trkpt lat="42.853937" lon="-0.005803"><ele>774</ele></trkpt>
   <trkpt lat="42.853658" lon="-0.005803"><ele>778.5</ele></trkpt>
   <trkpt lat="42.853296" lon="-0.005831"><ele>782.75</ele></trkpt>
   <trkpt lat="42.852769" lon="-0.005897"><ele>786</ele></trkpt>
   <trkpt lat="42.852649" lon="-0.00596"><ele>786.25</ele></trkpt>
   <trkpt lat="42.852594" lon="-0.006012"><ele>785.25</ele></trkpt>
   <trkpt lat="42.852538" lon="-0.006081"><ele>783.5</ele></trkpt>
   <trkpt lat="42.852449" lon="-0.006267"><ele>781.5</ele></trkpt>
   <trkpt lat="42.852372" lon="-0.006498"><ele>777.75</ele></trkpt>
   <trkpt lat="42.852324" lon="-0.006575"><ele>778.75</ele></trkpt>
   <trkpt lat="42.852251" lon="-0.006623"><ele>783.5</ele></trkpt>
   <trkpt lat="42.852048" lon="-0.006719"><ele>792.25</ele></trkpt>
   <trkpt lat="42.851939" lon="-0.006795"><ele>795.25</ele></trkpt>
   <trkpt lat="42.851911" lon="-0.006883"><ele>791.5</ele></trkpt>
   <trkpt lat="42.851906" lon="-0.006977"><ele>785.75</ele></trkpt>
   <trkpt lat="42.851924" lon="-0.007143"><ele>770.25</ele></trkpt>
   <trkpt lat="42.851926" lon="-0.007221"><ele>763.25</ele></trkpt>
   <trkpt lat="42.8519" lon="-0.007307"><ele>755</ele></trkpt>
   <trkpt lat="42.851846" lon="-0.007392"><ele>748.25</ele></trkpt>
   <trkpt lat="42.851801" lon="-0.007442"><ele>744.75</ele></trkpt>
   <trkpt lat="42.851751" lon="-0.007462"><ele>745.25</ele></trkpt>
   <trkpt lat="42.851663" lon="-0.007447"><ele>752</ele></trkpt>
   <trkpt lat="42.851379" lon="-0.007246"><ele>782.25</ele></trkpt>
   <trkpt lat="42.851262" lon="-0.007204"><ele>784.25</ele></trkpt>
   <trkpt lat="42.850714" lon="-0.007173"><ele>783.5</ele></trkpt>
   <trkpt lat="42.850574" lon="-0.007135"><ele>783.25</ele></trkpt>
   <trkpt lat="42.850477" lon="-0.00707"><ele>783</ele></trkpt>
   <trkpt lat="42.850408" lon="-0.006998"><ele>783.25</ele></trkpt>
   <trkpt lat="42.850191" lon="-0.006705"><ele>786</ele></trkpt>
   <trkpt lat="42.850104" lon="-0.006629"><ele>786</ele></trkpt>
   <trkpt lat="42.850011" lon="-0.006584"><ele>784.5</ele></trkpt>
   <trkpt lat="42.849904" lon="-0.006552"><ele>783.25</ele></trkpt>
   <trkpt lat="42.849296" lon="-0.006457"><ele>781</ele></trkpt>
   <trkpt lat="42.849136" lon="-0.006452"><ele>781.75</ele></trkpt>
   <trkpt lat="42.848437" lon="-0.006652"><ele>778.75</ele></trkpt>
   <trkpt lat="42.848091" lon="-0.006714"><ele>782</ele></trkpt>
   <trkpt lat="42.847594" lon="-0.006915"><ele>785.25</ele></trkpt>
   <trkpt lat="42.847389" lon="-0.00694"><ele>790</ele></trkpt>
   <trkpt lat="42.847161" lon="-0.006903"><ele>796.75</ele></trkpt>
   <trkpt lat="42.8469" lon="-0.006828"><ele>804.75</ele></trkpt>
   <trkpt lat="42.846819" lon="-0.006829"><ele>806.5</ele></trkpt>
   <trkpt lat="42.846738" lon="-0.006852"><ele>806.75</ele></trkpt>
   <trkpt lat="42.846583" lon="-0.006963"><ele>801.25</ele></trkpt>
   <trkpt lat="42.846408" lon="-0.007052"><ele>795</ele></trkpt>
   <trkpt lat="42.846193" lon="-0.007119"><ele>790.5</ele></trkpt>
   <trkpt lat="42.84604" lon="-0.007142"><ele>790</ele></trkpt>
   <trkpt lat="42.845924" lon="-0.007146"><ele>791.5</ele></trkpt>
   <trkpt lat="42.845585" lon="-0.007098"><ele>800.25</ele></trkpt>
   <trkpt lat="42.845511" lon="-0.007094"><ele>801</ele></trkpt>
   <trkpt lat="42.844065" lon="-0.007295"><ele>797.75</ele></trkpt>
   <trkpt lat="42.843907" lon="-0.0073"><ele>798.75</ele></trkpt>
   <trkpt lat="42.843818" lon="-0.007295"><ele>799.75</ele></trkpt>
   <trkpt lat="42.843653" lon="-0.007244"><ele>803.5</ele></trkpt>
   <trkpt lat="42.843522" lon="-0.007175"><ele>805.75</ele></trkpt>
   <trkpt lat="42.843361" lon="-0.007042"><ele>808.25</ele></trkpt>
   <trkpt lat="42.843145" lon="-0.006813"><ele>810.25</ele></trkpt>
   <trkpt lat="42.842896" lon="-0.00651"><ele>814.75</ele></trkpt>
   <trkpt lat="42.842788" lon="-0.006395"><ele>817</ele></trkpt>
   <trkpt lat="42.842685" lon="-0.006328"><ele>817.75</ele></trkpt>
   <trkpt lat="42.841835" lon="-0.005929"><ele>820.75</ele></trkpt>
   <trkpt lat="42.841347" lon="-0.005861"><ele>819.75</ele></trkpt>
   <trkpt lat="42.840521" lon="-0.005575"><ele>828.75</ele></trkpt>
   <trkpt lat="42.840214" lon="-0.00548"><ele>827.25</ele></trkpt>
   <trkpt lat="42.840094" lon="-0.005434"><ele>826.5</ele></trkpt>
   <trkpt lat="42.839975" lon="-0.005359"><ele>827.25</ele></trkpt>
   <trkpt lat="42.839257" lon="-0.004756"><ele>831.75</ele></trkpt>
   <trkpt lat="42.83911" lon="-0.004624"><ele>831.75</ele></trkpt>
   <trkpt lat="42.838902" lon="-0.004384"><ele>834.5</ele></trkpt>
   <trkpt lat="42.838709" lon="-0.004257"><ele>832.5</ele></trkpt>
   <trkpt lat="42.838354" lon="-0.004067"><ele>824.5</ele></trkpt>
   <trkpt lat="42.83827" lon="-0.003988"><ele>823.25</ele></trkpt>
   <trkpt lat="42.838212" lon="-0.003868"><ele>824</ele></trkpt>
   <trkpt lat="42.838059" lon="-0.003446"><ele>830.5</ele></trkpt>
   <trkpt lat="42.838007" lon="-0.003378"><ele>831.5</ele></trkpt>
   <trkpt lat="42.837955" lon="-0.003338"><ele>831.5</ele></trkpt>
   <trkpt lat="42.837863" lon="-0.003287"><ele>831.25</ele></trkpt>
   <trkpt lat="42.837771" lon="-0.003277"><ele>828.75</ele></trkpt>
   <trkpt lat="42.837673" lon="-0.00329"><ele>826.5</ele></trkpt>
   <trkpt lat="42.837597" lon="-0.003344"><ele>823</ele></trkpt>
   <trkpt lat="42.83719" lon="-0.003796"><ele>822.5</ele></trkpt>
   <trkpt lat="42.837162" lon="-0.003817"><ele>823.75</ele></trkpt>
   <trkpt lat="42.837123" lon="-0.003824"><ele>825.25</ele></trkpt>
   <trkpt lat="42.837072" lon="-0.00379"><ele>826.75</ele></trkpt>
   <trkpt lat="42.836925" lon="-0.00355"><ele>828.5</ele></trkpt>
   <trkpt lat="42.836743" lon="-0.003369"><ele>831.25</ele></trkpt>
   <trkpt lat="42.836463" lon="-0.003073"><ele>833.25</ele></trkpt>
   <trkpt lat="42.836332" lon="-0.002945"><ele>834.5</ele></trkpt>
   <trkpt lat="42.836217" lon="-0.002803"><ele>834.75</ele></trkpt>
   <trkpt lat="42.836138" lon="-0.00265"><ele>834.25</ele></trkpt>
   <trkpt lat="42.835995" lon="-0.002197"><ele>833</ele></trkpt>
   <trkpt lat="42.835822" lon="-0.001759"><ele>833.25</ele></trkpt>
   <trkpt lat="42.835634" lon="-0.001368"><ele>834.25</ele></trkpt>
   <trkpt lat="42.835268" lon="-0.000928"><ele>834.25</ele></trkpt>
   <trkpt lat="42.835145" lon="-0.000833"><ele>834.75</ele></trkpt>
   <trkpt lat="42.834485" lon="-0.000572"><ele>842.25</ele></trkpt>
   <trkpt lat="42.83406" lon="-0.000367"><ele>845.75</ele></trkpt>
   <trkpt lat="42.833824" lon="-0.000157"><ele>844.5</ele></trkpt>
   <trkpt lat="42.833691" lon="-0.00004"><ele>844.25</ele></trkpt>
   <trkpt lat="42.833586" lon="0.00003"><ele>844.75</ele></trkpt>
   <trkpt lat="42.833506" lon="0.000043"><ele>846.75</ele></trkpt>
   <trkpt lat="42.833465" lon="0.000046"><ele>847.75</ele></trkpt>
   <trkpt lat="42.833352" lon="0.000053"><ele>850.75</ele></trkpt>
   <trkpt lat="42.83325" lon="0.000097"><ele>852.25</ele></trkpt>
   <trkpt lat="42.833089" lon="0.000248"><ele>852</ele></trkpt>
   <trkpt lat="42.832951" lon="0.000465"><ele>853</ele></trkpt>
   <trkpt lat="42.832886" lon="0.000616"><ele>853.5</ele></trkpt>
   <trkpt lat="42.832818" lon="0.000863"><ele>853.75</ele></trkpt>
   <trkpt lat="42.832715" lon="0.001183"><ele>854.75</ele></trkpt>
   <trkpt lat="42.832644" lon="0.001334"><ele>856</ele></trkpt>
   <trkpt lat="42.832582" lon="0.001422"><ele>857.5</ele></trkpt>
   <trkpt lat="42.832474" lon="0.001548"><ele>859.5</ele></trkpt>
   <trkpt lat="42.832257" lon="0.001764"><ele>864</ele></trkpt>
   <trkpt lat="42.832105" lon="0.00196"><ele>865.5</ele></trkpt>
   <trkpt lat="42.831758" lon="0.002548"><ele>862</ele></trkpt>
   <trkpt lat="42.830879" lon="0.00386"><ele>866</ele></trkpt>
   <trkpt lat="42.830549" lon="0.004397"><ele>868</ele></trkpt>
   <trkpt lat="42.830438" lon="0.00452"><ele>869</ele></trkpt>
   <trkpt lat="42.830022" lon="0.004767"><ele>877.75</ele></trkpt>
   <trkpt lat="42.829915" lon="0.004849"><ele>882.5</ele></trkpt>
   <trkpt lat="42.82981" lon="0.004956"><ele>889.5</ele></trkpt>
   <trkpt lat="42.829739" lon="0.005074"><ele>892.25</ele></trkpt>
   <trkpt lat="42.82954" lon="0.005578"><ele>878.5</ele></trkpt>
   <trkpt lat="42.82945" lon="0.005744"><ele>875.5</ele></trkpt>
   <trkpt lat="42.829257" lon="0.005997"><ele>874.25</ele></trkpt>
   <trkpt lat="42.828916" lon="0.006366"><ele>873</ele></trkpt>
   <trkpt lat="42.828729" lon="0.006556"><ele>872.5</ele></trkpt>
   <trkpt lat="42.828595" lon="0.006648"><ele>872</ele></trkpt>
   <trkpt lat="42.828496" lon="0.006698"><ele>873</ele></trkpt>
   <trkpt lat="42.82826" lon="0.006746"><ele>877.75</ele></trkpt>
   <trkpt lat="42.828062" lon="0.006806"><ele>882.25</ele></trkpt>
   <trkpt lat="42.827908" lon="0.006921"><ele>884.75</ele></trkpt>
   <trkpt lat="42.827512" lon="0.007311"><ele>881.5</ele></trkpt>
   <trkpt lat="42.82711" lon="0.007778"><ele>875.5</ele></trkpt>
   <trkpt lat="42.826834" lon="0.008085"><ele>874.75</ele></trkpt>
   <trkpt lat="42.826756" lon="0.008152"><ele>875</ele></trkpt>
   <trkpt lat="42.826679" lon="0.00819"><ele>875.25</ele></trkpt>
   <trkpt lat="42.825917" lon="0.008381"><ele>883.75</ele></trkpt>
   <trkpt lat="42.825071" lon="0.008666"><ele>887</ele></trkpt>
   <trkpt lat="42.824912" lon="0.008681"><ele>889</ele></trkpt>
   <trkpt lat="42.824575" lon="0.008677"><ele>893</ele></trkpt>
   <trkpt lat="42.82451" lon="0.008711"><ele>891.75</ele></trkpt>
   <trkpt lat="42.824471" lon="0.008809"><ele>887</ele></trkpt>
   <trkpt lat="42.824411" lon="0.009203"><ele>883.75</ele></trkpt>
   <trkpt lat="42.824394" lon="0.009276"><ele>887.25</ele></trkpt>
   <trkpt lat="42.824366" lon="0.009321"><ele>889.75</ele></trkpt>
   <trkpt lat="42.824337" lon="0.009343"><ele>891</ele></trkpt>
   <trkpt lat="42.824059" lon="0.009355"><ele>894</ele></trkpt>
   <trkpt lat="42.823822" lon="0.009344"><ele>895.5</ele></trkpt>
   <trkpt lat="42.823451" lon="0.009342"><ele>897.5</ele></trkpt>
   <trkpt lat="42.823014" lon="0.009403"><ele>904.5</ele></trkpt>
   <trkpt lat="42.822662" lon="0.009388"><ele>907.25</ele></trkpt>
   <trkpt lat="42.82208" lon="0.009246"><ele>902.75</ele></trkpt>
   <trkpt lat="42.821938" lon="0.009239"><ele>902.5</ele></trkpt>
   <trkpt lat="42.821808" lon="0.009284"><ele>903.75</ele></trkpt>
   <trkpt lat="42.821589" lon="0.009437"><ele>907.25</ele></trkpt>
   <trkpt lat="42.821306" lon="0.009615"><ele>906.25</ele></trkpt>
   <trkpt lat="42.821216" lon="0.009678"><ele>907.25</ele></trkpt>
   <trkpt lat="42.820788" lon="0.00996"><ele>908.5</ele></trkpt>
   <trkpt lat="42.820672" lon="0.010037"><ele>909.25</ele></trkpt>
   <trkpt lat="42.820558" lon="0.010087"><ele>909.75</ele></trkpt>
   <trkpt lat="42.820444" lon="0.010114"><ele>910.25</ele></trkpt>
   <trkpt lat="42.820389" lon="0.010122"><ele>910.5</ele></trkpt>
   <trkpt lat="42.820356" lon="0.010123"><ele>910.5</ele></trkpt>
   <trkpt lat="42.820301" lon="0.010128"><ele>910.75</ele></trkpt>
   <trkpt lat="42.820015" lon="0.010143"><ele>911</ele></trkpt>
   <trkpt lat="42.818926" lon="0.010161"><ele>915</ele></trkpt>
   <trkpt lat="42.818844" lon="0.010134"><ele>914.75</ele></trkpt>
   <trkpt lat="42.818392" lon="0.009944"><ele>913.25</ele></trkpt>
   <trkpt lat="42.818172" lon="0.009835"><ele>913.5</ele></trkpt>
   <trkpt lat="42.817938" lon="0.009745"><ele>914.5</ele></trkpt>
   <trkpt lat="42.817785" lon="0.009705"><ele>914.75</ele></trkpt>
   <trkpt lat="42.817547" lon="0.009663"><ele>915.25</ele></trkpt>
   <trkpt lat="42.817389" lon="0.009629"><ele>916.25</ele></trkpt>
   <trkpt lat="42.817237" lon="0.00955"><ele>917</ele></trkpt>
   <trkpt lat="42.816637" lon="0.00909"><ele>917.5</ele></trkpt>
   <trkpt lat="42.816121" lon="0.00867"><ele>916.5</ele></trkpt>
   <trkpt lat="42.816033" lon="0.00862"><ele>916.5</ele></trkpt>
   <trkpt lat="42.815944" lon="0.00859"><ele>916.75</ele></trkpt>
   <trkpt lat="42.815722" lon="0.008553"><ele>918.5</ele></trkpt>
   <trkpt lat="42.814976" lon="0.00849"><ele>925.75</ele></trkpt>
   <trkpt lat="42.814857" lon="0.00845"><ele>926</ele></trkpt>
   <trkpt lat="42.814345" lon="0.008131"><ele>924.75</ele></trkpt>
   <trkpt lat="42.814266" lon="0.008098"><ele>924.5</ele></trkpt>
   <trkpt lat="42.814205" lon="0.008085"><ele>924.75</ele></trkpt>
   <trkpt lat="42.813533" lon="0.008062"><ele>923</ele></trkpt>
   <trkpt lat="42.812868" lon="0.007984"><ele>919.5</ele></trkpt>
   <trkpt lat="42.812648" lon="0.007992"><ele>919.5</ele></trkpt>
   <trkpt lat="42.811648" lon="0.008107"><ele>926</ele></trkpt>
   <trkpt lat="42.810936" lon="0.008244"><ele>930.5</ele></trkpt>
   <trkpt lat="42.810856" lon="0.00826"><ele>930.5</ele></trkpt>
   <trkpt lat="42.810348" lon="0.008391"><ele>931</ele></trkpt>
   <trkpt lat="42.809946" lon="0.008582"><ele>931.5</ele></trkpt>
   <trkpt lat="42.80974" lon="0.008702"><ele>932.5</ele></trkpt>
   <trkpt lat="42.809514" lon="0.008878"><ele>934.5</ele></trkpt>
   <trkpt lat="42.809257" lon="0.009093"><ele>935.75</ele></trkpt>
   <trkpt lat="42.809136" lon="0.009208"><ele>936.25</ele></trkpt>
   <trkpt lat="42.808683" lon="0.009697"><ele>939.5</ele></trkpt>
   <trkpt lat="42.80846" lon="0.009885"><ele>941</ele></trkpt>
   <trkpt lat="42.807203" lon="0.010689"><ele>940.5</ele></trkpt>
   <trkpt lat="42.806958" lon="0.010864"><ele>940</ele></trkpt>
   <trkpt lat="42.806096" lon="0.011652"><ele>939.5</ele></trkpt>
   <trkpt lat="42.80593" lon="0.011832"><ele>939.5</ele></trkpt>
   <trkpt lat="42.805853" lon="0.011956"><ele>939.5</ele></trkpt>
   <trkpt lat="42.805716" lon="0.012281"><ele>942.75</ele></trkpt>
   <trkpt lat="42.805558" lon="0.012499"><ele>943</ele></trkpt>
   <trkpt lat="42.805269" lon="0.012764"><ele>943.5</ele></trkpt>
   <trkpt lat="42.805017" lon="0.012927"><ele>946</ele></trkpt>
   <trkpt lat="42.804506" lon="0.013113"><ele>945.75</ele></trkpt>
   <trkpt lat="42.803717" lon="0.013506"><ele>951.75</ele></trkpt>
   <trkpt lat="42.803577" lon="0.013539"><ele>952.25</ele></trkpt>
   <trkpt lat="42.803464" lon="0.01355"><ele>952</ele></trkpt>
   <trkpt lat="42.802065" lon="0.01339"><ele>944.75</ele></trkpt>
   <trkpt lat="42.801989" lon="0.013387"><ele>945</ele></trkpt>
   <trkpt lat="42.801855" lon="0.013388"><ele>945.5</ele></trkpt>
   <trkpt lat="42.801546" lon="0.013433"><ele>947.5</ele></trkpt>
   <trkpt lat="42.801034" lon="0.013509"><ele>948.75</ele></trkpt>
   <trkpt lat="42.800748" lon="0.013571"><ele>950</ele></trkpt>
   <trkpt lat="42.800618" lon="0.013633"><ele>951</ele></trkpt>
   <trkpt lat="42.800371" lon="0.013819"><ele>953</ele></trkpt>
   <trkpt lat="42.800118" lon="0.014077"><ele>956.25</ele></trkpt>
   <trkpt lat="42.799221" lon="0.015121"><ele>964.5</ele></trkpt>
   <trkpt lat="42.798952" lon="0.015392"><ele>967</ele></trkpt>
   <trkpt lat="42.798568" lon="0.015928"><ele>976.25</ele></trkpt>
   <trkpt lat="42.798446" lon="0.016031"><ele>977.75</ele></trkpt>
   <trkpt lat="42.79819" lon="0.016228"><ele>980.25</ele></trkpt>
   <trkpt lat="42.797821" lon="0.016498"><ele>984.75</ele></trkpt>
   <trkpt lat="42.797706" lon="0.016561"><ele>986.25</ele></trkpt>
   <trkpt lat="42.797611" lon="0.01659"><ele>986</ele></trkpt>
   <trkpt lat="42.797556" lon="0.016598"><ele>985.5</ele></trkpt>
   <trkpt lat="42.79747" lon="0.016597"><ele>984.5</ele></trkpt>
   <trkpt lat="42.797298" lon="0.016581"><ele>984</ele></trkpt>
   <trkpt lat="42.797156" lon="0.01651"><ele>983.5</ele></trkpt>
   <trkpt lat="42.797019" lon="0.016417"><ele>984.25</ele></trkpt>
   <trkpt lat="42.796775" lon="0.016162"><ele>984.75</ele></trkpt>
   <trkpt lat="42.796606" lon="0.015935"><ele>983</ele></trkpt>
   <trkpt lat="42.796424" lon="0.015671"><ele>978.25</ele></trkpt>
   <trkpt lat="42.796365" lon="0.015602"><ele>976.25</ele></trkpt>
   <trkpt lat="42.79633" lon="0.015581"><ele>975.5</ele></trkpt>
   <trkpt lat="42.796215" lon="0.015571"><ele>974.75</ele></trkpt>
   <trkpt lat="42.79612" lon="0.015605"><ele>975.25</ele></trkpt>
   <trkpt lat="42.796028" lon="0.015684"><ele>975.5</ele></trkpt>
   <trkpt lat="42.795924" lon="0.015804"><ele>975.25</ele></trkpt>
   <trkpt lat="42.795873" lon="0.015939"><ele>976.75</ele></trkpt>
   <trkpt lat="42.795851" lon="0.016079"><ele>979</ele></trkpt>
   <trkpt lat="42.795854" lon="0.016245"><ele>981.5</ele></trkpt>
   <trkpt lat="42.795876" lon="0.0165"><ele>984.25</ele></trkpt>
   <trkpt lat="42.795943" lon="0.016781"><ele>987</ele></trkpt>
   <trkpt lat="42.795973" lon="0.01694"><ele>987.5</ele></trkpt>
   <trkpt lat="42.795972" lon="0.01708"><ele>989</ele></trkpt>
   <trkpt lat="42.795941" lon="0.017273"><ele>990.25</ele></trkpt>
   <trkpt lat="42.795894" lon="0.017421"><ele>992</ele></trkpt>
   <trkpt lat="42.795756" lon="0.017695"><ele>994</ele></trkpt>
   <trkpt lat="42.795563" lon="0.017917"><ele>993.75</ele></trkpt>
   <trkpt lat="42.795424" lon="0.01799"><ele>992.5</ele></trkpt>
   <trkpt lat="42.795318" lon="0.018018"><ele>990.75</ele></trkpt>
   <trkpt lat="42.795081" lon="0.018004"><ele>985.75</ele></trkpt>
   <trkpt lat="42.795054" lon="0.018003"><ele>985.5</ele></trkpt>
   <trkpt lat="42.794792" lon="0.017976"><ele>981.75</ele></trkpt>
   <trkpt lat="42.794716" lon="0.017974"><ele>981</ele></trkpt>
   <trkpt lat="42.79466" lon="0.017985"><ele>980.5</ele></trkpt>
   <trkpt lat="42.794562" lon="0.018049"><ele>980.5</ele></trkpt>
   <trkpt lat="42.794526" lon="0.018103"><ele>981</ele></trkpt>
   <trkpt lat="42.794457" lon="0.018282"><ele>984</ele></trkpt>
   <trkpt lat="42.794332" lon="0.018509"><ele>988</ele></trkpt>
   <trkpt lat="42.794207" lon="0.018631"><ele>989.25</ele></trkpt>
   <trkpt lat="42.793795" lon="0.018871"><ele>990</ele></trkpt>
   <trkpt lat="42.793375" lon="0.019058"><ele>990.25</ele></trkpt>
   <trkpt lat="42.793103" lon="0.019164"><ele>991.25</ele></trkpt>
   <trkpt lat="42.792694" lon="0.019136"><ele>990.5</ele></trkpt>
   <trkpt lat="42.792555" lon="0.019072"><ele>989.5</ele></trkpt>
   <trkpt lat="42.792291" lon="0.018931"><ele>989</ele></trkpt>
   <trkpt lat="42.791903" lon="0.018649"><ele>991.25</ele></trkpt>
   <trkpt lat="42.791762" lon="0.01851"><ele>992</ele></trkpt>
   <trkpt lat="42.791502" lon="0.018046"><ele>994.5</ele></trkpt>
   <trkpt lat="42.79136" lon="0.017879"><ele>995.5</ele></trkpt>
   <trkpt lat="42.79117" lon="0.017743"><ele>997.75</ele></trkpt>
   <trkpt lat="42.791003" lon="0.017693"><ele>998.25</ele></trkpt>
   <trkpt lat="42.790775" lon="0.017707"><ele>999</ele></trkpt>
   <trkpt lat="42.790642" lon="0.017752"><ele>999</ele></trkpt>
   <trkpt lat="42.790349" lon="0.017948"><ele>999.25</ele></trkpt>
   <trkpt lat="42.790177" lon="0.018107"><ele>998.5</ele></trkpt>
   <trkpt lat="42.790042" lon="0.018254"><ele>997.75</ele></trkpt>
   <trkpt lat="42.789898" lon="0.018469"><ele>998.5</ele></trkpt>
   <trkpt lat="42.78961" lon="0.019041"><ele>1003.5</ele></trkpt>
   <trkpt lat="42.789525" lon="0.019158"><ele>1004</ele></trkpt>
   <trkpt lat="42.789377" lon="0.01927"><ele>1004.75</ele></trkpt>
   <trkpt lat="42.789011" lon="0.019428"><ele>1003</ele></trkpt>
   <trkpt lat="42.788945" lon="0.019461"><ele>1003</ele></trkpt>
   <trkpt lat="42.788834" lon="0.019516"><ele>1003</ele></trkpt>
   <trkpt lat="42.788787" lon="0.019525"><ele>1002.75</ele></trkpt>
   <trkpt lat="42.788686" lon="0.019548"><ele>1002</ele></trkpt>
   <trkpt lat="42.788633" lon="0.019547"><ele>1001.5</ele></trkpt>
   <trkpt lat="42.788602" lon="0.019541"><ele>1001.25</ele></trkpt>
   <trkpt lat="42.788571" lon="0.019536"><ele>1001.25</ele></trkpt>
   <trkpt lat="42.788414" lon="0.019476"><ele>1001</ele></trkpt>
   <trkpt lat="42.78821" lon="0.019398"><ele>1001.25</ele></trkpt>
   <trkpt lat="42.788117" lon="0.019429"><ele>1001.5</ele></trkpt>
   <trkpt lat="42.787992" lon="0.019483"><ele>1002</ele></trkpt>
   <trkpt lat="42.787625" lon="0.019763"><ele>1003.5</ele></trkpt>
   <trkpt lat="42.787556" lon="0.019841"><ele>1003.5</ele></trkpt>
   <trkpt lat="42.787487" lon="0.019951"><ele>1003.5</ele></trkpt>
   <trkpt lat="42.78743" lon="0.020086"><ele>1003.75</ele></trkpt>
   <trkpt lat="42.787339" lon="0.020338"><ele>1004</ele></trkpt>
   <trkpt lat="42.787311" lon="0.020478"><ele>1004.5</ele></trkpt>
   <trkpt lat="42.78724" lon="0.020839"><ele>1007.25</ele></trkpt>
   <trkpt lat="42.787124" lon="0.021067"><ele>1010.75</ele></trkpt>
   <trkpt lat="42.787037" lon="0.021205"><ele>1012.25</ele></trkpt>
   <trkpt lat="42.787009" lon="0.021237"><ele>1012.75</ele></trkpt>
   <trkpt lat="42.786977" lon="0.021265"><ele>1012.25</ele></trkpt>
   <trkpt lat="42.786876" lon="0.021267"><ele>1010.75</ele></trkpt>
   <trkpt lat="42.786701" lon="0.021179"><ele>1008.25</ele></trkpt>
   <trkpt lat="42.786655" lon="0.021131"><ele>1008.25</ele></trkpt>
   <trkpt lat="42.786611" lon="0.02106"><ele>1008.5</ele></trkpt>
   <trkpt lat="42.786503" lon="0.020841"><ele>1008</ele></trkpt>
   <trkpt lat="42.786447" lon="0.020692"><ele>1008</ele></trkpt>
   <trkpt lat="42.786378" lon="0.020555"><ele>1008</ele></trkpt>
   <trkpt lat="42.786279" lon="0.020431"><ele>1009.5</ele></trkpt>
   <trkpt lat="42.78618" lon="0.020319"><ele>1010.25</ele></trkpt>
   <trkpt lat="42.786069" lon="0.020245"><ele>1011.25</ele></trkpt>
   <trkpt lat="42.78596" lon="0.020205"><ele>1012.75</ele></trkpt>
   <trkpt lat="42.785828" lon="0.02017"><ele>1014.25</ele></trkpt>
   <trkpt lat="42.785735" lon="0.020158"><ele>1015.25</ele></trkpt>
   <trkpt lat="42.785539" lon="0.020182"><ele>1018</ele></trkpt>
   <trkpt lat="42.785513" lon="0.020186"><ele>1018.25</ele></trkpt>
   <trkpt lat="42.785126" lon="0.020263"><ele>1023.25</ele></trkpt>
   <trkpt lat="42.785058" lon="0.020261"><ele>1024</ele></trkpt>
   <trkpt lat="42.785017" lon="0.020251"><ele>1024</ele></trkpt>
   <trkpt lat="42.784898" lon="0.020195"><ele>1024.5</ele></trkpt>
   <trkpt lat="42.784403" lon="0.019777"><ele>1025.5</ele></trkpt>
   <trkpt lat="42.783882" lon="0.019305"><ele>1029</ele></trkpt>
   <trkpt lat="42.783791" lon="0.019223"><ele>1030.25</ele></trkpt>
   <trkpt lat="42.783628" lon="0.019022"><ele>1031</ele></trkpt>
   <trkpt lat="42.78356" lon="0.018907"><ele>1031</ele></trkpt>
   <trkpt lat="42.78344" lon="0.018655"><ele>1031</ele></trkpt>
   <trkpt lat="42.783349" lon="0.018417"><ele>1029.75</ele></trkpt>
   <trkpt lat="42.783293" lon="0.018294"><ele>1029.5</ele></trkpt>
   <trkpt lat="42.783257" lon="0.018266"><ele>1030.25</ele></trkpt>
   <trkpt lat="42.783193" lon="0.018262"><ele>1032.25</ele></trkpt>
   <trkpt lat="42.783144" lon="0.018287"><ele>1034</ele></trkpt>
   <trkpt lat="42.783104" lon="0.018337"><ele>1036.5</ele></trkpt>
   <trkpt lat="42.783095" lon="0.018399"><ele>1038.25</ele></trkpt>
   <trkpt lat="42.78311" lon="0.018491"><ele>1040.25</ele></trkpt>
   <trkpt lat="42.783211" lon="0.018639"><ele>1039.25</ele></trkpt>
   <trkpt lat="42.783361" lon="0.018831"><ele>1036.75</ele></trkpt>
   <trkpt lat="42.783481" lon="0.019064"><ele>1037.5</ele></trkpt>
   <trkpt lat="42.783772" lon="0.01974"><ele>1038.25</ele></trkpt>
   <trkpt lat="42.784019" lon="0.020152"><ele>1041</ele></trkpt>
   <trkpt lat="42.784262" lon="0.020502"><ele>1043.25</ele></trkpt>
   <trkpt lat="42.78514" lon="0.021674"><ele>1051</ele></trkpt>
   <trkpt lat="42.785245" lon="0.021827"><ele>1051.75</ele></trkpt>
   <trkpt lat="42.785456" lon="0.022198"><ele>1052.75</ele></trkpt>
   <trkpt lat="42.785614" lon="0.022557"><ele>1054</ele></trkpt>
   <trkpt lat="42.785503" lon="0.022654"><ele>1057.5</ele></trkpt>
   <trkpt lat="42.785435" lon="0.022683"><ele>1059.25</ele></trkpt>
   <trkpt lat="42.785164" lon="0.022396"><ele>1061.25</ele></trkpt>
   <trkpt lat="42.7847" lon="0.021922"><ele>1064</ele></trkpt>
   <trkpt lat="42.784451" lon="0.0217"><ele>1065.25</ele></trkpt>
   <trkpt lat="42.784209" lon="0.021481"><ele>1068.25</ele></trkpt>
   <trkpt lat="42.783525" lon="0.020835"><ele>1072</ele></trkpt>
   <trkpt lat="42.783371" lon="0.020672"><ele>1074.5</ele></trkpt>
   <trkpt lat="42.783267" lon="0.020502"><ele>1075.25</ele></trkpt>
   <trkpt lat="42.783128" lon="0.020219"><ele>1077.5</ele></trkpt>
   <trkpt lat="42.783028" lon="0.019993"><ele>1079.5</ele></trkpt>
   <trkpt lat="42.782983" lon="0.019856"><ele>1079.5</ele></trkpt>
   <trkpt lat="42.782915" lon="0.019469"><ele>1077.25</ele></trkpt>
   <trkpt lat="42.782874" lon="0.019344"><ele>1076.75</ele></trkpt>
   <trkpt lat="42.782809" lon="0.019253"><ele>1078</ele></trkpt>
   <trkpt lat="42.782392" lon="0.018821"><ele>1081.5</ele></trkpt>
   <trkpt lat="42.782212" lon="0.018666"><ele>1081.75</ele></trkpt>
   <trkpt lat="42.782108" lon="0.018598"><ele>1081.25</ele></trkpt>
   <trkpt lat="42.782012" lon="0.018558"><ele>1080.25</ele></trkpt>
   <trkpt lat="42.781849" lon="0.01856"><ele>1081.5</ele></trkpt>
   <trkpt lat="42.781684" lon="0.018593"><ele>1083.75</ele></trkpt>
   <trkpt lat="42.78145" lon="0.018625"><ele>1083.75</ele></trkpt>
   <trkpt lat="42.781148" lon="0.018624"><ele>1082.5</ele></trkpt>
   <trkpt lat="42.780605" lon="0.018709"><ele>1090.5</ele></trkpt>
   <trkpt lat="42.780463" lon="0.018703"><ele>1092</ele></trkpt>
   <trkpt lat="42.780167" lon="0.018692"><ele>1096.5</ele></trkpt>
   <trkpt lat="42.780002" lon="0.018644"><ele>1098.75</ele></trkpt>
   <trkpt lat="42.779845" lon="0.01856"><ele>1099.75</ele></trkpt>
   <trkpt lat="42.779664" lon="0.018391"><ele>1099</ele></trkpt>
   <trkpt lat="42.779573" lon="0.018322"><ele>1099.25</ele></trkpt>
   <trkpt lat="42.779403" lon="0.01824"><ele>1100.75</ele></trkpt>
   <trkpt lat="42.778744" lon="0.017762"><ele>1101.25</ele></trkpt>
   <trkpt lat="42.778253" lon="0.017346"><ele>1107.5</ele></trkpt>
   <trkpt lat="42.778054" lon="0.017149"><ele>1110</ele></trkpt>
   <trkpt lat="42.777727" lon="0.016712"><ele>1112</ele></trkpt>
   <trkpt lat="42.77732" lon="0.016166"><ele>1112</ele></trkpt>
   <trkpt lat="42.777097" lon="0.015797"><ele>1112.5</ele></trkpt>
   <trkpt lat="42.776967" lon="0.015546"><ele>1112.25</ele></trkpt>
   <trkpt lat="42.776816" lon="0.01536"><ele>1115.75</ele></trkpt>
   <trkpt lat="42.776739" lon="0.015207"><ele>1115.75</ele></trkpt>
   <trkpt lat="42.776566" lon="0.014748"><ele>1114.75</ele></trkpt>
   <trkpt lat="42.776483" lon="0.014597"><ele>1116</ele></trkpt>
   <trkpt lat="42.776396" lon="0.014486"><ele>1118.5</ele></trkpt>
   <trkpt lat="42.776287" lon="0.014388"><ele>1121</ele></trkpt>
   <trkpt lat="42.776155" lon="0.014312"><ele>1124.5</ele></trkpt>
   <trkpt lat="42.776091" lon="0.014247"><ele>1125.5</ele></trkpt>
   <trkpt lat="42.775935" lon="0.014015"><ele>1124.5</ele></trkpt>
   <trkpt lat="42.775788" lon="0.013885"><ele>1126.5</ele></trkpt>
   <trkpt lat="42.775705" lon="0.013775"><ele>1128.5</ele></trkpt>
   <trkpt lat="42.775671" lon="0.013577"><ele>1125.75</ele></trkpt>
   <trkpt lat="42.77565" lon="0.013326"><ele>1123.25</ele></trkpt>
   <trkpt lat="42.775586" lon="0.01305"><ele>1122.25</ele></trkpt>
   <trkpt lat="42.775451" lon="0.01281"><ele>1125.5</ele></trkpt>
   <trkpt lat="42.775229" lon="0.012526"><ele>1132.25</ele></trkpt>
   <trkpt lat="42.775047" lon="0.012344"><ele>1139.25</ele></trkpt>
   <trkpt lat="42.774936" lon="0.012214"><ele>1143.75</ele></trkpt>
   <trkpt lat="42.774826" lon="0.012034"><ele>1147.25</ele></trkpt>
   <trkpt lat="42.774765" lon="0.01187"><ele>1147.5</ele></trkpt>
   <trkpt lat="42.774728" lon="0.011627"><ele>1143.5</ele></trkpt>
   <trkpt lat="42.774675" lon="0.011383"><ele>1139.5</ele></trkpt>
   <trkpt lat="42.774597" lon="0.011205"><ele>1138.5</ele></trkpt>
   <trkpt lat="42.774526" lon="0.011074"><ele>1138.5</ele></trkpt>
   <trkpt lat="42.774245" lon="0.010703"><ele>1139</ele></trkpt>
   <trkpt lat="42.774117" lon="0.010567"><ele>1138</ele></trkpt>
   <trkpt lat="42.773992" lon="0.010501"><ele>1138.75</ele></trkpt>
   <trkpt lat="42.773124" lon="0.010255"><ele>1148.5</ele></trkpt>
   <trkpt lat="42.772662" lon="0.010111"><ele>1154.75</ele></trkpt>
   <trkpt lat="42.772566" lon="0.010042"><ele>1155.75</ele></trkpt>
   <trkpt lat="42.772211" lon="0.009585"><ele>1156.5</ele></trkpt>
   <trkpt lat="42.771933" lon="0.009213"><ele>1156.75</ele></trkpt>
   <trkpt lat="42.771688" lon="0.008952"><ele>1157.25</ele></trkpt>
   <trkpt lat="42.77123" lon="0.008559"><ele>1157.5</ele></trkpt>
   <trkpt lat="42.771128" lon="0.008491"><ele>1157.75</ele></trkpt>
   <trkpt lat="42.770662" lon="0.008402"><ele>1165</ele></trkpt>
   <trkpt lat="42.770565" lon="0.008346"><ele>1165.25</ele></trkpt>
   <trkpt lat="42.770436" lon="0.008241"><ele>1165.5</ele></trkpt>
   <trkpt lat="42.770176" lon="0.008182"><ele>1172.75</ele></trkpt>
   <trkpt lat="42.769873" lon="0.007895"><ele>1174.75</ele></trkpt>
   <trkpt lat="42.769653" lon="0.007753"><ele>1178</ele></trkpt>
   <trkpt lat="42.769554" lon="0.007626"><ele>1177.25</ele></trkpt>
   <trkpt lat="42.769509" lon="0.00754"><ele>1175.75</ele></trkpt>
   <trkpt lat="42.769409" lon="0.007286"><ele>1171.5</ele></trkpt>
   <trkpt lat="42.769318" lon="0.007145"><ele>1170.75</ele></trkpt>
   <trkpt lat="42.769169" lon="0.007005"><ele>1171.75</ele></trkpt>
   <trkpt lat="42.769019" lon="0.006939"><ele>1175</ele></trkpt>
   <trkpt lat="42.768816" lon="0.006919"><ele>1181.75</ele></trkpt>
   <trkpt lat="42.768621" lon="0.006876"><ele>1187.25</ele></trkpt>
   <trkpt lat="42.768534" lon="0.006837"><ele>1188.5</ele></trkpt>
   <trkpt lat="42.768337" lon="0.006605"><ele>1186.5</ele></trkpt>
   <trkpt lat="42.768274" lon="0.006556"><ele>1185.5</ele></trkpt>
   <trkpt lat="42.767931" lon="0.006492"><ele>1188</ele></trkpt>
   <trkpt lat="42.767838" lon="0.006428"><ele>1187.25</ele></trkpt>
   <trkpt lat="42.767734" lon="0.006302"><ele>1185.25</ele></trkpt>
   <trkpt lat="42.767639" lon="0.006215"><ele>1184.5</ele></trkpt>
   <trkpt lat="42.767545" lon="0.006175"><ele>1184.75</ele></trkpt>
   <trkpt lat="42.767347" lon="0.006131"><ele>1186.5</ele></trkpt>
   <trkpt lat="42.767201" lon="0.006039"><ele>1186.5</ele></trkpt>
   <trkpt lat="42.767014" lon="0.005846"><ele>1184.5</ele></trkpt>
   <trkpt lat="42.766889" lon="0.005757"><ele>1183.75</ele></trkpt>
   <trkpt lat="42.766068" lon="0.005462"><ele>1188</ele></trkpt>
   <trkpt lat="42.765498" lon="0.00544"><ele>1193</ele></trkpt>
   <trkpt lat="42.765368" lon="0.005396"><ele>1193.25</ele></trkpt>
   <trkpt lat="42.765255" lon="0.005338"><ele>1193</ele></trkpt>
   <trkpt lat="42.765068" lon="0.005193"><ele>1193.5</ele></trkpt>
   <trkpt lat="42.764749" lon="0.004891"><ele>1194.5</ele></trkpt>
   <trkpt lat="42.764335" lon="0.00463"><ele>1197.75</ele></trkpt>
   <trkpt lat="42.763893" lon="0.00431"><ele>1199.5</ele></trkpt>
   <trkpt lat="42.763747" lon="0.004226"><ele>1200.75</ele></trkpt>
   <trkpt lat="42.76312" lon="0.004033"><ele>1210.25</ele></trkpt>
   <trkpt lat="42.762974" lon="0.003966"><ele>1211</ele></trkpt>
   <trkpt lat="42.762444" lon="0.003607"><ele>1211.25</ele></trkpt>
   <trkpt lat="42.762285" lon="0.003509"><ele>1213</ele></trkpt>
   <trkpt lat="42.76152" lon="0.003157"><ele>1220.5</ele></trkpt>
   <trkpt lat="42.760803" lon="0.002736"><ele>1217.75</ele></trkpt>
   <trkpt lat="42.76065" lon="0.002637"><ele>1217.25</ele></trkpt>
   <trkpt lat="42.760512" lon="0.002533"><ele>1217</ele></trkpt>
   <trkpt lat="42.760136" lon="0.002052"><ele>1216.75</ele></trkpt>
   <trkpt lat="42.759986" lon="0.001903"><ele>1216.5</ele></trkpt>
   <trkpt lat="42.759925" lon="0.001864"><ele>1216.75</ele></trkpt>
   <trkpt lat="42.759742" lon="0.001824"><ele>1217.5</ele></trkpt>
   <trkpt lat="42.759557" lon="0.001856"><ele>1219</ele></trkpt>
   <trkpt lat="42.758743" lon="0.002063"><ele>1223.25</ele></trkpt>
   <trkpt lat="42.758479" lon="0.002057"><ele>1223.75</ele></trkpt>
   <trkpt lat="42.758344" lon="0.002034"><ele>1224.25</ele></trkpt>
   <trkpt lat="42.757178" lon="0.001662"><ele>1227.5</ele></trkpt>
   <trkpt lat="42.757003" lon="0.001577"><ele>1229.25</ele></trkpt>
   <trkpt lat="42.756847" lon="0.001472"><ele>1229.5</ele></trkpt>
   <trkpt lat="42.755892" lon="0.000617"><ele>1228.75</ele></trkpt>
   <trkpt lat="42.755522" lon="0.000272"><ele>1230.75</ele></trkpt>
   <trkpt lat="42.755036" lon="-0.000181"><ele>1236</ele></trkpt>
   <trkpt lat="42.754827" lon="-0.000401"><ele>1235.75</ele></trkpt>
   <trkpt lat="42.754236" lon="-0.001094"><ele>1242</ele></trkpt>
   <trkpt lat="42.753856" lon="-0.001537"><ele>1245.5</ele></trkpt>
   <trkpt lat="42.75361" lon="-0.001712"><ele>1248.25</ele></trkpt>
   <trkpt lat="42.753353" lon="-0.00176"><ele>1254.5</ele></trkpt>
   <trkpt lat="42.753088" lon="-0.001747"><ele>1251.5</ele></trkpt>
   <trkpt lat="42.752888" lon="-0.001698"><ele>1248.5</ele></trkpt>
   <trkpt lat="42.752475" lon="-0.001508"><ele>1253</ele></trkpt>
   <trkpt lat="42.752394" lon="-0.001493"><ele>1254.25</ele></trkpt>
   <trkpt lat="42.752314" lon="-0.001497"><ele>1254.75</ele></trkpt>
   <trkpt lat="42.752207" lon="-0.001519"><ele>1254.75</ele></trkpt>
   <trkpt lat="42.752045" lon="-0.001608"><ele>1253.5</ele></trkpt>
   <trkpt lat="42.751756" lon="-0.00181"><ele>1253</ele></trkpt>
   <trkpt lat="42.751601" lon="-0.001904"><ele>1253</ele></trkpt>
   <trkpt lat="42.751296" lon="-0.002179"><ele>1255.75</ele></trkpt>
   <trkpt lat="42.751081" lon="-0.002442"><ele>1255.75</ele></trkpt>
   <trkpt lat="42.750844" lon="-0.002787"><ele>1255.25</ele></trkpt>
   <trkpt lat="42.750738" lon="-0.00292"><ele>1257.25</ele></trkpt>
   <trkpt lat="42.750481" lon="-0.003208"><ele>1260</ele></trkpt>
   <trkpt lat="42.750179" lon="-0.003554"><ele>1261.5</ele></trkpt>
   <trkpt lat="42.749969" lon="-0.003771"><ele>1265.5</ele></trkpt>
   <trkpt lat="42.74984" lon="-0.003853"><ele>1267.5</ele></trkpt>
   <trkpt lat="42.749651" lon="-0.00393"><ele>1270.5</ele></trkpt>
   <trkpt lat="42.749518" lon="-0.003948"><ele>1273.75</ele></trkpt>
   <trkpt lat="42.749389" lon="-0.003954"><ele>1277</ele></trkpt>
   <trkpt lat="42.749231" lon="-0.004004"><ele>1278.5</ele></trkpt>
   <trkpt lat="42.74899" lon="-0.004117"><ele>1279.25</ele></trkpt>
   <trkpt lat="42.748865" lon="-0.004222"><ele>1278</ele></trkpt>
   <trkpt lat="42.748755" lon="-0.004344"><ele>1275.5</ele></trkpt>
   <trkpt lat="42.74854" lon="-0.004494"><ele>1276</ele></trkpt>
   <trkpt lat="42.748004" lon="-0.004655"><ele>1284</ele></trkpt>
   <trkpt lat="42.747756" lon="-0.004772"><ele>1284.25</ele></trkpt>
   <trkpt lat="42.747279" lon="-0.005069"><ele>1279.25</ele></trkpt>
   <trkpt lat="42.747208" lon="-0.005093"><ele>1279.5</ele></trkpt>
   <trkpt lat="42.746793" lon="-0.005216"><ele>1285.25</ele></trkpt>
   <trkpt lat="42.746379" lon="-0.005305"><ele>1286.5</ele></trkpt>
   <trkpt lat="42.745992" lon="-0.005345"><ele>1289.25</ele></trkpt>
   <trkpt lat="42.745866" lon="-0.005342"><ele>1290.25</ele></trkpt>
   <trkpt lat="42.745711" lon="-0.005303"><ele>1292.25</ele></trkpt>
   <trkpt lat="42.745485" lon="-0.005187"><ele>1295</ele></trkpt>
   <trkpt lat="42.744546" lon="-0.004615"><ele>1302.5</ele></trkpt>
   <trkpt lat="42.744282" lon="-0.004444"><ele>1306</ele></trkpt>
   <trkpt lat="42.744163" lon="-0.004393"><ele>1308.75</ele></trkpt>
   <trkpt lat="42.74405" lon="-0.004359"><ele>1311.5</ele></trkpt>
   <trkpt lat="42.743871" lon="-0.004357"><ele>1314</ele></trkpt>
   <trkpt lat="42.743694" lon="-0.004377"><ele>1317.25</ele></trkpt>
   <trkpt lat="42.743574" lon="-0.004412"><ele>1319.25</ele></trkpt>
   <trkpt lat="42.743459" lon="-0.004474"><ele>1321.5</ele></trkpt>
   <trkpt lat="42.743391" lon="-0.004537"><ele>1322.25</ele></trkpt>
   <trkpt lat="42.743333" lon="-0.004615"><ele>1322</ele></trkpt>
   <trkpt lat="42.743271" lon="-0.004769"><ele>1321.75</ele></trkpt>
   <trkpt lat="42.743239" lon="-0.004883"><ele>1321.75</ele></trkpt>
   <trkpt lat="42.743074" lon="-0.005656"><ele>1320</ele></trkpt>
   <trkpt lat="42.743038" lon="-0.005778"><ele>1318.5</ele></trkpt>
   <trkpt lat="42.742957" lon="-0.005911"><ele>1319.75</ele></trkpt>
   <trkpt lat="42.742842" lon="-0.006012"><ele>1322</ele></trkpt>
   <trkpt lat="42.742624" lon="-0.006147"><ele>1328.25</ele></trkpt>
   <trkpt lat="42.742538" lon="-0.006247"><ele>1328</ele></trkpt>
   <trkpt lat="42.742434" lon="-0.006438"><ele>1324.25</ele></trkpt>
   <trkpt lat="42.742319" lon="-0.006563"><ele>1323.75</ele></trkpt>
   <trkpt lat="42.74221" lon="-0.006624"><ele>1324.5</ele></trkpt>
   <trkpt lat="42.742091" lon="-0.00666"><ele>1324.75</ele></trkpt>
   <trkpt lat="42.74177" lon="-0.006638"><ele>1331.25</ele></trkpt>
   <trkpt lat="42.741546" lon="-0.006645"><ele>1334.25</ele></trkpt>
   <trkpt lat="42.741305" lon="-0.00668"><ele>1338</ele></trkpt>
   <trkpt lat="42.74119" lon="-0.006724"><ele>1339.25</ele></trkpt>
   <trkpt lat="42.741076" lon="-0.006786"><ele>1340.5</ele></trkpt>
   <trkpt lat="42.740975" lon="-0.006873"><ele>1341.5</ele></trkpt>
   <trkpt lat="42.740875" lon="-0.006994"><ele>1341.5</ele></trkpt>
   <trkpt lat="42.740763" lon="-0.007202"><ele>1341.75</ele></trkpt>
   <trkpt lat="42.740598" lon="-0.007646"><ele>1337</ele></trkpt>
   <trkpt lat="42.740487" lon="-0.007892"><ele>1335.75</ele></trkpt>
   <trkpt lat="42.740382" lon="-0.008027"><ele>1336.25</ele></trkpt>
   <trkpt lat="42.740198" lon="-0.008193"><ele>1338</ele></trkpt>
   <trkpt lat="42.739881" lon="-0.008509"><ele>1335.75</ele></trkpt>
   <trkpt lat="42.73941" lon="-0.008672"><ele>1338</ele></trkpt>
   <trkpt lat="42.738971" lon="-0.008799"><ele>1340</ele></trkpt>
   <trkpt lat="42.73857" lon="-0.008916"><ele>1348</ele></trkpt>
   <trkpt lat="42.738309" lon="-0.009099"><ele>1354.5</ele></trkpt>
   <trkpt lat="42.738175" lon="-0.009275"><ele>1356</ele></trkpt>
   <trkpt lat="42.738113" lon="-0.009413"><ele>1355</ele></trkpt>
   <trkpt lat="42.738052" lon="-0.009606"><ele>1351.25</ele></trkpt>
   <trkpt lat="42.737985" lon="-0.009775"><ele>1348.25</ele></trkpt>
   <trkpt lat="42.737835" lon="-0.009933"><ele>1349.25</ele></trkpt>
   <trkpt lat="42.737712" lon="-0.010035"><ele>1349.25</ele></trkpt>
   <trkpt lat="42.737358" lon="-0.010151"><ele>1352.25</ele></trkpt>
   <trkpt lat="42.737124" lon="-0.010196"><ele>1353</ele></trkpt>
   <trkpt lat="42.736919" lon="-0.010208"><ele>1354.5</ele></trkpt>
   <trkpt lat="42.73639" lon="-0.010175"><ele>1357</ele></trkpt>
   <trkpt lat="42.736167" lon="-0.010153"><ele>1353.75</ele></trkpt>
   <trkpt lat="42.736082" lon="-0.010112"><ele>1354</ele></trkpt>
   <trkpt lat="42.735975" lon="-0.010001"><ele>1354.5</ele></trkpt>
   <trkpt lat="42.735737" lon="-0.009695"><ele>1360</ele></trkpt>
   <trkpt lat="42.735641" lon="-0.009601"><ele>1361.75</ele></trkpt>
   <trkpt lat="42.735594" lon="-0.009594"><ele>1361.25</ele></trkpt>
   <trkpt lat="42.73555" lon="-0.009616"><ele>1359.5</ele></trkpt>
   <trkpt lat="42.735363" lon="-0.009838"><ele>1357</ele></trkpt>
   <trkpt lat="42.735242" lon="-0.01"><ele>1359.75</ele></trkpt>
   <trkpt lat="42.735102" lon="-0.010135"><ele>1361.25</ele></trkpt>
   <trkpt lat="42.735075" lon="-0.010161"><ele>1361.75</ele></trkpt>
   <trkpt lat="42.735029" lon="-0.010292"><ele>1364</ele></trkpt>
   <trkpt lat="42.735039" lon="-0.010417"><ele>1366.75</ele></trkpt>
   <trkpt lat="42.735058" lon="-0.010519"><ele>1368.5</ele></trkpt>
   <trkpt lat="42.735122" lon="-0.010715"><ele>1370.25</ele></trkpt>
   <trkpt lat="42.735287" lon="-0.011098"><ele>1368.5</ele></trkpt>
   <trkpt lat="42.735451" lon="-0.011683"><ele>1372.25</ele></trkpt>
   <trkpt lat="42.735483" lon="-0.011834"><ele>1374</ele></trkpt>
   <trkpt lat="42.735518" lon="-0.011926"><ele>1374.25</ele></trkpt>
   <trkpt lat="42.735607" lon="-0.012083"><ele>1374.25</ele></trkpt>
   <trkpt lat="42.735815" lon="-0.012347"><ele>1374</ele></trkpt>
   <trkpt lat="42.735946" lon="-0.012497"><ele>1374.75</ele></trkpt>
   <trkpt lat="42.736086" lon="-0.012615"><ele>1375.25</ele></trkpt>
   <trkpt lat="42.736212" lon="-0.012688"><ele>1375.5</ele></trkpt>
   <trkpt lat="42.736357" lon="-0.012743"><ele>1375.25</ele></trkpt>
   <trkpt lat="42.73668" lon="-0.012803"><ele>1375</ele></trkpt>
  </trkseg>
 </trk>
</gpx>