<?xml version="1.0" encoding="UTF-8"?>
<!-- track-length = 7399 filtered ascend = 511 plain-ascend = 457 cost=11285 energy=0.1kwh time=1h 24m 50s -->
<gpx 
 xmlns="http://www.topografix.com/GPX/1/1" 
 xmlns:xsi="http://www.w3.org/2001/XMLSchema-instance" 
 xsi:schemaLocation="http://www.topografix.com/GPX/1/1 http://www.topografix.com/GPX/1/1/gpx.xsd" 
 version="1.1" 
 creator="BRouter-Web 0.18.1">
 <trk>
  <name>grand ballon (7.4km)</name>
  <trkseg>
   <trkpt lat="47.875641" lon="7.127245"><ele>829.75</ele></trkpt>
   <trkpt lat="47.87557" lon="7.127417"><ele>828.5</ele></trkpt>
   <trkpt lat="47.875528" lon="7.127404"><ele>828</ele></trkpt>
   <trkpt lat="47.875486" lon="7.127346"><ele>828</ele></trkpt>
   <trkpt lat="47.875578" lon="7.127221"><ele>829.25</ele></trkpt>
   <trkpt lat="47.875704" lon="7.127029"><ele>830.25</ele></trkpt>
   <trkpt lat="47.875857" lon="7.126858"><ele>831.75</ele></trkpt>
   <trkpt lat="47.875994" lon="7.126749"><ele>833.5</ele></trkpt>
   <trkpt lat="47.876136" lon="7.126692"><ele>835.5</ele></trkpt>
   <trkpt lat="47.87629" lon="7.126647"><ele>836.5</ele></trkpt>
   <trkpt lat="47.876508" lon="7.126635"><ele>838.5</ele></trkpt>
   <trkpt lat="47.876687" lon="7.12666"><ele>840.75</ele></trkpt>
   <trkpt lat="47.877145" lon="7.126848"><ele>845.75</ele></trkpt>
   <trkpt lat="47.877272" lon="7.126875"><ele>846.5</ele></trkpt>
   <trkpt lat="47.877352" lon="7.126869"><ele>847.5</ele></trkpt>
   <trkpt lat="47.877452" lon="7.126846"><ele>848.5</ele></trkpt>
   <trkpt lat="47.877711" lon="7.126706"><ele>851.5</ele></trkpt>
   <trkpt lat="47.877797" lon="7.126678"><ele>852.25</ele></trkpt>
   <trkpt lat="47.877893" lon="7.126675"><ele>853.25</ele></trkpt>
   <trkpt lat="47.87817" lon="7.126705"><ele>857</ele></trkpt>
   <trkpt lat="47.87838" lon="7.12669"><ele>858.75</ele></trkpt>
   <trkpt lat="47.878812" lon="7.12663"><ele>861.25</ele></trkpt>
   <trkpt lat="47.878977" lon="7.126647"><ele>863</ele></trkpt>
   <trkpt lat="47.879131" lon="7.126699"><ele>865.5</ele></trkpt>
   <trkpt lat="47.879451" lon="7.12688"><ele>870.25</ele></trkpt>
   <trkpt lat="47.879576" lon="7.126924"><ele>871.25</ele></trkpt>
   <trkpt lat="47.87969" lon="7.126934"><ele>871.5</ele></trkpt>
   <trkpt lat="47.879791" lon="7.126929"><ele>871.75</ele></trkpt>
   <trkpt lat="47.87983" lon="7.126926"><ele>871.75</ele></trkpt>
   <trkpt lat="47.879887" lon="7.126943"><ele>872.5</ele></trkpt>
   <trkpt lat="47.879933" lon="7.126975"><ele>873</ele></trkpt>
   <trkpt lat="47.879961" lon="7.127031"><ele>873.5</ele></trkpt>
   <trkpt lat="47.879972" lon="7.1271"><ele>874</ele></trkpt>
   <trkpt lat="47.879961" lon="7.127174"><ele>874.5</ele></trkpt>
   <trkpt lat="47.879938" lon="7.127221"><ele>875</ele></trkpt>
   <trkpt lat="47.879892" lon="7.127256"><ele>876</ele></trkpt>
   <trkpt lat="47.87983" lon="7.127268"><ele>876.5</ele></trkpt>
   <trkpt lat="47.879768" lon="7.127258"><ele>876.5</ele></trkpt>
   <trkpt lat="47.879538" lon="7.127231"><ele>877.5</ele></trkpt>
   <trkpt lat="47.879319" lon="7.127253"><ele>879.25</ele></trkpt>
   <trkpt lat="47.879224" lon="7.127288"><ele>880.25</ele></trkpt>
   <trkpt lat="47.879155" lon="7.127335"><ele>881</ele></trkpt>
   <trkpt lat="47.879115" lon="7.127384"><ele>881.75</ele></trkpt>
   <trkpt lat="47.879084" lon="7.127464"><ele>882.75</ele></trkpt>
   <trkpt lat="47.879071" lon="7.127555"><ele>883</ele></trkpt>
   <trkpt lat="47.879077" lon="7.127643"><ele>882.5</ele></trkpt>
   <trkpt lat="47.879097" lon="7.127732"><ele>882.5</ele></trkpt>
   <trkpt lat="47.879138" lon="7.12782"><ele>882.5</ele></trkpt>
   <trkpt lat="47.879192" lon="7.127889"><ele>882.25</ele></trkpt>
   <trkpt lat="47.879328" lon="7.128034"><ele>883.75</ele></trkpt>
   <trkpt lat="47.879796" lon="7.128466"><ele>890.5</ele></trkpt>
   <trkpt lat="47.879913" lon="7.128559"><ele>892.25</ele></trkpt>
   <trkpt lat="47.880072" lon="7.12864"><ele>894</ele></trkpt>
   <trkpt lat="47.880553" lon="7.128798"><ele>895.5</ele></trkpt>
   <trkpt lat="47.880674" lon="7.128805"><ele>896.5</ele></trkpt>
   <trkpt lat="47.880788" lon="7.128756"><ele>897.5</ele></trkpt>
   <trkpt lat="47.880871" lon="7.128661"><ele>898.5</ele></trkpt>
   <trkpt lat="47.88099" lon="7.128432"><ele>898.75</ele></trkpt>
   <trkpt lat="47.881055" lon="7.128354"><ele>899</ele></trkpt>
   <trkpt lat="47.881151" lon="7.128309"><ele>900</ele></trkpt>
   <trkpt lat="47.881324" lon="7.128307"><ele>901.5</ele></trkpt>
   <trkpt lat="47.881465" lon="7.12833"><ele>903</ele></trkpt>
   <trkpt lat="47.882353" lon="7.128723"><ele>912</ele></trkpt>
   <trkpt lat="47.882608" lon="7.12879"><ele>913.75</ele></trkpt>
   <trkpt lat="47.883081" lon="7.128895"><ele>918</ele></trkpt>
   <trkpt lat="47.883306" lon="7.128982"><ele>920.5</ele></trkpt>
   <trkpt lat="47.883702" lon="7.129189"><ele>923.5</ele></trkpt>
   <trkpt lat="47.883853" lon="7.129218"><ele>924.5</ele></trkpt>
   <trkpt lat="47.883996" lon="7.12921"><ele>926</ele></trkpt>
   <trkpt lat="47.884141" lon="7.129141"><ele>925.75</ele></trkpt>
   <trkpt lat="47.884216" lon="7.129072"><ele>926</ele></trkpt>
   <trkpt lat="47.884304" lon="7.128972"><ele>926.75</ele></trkpt>
   <trkpt lat="47.884699" lon="7.128365"><ele>930.5</ele></trkpt>
   <trkpt lat="47.884825" lon="7.12825"><ele>931.5</ele></trkpt>
   <trkpt lat="47.88503" lon="7.128137"><ele>934.5</ele></trkpt>
   <trkpt lat="47.885498" lon="7.128009"><ele>938.25</ele></trkpt>
   <trkpt lat="47.885601" lon="7.127969"><ele>939.25</ele></trkpt>
   <trkpt lat="47.885812" lon="7.127847"><ele>940.5</ele></trkpt>
   <trkpt lat="47.885883" lon="7.12778"><ele>940.75</ele></trkpt>
   <trkpt lat="47.885961" lon="7.127668"><ele>941.5</ele></trkpt>
   <trkpt lat="47.886007" lon="7.127576"><ele>941.75</ele></trkpt>
   <trkpt lat="47.886045" lon="7.127441"><ele>941.5</ele></trkpt>
   <trkpt lat="47.886068" lon="7.127289"><ele>941</ele></trkpt>
   <trkpt lat="47.886076" lon="7.127137"><ele>941.25</ele></trkpt>
   <trkpt lat="47.886053" lon="7.126654"><ele>944.75</ele></trkpt>
   <trkpt lat="47.88602" lon="7.126235"><ele>946.5</ele></trkpt>
   <trkpt lat="47.885991" lon="7.126001"><ele>949</ele></trkpt>
   <trkpt lat="47.885863" lon="7.12546"><ele>952.5</ele></trkpt>
   <trkpt lat="47.885798" lon="7.124942"><ele>955.25</ele></trkpt>
   <trkpt lat="47.88573" lon="7.124297"><ele>960</ele></trkpt>
   <trkpt lat="47.885678" lon="7.123986"><ele>962.5</ele></trkpt>
   <trkpt lat="47.885628" lon="7.123768"><ele>964.25</ele></trkpt>
   <trkpt lat="47.88554" lon="7.123441"><ele>965</ele></trkpt>
   <trkpt lat="47.885432" lon="7.1229"><ele>969.75</ele></trkpt>
   <trkpt lat="47.885378" lon="7.122488"><ele>972.25</ele></trkpt>
   <trkpt lat="47.885265" lon="7.121516"><ele>979</ele></trkpt>
   <trkpt lat="47.8852" lon="7.120904"><ele>982.25</ele></trkpt>
   <trkpt lat="47.885201" lon="7.120696"><ele>983.75</ele></trkpt>
   <trkpt lat="47.88523" lon="7.120533"><ele>985.25</ele></trkpt>
   <trkpt lat="47.885354" lon="7.120098"><ele>988.5</ele></trkpt>
   <trkpt lat="47.885442" lon="7.119584"><ele>988</ele></trkpt>
   <trkpt lat="47.885474" lon="7.119498"><ele>989</ele></trkpt>
   <trkpt lat="47.885519" lon="7.119447"><ele>990.5</ele></trkpt>
   <trkpt lat="47.885569" lon="7.119429"><ele>992.25</ele></trkpt>
   <trkpt lat="47.88561" lon="7.119442"><ele>993.75</ele></trkpt>
   <trkpt lat="47.885643" lon="7.119487"><ele>995.25</ele></trkpt>
   <trkpt lat="47.885658" lon="7.119551"><ele>996</ele></trkpt>
   <trkpt lat="47.885661" lon="7.119627"><ele>996.25</ele></trkpt>
   <trkpt lat="47.885638" lon="7.119713"><ele>995.75</ele></trkpt>
   <trkpt lat="47.885564" lon="7.119931"><ele>994</ele></trkpt>
   <trkpt lat="47.885523" lon="7.12014"><ele>993.5</ele></trkpt>
   <trkpt lat="47.885507" lon="7.120356"><ele>994</ele></trkpt>
   <trkpt lat="47.885518" lon="7.120559"><ele>995.5</ele></trkpt>
   <trkpt lat="47.885542" lon="7.1207"><ele>997</ele></trkpt>
   <trkpt lat="47.885586" lon="7.120852"><ele>998.75</ele></trkpt>
   <trkpt lat="47.88565" lon="7.121018"><ele>1000</ele></trkpt>
   <trkpt lat="47.886203" lon="7.122283"><ele>1008.75</ele></trkpt>
   <trkpt lat="47.886293" lon="7.122471"><ele>1009.75</ele></trkpt>
   <trkpt lat="47.886366" lon="7.122596"><ele>1011</ele></trkpt>
   <trkpt lat="47.886443" lon="7.122711"><ele>1012.25</ele></trkpt>
   <trkpt lat="47.886843" lon="7.123244"><ele>1016.75</ele></trkpt>
   <trkpt lat="47.887095" lon="7.123511"><ele>1019.5</ele></trkpt>
   <trkpt lat="47.887249" lon="7.123617"><ele>1021</ele></trkpt>
   <trkpt lat="47.887355" lon="7.12366"><ele>1021.5</ele></trkpt>
   <trkpt lat="47.887445" lon="7.123666"><ele>1022.5</ele></trkpt>
   <trkpt lat="47.887509" lon="7.123647"><ele>1023.25</ele></trkpt>
   <trkpt lat="47.887611" lon="7.123583"><ele>1024</ele></trkpt>
   <trkpt lat="47.887722" lon="7.123481"><ele>1025.5</ele></trkpt>
   <trkpt lat="47.887785" lon="7.123375"><ele>1027</ele></trkpt>
   <trkpt lat="47.887824" lon="7.123284"><ele>1027.5</ele></trkpt>
   <trkpt lat="47.887954" lon="7.122836"><ele>1031.5</ele></trkpt>
   <trkpt lat="47.888077" lon="7.12236"><ele>1035.5</ele></trkpt>
   <trkpt lat="47.888207" lon="7.122029"><ele>1038.5</ele></trkpt>
   <trkpt lat="47.88865" lon="7.121312"><ele>1044.75</ele></trkpt>
   <trkpt lat="47.888854" lon="7.121046"><ele>1047.5</ele></trkpt>
   <trkpt lat="47.889198" lon="7.120722"><ele>1051</ele></trkpt>
   <trkpt lat="47.889449" lon="7.120515"><ele>1053.75</ele></trkpt>
   <trkpt lat="47.889532" lon="7.120456"><ele>1054.75</ele></trkpt>
   <trkpt lat="47.890003" lon="7.120201"><ele>1056.5</ele></trkpt>
   <trkpt lat="47.890346" lon="7.11995"><ele>1059.75</ele></trkpt>
   <trkpt lat="47.890945" lon="7.119484"><ele>1066.5</ele></trkpt>
   <trkpt lat="47.891122" lon="7.119317"><ele>1068.75</ele></trkpt>
   <trkpt lat="47.891208" lon="7.119222"><ele>1069.75</ele></trkpt>
   <trkpt lat="47.891378" lon="7.11899"><ele>1071.75</ele></trkpt>
   <trkpt lat="47.891605" lon="7.118631"><ele>1075.75</ele></trkpt>
   <trkpt lat="47.891759" lon="7.1184"><ele>1078.5</ele></trkpt>
   <trkpt lat="47.891806" lon="7.118341"><ele>1079.25</ele></trkpt>
   <trkpt lat="47.891861" lon="7.118285"><ele>1080</ele></trkpt>
   <trkpt lat="47.891961" lon="7.118223"><ele>1080.75</ele></trkpt>
   <trkpt lat="47.892067" lon="7.118177"><ele>1082</ele></trkpt>
   <trkpt lat="47.892204" lon="7.118152"><ele>1083</ele></trkpt>
   <trkpt lat="47.892457" lon="7.118122"><ele>1085.75</ele></trkpt>
   <trkpt lat="47.892579" lon="7.118077"><ele>1087.25</ele></trkpt>
   <trkpt lat="47.892886" lon="7.117914"><ele>1090</ele></trkpt>
   <trkpt lat="47.893052" lon="7.11785"><ele>1091</ele></trkpt>
   <trkpt lat="47.893176" lon="7.117829"><ele>1092</ele></trkpt>
   <trkpt lat="47.893305" lon="7.117822"><ele>1093</ele></trkpt>
   <trkpt lat="47.893555" lon="7.117826"><ele>1094.75</ele></trkpt>
   <trkpt lat="47.893612" lon="7.117801"><ele>1095.5</ele></trkpt>
   <trkpt lat="47.893648" lon="7.117761"><ele>1096.25</ele></trkpt>
   <trkpt lat="47.89367" lon="7.11768"><ele>1096.75</ele></trkpt>
   <trkpt lat="47.893665" lon="7.11761"><ele>1097.25</ele></trkpt>
   <trkpt lat="47.89364" lon="7.117535"><ele>1097.75</ele></trkpt>
   <trkpt lat="47.893601" lon="7.11748"><ele>1098</ele></trkpt>
   <trkpt lat="47.893535" lon="7.117428"><ele>1098.75</ele></trkpt>
   <trkpt lat="47.893412" lon="7.117374"><ele>1099.25</ele></trkpt>
   <trkpt lat="47.893155" lon="7.117295"><ele>1100</ele></trkpt>
   <trkpt lat="47.892975" lon="7.117213"><ele>1101</ele></trkpt>
   <trkpt lat="47.892811" lon="7.117116"><ele>1102</ele></trkpt>
   <trkpt lat="47.892452" lon="7.116841"><ele>1105</ele></trkpt>
   <trkpt lat="47.892202" lon="7.116561"><ele>1108</ele></trkpt>
   <trkpt lat="47.892052" lon="7.116367"><ele>1110</ele></trkpt>
   <trkpt lat="47.891129" lon="7.115253"><ele>1123</ele></trkpt>
   <trkpt lat="47.890944" lon="7.115056"><ele>1125</ele></trkpt>
   <trkpt lat="47.890824" lon="7.114951"><ele>1126.5</ele></trkpt>
   <trkpt lat="47.890704" lon="7.114896"><ele>1128</ele></trkpt>
   <trkpt lat="47.890201" lon="7.114755"><ele>1132.75</ele></trkpt>
   <trkpt lat="47.890071" lon="7.114683"><ele>1134</ele></trkpt>
   <trkpt lat="47.890003" lon="7.11462"><ele>1134.5</ele></trkpt>
   <trkpt lat="47.88993" lon="7.114499"><ele>1134.75</ele></trkpt>
   <trkpt lat="47.889881" lon="7.114326"><ele>1136</ele></trkpt>
   <trkpt lat="47.88986" lon="7.114093"><ele>1138</ele></trkpt>
   <trkpt lat="47.889871" lon="7.113837"><ele>1139.75</ele></trkpt>
   <trkpt lat="47.889918" lon="7.113593"><ele>1140.75</ele></trkpt>
   <trkpt lat="47.889983" lon="7.113402"><ele>1143</ele></trkpt>
   <trkpt lat="47.890072" lon="7.113228"><ele>1144.5</ele></trkpt>
   <trkpt lat="47.890149" lon="7.113133"><ele>1145.5</ele></trkpt>
   <trkpt lat="47.890292" lon="7.113"><ele>1147.25</ele></trkpt>
   <trkpt lat="47.890487" lon="7.112876"><ele>1149</ele></trkpt>
   <trkpt lat="47.890696" lon="7.112796"><ele>1150.75</ele></trkpt>
   <trkpt lat="47.890864" lon="7.112749"><ele>1152.75</ele></trkpt>
   <trkpt lat="47.890982" lon="7.112732"><ele>1154.25</ele></trkpt>
   <trkpt lat="47.891151" lon="7.112742"><ele>1155.75</ele></trkpt>
   <trkpt lat="47.891457" lon="7.112815"><ele>1157.75</ele></trkpt>
   <trkpt lat="47.891541" lon="7.112812"><ele>1158.5</ele></trkpt>
   <trkpt lat="47.891597" lon="7.112769"><ele>1159.5</ele></trkpt>
   <trkpt lat="47.891627" lon="7.112719"><ele>1159.75</ele></trkpt>
   <trkpt lat="47.891646" lon="7.112651"><ele>1160.25</ele></trkpt>
   <trkpt lat="47.891645" lon="7.112581"><ele>1160.5</ele></trkpt>
   <trkpt lat="47.891615" lon="7.11249"><ele>1161</ele></trkpt>
   <trkpt lat="47.891573" lon="7.112428"><ele>1162.25</ele></trkpt>
   <trkpt lat="47.891199" lon="7.112229"><ele>1164.75</ele></trkpt>
   <trkpt lat="47.890992" lon="7.112099"><ele>1166.75</ele></trkpt>
   <trkpt lat="47.890756" lon="7.111903"><ele>1169.5</ele></trkpt>
   <trkpt lat="47.890555" lon="7.111688"><ele>1172.5</ele></trkpt>
   <trkpt lat="47.890376" lon="7.111456"><ele>1174.5</ele></trkpt>
   <trkpt lat="47.890153" lon="7.111117"><ele>1178</ele></trkpt>
   <trkpt lat="47.890012" lon="7.110886"><ele>1180.25</ele></trkpt>
   <trkpt lat="47.889775" lon="7.110452"><ele>1184.25</ele></trkpt>
   <trkpt lat="47.889649" lon="7.110192"><ele>1186.25</ele></trkpt>
   <trkpt lat="47.889594" lon="7.110051"><ele>1187.5</ele></trkpt>
   <trkpt lat="47.889567" lon="7.109923"><ele>1188.25</ele></trkpt>
   <trkpt lat="47.88956" lon="7.1098"><ele>1188.75</ele></trkpt>
   <trkpt lat="47.889574" lon="7.109658"><ele>1189.75</ele></trkpt>
   <trkpt lat="47.889592" lon="7.109549"><ele>1190.5</ele></trkpt>
   <trkpt lat="47.889669" lon="7.109273"><ele>1192.5</ele></trkpt>
   <trkpt lat="47.889718" lon="7.109149"><ele>1193.75</ele></trkpt>
   <trkpt lat="47.889762" lon="7.109068"><ele>1194.75</ele></trkpt>
   <trkpt lat="47.889834" lon="7.108961"><ele>1196</ele></trkpt>
   <trkpt lat="47.889973" lon="7.108816"><ele>1197.5</ele></trkpt>
   <trkpt lat="47.890422" lon="7.10839"><ele>1203.25</ele></trkpt>
   <trkpt lat="47.890645" lon="7.108144"><ele>1204.75</ele></trkpt>
   <trkpt lat="47.890792" lon="7.108012"><ele>1206</ele></trkpt>
   <trkpt lat="47.890983" lon="7.107877"><ele>1208.75</ele></trkpt>
   <trkpt lat="47.891177" lon="7.107764"><ele>1210.75</ele></trkpt>
   <trkpt lat="47.891873" lon="7.107456"><ele>1217.25</ele></trkpt>
   <trkpt lat="47.892216" lon="7.107295"><ele>1221.5</ele></trkpt>
   <trkpt lat="47.892579" lon="7.107102"><ele>1225.25</ele></trkpt>
   <trkpt lat="47.892746" lon="7.107"><ele>1227</ele></trkpt>
   <trkpt lat="47.892894" lon="7.106889"><ele>1228.5</ele></trkpt>
   <trkpt lat="47.893001" lon="7.106793"><ele>1229.75</ele></trkpt>
   <trkpt lat="47.893489" lon="7.106252"><ele>1234.25</ele></trkpt>
   <trkpt lat="47.893612" lon="7.106082"><ele>1234.75</ele></trkpt>
   <trkpt lat="47.893751" lon="7.105803"><ele>1234.5</ele></trkpt>
   <trkpt lat="47.893795" lon="7.105735"><ele>1234.25</ele></trkpt>
   <trkpt lat="47.893844" lon="7.105686"><ele>1234.5</ele></trkpt>
   <trkpt lat="47.893884" lon="7.105669"><ele>1235</ele></trkpt>
   <trkpt lat="47.893929" lon="7.105669"><ele>1235.5</ele></trkpt>
   <trkpt lat="47.893975" lon="7.105697"><ele>1236</ele></trkpt>
   <trkpt lat="47.894004" lon="7.105744"><ele>1236.75</ele></trkpt>
   <trkpt lat="47.89402" lon="7.105807"><ele>1237.5</ele></trkpt>
   <trkpt lat="47.89402" lon="7.105898"><ele>1238.5</ele></trkpt>
   <trkpt lat="47.894001" lon="7.105988"><ele>1239.25</ele></trkpt>
   <trkpt lat="47.893964" lon="7.106091"><ele>1239.75</ele></trkpt>
   <trkpt lat="47.893817" lon="7.106434"><ele>1240</ele></trkpt>
   <trkpt lat="47.893768" lon="7.106599"><ele>1241.25</ele></trkpt>
   <trkpt lat="47.893747" lon="7.106731"><ele>1242</ele></trkpt>
   <trkpt lat="47.893748" lon="7.106867"><ele>1242.5</ele></trkpt>
   <trkpt lat="47.893766" lon="7.106986"><ele>1243</ele></trkpt>
   <trkpt lat="47.893808" lon="7.107108"><ele>1243.25</ele></trkpt>
   <trkpt lat="47.89386" lon="7.107208"><ele>1243.5</ele></trkpt>
   <trkpt lat="47.893914" lon="7.107282"><ele>1244</ele></trkpt>
   <trkpt lat="47.893975" lon="7.107338"><ele>1244.5</ele></trkpt>
   <trkpt lat="47.894052" lon="7.107385"><ele>1245</ele></trkpt>
   <trkpt lat="47.894125" lon="7.107403"><ele>1245.5</ele></trkpt>
   <trkpt lat="47.894259" lon="7.107392"><ele>1246</ele></trkpt>
   <trkpt lat="47.894425" lon="7.107299"><ele>1247</ele></trkpt>
   <trkpt lat="47.894522" lon="7.107209"><ele>1248</ele></trkpt>
   <trkpt lat="47.89461" lon="7.1071"><ele>1248.5</ele></trkpt>
   <trkpt lat="47.894721" lon="7.106902"><ele>1249</ele></trkpt>
   <trkpt lat="47.895242" lon="7.105766"><ele>1257.75</ele></trkpt>
   <trkpt lat="47.895404" lon="7.105462"><ele>1261</ele></trkpt>
   <trkpt lat="47.895549" lon="7.105242"><ele>1262.5</ele></trkpt>
   <trkpt lat="47.896538" lon="7.103969"><ele>1276.5</ele></trkpt>
   <trkpt lat="47.896842" lon="7.103508"><ele>1280</ele></trkpt>
   <trkpt lat="47.897014" lon="7.103326"><ele>1282.5</ele></trkpt>
   <trkpt lat="47.897122" lon="7.103266"><ele>1283.5</ele></trkpt>
   <trkpt lat="47.897251" lon="7.103243"><ele>1285.5</ele></trkpt>
   <trkpt lat="47.89747" lon="7.103245"><ele>1288.25</ele></trkpt>
   <trkpt lat="47.897664" lon="7.10326"><ele>1289.75</ele></trkpt>
   <trkpt lat="47.897848" lon="7.103273"><ele>1291.25</ele></trkpt>
   <trkpt lat="47.898279" lon="7.103343"><ele>1294.25</ele></trkpt>
   <trkpt lat="47.89831" lon="7.103348"><ele>1294.25</ele></trkpt>
   <trkpt lat="47.898544" lon="7.103373"><ele>1295.75</ele></trkpt>
   <trkpt lat="47.898756" lon="7.103364"><ele>1297.25</ele></trkpt>
   <trkpt lat="47.899365" lon="7.103255"><ele>1304.75</ele></trkpt>
   <trkpt lat="47.899729" lon="7.103202"><ele>1307.75</ele></trkpt>
   <trkpt lat="47.900379" lon="7.103081"><ele>1312.75</ele></trkpt>
   <trkpt lat="47.90049" lon="7.103075"><ele>1313.5</ele></trkpt>
   <trkpt lat="47.900648" lon="7.103095"><ele>1314.5</ele></trkpt>
   <trkpt lat="47.90082" lon="7.103132"><ele>1316</ele></trkpt>
   <trkpt lat="47.901066" lon="7.103245"><ele>1319</ele></trkpt>
   <trkpt lat="47.901162" lon="7.103276"><ele>1319.75</ele></trkpt>
   <trkpt lat="47.901284" lon="7.103293"><ele>1320.5</ele></trkpt>
   <trkpt lat="47.902008" lon="7.10329"><ele>1326.5</ele></trkpt>
   <trkpt lat="47.902462" lon="7.103328"><ele>1330.5</ele></trkpt>
   <trkpt lat="47.902592" lon="7.103327"><ele>1332</ele></trkpt>
   <trkpt lat="47.903218" lon="7.103255"><ele>1338.25</ele></trkpt>
   <trkpt lat="47.90381" lon="7.103268"><ele>1341</ele></trkpt>
   <trkpt lat="47.9042" lon="7.103304"><ele>1341</ele></trkpt>
   <trkpt lat="47.90435" lon="7.103316"><ele>1341</ele></trkpt>
   <trkpt lat="47.904399" lon="7.103319"><ele>1341</ele></trkpt>
   <trkpt lat="47.90455" lon="7.103331"><ele>1341.25</ele></trkpt>
   <trkpt lat="47.904662" lon="7.103327"><ele>1341.75</ele></trkpt>
  </trkseg>
 </trk>
</gpx>
