<?xml version="1.0" encoding="UTF-8"?>
<!-- track-length = 6270 filtered ascend = 639 plain-ascend = 630 cost=9523 energy=0.2kwh time=1h 42m 31s -->
<gpx 
 xmlns="http://www.topografix.com/GPX/1/1" 
 xmlns:xsi="http://www.w3.org/2001/XMLSchema-instance" 
 xsi:schemaLocation="http://www.topografix.com/GPX/1/1 http://www.topografix.com/GPX/1/1/gpx.xsd" 
 version="1.1" 
 creator="BRouter-Web 0.18.1">
 <trk>
  <name>Archamps -&gt; La Muraz (6.3km)</name>
  <trkseg>
   <trkpt lat="46.134815" lon="6.133445"><ele>534.25</ele></trkpt>
   <trkpt lat="46.134821" lon="6.133445"><ele>534.25</ele></trkpt>
   <trkpt lat="46.134854" lon="6.133431"><ele>534</ele></trkpt>
   <trkpt lat="46.134883" lon="6.133408"><ele>533.75</ele></trkpt>
   <trkpt lat="46.134917" lon="6.133465"><ele>533.5</ele></trkpt>
   <trkpt lat="46.134879" lon="6.133497"><ele>533.75</ele></trkpt>
   <trkpt lat="46.134825" lon="6.133572"><ele>534.25</ele></trkpt>
   <trkpt lat="46.134768" lon="6.133703"><ele>534.5</ele></trkpt>
   <trkpt lat="46.134717" lon="6.133866"><ele>535</ele></trkpt>
   <trkpt lat="46.134694" lon="6.13396"><ele>535.25</ele></trkpt>
   <trkpt lat="46.134672" lon="6.134121"><ele>535.5</ele></trkpt>
   <trkpt lat="46.134672" lon="6.134473"><ele>536.5</ele></trkpt>
   <trkpt lat="46.134672" lon="6.134654"><ele>537.25</ele></trkpt>
   <trkpt lat="46.134669" lon="6.134723"><ele>537.75</ele></trkpt>
   <trkpt lat="46.134663" lon="6.134797"><ele>538</ele></trkpt>
   <trkpt lat="46.134613" lon="6.135219"><ele>540.75</ele></trkpt>
   <trkpt lat="46.134566" lon="6.135621"><ele>542.25</ele></trkpt>
   <trkpt lat="46.134564" lon="6.135638"><ele>542.25</ele></trkpt>
   <trkpt lat="46.134518" lon="6.136093"><ele>544.25</ele></trkpt>
   <trkpt lat="46.134488" lon="6.13623"><ele>544.75</ele></trkpt>
   <trkpt lat="46.134439" lon="6.136367"><ele>545</ele></trkpt>
   <trkpt lat="46.134245" lon="6.13672"><ele>546</ele></trkpt>
   <trkpt lat="46.134219" lon="6.136767"><ele>546.25</ele></trkpt>
   <trkpt lat="46.133695" lon="6.137721"><ele>550</ele></trkpt>
   <trkpt lat="46.133542" lon="6.137999"><ele>551.5</ele></trkpt>
   <trkpt lat="46.133461" lon="6.138143"><ele>552.25</ele></trkpt>
   <trkpt lat="46.13341" lon="6.138234"><ele>552</ele></trkpt>
   <trkpt lat="46.133222" lon="6.138573"><ele>552.75</ele></trkpt>
   <trkpt lat="46.133191" lon="6.138627"><ele>552.75</ele></trkpt>
   <trkpt lat="46.133147" lon="6.138708"><ele>553</ele></trkpt>
   <trkpt lat="46.133011" lon="6.138956"><ele>553.25</ele></trkpt>
   <trkpt lat="46.133005" lon="6.138968"><ele>553.25</ele></trkpt>
   <trkpt lat="46.132793" lon="6.139358"><ele>554</ele></trkpt>
   <trkpt lat="46.132781" lon="6.139381"><ele>554</ele></trkpt>
   <trkpt lat="46.132659" lon="6.139607"><ele>554.25</ele></trkpt>
   <trkpt lat="46.132574" lon="6.139763"><ele>553.75</ele></trkpt>
   <trkpt lat="46.132516" lon="6.139869"><ele>553.75</ele></trkpt>
   <trkpt lat="46.132317" lon="6.140258"><ele>553</ele></trkpt>
   <trkpt lat="46.132271" lon="6.140419"><ele>555</ele></trkpt>
   <trkpt lat="46.132252" lon="6.140546"><ele>556.25</ele></trkpt>
   <trkpt lat="46.132247" lon="6.140627"><ele>556.75</ele></trkpt>
   <trkpt lat="46.13225" lon="6.14078"><ele>557.25</ele></trkpt>
   <trkpt lat="46.13226" lon="6.140857"><ele>557.5</ele></trkpt>
   <trkpt lat="46.132277" lon="6.140938"><ele>557.75</ele></trkpt>
   <trkpt lat="46.132187" lon="6.141049"><ele>559</ele></trkpt>
   <trkpt lat="46.132158" lon="6.141084"><ele>559.25</ele></trkpt>
   <trkpt lat="46.132105" lon="6.141157"><ele>560.25</ele></trkpt>
   <trkpt lat="46.131932" lon="6.141349"><ele>563.75</ele></trkpt>
   <trkpt lat="46.131867" lon="6.141453"><ele>565.75</ele></trkpt>
   <trkpt lat="46.131819" lon="6.14155"><ele>567.5</ele></trkpt>
   <trkpt lat="46.13177" lon="6.141681"><ele>569.25</ele></trkpt>
   <trkpt lat="46.131728" lon="6.141828"><ele>570.5</ele></trkpt>
   <trkpt lat="46.131706" lon="6.141932"><ele>571.5</ele></trkpt>
   <trkpt lat="46.131698" lon="6.141965"><ele>571.75</ele></trkpt>
   <trkpt lat="46.131677" lon="6.142061"><ele>572.5</ele></trkpt>
   <trkpt lat="46.131655" lon="6.142131"><ele>573.5</ele></trkpt>
   <trkpt lat="46.131609" lon="6.142239"><ele>574.75</ele></trkpt>
   <trkpt lat="46.131538" lon="6.142354"><ele>576.25</ele></trkpt>
   <trkpt lat="46.131488" lon="6.142414"><ele>577.25</ele></trkpt>
   <trkpt lat="46.131404" lon="6.142502"><ele>578.75</ele></trkpt>
   <trkpt lat="46.131321" lon="6.142591"><ele>580</ele></trkpt>
   <trkpt lat="46.131" lon="6.142817"><ele>583.75</ele></trkpt>
   <trkpt lat="46.130889" lon="6.142907"><ele>584.75</ele></trkpt>
   <trkpt lat="46.13079" lon="6.143019"><ele>586</ele></trkpt>
   <trkpt lat="46.130692" lon="6.143157"><ele>586.75</ele></trkpt>
   <trkpt lat="46.130563" lon="6.143354"><ele>587.75</ele></trkpt>
   <trkpt lat="46.13055" lon="6.143396"><ele>588</ele></trkpt>
   <trkpt lat="46.130415" lon="6.143416"><ele>589.75</ele></trkpt>
   <trkpt lat="46.130327" lon="6.143454"><ele>590.75</ele></trkpt>
   <trkpt lat="46.130247" lon="6.143521"><ele>591.5</ele></trkpt>
   <trkpt lat="46.130183" lon="6.143599"><ele>592.25</ele></trkpt>
   <trkpt lat="46.130149" lon="6.143656"><ele>592.75</ele></trkpt>
   <trkpt lat="46.130107" lon="6.143754"><ele>593.25</ele></trkpt>
   <trkpt lat="46.130085" lon="6.143822"><ele>593.75</ele></trkpt>
   <trkpt lat="46.130037" lon="6.144091"><ele>594.5</ele></trkpt>
   <trkpt lat="46.130025" lon="6.14418"><ele>594.75</ele></trkpt>
   <trkpt lat="46.130001" lon="6.144384"><ele>596.5</ele></trkpt>
   <trkpt lat="46.129993" lon="6.144454"><ele>597</ele></trkpt>
   <trkpt lat="46.12997" lon="6.144658"><ele>598.25</ele></trkpt>
   <trkpt lat="46.129958" lon="6.144756"><ele>599</ele></trkpt>
   <trkpt lat="46.129926" lon="6.144932"><ele>601.25</ele></trkpt>
   <trkpt lat="46.129889" lon="6.14506"><ele>602.5</ele></trkpt>
   <trkpt lat="46.129847" lon="6.145154"><ele>603</ele></trkpt>
   <trkpt lat="46.129767" lon="6.145281"><ele>603.5</ele></trkpt>
   <trkpt lat="46.129682" lon="6.145385"><ele>604</ele></trkpt>
   <trkpt lat="46.129664" lon="6.145401"><ele>604.25</ele></trkpt>
   <trkpt lat="46.129494" lon="6.14554"><ele>605.5</ele></trkpt>
   <trkpt lat="46.12917" lon="6.145784"><ele>609.25</ele></trkpt>
   <trkpt lat="46.12911" lon="6.145833"><ele>609.5</ele></trkpt>
   <trkpt lat="46.129054" lon="6.145877"><ele>610</ele></trkpt>
   <trkpt lat="46.128808" lon="6.146073"><ele>611.75</ele></trkpt>
   <trkpt lat="46.128715" lon="6.146147"><ele>612.75</ele></trkpt>
   <trkpt lat="46.128654" lon="6.146195"><ele>613.5</ele></trkpt>
   <trkpt lat="46.128617" lon="6.146224"><ele>613.75</ele></trkpt>
   <trkpt lat="46.128424" lon="6.146376"><ele>615.25</ele></trkpt>
   <trkpt lat="46.128194" lon="6.146557"><ele>618</ele></trkpt>
   <trkpt lat="46.128133" lon="6.146605"><ele>618.75</ele></trkpt>
   <trkpt lat="46.127756" lon="6.146894"><ele>623</ele></trkpt>
   <trkpt lat="46.127732" lon="6.146912"><ele>623</ele></trkpt>
   <trkpt lat="46.127338" lon="6.147213"><ele>626.75</ele></trkpt>
   <trkpt lat="46.127142" lon="6.147368"><ele>628.5</ele></trkpt>
   <trkpt lat="46.127199" lon="6.147492"><ele>628.25</ele></trkpt>
   <trkpt lat="46.127444" lon="6.148244"><ele>629.5</ele></trkpt>
   <trkpt lat="46.12746" lon="6.148293"><ele>629.5</ele></trkpt>
   <trkpt lat="46.127654" lon="6.148902"><ele>629.25</ele></trkpt>
   <trkpt lat="46.127714" lon="6.149055"><ele>629.5</ele></trkpt>
   <trkpt lat="46.127791" lon="6.149192"><ele>629.75</ele></trkpt>
   <trkpt lat="46.127827" lon="6.149255"><ele>629.75</ele></trkpt>
   <trkpt lat="46.127869" lon="6.149312"><ele>629.75</ele></trkpt>
   <trkpt lat="46.1281" lon="6.149589"><ele>631</ele></trkpt>
   <trkpt lat="46.128274" lon="6.14979"><ele>631.25</ele></trkpt>
   <trkpt lat="46.128307" lon="6.149842"><ele>631.5</ele></trkpt>
   <trkpt lat="46.128334" lon="6.149916"><ele>632</ele></trkpt>
   <trkpt lat="46.128355" lon="6.150075"><ele>633</ele></trkpt>
   <trkpt lat="46.128361" lon="6.150209"><ele>633.5</ele></trkpt>
   <trkpt lat="46.128158" lon="6.150346"><ele>635.75</ele></trkpt>
   <trkpt lat="46.128118" lon="6.150395"><ele>636.5</ele></trkpt>
   <trkpt lat="46.128007" lon="6.150559"><ele>639.5</ele></trkpt>
   <trkpt lat="46.127954" lon="6.150597"><ele>640.75</ele></trkpt>
   <trkpt lat="46.127941" lon="6.150896"><ele>643.75</ele></trkpt>
   <trkpt lat="46.127959" lon="6.151155"><ele>646.75</ele></trkpt>
   <trkpt lat="46.128071" lon="6.151745"><ele>650.5</ele></trkpt>
   <trkpt lat="46.128072" lon="6.1518"><ele>651.25</ele></trkpt>
   <trkpt lat="46.128055" lon="6.151882"><ele>652.25</ele></trkpt>
   <trkpt lat="46.128009" lon="6.152034"><ele>654.5</ele></trkpt>
   <trkpt lat="46.127885" lon="6.152232"><ele>657.5</ele></trkpt>
   <trkpt lat="46.127858" lon="6.15227"><ele>658</ele></trkpt>
   <trkpt lat="46.127798" lon="6.15232"><ele>658.5</ele></trkpt>
   <trkpt lat="46.127619" lon="6.152385"><ele>660.75</ele></trkpt>
   <trkpt lat="46.1274" lon="6.152404"><ele>663.75</ele></trkpt>
   <trkpt lat="46.12734" lon="6.152432"><ele>665</ele></trkpt>
   <trkpt lat="46.127231" lon="6.152519"><ele>668</ele></trkpt>
   <trkpt lat="46.127175" lon="6.152596"><ele>669</ele></trkpt>
   <trkpt lat="46.127125" lon="6.15268"><ele>670.25</ele></trkpt>
   <trkpt lat="46.127071" lon="6.152801"><ele>672.25</ele></trkpt>
   <trkpt lat="46.126943" lon="6.153151"><ele>679.25</ele></trkpt>
   <trkpt lat="46.126884" lon="6.153488"><ele>685.75</ele></trkpt>
   <trkpt lat="46.126809" lon="6.153972"><ele>695.75</ele></trkpt>
   <trkpt lat="46.126786" lon="6.154071"><ele>697.75</ele></trkpt>
   <trkpt lat="46.126705" lon="6.154266"><ele>700.5</ele></trkpt>
   <trkpt lat="46.126587" lon="6.154512"><ele>704.5</ele></trkpt>
   <trkpt lat="46.126562" lon="6.15466"><ele>707.5</ele></trkpt>
   <trkpt lat="46.126542" lon="6.154874"><ele>711</ele></trkpt>
   <trkpt lat="46.126529" lon="6.15512"><ele>714.25</ele></trkpt>
   <trkpt lat="46.126528" lon="6.155281"><ele>716</ele></trkpt>
   <trkpt lat="46.126564" lon="6.155426"><ele>718.75</ele></trkpt>
   <trkpt lat="46.126709" lon="6.155668"><ele>722.25</ele></trkpt>
   <trkpt lat="46.126723" lon="6.155706"><ele>723</ele></trkpt>
   <trkpt lat="46.126724" lon="6.15577"><ele>724.75</ele></trkpt>
   <trkpt lat="46.126713" lon="6.155816"><ele>726.25</ele></trkpt>
   <trkpt lat="46.126461" lon="6.156312"><ele>736.25</ele></trkpt>
   <trkpt lat="46.126348" lon="6.156285"><ele>738</ele></trkpt>
   <trkpt lat="46.126276" lon="6.156291"><ele>739.75</ele></trkpt>
   <trkpt lat="46.126255" lon="6.156305"><ele>740.25</ele></trkpt>
   <trkpt lat="46.126224" lon="6.156347"><ele>741.5</ele></trkpt>
   <trkpt lat="46.126214" lon="6.156392"><ele>742.25</ele></trkpt>
   <trkpt lat="46.126221" lon="6.156448"><ele>742.75</ele></trkpt>
   <trkpt lat="46.126246" lon="6.156503"><ele>742.75</ele></trkpt>
   <trkpt lat="46.126336" lon="6.156627"><ele>742.75</ele></trkpt>
   <trkpt lat="46.126387" lon="6.15672"><ele>743.75</ele></trkpt>
   <trkpt lat="46.126429" lon="6.156824"><ele>745</ele></trkpt>
   <trkpt lat="46.126476" lon="6.15698"><ele>747.25</ele></trkpt>
   <trkpt lat="46.126494" lon="6.157039"><ele>747.75</ele></trkpt>
   <trkpt lat="46.126528" lon="6.157198"><ele>749.5</ele></trkpt>
   <trkpt lat="46.126535" lon="6.157244"><ele>750</ele></trkpt>
   <trkpt lat="46.12653" lon="6.157317"><ele>750.75</ele></trkpt>
   <trkpt lat="46.126514" lon="6.157352"><ele>751.5</ele></trkpt>
   <trkpt lat="46.126501" lon="6.157365"><ele>751.75</ele></trkpt>
   <trkpt lat="46.126482" lon="6.15737"><ele>752</ele></trkpt>
   <trkpt lat="46.126423" lon="6.157367"><ele>752.5</ele></trkpt>
   <trkpt lat="46.126339" lon="6.157341"><ele>753.25</ele></trkpt>
   <trkpt lat="46.126274" lon="6.157342"><ele>753.75</ele></trkpt>
   <trkpt lat="46.126146" lon="6.157377"><ele>755.25</ele></trkpt>
   <trkpt lat="46.125924" lon="6.157462"><ele>758.75</ele></trkpt>
   <trkpt lat="46.12588" lon="6.157471"><ele>759.25</ele></trkpt>
   <trkpt lat="46.125764" lon="6.15747"><ele>761.5</ele></trkpt>
   <trkpt lat="46.125734" lon="6.157476"><ele>762.25</ele></trkpt>
   <trkpt lat="46.125709" lon="6.157492"><ele>763</ele></trkpt>
   <trkpt lat="46.125688" lon="6.157512"><ele>763.75</ele></trkpt>
   <trkpt lat="46.12568" lon="6.157534"><ele>764</ele></trkpt>
   <trkpt lat="46.125673" lon="6.15758"><ele>764.75</ele></trkpt>
   <trkpt lat="46.125675" lon="6.157618"><ele>765</ele></trkpt>
   <trkpt lat="46.125687" lon="6.157657"><ele>765.25</ele></trkpt>
   <trkpt lat="46.125769" lon="6.157796"><ele>765.75</ele></trkpt>
   <trkpt lat="46.125783" lon="6.157837"><ele>766</ele></trkpt>
   <trkpt lat="46.12579" lon="6.157904"><ele>766.5</ele></trkpt>
   <trkpt lat="46.125777" lon="6.157993"><ele>767.25</ele></trkpt>
   <trkpt lat="46.125759" lon="6.158026"><ele>768</ele></trkpt>
   <trkpt lat="46.125724" lon="6.158051"><ele>768.75</ele></trkpt>
   <trkpt lat="46.125701" lon="6.158057"><ele>769.25</ele></trkpt>
   <trkpt lat="46.125644" lon="6.158044"><ele>770.25</ele></trkpt>
   <trkpt lat="46.12555" lon="6.157987"><ele>771</ele></trkpt>
   <trkpt lat="46.125458" lon="6.157913"><ele>772</ele></trkpt>
   <trkpt lat="46.125325" lon="6.157759"><ele>773.75</ele></trkpt>
   <trkpt lat="46.125299" lon="6.157738"><ele>774.25</ele></trkpt>
   <trkpt lat="46.125269" lon="6.157727"><ele>775.25</ele></trkpt>
   <trkpt lat="46.125228" lon="6.157734"><ele>776.75</ele></trkpt>
   <trkpt lat="46.125198" lon="6.157773"><ele>777.75</ele></trkpt>
   <trkpt lat="46.12518" lon="6.157837"><ele>779</ele></trkpt>
   <trkpt lat="46.125177" lon="6.157947"><ele>780</ele></trkpt>
   <trkpt lat="46.125198" lon="6.158097"><ele>780.5</ele></trkpt>
   <trkpt lat="46.125216" lon="6.158158"><ele>780.75</ele></trkpt>
   <trkpt lat="46.125242" lon="6.158216"><ele>780.75</ele></trkpt>
   <trkpt lat="46.12527" lon="6.158251"><ele>780.5</ele></trkpt>
   <trkpt lat="46.125455" lon="6.158349"><ele>782.5</ele></trkpt>
   <trkpt lat="46.125521" lon="6.1584"><ele>784.5</ele></trkpt>
   <trkpt lat="46.125856" lon="6.158692"><ele>790.75</ele></trkpt>
   <trkpt lat="46.125965" lon="6.15875"><ele>792.5</ele></trkpt>
   <trkpt lat="46.126239" lon="6.158831"><ele>795</ele></trkpt>
   <trkpt lat="46.126353" lon="6.158882"><ele>796.75</ele></trkpt>
   <trkpt lat="46.126438" lon="6.15894"><ele>797.75</ele></trkpt>
   <trkpt lat="46.126664" lon="6.159117"><ele>800.5</ele></trkpt>
   <trkpt lat="46.126719" lon="6.159171"><ele>801.25</ele></trkpt>
   <trkpt lat="46.126759" lon="6.159225"><ele>802.5</ele></trkpt>
   <trkpt lat="46.126806" lon="6.159302"><ele>804.25</ele></trkpt>
   <trkpt lat="46.126925" lon="6.159548"><ele>808.5</ele></trkpt>
   <trkpt lat="46.126995" lon="6.159651"><ele>809.25</ele></trkpt>
   <trkpt lat="46.127104" lon="6.159794"><ele>810.5</ele></trkpt>
   <trkpt lat="46.127271" lon="6.159993"><ele>813</ele></trkpt>
   <trkpt lat="46.127535" lon="6.16038"><ele>817.75</ele></trkpt>
   <trkpt lat="46.127651" lon="6.160532"><ele>819.25</ele></trkpt>
   <trkpt lat="46.127667" lon="6.160592"><ele>821</ele></trkpt>
   <trkpt lat="46.127662" lon="6.160637"><ele>822.5</ele></trkpt>
   <trkpt lat="46.127651" lon="6.160657"><ele>823.5</ele></trkpt>
   <trkpt lat="46.127604" lon="6.160672"><ele>825.25</ele></trkpt>
   <trkpt lat="46.127576" lon="6.160661"><ele>825.75</ele></trkpt>
   <trkpt lat="46.127494" lon="6.160561"><ele>824.25</ele></trkpt>
   <trkpt lat="46.127444" lon="6.160509"><ele>824</ele></trkpt>
   <trkpt lat="46.127351" lon="6.160435"><ele>824.5</ele></trkpt>
   <trkpt lat="46.127285" lon="6.160412"><ele>826</ele></trkpt>
   <trkpt lat="46.127063" lon="6.160399"><ele>830.75</ele></trkpt>
   <trkpt lat="46.127037" lon="6.160391"><ele>831</ele></trkpt>
   <trkpt lat="46.127009" lon="6.160374"><ele>831.25</ele></trkpt>
   <trkpt lat="46.126901" lon="6.160262"><ele>831.5</ele></trkpt>
   <trkpt lat="46.126847" lon="6.160219"><ele>831.75</ele></trkpt>
   <trkpt lat="46.126796" lon="6.160186"><ele>832.25</ele></trkpt>
   <trkpt lat="46.1267" lon="6.160143"><ele>834</ele></trkpt>
   <trkpt lat="46.126638" lon="6.160125"><ele>834.5</ele></trkpt>
   <trkpt lat="46.126565" lon="6.160134"><ele>835</ele></trkpt>
   <trkpt lat="46.126283" lon="6.160325"><ele>840.25</ele></trkpt>
   <trkpt lat="46.126249" lon="6.160363"><ele>841.25</ele></trkpt>
   <trkpt lat="46.126227" lon="6.160413"><ele>842.5</ele></trkpt>
   <trkpt lat="46.126231" lon="6.160484"><ele>844</ele></trkpt>
   <trkpt lat="46.126252" lon="6.160529"><ele>844.75</ele></trkpt>
   <trkpt lat="46.126372" lon="6.160684"><ele>846</ele></trkpt>
   <trkpt lat="46.126453" lon="6.160855"><ele>848.25</ele></trkpt>
   <trkpt lat="46.12648" lon="6.160899"><ele>849.5</ele></trkpt>
   <trkpt lat="46.126519" lon="6.160932"><ele>850.25</ele></trkpt>
   <trkpt lat="46.12683" lon="6.161096"><ele>852.75</ele></trkpt>
   <trkpt lat="46.126932" lon="6.161172"><ele>855.5</ele></trkpt>
   <trkpt lat="46.127008" lon="6.161213"><ele>856.75</ele></trkpt>
   <trkpt lat="46.127175" lon="6.161271"><ele>857.75</ele></trkpt>
   <trkpt lat="46.127259" lon="6.161321"><ele>858.25</ele></trkpt>
   <trkpt lat="46.127332" lon="6.161407"><ele>859.25</ele></trkpt>
   <trkpt lat="46.127567" lon="6.161753"><ele>863.25</ele></trkpt>
   <trkpt lat="46.127581" lon="6.161802"><ele>864.25</ele></trkpt>
   <trkpt lat="46.127572" lon="6.161842"><ele>866</ele></trkpt>
   <trkpt lat="46.127561" lon="6.161859"><ele>867</ele></trkpt>
   <trkpt lat="46.12754" lon="6.161863"><ele>867.75</ele></trkpt>
   <trkpt lat="46.127494" lon="6.16185"><ele>869</ele></trkpt>
   <trkpt lat="46.127356" lon="6.161715"><ele>868.5</ele></trkpt>
   <trkpt lat="46.127275" lon="6.161657"><ele>868.25</ele></trkpt>
   <trkpt lat="46.12722" lon="6.161624"><ele>868.75</ele></trkpt>
   <trkpt lat="46.127134" lon="6.161594"><ele>869.75</ele></trkpt>
   <trkpt lat="46.127026" lon="6.161574"><ele>871.25</ele></trkpt>
   <trkpt lat="46.12695" lon="6.161576"><ele>872.75</ele></trkpt>
   <trkpt lat="46.126734" lon="6.161651"><ele>877.75</ele></trkpt>
   <trkpt lat="46.126666" lon="6.161657"><ele>878.5</ele></trkpt>
   <trkpt lat="46.126539" lon="6.161647"><ele>881.25</ele></trkpt>
   <trkpt lat="46.126327" lon="6.161587"><ele>884.75</ele></trkpt>
   <trkpt lat="46.126108" lon="6.161479"><ele>887.5</ele></trkpt>
   <trkpt lat="46.125738" lon="6.161179"><ele>891.25</ele></trkpt>
   <trkpt lat="46.125659" lon="6.161104"><ele>890.75</ele></trkpt>
   <trkpt lat="46.125624" lon="6.161088"><ele>891.25</ele></trkpt>
   <trkpt lat="46.125558" lon="6.161089"><ele>894.5</ele></trkpt>
   <trkpt lat="46.125271" lon="6.161158"><ele>898.25</ele></trkpt>
   <trkpt lat="46.125101" lon="6.161182"><ele>901.5</ele></trkpt>
   <trkpt lat="46.124952" lon="6.161192"><ele>904</ele></trkpt>
   <trkpt lat="46.12458" lon="6.161185"><ele>908.5</ele></trkpt>
   <trkpt lat="46.124405" lon="6.161198"><ele>909.75</ele></trkpt>
   <trkpt lat="46.124333" lon="6.161217"><ele>909.25</ele></trkpt>
   <trkpt lat="46.12426" lon="6.161262"><ele>909.5</ele></trkpt>
   <trkpt lat="46.12421" lon="6.161328"><ele>911</ele></trkpt>
   <trkpt lat="46.124185" lon="6.161415"><ele>912.75</ele></trkpt>
   <trkpt lat="46.124182" lon="6.161504"><ele>913</ele></trkpt>
   <trkpt lat="46.124206" lon="6.161618"><ele>915.25</ele></trkpt>
   <trkpt lat="46.124303" lon="6.161855"><ele>918.5</ele></trkpt>
   <trkpt lat="46.12435" lon="6.161988"><ele>920.25</ele></trkpt>
   <trkpt lat="46.12436" lon="6.162053"><ele>921.75</ele></trkpt>
   <trkpt lat="46.12436" lon="6.162101"><ele>922.5</ele></trkpt>
   <trkpt lat="46.124348" lon="6.162172"><ele>922.75</ele></trkpt>
   <trkpt lat="46.12432" lon="6.162264"><ele>923</ele></trkpt>
   <trkpt lat="46.124125" lon="6.162594"><ele>928.5</ele></trkpt>
   <trkpt lat="46.124084" lon="6.16264"><ele>930.75</ele></trkpt>
   <trkpt lat="46.124053" lon="6.162663"><ele>932</ele></trkpt>
   <trkpt lat="46.123996" lon="6.162665"><ele>932.75</ele></trkpt>
   <trkpt lat="46.123958" lon="6.162647"><ele>932.5</ele></trkpt>
   <trkpt lat="46.123811" lon="6.162518"><ele>930.5</ele></trkpt>
   <trkpt lat="46.12365" lon="6.162443"><ele>931.25</ele></trkpt>
   <trkpt lat="46.123573" lon="6.162433"><ele>931.25</ele></trkpt>
   <trkpt lat="46.123518" lon="6.162457"><ele>931</ele></trkpt>
   <trkpt lat="46.123492" lon="6.162489"><ele>931.75</ele></trkpt>
   <trkpt lat="46.123466" lon="6.162533"><ele>933</ele></trkpt>
   <trkpt lat="46.123422" lon="6.162655"><ele>936</ele></trkpt>
   <trkpt lat="46.12337" lon="6.162771"><ele>938</ele></trkpt>
   <trkpt lat="46.123339" lon="6.162823"><ele>938.75</ele></trkpt>
   <trkpt lat="46.123279" lon="6.162886"><ele>940.5</ele></trkpt>
   <trkpt lat="46.123229" lon="6.162924"><ele>941.25</ele></trkpt>
   <trkpt lat="46.123008" lon="6.163018"><ele>944.5</ele></trkpt>
   <trkpt lat="46.122979" lon="6.163052"><ele>946.25</ele></trkpt>
   <trkpt lat="46.122972" lon="6.163074"><ele>947.25</ele></trkpt>
   <trkpt lat="46.122976" lon="6.163124"><ele>949</ele></trkpt>
   <trkpt lat="46.123001" lon="6.163152"><ele>949.25</ele></trkpt>
   <trkpt lat="46.123021" lon="6.163154"><ele>949</ele></trkpt>
   <trkpt lat="46.12307" lon="6.16315"><ele>948</ele></trkpt>
   <trkpt lat="46.123208" lon="6.163108"><ele>947.75</ele></trkpt>
   <trkpt lat="46.123341" lon="6.163088"><ele>948.25</ele></trkpt>
   <trkpt lat="46.123492" lon="6.163034"><ele>950.25</ele></trkpt>
   <trkpt lat="46.123601" lon="6.16305"><ele>953.5</ele></trkpt>
   <trkpt lat="46.123752" lon="6.163112"><ele>954</ele></trkpt>
   <trkpt lat="46.123832" lon="6.163165"><ele>955</ele></trkpt>
   <trkpt lat="46.124008" lon="6.163305"><ele>957.75</ele></trkpt>
   <trkpt lat="46.124066" lon="6.163374"><ele>959.25</ele></trkpt>
   <trkpt lat="46.124121" lon="6.163455"><ele>961</ele></trkpt>
   <trkpt lat="46.124207" lon="6.163608"><ele>965</ele></trkpt>
   <trkpt lat="46.124314" lon="6.163779"><ele>969</ele></trkpt>
   <trkpt lat="46.124349" lon="6.16381"><ele>969</ele></trkpt>
   <trkpt lat="46.124406" lon="6.163831"><ele>968.5</ele></trkpt>
   <trkpt lat="46.124433" lon="6.163824"><ele>967.75</ele></trkpt>
   <trkpt lat="46.124451" lon="6.163809"><ele>967.75</ele></trkpt>
   <trkpt lat="46.124477" lon="6.163766"><ele>968.75</ele></trkpt>
   <trkpt lat="46.124486" lon="6.1637"><ele>969</ele></trkpt>
   <trkpt lat="46.124473" lon="6.163447"><ele>970</ele></trkpt>
   <trkpt lat="46.124477" lon="6.163366"><ele>971</ele></trkpt>
   <trkpt lat="46.124486" lon="6.163321"><ele>971.5</ele></trkpt>
   <trkpt lat="46.1245" lon="6.163293"><ele>971.75</ele></trkpt>
   <trkpt lat="46.124516" lon="6.163284"><ele>972.25</ele></trkpt>
   <trkpt lat="46.124545" lon="6.163284"><ele>973.5</ele></trkpt>
   <trkpt lat="46.12458" lon="6.163319"><ele>976</ele></trkpt>
   <trkpt lat="46.124597" lon="6.163373"><ele>976.75</ele></trkpt>
   <trkpt lat="46.124606" lon="6.163544"><ele>975.5</ele></trkpt>
   <trkpt lat="46.124618" lon="6.163612"><ele>975.5</ele></trkpt>
   <trkpt lat="46.124743" lon="6.163892"><ele>979.25</ele></trkpt>
   <trkpt lat="46.12477" lon="6.163968"><ele>981</ele></trkpt>
   <trkpt lat="46.124782" lon="6.164023"><ele>981.5</ele></trkpt>
   <trkpt lat="46.124795" lon="6.164245"><ele>983</ele></trkpt>
   <trkpt lat="46.124804" lon="6.16431"><ele>983.75</ele></trkpt>
   <trkpt lat="46.124846" lon="6.164476"><ele>987</ele></trkpt>
   <trkpt lat="46.124853" lon="6.164546"><ele>988.75</ele></trkpt>
   <trkpt lat="46.12484" lon="6.16459"><ele>989.5</ele></trkpt>
   <trkpt lat="46.124826" lon="6.164607"><ele>989.75</ele></trkpt>
   <trkpt lat="46.124789" lon="6.164621"><ele>989.5</ele></trkpt>
   <trkpt lat="46.124739" lon="6.164618"><ele>989</ele></trkpt>
   <trkpt lat="46.124608" lon="6.164554"><ele>988.5</ele></trkpt>
   <trkpt lat="46.124418" lon="6.1645"><ele>991</ele></trkpt>
   <trkpt lat="46.124185" lon="6.164427"><ele>993</ele></trkpt>
   <trkpt lat="46.124133" lon="6.164419"><ele>993.25</ele></trkpt>
   <trkpt lat="46.124092" lon="6.164429"><ele>993.5</ele></trkpt>
   <trkpt lat="46.123969" lon="6.164522"><ele>997.5</ele></trkpt>
   <trkpt lat="46.123923" lon="6.16454"><ele>998.25</ele></trkpt>
   <trkpt lat="46.123835" lon="6.164544"><ele>999.5</ele></trkpt>
   <trkpt lat="46.123761" lon="6.16452"><ele>1000.25</ele></trkpt>
   <trkpt lat="46.123558" lon="6.164427"><ele>1001</ele></trkpt>
   <trkpt lat="46.123498" lon="6.164431"><ele>1002.25</ele></trkpt>
   <trkpt lat="46.123481" lon="6.164449"><ele>1003.25</ele></trkpt>
   <trkpt lat="46.123472" lon="6.164471"><ele>1004.25</ele></trkpt>
   <trkpt lat="46.12347" lon="6.164532"><ele>1006.5</ele></trkpt>
   <trkpt lat="46.123482" lon="6.16457"><ele>1007.5</ele></trkpt>
   <trkpt lat="46.123495" lon="6.164588"><ele>1007.75</ele></trkpt>
   <trkpt lat="46.123645" lon="6.164666"><ele>1007.5</ele></trkpt>
   <trkpt lat="46.123707" lon="6.16471"><ele>1007.75</ele></trkpt>
   <trkpt lat="46.123853" lon="6.164834"><ele>1010</ele></trkpt>
   <trkpt lat="46.123897" lon="6.16486"><ele>1010.25</ele></trkpt>
   <trkpt lat="46.124067" lon="6.164931"><ele>1012.25</ele></trkpt>
   <trkpt lat="46.124146" lon="6.164979"><ele>1013.25</ele></trkpt>
   <trkpt lat="46.124215" lon="6.165049"><ele>1014</ele></trkpt>
   <trkpt lat="46.124388" lon="6.165326"><ele>1019</ele></trkpt>
   <trkpt lat="46.12444" lon="6.16539"><ele>1019.75</ele></trkpt>
   <trkpt lat="46.124547" lon="6.165486"><ele>1022</ele></trkpt>
   <trkpt lat="46.124645" lon="6.16556"><ele>1023.5</ele></trkpt>
   <trkpt lat="46.124785" lon="6.165621"><ele>1024</ele></trkpt>
   <trkpt lat="46.12484" lon="6.165644"><ele>1024</ele></trkpt>
   <trkpt lat="46.124946" lon="6.165726"><ele>1025.5</ele></trkpt>
   <trkpt lat="46.124985" lon="6.165775"><ele>1027</ele></trkpt>
   <trkpt lat="46.125036" lon="6.165863"><ele>1028.75</ele></trkpt>
   <trkpt lat="46.125091" lon="6.165967"><ele>1030.25</ele></trkpt>
   <trkpt lat="46.125181" lon="6.166166"><ele>1033.75</ele></trkpt>
   <trkpt lat="46.125202" lon="6.166199"><ele>1034</ele></trkpt>
   <trkpt lat="46.12524" lon="6.166234"><ele>1034</ele></trkpt>
   <trkpt lat="46.125264" lon="6.166243"><ele>1033.5</ele></trkpt>
   <trkpt lat="46.125311" lon="6.166241"><ele>1033.5</ele></trkpt>
   <trkpt lat="46.125431" lon="6.16622"><ele>1034.75</ele></trkpt>
   <trkpt lat="46.125481" lon="6.166222"><ele>1035.5</ele></trkpt>
   <trkpt lat="46.125641" lon="6.166254"><ele>1039.75</ele></trkpt>
   <trkpt lat="46.125701" lon="6.166248"><ele>1041</ele></trkpt>
   <trkpt lat="46.125742" lon="6.166218"><ele>1041.25</ele></trkpt>
   <trkpt lat="46.125773" lon="6.166171"><ele>1041.5</ele></trkpt>
   <trkpt lat="46.125879" lon="6.165858"><ele>1044</ele></trkpt>
   <trkpt lat="46.125903" lon="6.165805"><ele>1044.5</ele></trkpt>
   <trkpt lat="46.125935" lon="6.165737"><ele>1044.75</ele></trkpt>
   <trkpt lat="46.126112" lon="6.165441"><ele>1048</ele></trkpt>
   <trkpt lat="46.126148" lon="6.165358"><ele>1049</ele></trkpt>
   <trkpt lat="46.126256" lon="6.165041"><ele>1051</ele></trkpt>
   <trkpt lat="46.126281" lon="6.164993"><ele>1051.25</ele></trkpt>
   <trkpt lat="46.126308" lon="6.164969"><ele>1051.5</ele></trkpt>
   <trkpt lat="46.126345" lon="6.164965"><ele>1052.5</ele></trkpt>
   <trkpt lat="46.126361" lon="6.164968"><ele>1053.25</ele></trkpt>
   <trkpt lat="46.126377" lon="6.164983"><ele>1054</ele></trkpt>
   <trkpt lat="46.12639" lon="6.16501"><ele>1055</ele></trkpt>
   <trkpt lat="46.126397" lon="6.165043"><ele>1055.25</ele></trkpt>
   <trkpt lat="46.126391" lon="6.16512"><ele>1056.5</ele></trkpt>
   <trkpt lat="46.126346" lon="6.165305"><ele>1057.25</ele></trkpt>
   <trkpt lat="46.126338" lon="6.165381"><ele>1057.75</ele></trkpt>
   <trkpt lat="46.126331" lon="6.16556"><ele>1059.25</ele></trkpt>
   <trkpt lat="46.126324" lon="6.166454"><ele>1067.5</ele></trkpt>
   <trkpt lat="46.126312" lon="6.166692"><ele>1070</ele></trkpt>
   <trkpt lat="46.126306" lon="6.166757"><ele>1071.5</ele></trkpt>
   <trkpt lat="46.126294" lon="6.166807"><ele>1072.25</ele></trkpt>
   <trkpt lat="46.126277" lon="6.166854"><ele>1073.25</ele></trkpt>
   <trkpt lat="46.126255" lon="6.166884"><ele>1073.5</ele></trkpt>
   <trkpt lat="46.126208" lon="6.166931"><ele>1074</ele></trkpt>
   <trkpt lat="46.125819" lon="6.167136"><ele>1077.25</ele></trkpt>
   <trkpt lat="46.125686" lon="6.167243"><ele>1079.5</ele></trkpt>
   <trkpt lat="46.125623" lon="6.167313"><ele>1080.75</ele></trkpt>
   <trkpt lat="46.125476" lon="6.167535"><ele>1084.75</ele></trkpt>
   <trkpt lat="46.125399" lon="6.167611"><ele>1086.25</ele></trkpt>
   <trkpt lat="46.125331" lon="6.167649"><ele>1086.5</ele></trkpt>
   <trkpt lat="46.125296" lon="6.167663"><ele>1086.5</ele></trkpt>
   <trkpt lat="46.125252" lon="6.167667"><ele>1086.75</ele></trkpt>
   <trkpt lat="46.124464" lon="6.167625"><ele>1097.25</ele></trkpt>
   <trkpt lat="46.124286" lon="6.167599"><ele>1099.75</ele></trkpt>
   <trkpt lat="46.123593" lon="6.167383"><ele>1108.25</ele></trkpt>
   <trkpt lat="46.123257" lon="6.167272"><ele>1113</ele></trkpt>
   <trkpt lat="46.12307" lon="6.167234"><ele>1115</ele></trkpt>
   <trkpt lat="46.122993" lon="6.167225"><ele>1116</ele></trkpt>
   <trkpt lat="46.122842" lon="6.167229"><ele>1118.25</ele></trkpt>
   <trkpt lat="46.122691" lon="6.167261"><ele>1120.5</ele></trkpt>
   <trkpt lat="46.122618" lon="6.167285"><ele>1121.5</ele></trkpt>
   <trkpt lat="46.122548" lon="6.167319"><ele>1122.5</ele></trkpt>
   <trkpt lat="46.122473" lon="6.167367"><ele>1123.75</ele></trkpt>
   <trkpt lat="46.122411" lon="6.167419"><ele>1124.5</ele></trkpt>
   <trkpt lat="46.121984" lon="6.167876"><ele>1131.75</ele></trkpt>
   <trkpt lat="46.121835" lon="6.168005"><ele>1134.25</ele></trkpt>
   <trkpt lat="46.121516" lon="6.168252"><ele>1139.5</ele></trkpt>
   <trkpt lat="46.121421" lon="6.16835"><ele>1141.5</ele></trkpt>
   <trkpt lat="46.12119" lon="6.168649"><ele>1146</ele></trkpt>
   <trkpt lat="46.121015" lon="6.168817"><ele>1148.75</ele></trkpt>
   <trkpt lat="46.12093" lon="6.168873"><ele>1149.75</ele></trkpt>
   <trkpt lat="46.120792" lon="6.168942"><ele>1151</ele></trkpt>
   <trkpt lat="46.120572" lon="6.169053"><ele>1154.25</ele></trkpt>
   <trkpt lat="46.120508" lon="6.169169"><ele>1155.5</ele></trkpt>
   <trkpt lat="46.120437" lon="6.169376"><ele>1157.25</ele></trkpt>
   <trkpt lat="46.120219" lon="6.17019"><ele>1163.25</ele></trkpt>
   <trkpt lat="46.120108" lon="6.170559"><ele>1166</ele></trkpt>
   <trkpt lat="46.120058" lon="6.170699"><ele>1167.25</ele></trkpt>
   <trkpt lat="46.119969" lon="6.17091"><ele>1168.75</ele></trkpt>
   <trkpt lat="46.11988" lon="6.171074"><ele>1170.5</ele></trkpt>
   <trkpt lat="46.119562" lon="6.171527"><ele>1174</ele></trkpt>
  </trkseg>
 </trk>
</gpx>
