<?xml version="1.0" encoding="UTF-8"?>
<gpx 
 xmlns="http://www.topografix.com/GPX/1/1" 
 xmlns:xsi="http://www.w3.org/2001/XMLSchema-instance" 
 xsi:schemaLocation="http://www.topografix.com/GPX/1/1 http://www.topografix.com/GPX/1/1/gpx.xsd" 
 version="1.1" 
 creator="BRouter-Web 0.18.1">
 <trk>
  <name>Leontica (3.0km, trimmed to true climb span)</name>
  <trkseg>
   <trkpt lat="46.459334" lon="8.932276"><ele>609.75</ele></trkpt>
   <trkpt lat="46.459313" lon="8.932244"><ele>610.75</ele></trkpt>
   <trkpt lat="46.459288" lon="8.932219"><ele>611.75</ele></trkpt>
   <trkpt lat="46.459263" lon="8.932213"><ele>612.5</ele></trkpt>
   <trkpt lat="46.459232" lon="8.932229"><ele>612.5</ele></trkpt>
   <trkpt lat="46.459181" lon="8.932275"><ele>612.25</ele></trkpt>
   <trkpt lat="46.459047" lon="8.932439"><ele>613</ele></trkpt>
   <trkpt lat="46.458967" lon="8.932511"><ele>613.75</ele></trkpt>
   <trkpt lat="46.458801" lon="8.932614"><ele>615.75</ele></trkpt>
   <trkpt lat="46.458617" lon="8.932699"><ele>619</ele></trkpt>
   <trkpt lat="46.458545" lon="8.932721"><ele>619.25</ele></trkpt>
   <trkpt lat="46.45821" lon="8.932781"><ele>620.25</ele></trkpt>
   <trkpt lat="46.458167" lon="8.932778"><ele>620.5</ele></trkpt>
   <trkpt lat="46.458145" lon="8.932747"><ele>622.25</ele></trkpt>
   <trkpt lat="46.458143" lon="8.932701"><ele>624.5</ele></trkpt>
   <trkpt lat="46.458152" lon="8.932677"><ele>625.75</ele></trkpt>
   <trkpt lat="46.458166" lon="8.932661"><ele>626.5</ele></trkpt>
   <trkpt lat="46.458192" lon="8.932653"><ele>626.75</ele></trkpt>
   <trkpt lat="46.458404" lon="8.932648"><ele>624.75</ele></trkpt>
   <trkpt lat="46.45847" lon="8.932607"><ele>625.5</ele></trkpt>
   <trkpt lat="46.458524" lon="8.932554"><ele>627</ele></trkpt>
   <trkpt lat="46.45859" lon="8.932456"><ele>629</ele></trkpt>
   <trkpt lat="46.458655" lon="8.932295"><ele>630.5</ele></trkpt>
   <trkpt lat="46.458842" lon="8.931893"><ele>634.5</ele></trkpt>
   <trkpt lat="46.45895" lon="8.931736"><ele>636.5</ele></trkpt>
   <trkpt lat="46.45903" lon="8.93166"><ele>637</ele></trkpt>
   <trkpt lat="46.459194" lon="8.931547"><ele>638</ele></trkpt>
   <trkpt lat="46.459395" lon="8.931441"><ele>638.75</ele></trkpt>
   <trkpt lat="46.459415" lon="8.931404"><ele>639.75</ele></trkpt>
   <trkpt lat="46.459415" lon="8.931375"><ele>640.75</ele></trkpt>
   <trkpt lat="46.459408" lon="8.931349"><ele>641.75</ele></trkpt>
   <trkpt lat="46.459376" lon="8.93132"><ele>643.5</ele></trkpt>
   <trkpt lat="46.459322" lon="8.931335"><ele>644</ele></trkpt>
   <trkpt lat="46.459169" lon="8.931432"><ele>643.25</ele></trkpt>
   <trkpt lat="46.458793" lon="8.931539"><ele>648.25</ele></trkpt>
   <trkpt lat="46.458677" lon="8.931595"><ele>649.5</ele></trkpt>
   <trkpt lat="46.458279" lon="8.931859"><ele>653</ele></trkpt>
   <trkpt lat="46.458155" lon="8.931917"><ele>653.5</ele></trkpt>
   <trkpt lat="46.457965" lon="8.931927"><ele>656.25</ele></trkpt>
   <trkpt lat="46.457713" lon="8.931911"><ele>659.5</ele></trkpt>
   <trkpt lat="46.457617" lon="8.931929"><ele>660.5</ele></trkpt>
   <trkpt lat="46.457454" lon="8.931974"><ele>662</ele></trkpt>
   <trkpt lat="46.457211" lon="8.932131"><ele>663</ele></trkpt>
   <trkpt lat="46.457172" lon="8.932143"><ele>661.5</ele></trkpt>
   <trkpt lat="46.457139" lon="8.932134"><ele>660.25</ele></trkpt>
   <trkpt lat="46.457119" lon="8.932103"><ele>659.5</ele></trkpt>
   <trkpt lat="46.457111" lon="8.932061"><ele>659.5</ele></trkpt>
   <trkpt lat="46.457119" lon="8.932015"><ele>660.25</ele></trkpt>
   <trkpt lat="46.457291" lon="8.931763"><ele>663.25</ele></trkpt>
   <trkpt lat="46.457386" lon="8.931673"><ele>665.25</ele></trkpt>
   <trkpt lat="46.457787" lon="8.931303"><ele>674.5</ele></trkpt>
   <trkpt lat="46.457817" lon="8.93128"><ele>674.75</ele></trkpt>
   <trkpt lat="46.457967" lon="8.931226"><ele>676.5</ele></trkpt>
   <trkpt lat="46.458161" lon="8.931195"><ele>677</ele></trkpt>
   <trkpt lat="46.458203" lon="8.931181"><ele>677.25</ele></trkpt>
   <trkpt lat="46.45828" lon="8.93112"><ele>679</ele></trkpt>
   <trkpt lat="46.458437" lon="8.930901"><ele>681</ele></trkpt>
   <trkpt lat="46.458539" lon="8.930784"><ele>682.25</ele></trkpt>
   <trkpt lat="46.458762" lon="8.930576"><ele>685</ele></trkpt>
   <trkpt lat="46.458823" lon="8.930498"><ele>686</ele></trkpt>
   <trkpt lat="46.459063" lon="8.930103"><ele>689.75</ele></trkpt>
   <trkpt lat="46.459187" lon="8.929944"><ele>692</ele></trkpt>
   <trkpt lat="46.459484" lon="8.929568"><ele>696.75</ele></trkpt>
   <trkpt lat="46.459593" lon="8.929444"><ele>698.75</ele></trkpt>
   <trkpt lat="46.459655" lon="8.929406"><ele>698.75</ele></trkpt>
   <trkpt lat="46.459828" lon="8.929336"><ele>696.25</ele></trkpt>
   <trkpt lat="46.459857" lon="8.92931"><ele>695.75</ele></trkpt>
   <trkpt lat="46.459874" lon="8.92928"><ele>695.5</ele></trkpt>
   <trkpt lat="46.459879" lon="8.929246"><ele>695.75</ele></trkpt>
   <trkpt lat="46.459873" lon="8.929204"><ele>696.75</ele></trkpt>
   <trkpt lat="46.459856" lon="8.929173"><ele>698</ele></trkpt>
   <trkpt lat="46.459827" lon="8.929154"><ele>700.25</ele></trkpt>
   <trkpt lat="46.459794" lon="8.929162"><ele>702</ele></trkpt>
   <trkpt lat="46.459646" lon="8.929259"><ele>704.5</ele></trkpt>
   <trkpt lat="46.459536" lon="8.929316"><ele>705.25</ele></trkpt>
   <trkpt lat="46.459313" lon="8.92938"><ele>709</ele></trkpt>
   <trkpt lat="46.459159" lon="8.929457"><ele>710.5</ele></trkpt>
   <trkpt lat="46.459041" lon="8.929529"><ele>710.5</ele></trkpt>
   <trkpt lat="46.458933" lon="8.929562"><ele>711.75</ele></trkpt>
   <trkpt lat="46.458353" lon="8.929683"><ele>717</ele></trkpt>
   <trkpt lat="46.458303" lon="8.929677"><ele>716.5</ele></trkpt>
   <trkpt lat="46.45827" lon="8.929621"><ele>716.25</ele></trkpt>
   <trkpt lat="46.458261" lon="8.92957"><ele>717</ele></trkpt>
   <trkpt lat="46.458271" lon="8.929525"><ele>718</ele></trkpt>
   <trkpt lat="46.458404" lon="8.929342"><ele>722</ele></trkpt>
   <trkpt lat="46.458586" lon="8.92906"><ele>724.75</ele></trkpt>
   <trkpt lat="46.45863" lon="8.928994"><ele>725.25</ele></trkpt>
   <trkpt lat="46.458702" lon="8.928915"><ele>726.5</ele></trkpt>
   <trkpt lat="46.459783" lon="8.927984"><ele>738.5</ele></trkpt>
   <trkpt lat="46.459838" lon="8.927942"><ele>739</ele></trkpt>
   <trkpt lat="46.460043" lon="8.927834"><ele>739.5</ele></trkpt>
   <trkpt lat="46.460073" lon="8.927787"><ele>740.5</ele></trkpt>
   <trkpt lat="46.460078" lon="8.927762"><ele>741</ele></trkpt>
   <trkpt lat="46.460074" lon="8.92772"><ele>742</ele></trkpt>
   <trkpt lat="46.460053" lon="8.927688"><ele>743.5</ele></trkpt>
   <trkpt lat="46.460038" lon="8.927683"><ele>744</ele></trkpt>
   <trkpt lat="46.459801" lon="8.927698"><ele>745</ele></trkpt>
   <trkpt lat="46.459735" lon="8.927687"><ele>745.5</ele></trkpt>
   <trkpt lat="46.4596" lon="8.927643"><ele>746.5</ele></trkpt>
   <trkpt lat="46.459521" lon="8.927598"><ele>747.5</ele></trkpt>
   <trkpt lat="46.459429" lon="8.92753"><ele>749</ele></trkpt>
   <trkpt lat="46.459283" lon="8.927389"><ele>751</ele></trkpt>
   <trkpt lat="46.459228" lon="8.927342"><ele>751.5</ele></trkpt>
   <trkpt lat="46.459201" lon="8.927328"><ele>751.25</ele></trkpt>
   <trkpt lat="46.459151" lon="8.927301"><ele>751.75</ele></trkpt>
   <trkpt lat="46.459005" lon="8.927279"><ele>753.75</ele></trkpt>
   <trkpt lat="46.458885" lon="8.92731"><ele>754.5</ele></trkpt>
   <trkpt lat="46.45873" lon="8.92738"><ele>757.5</ele></trkpt>
   <trkpt lat="46.458087" lon="8.927753"><ele>762</ele></trkpt>
   <trkpt lat="46.457781" lon="8.927905"><ele>765.25</ele></trkpt>
   <trkpt lat="46.457601" lon="8.927941"><ele>767</ele></trkpt>
   <trkpt lat="46.457463" lon="8.927934"><ele>769</ele></trkpt>
   <trkpt lat="46.457338" lon="8.927895"><ele>770.75</ele></trkpt>
   <trkpt lat="46.457269" lon="8.927888"><ele>771.25</ele></trkpt>
   <trkpt lat="46.457143" lon="8.927909"><ele>772.25</ele></trkpt>
   <trkpt lat="46.457009" lon="8.927955"><ele>773</ele></trkpt>
   <trkpt lat="46.456842" lon="8.927968"><ele>774.5</ele></trkpt>
   <trkpt lat="46.456595" lon="8.927967"><ele>776.25</ele></trkpt>
   <trkpt lat="46.456401" lon="8.92794"><ele>778.75</ele></trkpt>
   <trkpt lat="46.455962" lon="8.927919"><ele>781</ele></trkpt>
   <trkpt lat="46.455938" lon="8.927913"><ele>781</ele></trkpt>
   <trkpt lat="46.455923" lon="8.927875"><ele>782</ele></trkpt>
   <trkpt lat="46.45593" lon="8.92783"><ele>783.25</ele></trkpt>
   <trkpt lat="46.455957" lon="8.927792"><ele>784.75</ele></trkpt>
   <trkpt lat="46.456008" lon="8.927786"><ele>785.75</ele></trkpt>
   <trkpt lat="46.456182" lon="8.927825"><ele>785.25</ele></trkpt>
   <trkpt lat="46.456293" lon="8.927815"><ele>785</ele></trkpt>
   <trkpt lat="46.456405" lon="8.927754"><ele>786.75</ele></trkpt>
   <trkpt lat="46.456573" lon="8.927611"><ele>789.5</ele></trkpt>
   <trkpt lat="46.457826" lon="8.92633"><ele>804.75</ele></trkpt>
   <trkpt lat="46.457974" lon="8.926116"><ele>807.5</ele></trkpt>
   <trkpt lat="46.458125" lon="8.925869"><ele>810</ele></trkpt>
   <trkpt lat="46.458186" lon="8.925796"><ele>811.25</ele></trkpt>
   <trkpt lat="46.458271" lon="8.925732"><ele>812.75</ele></trkpt>
   <trkpt lat="46.458451" lon="8.925656"><ele>813.5</ele></trkpt>
   <trkpt lat="46.458564" lon="8.925591"><ele>814.25</ele></trkpt>
   <trkpt lat="46.45869" lon="8.925506"><ele>815.25</ele></trkpt>
   <trkpt lat="46.458768" lon="8.925436"><ele>816.25</ele></trkpt>
   <trkpt lat="46.45915" lon="8.924991"><ele>821.5</ele></trkpt>
   <trkpt lat="46.45927" lon="8.924892"><ele>823.5</ele></trkpt>
   <trkpt lat="46.459289" lon="8.924884"><ele>823.5</ele></trkpt>
   <trkpt lat="46.459384" lon="8.924843"><ele>824.5</ele></trkpt>
   <trkpt lat="46.459566" lon="8.924792"><ele>825.25</ele></trkpt>
   <trkpt lat="46.45962" lon="8.924769"><ele>825.75</ele></trkpt>
   <trkpt lat="46.459652" lon="8.92473"><ele>826.75</ele></trkpt>
   <trkpt lat="46.459659" lon="8.9247"><ele>827.25</ele></trkpt>
   <trkpt lat="46.459657" lon="8.924674"><ele>827.75</ele></trkpt>
   <trkpt lat="46.459632" lon="8.924632"><ele>828.75</ele></trkpt>
   <trkpt lat="46.459614" lon="8.924628"><ele>828.75</ele></trkpt>
   <trkpt lat="46.45954" lon="8.924633"><ele>829</ele></trkpt>
   <trkpt lat="46.459379" lon="8.924622"><ele>829.75</ele></trkpt>
   <trkpt lat="46.459138" lon="8.924564"><ele>832.5</ele></trkpt>
   <trkpt lat="46.458991" lon="8.924571"><ele>834.75</ele></trkpt>
   <trkpt lat="46.458814" lon="8.924626"><ele>836.5</ele></trkpt>
   <trkpt lat="46.458636" lon="8.924697"><ele>838</ele></trkpt>
   <trkpt lat="46.458543" lon="8.924735"><ele>838.75</ele></trkpt>
   <trkpt lat="46.458397" lon="8.924777"><ele>840</ele></trkpt>
   <trkpt lat="46.458113" lon="8.924861"><ele>842.75</ele></trkpt>
   <trkpt lat="46.457943" lon="8.924888"><ele>844.25</ele></trkpt>
   <trkpt lat="46.457798" lon="8.92488"><ele>846</ele></trkpt>
   <trkpt lat="46.457671" lon="8.924847"><ele>847.25</ele></trkpt>
   <trkpt lat="46.457421" lon="8.924755"><ele>850</ele></trkpt>
   <trkpt lat="46.457346" lon="8.924738"><ele>851.25</ele></trkpt>
   <trkpt lat="46.457268" lon="8.924736"><ele>852</ele></trkpt>
   <trkpt lat="46.457056" lon="8.924758"><ele>854</ele></trkpt>
   <trkpt lat="46.45695" lon="8.924755"><ele>855.25</ele></trkpt>
   <trkpt lat="46.456804" lon="8.924733"><ele>856.75</ele></trkpt>
   <trkpt lat="46.456742" lon="8.924719"><ele>857.5</ele></trkpt>
   <trkpt lat="46.456674" lon="8.924695"><ele>858.25</ele></trkpt>
   <trkpt lat="46.456553" lon="8.924631"><ele>859.75</ele></trkpt>
   <trkpt lat="46.456391" lon="8.924505"><ele>861.25</ele></trkpt>
   <trkpt lat="46.456221" lon="8.924327"><ele>863.25</ele></trkpt>
   <trkpt lat="46.456067" lon="8.924148"><ele>865.75</ele></trkpt>
   <trkpt lat="46.455999" lon="8.924062"><ele>867</ele></trkpt>
   <trkpt lat="46.455943" lon="8.924019"><ele>867.25</ele></trkpt>
   <trkpt lat="46.455856" lon="8.923986"><ele>867</ele></trkpt>
   <trkpt lat="46.455697" lon="8.923976"><ele>867.25</ele></trkpt>
   <trkpt lat="46.455674" lon="8.923953"><ele>867.5</ele></trkpt>
   <trkpt lat="46.455668" lon="8.923935"><ele>868</ele></trkpt>
   <trkpt lat="46.455664" lon="8.923903"><ele>868.5</ele></trkpt>
   <trkpt lat="46.455669" lon="8.923874"><ele>869.25</ele></trkpt>
   <trkpt lat="46.455629" lon="8.923859"><ele>869.5</ele></trkpt>
   <trkpt lat="46.45503" lon="8.923691"><ele>871.5</ele></trkpt>
   <trkpt lat="46.454925" lon="8.923633"><ele>872.75</ele></trkpt>
   <trkpt lat="46.454851" lon="8.923573"><ele>874.25</ele></trkpt>
   <trkpt lat="46.454695" lon="8.923388"><ele>875.75</ele></trkpt>
  </trkseg>
 </trk>
</gpx>
