<?xml version="1.0" encoding="UTF-8"?>
<gpx 
 xmlns="http://www.topografix.com/GPX/1/1" 
 xmlns:xsi="http://www.w3.org/2001/XMLSchema-instance" 
 xsi:schemaLocation="http://www.topografix.com/GPX/1/1 http://www.topografix.com/GPX/1/1/gpx.xsd" 
 version="1.1" 
 creator="BRouter-Web 0.18.1">
 <trk>
  <name>Lin Noir (7.7km, trimmed to true climb span)</name>
  <trkseg>
   <trkpt lat="45.750585" lon="7.318797"><ele>693.75</ele></trkpt>
   <trkpt lat="45.750622" lon="7.31878"><ele>693.75</ele></trkpt>
   <trkpt lat="45.750655" lon="7.31875"><ele>694.25</ele></trkpt>
   <trkpt lat="45.750681" lon="7.318709"><ele>695</ele></trkpt>
   <trkpt lat="45.7507" lon="7.31866"><ele>696.5</ele></trkpt>
   <trkpt lat="45.750701" lon="7.318654"><ele>698</ele></trkpt>
   <trkpt lat="45.75071" lon="7.318605"><ele>698</ele></trkpt>
   <trkpt lat="45.75071" lon="7.318549"><ele>698.25</ele></trkpt>
   <trkpt lat="45.7507" lon="7.318495"><ele>698.25</ele></trkpt>
   <trkpt lat="45.750681" lon="7.318446"><ele>698.25</ele></trkpt>
   <trkpt lat="45.750654" lon="7.318405"><ele>698.25</ele></trkpt>
   <trkpt lat="45.750621" lon="7.318375"><ele>698.25</ele></trkpt>
   <trkpt lat="45.750584" lon="7.318358"><ele>698</ele></trkpt>
   <trkpt lat="45.750529" lon="7.31819"><ele>698.75</ele></trkpt>
   <trkpt lat="45.750496" lon="7.318133"><ele>699</ele></trkpt>
   <trkpt lat="45.750309" lon="7.317893"><ele>701.25</ele></trkpt>
   <trkpt lat="45.749907" lon="7.317423"><ele>706</ele></trkpt>
   <trkpt lat="45.749203" lon="7.316607"><ele>713.5</ele></trkpt>
   <trkpt lat="45.749162" lon="7.316537"><ele>713.75</ele></trkpt>
   <trkpt lat="45.749138" lon="7.316474"><ele>713.75</ele></trkpt>
   <trkpt lat="45.74902" lon="7.315973"><ele>717.5</ele></trkpt>
   <trkpt lat="45.748978" lon="7.315872"><ele>718.5</ele></trkpt>
   <trkpt lat="45.748907" lon="7.315799"><ele>719.25</ele></trkpt>
   <trkpt lat="45.748494" lon="7.315544"><ele>723.5</ele></trkpt>
   <trkpt lat="45.748401" lon="7.315468"><ele>724.75</ele></trkpt>
   <trkpt lat="45.74827" lon="7.315323"><ele>725.75</ele></trkpt>
   <trkpt lat="45.74816" lon="7.315183"><ele>726.75</ele></trkpt>
   <trkpt lat="45.748057" lon="7.315018"><ele>728.5</ele></trkpt>
   <trkpt lat="45.747926" lon="7.314685"><ele>730.5</ele></trkpt>
   <trkpt lat="45.747641" lon="7.313924"><ele>735.5</ele></trkpt>
   <trkpt lat="45.747561" lon="7.313635"><ele>737.75</ele></trkpt>
   <trkpt lat="45.747534" lon="7.313498"><ele>739</ele></trkpt>
   <trkpt lat="45.747469" lon="7.31315"><ele>741.5</ele></trkpt>
   <trkpt lat="45.747434" lon="7.313032"><ele>742.75</ele></trkpt>
   <trkpt lat="45.747406" lon="7.312981"><ele>743.5</ele></trkpt>
   <trkpt lat="45.747367" lon="7.312938"><ele>744.25</ele></trkpt>
   <trkpt lat="45.747166" lon="7.312822"><ele>744.25</ele></trkpt>
   <trkpt lat="45.747111" lon="7.312766"><ele>744</ele></trkpt>
   <trkpt lat="45.747044" lon="7.312667"><ele>745</ele></trkpt>
   <trkpt lat="45.74693" lon="7.31248"><ele>748</ele></trkpt>
   <trkpt lat="45.746835" lon="7.31229"><ele>749.25</ele></trkpt>
   <trkpt lat="45.746789" lon="7.312313"><ele>746.5</ele></trkpt>
   <trkpt lat="45.746764" lon="7.312301"><ele>745.5</ele></trkpt>
   <trkpt lat="45.746743" lon="7.312276"><ele>745</ele></trkpt>
   <trkpt lat="45.746705" lon="7.312147"><ele>745.25</ele></trkpt>
   <trkpt lat="45.746672" lon="7.31193"><ele>744.5</ele></trkpt>
   <trkpt lat="45.746619" lon="7.311771"><ele>744.25</ele></trkpt>
   <trkpt lat="45.746586" lon="7.311726"><ele>744</ele></trkpt>
   <trkpt lat="45.746547" lon="7.311692"><ele>744</ele></trkpt>
   <trkpt lat="45.746505" lon="7.311674"><ele>744</ele></trkpt>
   <trkpt lat="45.746444" lon="7.31164"><ele>743.5</ele></trkpt>
   <trkpt lat="45.746165" lon="7.311383"><ele>741.5</ele></trkpt>
   <trkpt lat="45.746025" lon="7.311239"><ele>739.25</ele></trkpt>
   <trkpt lat="45.745907" lon="7.311103"><ele>737</ele></trkpt>
   <trkpt lat="45.745775" lon="7.310859"><ele>740</ele></trkpt>
   <trkpt lat="45.745651" lon="7.310698"><ele>740.25</ele></trkpt>
   <trkpt lat="45.745529" lon="7.310449"><ele>740.5</ele></trkpt>
   <trkpt lat="45.745415" lon="7.310271"><ele>739</ele></trkpt>
   <trkpt lat="45.744937" lon="7.309847"><ele>739.75</ele></trkpt>
   <trkpt lat="45.744606" lon="7.309531"><ele>738.25</ele></trkpt>
   <trkpt lat="45.744543" lon="7.309419"><ele>738</ele></trkpt>
   <trkpt lat="45.744378" lon="7.308926"><ele>738</ele></trkpt>
   <trkpt lat="45.744206" lon="7.308618"><ele>738.5</ele></trkpt>
   <trkpt lat="45.743924" lon="7.3084"><ele>735.75</ele></trkpt>
   <trkpt lat="45.743839" lon="7.308312"><ele>734.75</ele></trkpt>
   <trkpt lat="45.743766" lon="7.308192"><ele>734.5</ele></trkpt>
   <trkpt lat="45.743541" lon="7.307771"><ele>733.5</ele></trkpt>
   <trkpt lat="45.743506" lon="7.307682"><ele>731.75</ele></trkpt>
   <trkpt lat="45.743497" lon="7.3076"><ele>731.5</ele></trkpt>
   <trkpt lat="45.7435" lon="7.307503"><ele>732</ele></trkpt>
   <trkpt lat="45.743479" lon="7.307411"><ele>733.75</ele></trkpt>
   <trkpt lat="45.743507" lon="7.307408"><ele>735.5</ele></trkpt>
   <trkpt lat="45.743524" lon="7.307388"><ele>737.25</ele></trkpt>
   <trkpt lat="45.743529" lon="7.307348"><ele>738.75</ele></trkpt>
   <trkpt lat="45.743525" lon="7.307322"><ele>739.25</ele></trkpt>
   <trkpt lat="45.743453" lon="7.307143"><ele>743.25</ele></trkpt>
   <trkpt lat="45.743395" lon="7.307045"><ele>745</ele></trkpt>
   <trkpt lat="45.743241" lon="7.306946"><ele>742.25</ele></trkpt>
   <trkpt lat="45.743205" lon="7.306878"><ele>743</ele></trkpt>
   <trkpt lat="45.743137" lon="7.306702"><ele>745.5</ele></trkpt>
   <trkpt lat="45.743074" lon="7.306516"><ele>747.25</ele></trkpt>
   <trkpt lat="45.743024" lon="7.306342"><ele>749.25</ele></trkpt>
   <trkpt lat="45.743011" lon="7.306308"><ele>749.5</ele></trkpt>
   <trkpt lat="45.742966" lon="7.306075"><ele>754.5</ele></trkpt>
   <trkpt lat="45.742831" lon="7.305725"><ele>758.25</ele></trkpt>
   <trkpt lat="45.742811" lon="7.3042"><ele>779.25</ele></trkpt>
   <trkpt lat="45.742929" lon="7.303594"><ele>788</ele></trkpt>
   <trkpt lat="45.742981" lon="7.303363"><ele>792.5</ele></trkpt>
   <trkpt lat="45.742943" lon="7.302994"><ele>799</ele></trkpt>
   <trkpt lat="45.742955" lon="7.302876"><ele>801.75</ele></trkpt>
   <trkpt lat="45.743007" lon="7.302759"><ele>805.75</ele></trkpt>
   <trkpt lat="45.742991" lon="7.302689"><ele>807.25</ele></trkpt>
   <trkpt lat="45.742994" lon="7.302635"><ele>808.75</ele></trkpt>
   <trkpt lat="45.742987" lon="7.302614"><ele>809.25</ele></trkpt>
   <trkpt lat="45.742854" lon="7.302455"><ele>810.75</ele></trkpt>
   <trkpt lat="45.742786" lon="7.302264"><ele>814</ele></trkpt>
   <trkpt lat="45.742736" lon="7.302085"><ele>815.25</ele></trkpt>
   <trkpt lat="45.742759" lon="7.302047"><ele>817</ele></trkpt>
   <trkpt lat="45.742815" lon="7.302093"><ele>818.25</ele></trkpt>
   <trkpt lat="45.742821" lon="7.302038"><ele>819.5</ele></trkpt>
   <trkpt lat="45.742843" lon="7.301992"><ele>821</ele></trkpt>
   <trkpt lat="45.742869" lon="7.301962"><ele>822.5</ele></trkpt>
   <trkpt lat="45.742896" lon="7.301949"><ele>823.5</ele></trkpt>
   <trkpt lat="45.742937" lon="7.301965"><ele>824.5</ele></trkpt>
   <trkpt lat="45.742968" lon="7.30201"><ele>824.25</ele></trkpt>
   <trkpt lat="45.743054" lon="7.302184"><ele>822</ele></trkpt>
   <trkpt lat="45.743119" lon="7.302253"><ele>821.75</ele></trkpt>
   <trkpt lat="45.743396" lon="7.302434"><ele>825</ele></trkpt>
   <trkpt lat="45.743497" lon="7.302612"><ele>827.25</ele></trkpt>
   <trkpt lat="45.743911" lon="7.304218"><ele>836.5</ele></trkpt>
   <trkpt lat="45.743999" lon="7.304497"><ele>837.25</ele></trkpt>
   <trkpt lat="45.744142" lon="7.304733"><ele>838.5</ele></trkpt>
   <trkpt lat="45.744249" lon="7.304908"><ele>840.75</ele></trkpt>
   <trkpt lat="45.744813" lon="7.305636"><ele>848</ele></trkpt>
   <trkpt lat="45.74498" lon="7.305706"><ele>849.5</ele></trkpt>
   <trkpt lat="45.745104" lon="7.305776"><ele>850.5</ele></trkpt>
   <trkpt lat="45.745187" lon="7.305943"><ele>851.25</ele></trkpt>
   <trkpt lat="45.745217" lon="7.306041"><ele>851.75</ele></trkpt>
   <trkpt lat="45.74545" lon="7.30676"><ele>856.5</ele></trkpt>
   <trkpt lat="45.745665" lon="7.307085"><ele>859</ele></trkpt>
   <trkpt lat="45.745976" lon="7.307451"><ele>863.75</ele></trkpt>
   <trkpt lat="45.746083" lon="7.307576"><ele>863.75</ele></trkpt>
   <trkpt lat="45.746314" lon="7.307781"><ele>866.25</ele></trkpt>
   <trkpt lat="45.747505" lon="7.308772"><ele>881.75</ele></trkpt>
   <trkpt lat="45.747866" lon="7.30904"><ele>883.75</ele></trkpt>
   <trkpt lat="45.748046" lon="7.309055"><ele>887</ele></trkpt>
   <trkpt lat="45.748234" lon="7.308981"><ele>888.25</ele></trkpt>
   <trkpt lat="45.748533" lon="7.308832"><ele>892.5</ele></trkpt>
   <trkpt lat="45.748789" lon="7.308823"><ele>895</ele></trkpt>
   <trkpt lat="45.748899" lon="7.30887"><ele>895.75</ele></trkpt>
   <trkpt lat="45.749136" lon="7.30913"><ele>897.75</ele></trkpt>
   <trkpt lat="45.74918" lon="7.309178"><ele>898.25</ele></trkpt>
   <trkpt lat="45.749713" lon="7.309789"><ele>904</ele></trkpt>
   <trkpt lat="45.750248" lon="7.310405"><ele>908.75</ele></trkpt>
   <trkpt lat="45.750434" lon="7.310714"><ele>910.5</ele></trkpt>
   <trkpt lat="45.750748" lon="7.311129"><ele>912.75</ele></trkpt>
   <trkpt lat="45.750805" lon="7.311195"><ele>913.25</ele></trkpt>
   <trkpt lat="45.750879" lon="7.311234"><ele>913.5</ele></trkpt>
   <trkpt lat="45.751024" lon="7.311251"><ele>913.5</ele></trkpt>
   <trkpt lat="45.751238" lon="7.311184"><ele>916.5</ele></trkpt>
   <trkpt lat="45.751333" lon="7.311183"><ele>917</ele></trkpt>
   <trkpt lat="45.751632" lon="7.311271"><ele>919.25</ele></trkpt>
   <trkpt lat="45.751686" lon="7.311275"><ele>920.5</ele></trkpt>
   <trkpt lat="45.75173" lon="7.311362"><ele>921</ele></trkpt>
   <trkpt lat="45.751686" lon="7.311275"><ele>920.5</ele></trkpt>
   <trkpt lat="45.751718" lon="7.311255"><ele>922</ele></trkpt>
   <trkpt lat="45.751743" lon="7.311207"><ele>923.5</ele></trkpt>
   <trkpt lat="45.751741" lon="7.311161"><ele>924</ele></trkpt>
   <trkpt lat="45.751721" lon="7.311115"><ele>923.5</ele></trkpt>
   <trkpt lat="45.751673" lon="7.311077"><ele>922.25</ele></trkpt>
   <trkpt lat="45.751521" lon="7.311012"><ele>922.25</ele></trkpt>
   <trkpt lat="45.751297" lon="7.310873"><ele>923</ele></trkpt>
   <trkpt lat="45.751232" lon="7.31085"><ele>923.5</ele></trkpt>
   <trkpt lat="45.751035" lon="7.310825"><ele>924</ele></trkpt>
   <trkpt lat="45.750907" lon="7.310796"><ele>924.75</ele></trkpt>
   <trkpt lat="45.750796" lon="7.310737"><ele>925</ele></trkpt>
   <trkpt lat="45.750668" lon="7.310474"><ele>927.25</ele></trkpt>
   <trkpt lat="45.750499" lon="7.309968"><ele>932</ele></trkpt>
   <trkpt lat="45.75018" lon="7.30922"><ele>936.75</ele></trkpt>
   <trkpt lat="45.750058" lon="7.308933"><ele>938</ele></trkpt>
   <trkpt lat="45.74995" lon="7.308672"><ele>939.5</ele></trkpt>
   <trkpt lat="45.749578" lon="7.307965"><ele>944.75</ele></trkpt>
   <trkpt lat="45.749525" lon="7.307893"><ele>945.5</ele></trkpt>
   <trkpt lat="45.749348" lon="7.307724"><ele>946.5</ele></trkpt>
   <trkpt lat="45.749265" lon="7.307601"><ele>947.25</ele></trkpt>
   <trkpt lat="45.749186" lon="7.307388"><ele>949.5</ele></trkpt>
   <trkpt lat="45.749143" lon="7.307232"><ele>951.5</ele></trkpt>
   <trkpt lat="45.749093" lon="7.307178"><ele>953</ele></trkpt>
   <trkpt lat="45.749039" lon="7.307171"><ele>953</ele></trkpt>
   <trkpt lat="45.74881" lon="7.307204"><ele>953</ele></trkpt>
   <trkpt lat="45.748621" lon="7.307236"><ele>955.25</ele></trkpt>
   <trkpt lat="45.748545" lon="7.307233"><ele>955</ele></trkpt>
   <trkpt lat="45.748466" lon="7.307182"><ele>956</ele></trkpt>
   <trkpt lat="45.748114" lon="7.306767"><ele>960.75</ele></trkpt>
   <trkpt lat="45.747741" lon="7.306309"><ele>965.5</ele></trkpt>
   <trkpt lat="45.74738" lon="7.305717"><ele>969.75</ele></trkpt>
   <trkpt lat="45.747277" lon="7.305586"><ele>971</ele></trkpt>
   <trkpt lat="45.747106" lon="7.305338"><ele>972.75</ele></trkpt>
   <trkpt lat="45.74709" lon="7.305278"><ele>974</ele></trkpt>
   <trkpt lat="45.747099" lon="7.305199"><ele>975.5</ele></trkpt>
   <trkpt lat="45.747116" lon="7.305181"><ele>976.75</ele></trkpt>
   <trkpt lat="45.747139" lon="7.305159"><ele>976.75</ele></trkpt>
   <trkpt lat="45.747191" lon="7.305166"><ele>977.25</ele></trkpt>
   <trkpt lat="45.747221" lon="7.305192"><ele>977</ele></trkpt>
   <trkpt lat="45.747261" lon="7.305271"><ele>976</ele></trkpt>
   <trkpt lat="45.747338" lon="7.305366"><ele>976.25</ele></trkpt>
   <trkpt lat="45.747439" lon="7.305461"><ele>976.75</ele></trkpt>
   <trkpt lat="45.747925" lon="7.3058"><ele>980.75</ele></trkpt>
   <trkpt lat="45.748297" lon="7.305993"><ele>982.75</ele></trkpt>
   <trkpt lat="45.748638" lon="7.306147"><ele>986.5</ele></trkpt>
   <trkpt lat="45.748761" lon="7.306216"><ele>986.75</ele></trkpt>
   <trkpt lat="45.748861" lon="7.30625"><ele>987.5</ele></trkpt>
   <trkpt lat="45.748999" lon="7.306211"><ele>988.5</ele></trkpt>
   <trkpt lat="45.74919" lon="7.306058"><ele>991.75</ele></trkpt>
   <trkpt lat="45.74955" lon="7.305717"><ele>996.75</ele></trkpt>
   <trkpt lat="45.749664" lon="7.305607"><ele>997.75</ele></trkpt>
   <trkpt lat="45.749788" lon="7.305571"><ele>998</ele></trkpt>
   <trkpt lat="45.749999" lon="7.305658"><ele>997.75</ele></trkpt>
   <trkpt lat="45.75029" lon="7.305818"><ele>1000.25</ele></trkpt>
   <trkpt lat="45.750339" lon="7.305845"><ele>1002</ele></trkpt>
   <trkpt lat="45.75029" lon="7.305818"><ele>1000.25</ele></trkpt>
   <trkpt lat="45.750372" lon="7.305582"><ele>1003</ele></trkpt>
   <trkpt lat="45.75051" lon="7.305318"><ele>1005.25</ele></trkpt>
   <trkpt lat="45.750688" lon="7.304779"><ele>1011.25</ele></trkpt>
   <trkpt lat="45.750875" lon="7.304742"><ele>1012.75</ele></trkpt>
   <trkpt lat="45.751088" lon="7.304645"><ele>1015.25</ele></trkpt>
   <trkpt lat="45.751295" lon="7.304579"><ele>1017.5</ele></trkpt>
   <trkpt lat="45.751761" lon="7.304389"><ele>1022.5</ele></trkpt>
   <trkpt lat="45.751966" lon="7.304233"><ele>1025.75</ele></trkpt>
   <trkpt lat="45.752259" lon="7.304122"><ele>1028.75</ele></trkpt>
   <trkpt lat="45.752466" lon="7.304085"><ele>1030</ele></trkpt>
   <trkpt lat="45.752676" lon="7.304092"><ele>1030</ele></trkpt>
   <trkpt lat="45.752775" lon="7.304063"><ele>1030.75</ele></trkpt>
   <trkpt lat="45.752762" lon="7.303951"><ele>1034.25</ele></trkpt>
   <trkpt lat="45.751891" lon="7.303817"><ele>1040.5</ele></trkpt>
   <trkpt lat="45.751696" lon="7.303651"><ele>1042.75</ele></trkpt>
   <trkpt lat="45.751151" lon="7.303184"><ele>1045</ele></trkpt>
   <trkpt lat="45.751082" lon="7.303122"><ele>1046.5</ele></trkpt>
   <trkpt lat="45.750893" lon="7.303015"><ele>1051</ele></trkpt>
   <trkpt lat="45.750797" lon="7.302963"><ele>1053.25</ele></trkpt>
   <trkpt lat="45.750608" lon="7.303036"><ele>1055.5</ele></trkpt>
   <trkpt lat="45.749462" lon="7.303532"><ele>1066</ele></trkpt>
   <trkpt lat="45.749347" lon="7.303536"><ele>1065.5</ele></trkpt>
   <trkpt lat="45.749292" lon="7.303495"><ele>1066.25</ele></trkpt>
   <trkpt lat="45.749211" lon="7.303362"><ele>1068</ele></trkpt>
   <trkpt lat="45.748939" lon="7.302738"><ele>1073.5</ele></trkpt>
   <trkpt lat="45.748663" lon="7.302193"><ele>1076.75</ele></trkpt>
   <trkpt lat="45.748383" lon="7.301501"><ele>1080.75</ele></trkpt>
   <trkpt lat="45.748215" lon="7.301219"><ele>1083.25</ele></trkpt>
   <trkpt lat="45.748205" lon="7.301186"><ele>1084</ele></trkpt>
   <trkpt lat="45.748203" lon="7.301151"><ele>1084.5</ele></trkpt>
   <trkpt lat="45.748209" lon="7.301116"><ele>1085.25</ele></trkpt>
   <trkpt lat="45.748242" lon="7.301063"><ele>1086.25</ele></trkpt>
   <trkpt lat="45.748265" lon="7.30105"><ele>1086.5</ele></trkpt>
   <trkpt lat="45.74829" lon="7.301049"><ele>1086.75</ele></trkpt>
   <trkpt lat="45.748314" lon="7.301059"><ele>1086.5</ele></trkpt>
   <trkpt lat="45.748334" lon="7.301079"><ele>1086</ele></trkpt>
   <trkpt lat="45.748426" lon="7.30128"><ele>1085.25</ele></trkpt>
   <trkpt lat="45.748624" lon="7.301541"><ele>1086.75</ele></trkpt>
   <trkpt lat="45.74905" lon="7.302172"><ele>1088.75</ele></trkpt>
   <trkpt lat="45.749219" lon="7.302285"><ele>1090.5</ele></trkpt>
   <trkpt lat="45.749316" lon="7.302314"><ele>1090.75</ele></trkpt>
   <trkpt lat="45.749395" lon="7.30232"><ele>1091.25</ele></trkpt>
   <trkpt lat="45.749494" lon="7.3023"><ele>1092.5</ele></trkpt>
   <trkpt lat="45.749786" lon="7.302176"><ele>1096</ele></trkpt>
   <trkpt lat="45.749852" lon="7.302116"><ele>1096.25</ele></trkpt>
   <trkpt lat="45.749871" lon="7.302069"><ele>1097</ele></trkpt>
   <trkpt lat="45.749876" lon="7.302015"><ele>1098</ele></trkpt>
   <trkpt lat="45.749849" lon="7.301958"><ele>1099.25</ele></trkpt>
   <trkpt lat="45.749816" lon="7.301933"><ele>1099.75</ele></trkpt>
   <trkpt lat="45.749631" lon="7.301919"><ele>1100.25</ele></trkpt>
   <trkpt lat="45.749408" lon="7.301771"><ele>1102.25</ele></trkpt>
   <trkpt lat="45.749193" lon="7.301459"><ele>1106.25</ele></trkpt>
   <trkpt lat="45.748988" lon="7.301013"><ele>1109.25</ele></trkpt>
   <trkpt lat="45.748633" lon="7.300133"><ele>1116.5</ele></trkpt>
   <trkpt lat="45.748576" lon="7.29987"><ele>1119.25</ele></trkpt>
   <trkpt lat="45.74854" lon="7.299791"><ele>1120</ele></trkpt>
   <trkpt lat="45.748467" lon="7.299683"><ele>1120.75</ele></trkpt>
   <trkpt lat="45.748374" lon="7.299516"><ele>1122.5</ele></trkpt>
   <trkpt lat="45.748244" lon="7.299192"><ele>1129.75</ele></trkpt>
   <trkpt lat="45.748011" lon="7.298606"><ele>1129.75</ele></trkpt>
   <trkpt lat="45.747684" lon="7.297926"><ele>1135.75</ele></trkpt>
   <trkpt lat="45.747513" lon="7.297522"><ele>1138.75</ele></trkpt>
   <trkpt lat="45.747498" lon="7.297362"><ele>1139.75</ele></trkpt>
   <trkpt lat="45.747547" lon="7.297299"><ele>1142</ele></trkpt>
   <trkpt lat="45.747604" lon="7.29734"><ele>1143.25</ele></trkpt>
   <trkpt lat="45.747726" lon="7.297551"><ele>1143</ele></trkpt>
   <trkpt lat="45.748107" lon="7.298004"><ele>1147.75</ele></trkpt>
   <trkpt lat="45.748167" lon="7.298016"><ele>1149</ele></trkpt>
   <trkpt lat="45.748203" lon="7.297982"><ele>1150.25</ele></trkpt>
   <trkpt lat="45.748179" lon="7.297845"><ele>1151.75</ele></trkpt>
   <trkpt lat="45.74784" lon="7.297195"><ele>1154</ele></trkpt>
   <trkpt lat="45.747648" lon="7.295988"><ele>1160.25</ele></trkpt>
   <trkpt lat="45.747581" lon="7.295531"><ele>1164.25</ele></trkpt>
   <trkpt lat="45.747614" lon="7.295248"><ele>1167.5</ele></trkpt>
   <trkpt lat="45.747726" lon="7.294769"><ele>1170.25</ele></trkpt>
   <trkpt lat="45.747731" lon="7.294331"><ele>1171.75</ele></trkpt>
   <trkpt lat="45.747664" lon="7.29406"><ele>1174.5</ele></trkpt>
   <trkpt lat="45.747493" lon="7.293588"><ele>1176</ele></trkpt>
   <trkpt lat="45.747402" lon="7.293399"><ele>1175.75</ele></trkpt>
   <trkpt lat="45.747386" lon="7.293176"><ele>1176.5</ele></trkpt>
   <trkpt lat="45.747412" lon="7.292912"><ele>1179.5</ele></trkpt>
   <trkpt lat="45.74742" lon="7.292262"><ele>1185</ele></trkpt>
   <trkpt lat="45.747495" lon="7.29123"><ele>1193.75</ele></trkpt>
   <trkpt lat="45.747451" lon="7.290895"><ele>1195.25</ele></trkpt>
   <trkpt lat="45.747392" lon="7.290591"><ele>1194.25</ele></trkpt>
   <trkpt lat="45.747404" lon="7.29049"><ele>1195.25</ele></trkpt>
   <trkpt lat="45.747464" lon="7.29049"><ele>1197.25</ele></trkpt>
   <trkpt lat="45.747508" lon="7.290587"><ele>1198.25</ele></trkpt>
   <trkpt lat="45.747664" lon="7.291601"><ele>1203</ele></trkpt>
   <trkpt lat="45.7477" lon="7.292032"><ele>1204.25</ele></trkpt>
   <trkpt lat="45.747817" lon="7.292448"><ele>1208.75</ele></trkpt>
   <trkpt lat="45.74798" lon="7.292734"><ele>1212.25</ele></trkpt>
   <trkpt lat="45.748141" lon="7.29312"><ele>1213.75</ele></trkpt>
   <trkpt lat="45.748218" lon="7.293347"><ele>1213.25</ele></trkpt>
   <trkpt lat="45.748286" lon="7.29341"><ele>1215.5</ele></trkpt>
   <trkpt lat="45.748353" lon="7.293354"><ele>1219</ele></trkpt>
   <trkpt lat="45.748361" lon="7.293243"><ele>1220.75</ele></trkpt>
   <trkpt lat="45.748252" lon="7.293057"><ele>1219</ele></trkpt>
   <trkpt lat="45.748172" lon="7.292775"><ele>1220</ele></trkpt>
   <trkpt lat="45.748187" lon="7.292492"><ele>1223.5</ele></trkpt>
   <trkpt lat="45.748252" lon="7.292062"><ele>1226.75</ele></trkpt>
   <trkpt lat="45.748224" lon="7.29175"><ele>1228.25</ele></trkpt>
   <trkpt lat="45.748187" lon="7.291519"><ele>1229.25</ele></trkpt>
   <trkpt lat="45.748203" lon="7.291196"><ele>1232.25</ele></trkpt>
   <trkpt lat="45.748294" lon="7.290843"><ele>1234.5</ele></trkpt>
   <trkpt lat="45.748455" lon="7.290418"><ele>1240.75</ele></trkpt>
   <trkpt lat="45.748458" lon="7.290328"><ele>1240.75</ele></trkpt>
   <trkpt lat="45.748447" lon="7.290239"><ele>1241</ele></trkpt>
   <trkpt lat="45.748387" lon="7.29012"><ele>1240.5</ele></trkpt>
   <trkpt lat="45.748275" lon="7.289822"><ele>1241.5</ele></trkpt>
   <trkpt lat="45.748166" lon="7.289614"><ele>1240.75</ele></trkpt>
   <trkpt lat="45.748149" lon="7.289527"><ele>1240.25</ele></trkpt>
   <trkpt lat="45.748158" lon="7.289454"><ele>1241</ele></trkpt>
   <trkpt lat="45.748201" lon="7.289346"><ele>1242.25</ele></trkpt>
   <trkpt lat="45.748273" lon="7.289233"><ele>1245.5</ele></trkpt>
   <trkpt lat="45.748307" lon="7.289122"><ele>1247.5</ele></trkpt>
   <trkpt lat="45.748325" lon="7.288803"><ele>1250</ele></trkpt>
   <trkpt lat="45.748314" lon="7.288476"><ele>1252.25</ele></trkpt>
   <trkpt lat="45.748244" lon="7.28793"><ele>1254.75</ele></trkpt>
   <trkpt lat="45.748242" lon="7.28782"><ele>1255</ele></trkpt>
   <trkpt lat="45.748251" lon="7.287587"><ele>1257.5</ele></trkpt>
   <trkpt lat="45.748291" lon="7.287291"><ele>1261</ele></trkpt>
   <trkpt lat="45.748444" lon="7.286366"><ele>1267.25</ele></trkpt>
   <trkpt lat="45.748608" lon="7.285315"><ele>1275.5</ele></trkpt>
   <trkpt lat="45.748692" lon="7.28467"><ele>1279.75</ele></trkpt>
   <trkpt lat="45.748812" lon="7.284338"><ele>1285</ele></trkpt>
   <trkpt lat="45.748801" lon="7.284074"><ele>1284.75</ele></trkpt>
   <trkpt lat="45.748804" lon="7.283946"><ele>1285</ele></trkpt>
   <trkpt lat="45.748809" lon="7.283711"><ele>1285.5</ele></trkpt>
   <trkpt lat="45.748879" lon="7.283181"><ele>1286.5</ele></trkpt>
  </trkseg>
 </trk>
</gpx>
