<?xml version="1.0" encoding="UTF-8"?>
<!-- track-length = 13512 filtered ascend = 269 plain-ascend = 21 cost=13540 energy=0.1kwh time=2h 43m 59s -->
<gpx 
 xmlns="http://www.topografix.com/GPX/1/1" 
 xmlns:xsi="http://www.w3.org/2001/XMLSchema-instance" 
 xsi:schemaLocation="http://www.topografix.com/GPX/1/1 http://www.topografix.com/GPX/1/1/gpx.xsd" 
 version="1.1" 
 creator="BRouter-Web 0.18.1">
 <trk>
  <name>Montreal rr course (13.5km)</name>
  <trkseg>
   <trkpt lat="45.514091" lon="-73.583655"><ele>75</ele></trkpt>
   <trkpt lat="45.514644" lon="-73.584833"><ele>76.75</ele></trkpt>
   <trkpt lat="45.514664" lon="-73.584874"><ele>76.75</ele></trkpt>
   <trkpt lat="45.514694" lon="-73.584938"><ele>76.75</ele></trkpt>
   <trkpt lat="45.51612" lon="-73.58803"><ele>73.75</ele></trkpt>
   <trkpt lat="45.516142" lon="-73.588151"><ele>73.75</ele></trkpt>
   <trkpt lat="45.516144" lon="-73.588226"><ele>74</ele></trkpt>
   <trkpt lat="45.516116" lon="-73.58835"><ele>74.5</ele></trkpt>
   <trkpt lat="45.516104" lon="-73.588389"><ele>74.75</ele></trkpt>
   <trkpt lat="45.515733" lon="-73.589642"><ele>82.75</ele></trkpt>
   <trkpt lat="45.515729" lon="-73.589737"><ele>83.25</ele></trkpt>
   <trkpt lat="45.515705" lon="-73.589928"><ele>84</ele></trkpt>
   <trkpt lat="45.515705" lon="-73.590063"><ele>84.5</ele></trkpt>
   <trkpt lat="45.515715" lon="-73.59015"><ele>85</ele></trkpt>
   <trkpt lat="45.51565" lon="-73.5902"><ele>85.75</ele></trkpt>
   <trkpt lat="45.515696" lon="-73.590311"><ele>86.25</ele></trkpt>
   <trkpt lat="45.515675" lon="-73.590325"><ele>86.25</ele></trkpt>
   <trkpt lat="45.51558" lon="-73.590389"><ele>87.5</ele></trkpt>
   <trkpt lat="45.515227" lon="-73.590667"><ele>90.5</ele></trkpt>
   <trkpt lat="45.515127" lon="-73.590762"><ele>91.25</ele></trkpt>
   <trkpt lat="45.515086" lon="-73.590813"><ele>91.5</ele></trkpt>
   <trkpt lat="45.51501" lon="-73.590792"><ele>91.75</ele></trkpt>
   <trkpt lat="45.514799" lon="-73.590745"><ele>95</ele></trkpt>
   <trkpt lat="45.514842" lon="-73.590797"><ele>94.5</ele></trkpt>
   <trkpt lat="45.51486" lon="-73.590821"><ele>94</ele></trkpt>
   <trkpt lat="45.514842" lon="-73.590797"><ele>94.5</ele></trkpt>
   <trkpt lat="45.514799" lon="-73.590745"><ele>95</ele></trkpt>
   <trkpt lat="45.514666" lon="-73.590636"><ele>96.75</ele></trkpt>
   <trkpt lat="45.514586" lon="-73.590553"><ele>97.75</ele></trkpt>
   <trkpt lat="45.513945" lon="-73.589567"><ele>101.5</ele></trkpt>
   <trkpt lat="45.513744" lon="-73.58927"><ele>102.75</ele></trkpt>
   <trkpt lat="45.5137" lon="-73.58922"><ele>103</ele></trkpt>
   <trkpt lat="45.513617" lon="-73.589149"><ele>103.5</ele></trkpt>
   <trkpt lat="45.513508" lon="-73.589096"><ele>104.25</ele></trkpt>
   <trkpt lat="45.513441" lon="-73.589086"><ele>104.75</ele></trkpt>
   <trkpt lat="45.513381" lon="-73.58909"><ele>105.25</ele></trkpt>
   <trkpt lat="45.513284" lon="-73.589118"><ele>106.5</ele></trkpt>
   <trkpt lat="45.513184" lon="-73.589178"><ele>108.25</ele></trkpt>
   <trkpt lat="45.513136" lon="-73.589225"><ele>109.25</ele></trkpt>
   <trkpt lat="45.513093" lon="-73.589282"><ele>110.5</ele></trkpt>
   <trkpt lat="45.51306" lon="-73.589343"><ele>111.25</ele></trkpt>
   <trkpt lat="45.513011" lon="-73.589461"><ele>113</ele></trkpt>
   <trkpt lat="45.512987" lon="-73.589562"><ele>114.5</ele></trkpt>
   <trkpt lat="45.512979" lon="-73.589597"><ele>114.5</ele></trkpt>
   <trkpt lat="45.512969" lon="-73.58973"><ele>115.75</ele></trkpt>
   <trkpt lat="45.512972" lon="-73.589801"><ele>116.25</ele></trkpt>
   <trkpt lat="45.51301" lon="-73.590043"><ele>117</ele></trkpt>
   <trkpt lat="45.513126" lon="-73.590631"><ele>118</ele></trkpt>
   <trkpt lat="45.513302" lon="-73.591653"><ele>123.25</ele></trkpt>
   <trkpt lat="45.513453" lon="-73.592574"><ele>125.75</ele></trkpt>
   <trkpt lat="45.513478" lon="-73.592816"><ele>127.75</ele></trkpt>
   <trkpt lat="45.513488" lon="-73.593178"><ele>131.25</ele></trkpt>
   <trkpt lat="45.513477" lon="-73.593469"><ele>133.25</ele></trkpt>
   <trkpt lat="45.513445" lon="-73.593765"><ele>134.25</ele></trkpt>
   <trkpt lat="45.513399" lon="-73.594065"><ele>135.25</ele></trkpt>
   <trkpt lat="45.513347" lon="-73.594294"><ele>136.5</ele></trkpt>
   <trkpt lat="45.51327" lon="-73.594547"><ele>138.25</ele></trkpt>
   <trkpt lat="45.513213" lon="-73.594708"><ele>139.5</ele></trkpt>
   <trkpt lat="45.513106" lon="-73.594966"><ele>141.75</ele></trkpt>
   <trkpt lat="45.512449" lon="-73.59641"><ele>146</ele></trkpt>
   <trkpt lat="45.51242" lon="-73.596467"><ele>146</ele></trkpt>
   <trkpt lat="45.512351" lon="-73.596575"><ele>146.5</ele></trkpt>
   <trkpt lat="45.51231" lon="-73.596624"><ele>146.75</ele></trkpt>
   <trkpt lat="45.512257" lon="-73.596669"><ele>147.5</ele></trkpt>
   <trkpt lat="45.512187" lon="-73.596709"><ele>148.5</ele></trkpt>
   <trkpt lat="45.512043" lon="-73.596749"><ele>151</ele></trkpt>
   <trkpt lat="45.511918" lon="-73.596736"><ele>153.5</ele></trkpt>
   <trkpt lat="45.511837" lon="-73.596709"><ele>155.25</ele></trkpt>
   <trkpt lat="45.511744" lon="-73.59665"><ele>157.5</ele></trkpt>
   <trkpt lat="45.511668" lon="-73.596575"><ele>159.25</ele></trkpt>
   <trkpt lat="45.511609" lon="-73.596497"><ele>160.25</ele></trkpt>
   <trkpt lat="45.511503" lon="-73.596296"><ele>162.5</ele></trkpt>
   <trkpt lat="45.511425" lon="-73.596105"><ele>164.5</ele></trkpt>
   <trkpt lat="45.511313" lon="-73.595802"><ele>167.75</ele></trkpt>
   <trkpt lat="45.511262" lon="-73.595639"><ele>169.25</ele></trkpt>
   <trkpt lat="45.511189" lon="-73.595354"><ele>171.5</ele></trkpt>
   <trkpt lat="45.511121" lon="-73.595004"><ele>174.25</ele></trkpt>
   <trkpt lat="45.511082" lon="-73.594613"><ele>174</ele></trkpt>
   <trkpt lat="45.511046" lon="-73.594352"><ele>174</ele></trkpt>
   <trkpt lat="45.511019" lon="-73.594198"><ele>174</ele></trkpt>
   <trkpt lat="45.51099" lon="-73.594083"><ele>174</ele></trkpt>
   <trkpt lat="45.510958" lon="-73.593986"><ele>174</ele></trkpt>
   <trkpt lat="45.510911" lon="-73.593891"><ele>174.25</ele></trkpt>
   <trkpt lat="45.510595" lon="-73.593287"><ele>177</ele></trkpt>
   <trkpt lat="45.509776" lon="-73.591704"><ele>196.25</ele></trkpt>
   <trkpt lat="45.50967" lon="-73.59148"><ele>199</ele></trkpt>
   <trkpt lat="45.509601" lon="-73.591369"><ele>200.75</ele></trkpt>
   <trkpt lat="45.509506" lon="-73.591271"><ele>203.5</ele></trkpt>
   <trkpt lat="45.509392" lon="-73.591197"><ele>206.5</ele></trkpt>
   <trkpt lat="45.509329" lon="-73.591172"><ele>208.25</ele></trkpt>
   <trkpt lat="45.509078" lon="-73.591115"><ele>212.5</ele></trkpt>
   <trkpt lat="45.508784" lon="-73.5911"><ele>213.25</ele></trkpt>
   <trkpt lat="45.508609" lon="-73.591105"><ele>213.25</ele></trkpt>
   <trkpt lat="45.50852" lon="-73.59112"><ele>213.25</ele></trkpt>
   <trkpt lat="45.508379" lon="-73.591167"><ele>212.5</ele></trkpt>
   <trkpt lat="45.508252" lon="-73.591154"><ele>213.5</ele></trkpt>
   <trkpt lat="45.508194" lon="-73.591177"><ele>213.5</ele></trkpt>
   <trkpt lat="45.507947" lon="-73.591315"><ele>213</ele></trkpt>
   <trkpt lat="45.507733" lon="-73.591474"><ele>212</ele></trkpt>
   <trkpt lat="45.506254" lon="-73.592838"><ele>201.75</ele></trkpt>
   <trkpt lat="45.506045" lon="-73.593005"><ele>199.75</ele></trkpt>
   <trkpt lat="45.505704" lon="-73.593223"><ele>196.75</ele></trkpt>
   <trkpt lat="45.505578" lon="-73.593287"><ele>195.5</ele></trkpt>
   <trkpt lat="45.505332" lon="-73.593383"><ele>194.5</ele></trkpt>
   <trkpt lat="45.505052" lon="-73.593458"><ele>194.5</ele></trkpt>
   <trkpt lat="45.504825" lon="-73.593487"><ele>194.5</ele></trkpt>
   <trkpt lat="45.504378" lon="-73.59352"><ele>194.5</ele></trkpt>
   <trkpt lat="45.504232" lon="-73.593549"><ele>194.25</ele></trkpt>
   <trkpt lat="45.504" lon="-73.593628"><ele>193.25</ele></trkpt>
   <trkpt lat="45.503754" lon="-73.593743"><ele>192</ele></trkpt>
   <trkpt lat="45.5037" lon="-73.59378"><ele>191.5</ele></trkpt>
   <trkpt lat="45.503634" lon="-73.593855"><ele>191</ele></trkpt>
   <trkpt lat="45.503438" lon="-73.594013"><ele>189.75</ele></trkpt>
   <trkpt lat="45.503293" lon="-73.594149"><ele>188.75</ele></trkpt>
   <trkpt lat="45.503244" lon="-73.594195"><ele>188.25</ele></trkpt>
   <trkpt lat="45.503206" lon="-73.594242"><ele>187.75</ele></trkpt>
   <trkpt lat="45.502961" lon="-73.594542"><ele>185.25</ele></trkpt>
   <trkpt lat="45.502807" lon="-73.594788"><ele>183.75</ele></trkpt>
   <trkpt lat="45.502687" lon="-73.595028"><ele>182.75</ele></trkpt>
   <trkpt lat="45.502565" lon="-73.595354"><ele>183.5</ele></trkpt>
   <trkpt lat="45.502337" lon="-73.596092"><ele>183.75</ele></trkpt>
   <trkpt lat="45.502318" lon="-73.596152"><ele>183.5</ele></trkpt>
   <trkpt lat="45.502313" lon="-73.596169"><ele>183.5</ele></trkpt>
   <trkpt lat="45.502264" lon="-73.596317"><ele>183.5</ele></trkpt>
   <trkpt lat="45.50221" lon="-73.596474"><ele>183.5</ele></trkpt>
   <trkpt lat="45.502026" lon="-73.596946"><ele>182</ele></trkpt>
   <trkpt lat="45.501868" lon="-73.597302"><ele>179.5</ele></trkpt>
   <trkpt lat="45.501636" lon="-73.597751"><ele>176.5</ele></trkpt>
   <trkpt lat="45.501548" lon="-73.59791"><ele>176</ele></trkpt>
   <trkpt lat="45.501449" lon="-73.598078"><ele>175.5</ele></trkpt>
   <trkpt lat="45.501263" lon="-73.598367"><ele>174.25</ele></trkpt>
   <trkpt lat="45.501064" lon="-73.598647"><ele>173</ele></trkpt>
   <trkpt lat="45.500484" lon="-73.599367"><ele>170</ele></trkpt>
   <trkpt lat="45.500371" lon="-73.599502"><ele>168.75</ele></trkpt>
   <trkpt lat="45.500198" lon="-73.59971"><ele>168.75</ele></trkpt>
   <trkpt lat="45.49956" lon="-73.600435"><ele>167</ele></trkpt>
   <trkpt lat="45.499521" lon="-73.600474"><ele>166.75</ele></trkpt>
   <trkpt lat="45.499266" lon="-73.600777"><ele>164.75</ele></trkpt>
   <trkpt lat="45.498805" lon="-73.601279"><ele>163.25</ele></trkpt>
   <trkpt lat="45.49853" lon="-73.601594"><ele>162.25</ele></trkpt>
   <trkpt lat="45.498483" lon="-73.601646"><ele>162</ele></trkpt>
   <trkpt lat="45.498373" lon="-73.601774"><ele>161.5</ele></trkpt>
   <trkpt lat="45.497814" lon="-73.602377"><ele>158</ele></trkpt>
   <trkpt lat="45.495626" lon="-73.604601"><ele>138</ele></trkpt>
   <trkpt lat="45.495224" lon="-73.605011"><ele>137.75</ele></trkpt>
   <trkpt lat="45.49516" lon="-73.60507"><ele>138</ele></trkpt>
   <trkpt lat="45.495101" lon="-73.605128"><ele>138.25</ele></trkpt>
   <trkpt lat="45.494932" lon="-73.605285"><ele>140.75</ele></trkpt>
   <trkpt lat="45.49494" lon="-73.605325"><ele>140</ele></trkpt>
   <trkpt lat="45.494959" lon="-73.605404"><ele>140</ele></trkpt>
   <trkpt lat="45.494969" lon="-73.605435"><ele>139.75</ele></trkpt>
   <trkpt lat="45.495063" lon="-73.605794"><ele>138.5</ele></trkpt>
   <trkpt lat="45.495123" lon="-73.606012"><ele>138.75</ele></trkpt>
   <trkpt lat="45.495302" lon="-73.606661"><ele>138.5</ele></trkpt>
   <trkpt lat="45.495364" lon="-73.606891"><ele>138.75</ele></trkpt>
   <trkpt lat="45.495458" lon="-73.607225"><ele>138.75</ele></trkpt>
   <trkpt lat="45.495487" lon="-73.607341"><ele>138.75</ele></trkpt>
   <trkpt lat="45.495535" lon="-73.607518"><ele>138.75</ele></trkpt>
   <trkpt lat="45.495554" lon="-73.607587"><ele>138.5</ele></trkpt>
   <trkpt lat="45.495611" lon="-73.607785"><ele>138.25</ele></trkpt>
   <trkpt lat="45.495648" lon="-73.607912"><ele>138</ele></trkpt>
   <trkpt lat="45.49567" lon="-73.607986"><ele>138</ele></trkpt>
   <trkpt lat="45.495694" lon="-73.608075"><ele>137.75</ele></trkpt>
   <trkpt lat="45.495806" lon="-73.608495"><ele>137.5</ele></trkpt>
   <trkpt lat="45.495848" lon="-73.608691"><ele>137.25</ele></trkpt>
   <trkpt lat="45.495859" lon="-73.608756"><ele>137</ele></trkpt>
   <trkpt lat="45.495889" lon="-73.608748"><ele>135.75</ele></trkpt>
   <trkpt lat="45.495983" lon="-73.608723"><ele>135.75</ele></trkpt>
   <trkpt lat="45.49599" lon="-73.608795"><ele>135.75</ele></trkpt>
   <trkpt lat="45.495998" lon="-73.608952"><ele>135.75</ele></trkpt>
   <trkpt lat="45.495998" lon="-73.609101"><ele>135.75</ele></trkpt>
   <trkpt lat="45.495981" lon="-73.609496"><ele>135.25</ele></trkpt>
   <trkpt lat="45.495969" lon="-73.609634"><ele>135</ele></trkpt>
   <trkpt lat="45.495947" lon="-73.609855"><ele>134.5</ele></trkpt>
   <trkpt lat="45.495896" lon="-73.610204"><ele>133.25</ele></trkpt>
   <trkpt lat="45.495889" lon="-73.610244"><ele>133</ele></trkpt>
   <trkpt lat="45.495869" lon="-73.610362"><ele>132.5</ele></trkpt>
   <trkpt lat="45.495855" lon="-73.610447"><ele>132</ele></trkpt>
   <trkpt lat="45.49556" lon="-73.612094"><ele>127.5</ele></trkpt>
   <trkpt lat="45.495523" lon="-73.612335"><ele>126.75</ele></trkpt>
   <trkpt lat="45.495494" lon="-73.612583"><ele>126.25</ele></trkpt>
   <trkpt lat="45.495472" lon="-73.612942"><ele>126</ele></trkpt>
   <trkpt lat="45.495448" lon="-73.61401"><ele>125</ele></trkpt>
   <trkpt lat="45.495458" lon="-73.614949"><ele>122.75</ele></trkpt>
   <trkpt lat="45.49546" lon="-73.615075"><ele>122.5</ele></trkpt>
   <trkpt lat="45.495463" lon="-73.615517"><ele>121.75</ele></trkpt>
   <trkpt lat="45.495463" lon="-73.615626"><ele>121.5</ele></trkpt>
   <trkpt lat="45.495461" lon="-73.615723"><ele>121.5</ele></trkpt>
   <trkpt lat="45.495456" lon="-73.615805"><ele>121.25</ele></trkpt>
   <trkpt lat="45.495446" lon="-73.61593"><ele>121</ele></trkpt>
   <trkpt lat="45.495413" lon="-73.616231"><ele>120</ele></trkpt>
   <trkpt lat="45.495386" lon="-73.616406"><ele>119.25</ele></trkpt>
   <trkpt lat="45.495352" lon="-73.616581"><ele>118.75</ele></trkpt>
   <trkpt lat="45.495274" lon="-73.616946"><ele>118</ele></trkpt>
   <trkpt lat="45.495191" lon="-73.61734"><ele>117</ele></trkpt>
   <trkpt lat="45.495176" lon="-73.61741"><ele>117</ele></trkpt>
   <trkpt lat="45.495161" lon="-73.617476"><ele>116</ele></trkpt>
   <trkpt lat="45.495176" lon="-73.61741"><ele>117</ele></trkpt>
   <trkpt lat="45.495212" lon="-73.617483"><ele>116.75</ele></trkpt>
   <trkpt lat="45.495235" lon="-73.617526"><ele>116.5</ele></trkpt>
   <trkpt lat="45.495302" lon="-73.617669"><ele>116</ele></trkpt>
   <trkpt lat="45.495412" lon="-73.617924"><ele>115</ele></trkpt>
   <trkpt lat="45.495445" lon="-73.617996"><ele>115</ele></trkpt>
   <trkpt lat="45.495482" lon="-73.618078"><ele>114.75</ele></trkpt>
   <trkpt lat="45.495578" lon="-73.61829"><ele>114.25</ele></trkpt>
   <trkpt lat="45.495592" lon="-73.618321"><ele>114.25</ele></trkpt>
   <trkpt lat="45.49563" lon="-73.618416"><ele>114.25</ele></trkpt>
   <trkpt lat="45.495678" lon="-73.618528"><ele>114</ele></trkpt>
   <trkpt lat="45.495683" lon="-73.61854"><ele>114</ele></trkpt>
   <trkpt lat="45.495724" lon="-73.618631"><ele>114</ele></trkpt>
   <trkpt lat="45.495906" lon="-73.619046"><ele>113.25</ele></trkpt>
   <trkpt lat="45.496082" lon="-73.61942"><ele>112.25</ele></trkpt>
   <trkpt lat="45.496115" lon="-73.619495"><ele>112</ele></trkpt>
   <trkpt lat="45.496149" lon="-73.619564"><ele>111.75</ele></trkpt>
   <trkpt lat="45.496771" lon="-73.62095"><ele>109</ele></trkpt>
   <trkpt lat="45.496786" lon="-73.620981"><ele>109.25</ele></trkpt>
   <trkpt lat="45.496833" lon="-73.621085"><ele>109.25</ele></trkpt>
   <trkpt lat="45.496873" lon="-73.621165"><ele>109.25</ele></trkpt>
   <trkpt lat="45.496995" lon="-73.621441"><ele>110</ele></trkpt>
   <trkpt lat="45.497132" lon="-73.621748"><ele>110</ele></trkpt>
   <trkpt lat="45.497186" lon="-73.621869"><ele>110</ele></trkpt>
   <trkpt lat="45.497211" lon="-73.62193"><ele>110</ele></trkpt>
   <trkpt lat="45.497218" lon="-73.621947"><ele>110</ele></trkpt>
   <trkpt lat="45.497211" lon="-73.62193"><ele>110</ele></trkpt>
   <trkpt lat="45.497259" lon="-73.621886"><ele>110</ele></trkpt>
   <trkpt lat="45.497458" lon="-73.621702"><ele>110.75</ele></trkpt>
   <trkpt lat="45.497535" lon="-73.621634"><ele>111</ele></trkpt>
   <trkpt lat="45.498307" lon="-73.620934"><ele>113.75</ele></trkpt>
   <trkpt lat="45.498371" lon="-73.620876"><ele>113.75</ele></trkpt>
   <trkpt lat="45.498371" lon="-73.620877"><ele>114</ele></trkpt>
   <trkpt lat="45.498371" lon="-73.620876"><ele>113.75</ele></trkpt>
   <trkpt lat="45.4983" lon="-73.62075"><ele>113.75</ele></trkpt>
   <trkpt lat="45.49799" lon="-73.620217"><ele>113.75</ele></trkpt>
   <trkpt lat="45.497945" lon="-73.620137"><ele>113.75</ele></trkpt>
   <trkpt lat="45.497858" lon="-73.619975"><ele>113.75</ele></trkpt>
   <trkpt lat="45.497844" lon="-73.619947"><ele>114</ele></trkpt>
   <trkpt lat="45.497803" lon="-73.619864"><ele>114.25</ele></trkpt>
   <trkpt lat="45.497765" lon="-73.619785"><ele>114.25</ele></trkpt>
   <trkpt lat="45.497749" lon="-73.619755"><ele>114.5</ele></trkpt>
   <trkpt lat="45.497181" lon="-73.618618"><ele>117</ele></trkpt>
   <trkpt lat="45.497167" lon="-73.618588"><ele>117.25</ele></trkpt>
   <trkpt lat="45.49713" lon="-73.618515"><ele>117.25</ele></trkpt>
   <trkpt lat="45.497096" lon="-73.618446"><ele>117.5</ele></trkpt>
   <trkpt lat="45.497084" lon="-73.618417"><ele>117.5</ele></trkpt>
   <trkpt lat="45.496927" lon="-73.618106"><ele>117</ele></trkpt>
   <trkpt lat="45.496771" lon="-73.617789"><ele>116.25</ele></trkpt>
   <trkpt lat="45.496756" lon="-73.617757"><ele>116.25</ele></trkpt>
   <trkpt lat="45.496692" lon="-73.617632"><ele>116</ele></trkpt>
   <trkpt lat="45.496681" lon="-73.617631"><ele>115.75</ele></trkpt>
   <trkpt lat="45.496692" lon="-73.617632"><ele>116</ele></trkpt>
   <trkpt lat="45.496788" lon="-73.617599"><ele>116.25</ele></trkpt>
   <trkpt lat="45.496813" lon="-73.617589"><ele>116.25</ele></trkpt>
   <trkpt lat="45.497221" lon="-73.617431"><ele>117.25</ele></trkpt>
   <trkpt lat="45.497404" lon="-73.617343"><ele>118</ele></trkpt>
   <trkpt lat="45.497546" lon="-73.617245"><ele>119</ele></trkpt>
   <trkpt lat="45.497626" lon="-73.61718"><ele>120</ele></trkpt>
   <trkpt lat="45.497654" lon="-73.617158"><ele>120</ele></trkpt>
   <trkpt lat="45.497863" lon="-73.616951"><ele>122</ele></trkpt>
   <trkpt lat="45.498021" lon="-73.616774"><ele>123.5</ele></trkpt>
   <trkpt lat="45.498336" lon="-73.616399"><ele>126.5</ele></trkpt>
   <trkpt lat="45.498469" lon="-73.616314"><ele>128</ele></trkpt>
   <trkpt lat="45.498551" lon="-73.616278"><ele>129</ele></trkpt>
   <trkpt lat="45.498641" lon="-73.616258"><ele>129.75</ele></trkpt>
   <trkpt lat="45.49875" lon="-73.616258"><ele>130.75</ele></trkpt>
   <trkpt lat="45.498922" lon="-73.616301"><ele>132.25</ele></trkpt>
   <trkpt lat="45.499029" lon="-73.616364"><ele>133</ele></trkpt>
   <trkpt lat="45.499115" lon="-73.616116"><ele>135</ele></trkpt>
   <trkpt lat="45.499278" lon="-73.615786"><ele>137.75</ele></trkpt>
   <trkpt lat="45.499376" lon="-73.615517"><ele>138.75</ele></trkpt>
   <trkpt lat="45.499427" lon="-73.615415"><ele>139.5</ele></trkpt>
   <trkpt lat="45.499487" lon="-73.615324"><ele>140</ele></trkpt>
   <trkpt lat="45.499622" lon="-73.615161"><ele>141.5</ele></trkpt>
   <trkpt lat="45.499796" lon="-73.615"><ele>144.75</ele></trkpt>
   <trkpt lat="45.499929" lon="-73.614877"><ele>144.75</ele></trkpt>
   <trkpt lat="45.500045" lon="-73.614767"><ele>146</ele></trkpt>
   <trkpt lat="45.500197" lon="-73.614639"><ele>147</ele></trkpt>
   <trkpt lat="45.501091" lon="-73.613928"><ele>151</ele></trkpt>
   <trkpt lat="45.50119" lon="-73.613842"><ele>151</ele></trkpt>
   <trkpt lat="45.501211" lon="-73.613817"><ele>151</ele></trkpt>
   <trkpt lat="45.502442" lon="-73.612716"><ele>155.5</ele></trkpt>
   <trkpt lat="45.502509" lon="-73.612668"><ele>156</ele></trkpt>
   <trkpt lat="45.502533" lon="-73.612647"><ele>157.5</ele></trkpt>
   <trkpt lat="45.502509" lon="-73.612668"><ele>156</ele></trkpt>
   <trkpt lat="45.502528" lon="-73.612724"><ele>155.75</ele></trkpt>
   <trkpt lat="45.502697" lon="-73.613229"><ele>154.25</ele></trkpt>
   <trkpt lat="45.50275" lon="-73.61329"><ele>154.25</ele></trkpt>
   <trkpt lat="45.50286" lon="-73.613574"><ele>154.5</ele></trkpt>
   <trkpt lat="45.502944" lon="-73.613721"><ele>155</ele></trkpt>
   <trkpt lat="45.503008" lon="-73.613797"><ele>155.25</ele></trkpt>
   <trkpt lat="45.503082" lon="-73.613862"><ele>155.75</ele></trkpt>
   <trkpt lat="45.503242" lon="-73.61396"><ele>156.75</ele></trkpt>
   <trkpt lat="45.503686" lon="-73.614109"><ele>155.5</ele></trkpt>
   <trkpt lat="45.503784" lon="-73.614154"><ele>154.75</ele></trkpt>
   <trkpt lat="45.503878" lon="-73.614213"><ele>153.75</ele></trkpt>
   <trkpt lat="45.503995" lon="-73.614302"><ele>152.25</ele></trkpt>
   <trkpt lat="45.50411" lon="-73.614422"><ele>150.25</ele></trkpt>
   <trkpt lat="45.504174" lon="-73.614509"><ele>148.75</ele></trkpt>
   <trkpt lat="45.504318" lon="-73.614775"><ele>144</ele></trkpt>
   <trkpt lat="45.504386" lon="-73.614929"><ele>141.5</ele></trkpt>
   <trkpt lat="45.504602" lon="-73.615367"><ele>135</ele></trkpt>
   <trkpt lat="45.504644" lon="-73.615454"><ele>133.75</ele></trkpt>
   <trkpt lat="45.504677" lon="-73.615535"><ele>132.25</ele></trkpt>
   <trkpt lat="45.504691" lon="-73.615566"><ele>132.25</ele></trkpt>
   <trkpt lat="45.504708" lon="-73.615628"><ele>131.5</ele></trkpt>
   <trkpt lat="45.504724" lon="-73.615744"><ele>130</ele></trkpt>
   <trkpt lat="45.504726" lon="-73.615794"><ele>129.5</ele></trkpt>
   <trkpt lat="45.504713" lon="-73.615934"><ele>128</ele></trkpt>
   <trkpt lat="45.504673" lon="-73.616059"><ele>126.75</ele></trkpt>
   <trkpt lat="45.5046" lon="-73.61616"><ele>126</ele></trkpt>
   <trkpt lat="45.504484" lon="-73.616269"><ele>125.25</ele></trkpt>
   <trkpt lat="45.503748" lon="-73.616873"><ele>121</ele></trkpt>
   <trkpt lat="45.503496" lon="-73.617091"><ele>118.75</ele></trkpt>
   <trkpt lat="45.503386" lon="-73.617246"><ele>116.75</ele></trkpt>
   <trkpt lat="45.503347" lon="-73.617328"><ele>115.5</ele></trkpt>
   <trkpt lat="45.503204" lon="-73.617821"><ele>112.25</ele></trkpt>
   <trkpt lat="45.503141" lon="-73.618077"><ele>111.25</ele></trkpt>
   <trkpt lat="45.503114" lon="-73.618179"><ele>110.75</ele></trkpt>
   <trkpt lat="45.503109" lon="-73.618286"><ele>110.25</ele></trkpt>
   <trkpt lat="45.50314" lon="-73.618454"><ele>109.75</ele></trkpt>
   <trkpt lat="45.503245" lon="-73.618688"><ele>109.25</ele></trkpt>
   <trkpt lat="45.503251" lon="-73.618736"><ele>109.25</ele></trkpt>
   <trkpt lat="45.503254" lon="-73.618801"><ele>109.25</ele></trkpt>
   <trkpt lat="45.503251" lon="-73.618736"><ele>109.25</ele></trkpt>
   <trkpt lat="45.503313" lon="-73.618675"><ele>109</ele></trkpt>
   <trkpt lat="45.503319" lon="-73.618662"><ele>109</ele></trkpt>
   <trkpt lat="45.503356" lon="-73.618659"><ele>108.75</ele></trkpt>
   <trkpt lat="45.503436" lon="-73.618586"><ele>108.75</ele></trkpt>
   <trkpt lat="45.503959" lon="-73.618101"><ele>109.5</ele></trkpt>
   <trkpt lat="45.504001" lon="-73.618063"><ele>109.75</ele></trkpt>
   <trkpt lat="45.504145" lon="-73.617933"><ele>109.75</ele></trkpt>
   <trkpt lat="45.504177" lon="-73.617905"><ele>110</ele></trkpt>
   <trkpt lat="45.504214" lon="-73.617871"><ele>110</ele></trkpt>
   <trkpt lat="45.504286" lon="-73.617806"><ele>110</ele></trkpt>
   <trkpt lat="45.504405" lon="-73.6177"><ele>110</ele></trkpt>
   <trkpt lat="45.504448" lon="-73.617659"><ele>110</ele></trkpt>
   <trkpt lat="45.505185" lon="-73.616994"><ele>112.75</ele></trkpt>
   <trkpt lat="45.506544" lon="-73.615764"><ele>111</ele></trkpt>
   <trkpt lat="45.506954" lon="-73.615392"><ele>111.5</ele></trkpt>
   <trkpt lat="45.507029" lon="-73.615328"><ele>111.75</ele></trkpt>
   <trkpt lat="45.507177" lon="-73.615194"><ele>111.75</ele></trkpt>
   <trkpt lat="45.507188" lon="-73.615184"><ele>111.75</ele></trkpt>
   <trkpt lat="45.507253" lon="-73.615124"><ele>111.5</ele></trkpt>
   <trkpt lat="45.507283" lon="-73.615099"><ele>111.5</ele></trkpt>
   <trkpt lat="45.50741" lon="-73.614985"><ele>111.25</ele></trkpt>
   <trkpt lat="45.50761" lon="-73.614802"><ele>112</ele></trkpt>
   <trkpt lat="45.508054" lon="-73.614405"><ele>112.5</ele></trkpt>
   <trkpt lat="45.508425" lon="-73.614072"><ele>113.25</ele></trkpt>
   <trkpt lat="45.509021" lon="-73.613536"><ele>116.5</ele></trkpt>
   <trkpt lat="45.509386" lon="-73.613209"><ele>116.5</ele></trkpt>
   <trkpt lat="45.509648" lon="-73.612969"><ele>116.5</ele></trkpt>
   <trkpt lat="45.509711" lon="-73.612895"><ele>116.5</ele></trkpt>
   <trkpt lat="45.509786" lon="-73.612785"><ele>116.25</ele></trkpt>
   <trkpt lat="45.509821" lon="-73.612713"><ele>116</ele></trkpt>
   <trkpt lat="45.50985" lon="-73.612608"><ele>116</ele></trkpt>
   <trkpt lat="45.509891" lon="-73.612459"><ele>115.75</ele></trkpt>
   <trkpt lat="45.509943" lon="-73.612503"><ele>115.25</ele></trkpt>
   <trkpt lat="45.509998" lon="-73.612381"><ele>115.25</ele></trkpt>
   <trkpt lat="45.510098" lon="-73.612249"><ele>115</ele></trkpt>
   <trkpt lat="45.510127" lon="-73.612235"><ele>115</ele></trkpt>
   <trkpt lat="45.510194" lon="-73.612224"><ele>114.5</ele></trkpt>
   <trkpt lat="45.510207" lon="-73.612254"><ele>113.75</ele></trkpt>
   <trkpt lat="45.510263" lon="-73.612371"><ele>113.75</ele></trkpt>
   <trkpt lat="45.510368" lon="-73.612602"><ele>112.75</ele></trkpt>
   <trkpt lat="45.510494" lon="-73.612884"><ele>112.25</ele></trkpt>
   <trkpt lat="45.51056" lon="-73.613017"><ele>112.25</ele></trkpt>
   <trkpt lat="45.510668" lon="-73.613235"><ele>111.75</ele></trkpt>
   <trkpt lat="45.510675" lon="-73.61331"><ele>111.75</ele></trkpt>
   <trkpt lat="45.51073" lon="-73.613432"><ele>111.75</ele></trkpt>
   <trkpt lat="45.510767" lon="-73.61352"><ele>111.75</ele></trkpt>
   <trkpt lat="45.510821" lon="-73.613639"><ele>111.75</ele></trkpt>
   <trkpt lat="45.510879" lon="-73.613767"><ele>112</ele></trkpt>
   <trkpt lat="45.510929" lon="-73.613818"><ele>112</ele></trkpt>
   <trkpt lat="45.510988" lon="-73.613946"><ele>112</ele></trkpt>
   <trkpt lat="45.511358" lon="-73.614782"><ele>108.25</ele></trkpt>
   <trkpt lat="45.511475" lon="-73.615037"><ele>106.75</ele></trkpt>
   <trkpt lat="45.511613" lon="-73.615337"><ele>105.75</ele></trkpt>
   <trkpt lat="45.51166" lon="-73.615433"><ele>105.5</ele></trkpt>
   <trkpt lat="45.511675" lon="-73.615458"><ele>105.25</ele></trkpt>
   <trkpt lat="45.511697" lon="-73.615495"><ele>105</ele></trkpt>
   <trkpt lat="45.51172" lon="-73.615532"><ele>105</ele></trkpt>
   <trkpt lat="45.511799" lon="-73.615392"><ele>104.75</ele></trkpt>
   <trkpt lat="45.511823" lon="-73.615351"><ele>104.75</ele></trkpt>
   <trkpt lat="45.511933" lon="-73.615152"><ele>104.25</ele></trkpt>
   <trkpt lat="45.512122" lon="-73.614784"><ele>103.75</ele></trkpt>
   <trkpt lat="45.512429" lon="-73.614168"><ele>102.5</ele></trkpt>
   <trkpt lat="45.512754" lon="-73.613547"><ele>99.75</ele></trkpt>
   <trkpt lat="45.512944" lon="-73.613209"><ele>98.25</ele></trkpt>
   <trkpt lat="45.512964" lon="-73.613175"><ele>98.25</ele></trkpt>
   <trkpt lat="45.512999" lon="-73.613107"><ele>98</ele></trkpt>
   <trkpt lat="45.513048" lon="-73.613017"><ele>97.75</ele></trkpt>
   <trkpt lat="45.513067" lon="-73.612983"><ele>97.75</ele></trkpt>
   <trkpt lat="45.513323" lon="-73.612533"><ele>96</ele></trkpt>
   <trkpt lat="45.513545" lon="-73.612135"><ele>94.25</ele></trkpt>
   <trkpt lat="45.513959" lon="-73.611403"><ele>90.5</ele></trkpt>
   <trkpt lat="45.51399" lon="-73.611345"><ele>90.25</ele></trkpt>
   <trkpt lat="45.514046" lon="-73.611221"><ele>90</ele></trkpt>
   <trkpt lat="45.514076" lon="-73.611142"><ele>89.75</ele></trkpt>
   <trkpt lat="45.514152" lon="-73.610881"><ele>89</ele></trkpt>
   <trkpt lat="45.514164" lon="-73.610838"><ele>89</ele></trkpt>
   <trkpt lat="45.514202" lon="-73.610707"><ele>88.75</ele></trkpt>
   <trkpt lat="45.514254" lon="-73.610526"><ele>88.25</ele></trkpt>
   <trkpt lat="45.514292" lon="-73.610384"><ele>88</ele></trkpt>
   <trkpt lat="45.514343" lon="-73.610199"><ele>87.75</ele></trkpt>
   <trkpt lat="45.51445" lon="-73.60981"><ele>87</ele></trkpt>
   <trkpt lat="45.51455" lon="-73.60944"><ele>86.75</ele></trkpt>
   <trkpt lat="45.514564" lon="-73.609391"><ele>86.75</ele></trkpt>
   <trkpt lat="45.514583" lon="-73.609318"><ele>86.75</ele></trkpt>
   <trkpt lat="45.514574" lon="-73.609314"><ele>87.25</ele></trkpt>
   <trkpt lat="45.514506" lon="-73.609281"><ele>87.25</ele></trkpt>
   <trkpt lat="45.514478" lon="-73.609266"><ele>87.25</ele></trkpt>
   <trkpt lat="45.514434" lon="-73.609246"><ele>87.5</ele></trkpt>
   <trkpt lat="45.514309" lon="-73.609176"><ele>88.25</ele></trkpt>
   <trkpt lat="45.51427" lon="-73.60914"><ele>88.5</ele></trkpt>
   <trkpt lat="45.514233" lon="-73.609086"><ele>89</ele></trkpt>
   <trkpt lat="45.514094" lon="-73.608779"><ele>91.5</ele></trkpt>
   <trkpt lat="45.513838" lon="-73.608211"><ele>96.25</ele></trkpt>
   <trkpt lat="45.513326" lon="-73.607077"><ele>107</ele></trkpt>
   <trkpt lat="45.513299" lon="-73.607017"><ele>107.5</ele></trkpt>
   <trkpt lat="45.513274" lon="-73.606962"><ele>108</ele></trkpt>
   <trkpt lat="45.513038" lon="-73.606446"><ele>115.5</ele></trkpt>
   <trkpt lat="45.51282" lon="-73.605966"><ele>115.5</ele></trkpt>
   <trkpt lat="45.512786" lon="-73.605891"><ele>116</ele></trkpt>
   <trkpt lat="45.512759" lon="-73.605831"><ele>116.25</ele></trkpt>
   <trkpt lat="45.511847" lon="-73.603814"><ele>126.75</ele></trkpt>
   <trkpt lat="45.511825" lon="-73.603794"><ele>127</ele></trkpt>
   <trkpt lat="45.51176" lon="-73.603751"><ele>127.25</ele></trkpt>
   <trkpt lat="45.511787" lon="-73.603648"><ele>127.25</ele></trkpt>
   <trkpt lat="45.51207" lon="-73.602548"><ele>126.5</ele></trkpt>
   <trkpt lat="45.512118" lon="-73.602368"><ele>126</ele></trkpt>
   <trkpt lat="45.512142" lon="-73.602279"><ele>126</ele></trkpt>
   <trkpt lat="45.512185" lon="-73.602121"><ele>125.75</ele></trkpt>
   <trkpt lat="45.512223" lon="-73.601983"><ele>125.5</ele></trkpt>
   <trkpt lat="45.512467" lon="-73.601116"><ele>125</ele></trkpt>
   <trkpt lat="45.512484" lon="-73.601076"><ele>125.25</ele></trkpt>
   <trkpt lat="45.512507" lon="-73.601023"><ele>125.25</ele></trkpt>
   <trkpt lat="45.5125" lon="-73.600961"><ele>125.5</ele></trkpt>
   <trkpt lat="45.512487" lon="-73.600844"><ele>126</ele></trkpt>
   <trkpt lat="45.5122" lon="-73.600137"><ele>127.75</ele></trkpt>
   <trkpt lat="45.512181" lon="-73.600071"><ele>127.75</ele></trkpt>
   <trkpt lat="45.512163" lon="-73.600009"><ele>128</ele></trkpt>
   <trkpt lat="45.512234" lon="-73.599944"><ele>127.5</ele></trkpt>
   <trkpt lat="45.513085" lon="-73.599118"><ele>122.25</ele></trkpt>
   <trkpt lat="45.5136" lon="-73.598613"><ele>119.75</ele></trkpt>
   <trkpt lat="45.513657" lon="-73.598557"><ele>119</ele></trkpt>
   <trkpt lat="45.514131" lon="-73.598076"><ele>113.75</ele></trkpt>
   <trkpt lat="45.514404" lon="-73.597698"><ele>113</ele></trkpt>
   <trkpt lat="45.514508" lon="-73.597508"><ele>113</ele></trkpt>
   <trkpt lat="45.514571" lon="-73.597366"><ele>112.75</ele></trkpt>
   <trkpt lat="45.514634" lon="-73.597128"><ele>112.25</ele></trkpt>
   <trkpt lat="45.514654" lon="-73.596989"><ele>112.25</ele></trkpt>
   <trkpt lat="45.514662" lon="-73.596938"><ele>112.25</ele></trkpt>
   <trkpt lat="45.514672" lon="-73.596812"><ele>112.25</ele></trkpt>
   <trkpt lat="45.5147" lon="-73.595642"><ele>110</ele></trkpt>
   <trkpt lat="45.514697" lon="-73.595046"><ele>108.25</ele></trkpt>
   <trkpt lat="45.514694" lon="-73.594975"><ele>108</ele></trkpt>
   <trkpt lat="45.514641" lon="-73.593665"><ele>105.25</ele></trkpt>
   <trkpt lat="45.514598" lon="-73.592395"><ele>103.25</ele></trkpt>
   <trkpt lat="45.514595" lon="-73.592288"><ele>103</ele></trkpt>
   <trkpt lat="45.514584" lon="-73.591865"><ele>102</ele></trkpt>
   <trkpt lat="45.514609" lon="-73.591701"><ele>101</ele></trkpt>
   <trkpt lat="45.514627" lon="-73.591628"><ele>100.5</ele></trkpt>
   <trkpt lat="45.51467" lon="-73.591504"><ele>99.25</ele></trkpt>
   <trkpt lat="45.514742" lon="-73.591377"><ele>97.75</ele></trkpt>
   <trkpt lat="45.514817" lon="-73.591285"><ele>96.25</ele></trkpt>
   <trkpt lat="45.515094" lon="-73.591066"><ele>92</ele></trkpt>
   <trkpt lat="45.515407" lon="-73.590757"><ele>90</ele></trkpt>
   <trkpt lat="45.515736" lon="-73.590442"><ele>86.75</ele></trkpt>
   <trkpt lat="45.515744" lon="-73.59042"><ele>86.5</ele></trkpt>
   <trkpt lat="45.515788" lon="-73.590265"><ele>85.25</ele></trkpt>
   <trkpt lat="45.515858" lon="-73.590199"><ele>84</ele></trkpt>
   <trkpt lat="45.515884" lon="-73.590176"><ele>83.5</ele></trkpt>
   <trkpt lat="45.515912" lon="-73.590148"><ele>83</ele></trkpt>
   <trkpt lat="45.516161" lon="-73.589911"><ele>78.75</ele></trkpt>
   <trkpt lat="45.51618" lon="-73.589893"><ele>77</ele></trkpt>
   <trkpt lat="45.51626" lon="-73.589819"><ele>77</ele></trkpt>
   <trkpt lat="45.516658" lon="-73.589438"><ele>71</ele></trkpt>
   <trkpt lat="45.516671" lon="-73.589418"><ele>70.75</ele></trkpt>
   <trkpt lat="45.516786" lon="-73.589316"><ele>70</ele></trkpt>
   <trkpt lat="45.516885" lon="-73.589228"><ele>69.5</ele></trkpt>
   <trkpt lat="45.516904" lon="-73.589211"><ele>69.5</ele></trkpt>
   <trkpt lat="45.517465" lon="-73.588715"><ele>68.5</ele></trkpt>
   <trkpt lat="45.51749" lon="-73.588693"><ele>68.5</ele></trkpt>
   <trkpt lat="45.517532" lon="-73.588659"><ele>68.5</ele></trkpt>
   <trkpt lat="45.517583" lon="-73.588619"><ele>68.5</ele></trkpt>
   <trkpt lat="45.517603" lon="-73.588606"><ele>68.5</ele></trkpt>
   <trkpt lat="45.517905" lon="-73.588338"><ele>68.75</ele></trkpt>
   <trkpt lat="45.518124" lon="-73.588142"><ele>68.5</ele></trkpt>
   <trkpt lat="45.518197" lon="-73.588072"><ele>68.5</ele></trkpt>
   <trkpt lat="45.518259" lon="-73.588021"><ele>68.5</ele></trkpt>
   <trkpt lat="45.518269" lon="-73.587932"><ele>68.25</ele></trkpt>
   <trkpt lat="45.518276" lon="-73.587862"><ele>68.25</ele></trkpt>
   <trkpt lat="45.51833" lon="-73.587841"><ele>68.25</ele></trkpt>
   <trkpt lat="45.518373" lon="-73.587825"><ele>68.25</ele></trkpt>
   <trkpt lat="45.51838" lon="-73.587813"><ele>68.25</ele></trkpt>
   <trkpt lat="45.518399" lon="-73.587808"><ele>68.25</ele></trkpt>
   <trkpt lat="45.518821" lon="-73.587425"><ele>69.5</ele></trkpt>
   <trkpt lat="45.518848" lon="-73.5874"><ele>69.75</ele></trkpt>
   <trkpt lat="45.518892" lon="-73.587362"><ele>69.75</ele></trkpt>
   <trkpt lat="45.518654" lon="-73.586831"><ele>68.5</ele></trkpt>
   <trkpt lat="45.518605" lon="-73.586726"><ele>68.25</ele></trkpt>
   <trkpt lat="45.518538" lon="-73.586581"><ele>68.5</ele></trkpt>
   <trkpt lat="45.518061" lon="-73.585538"><ele>68.5</ele></trkpt>
   <trkpt lat="45.517928" lon="-73.585248"><ele>68.75</ele></trkpt>
   <trkpt lat="45.517913" lon="-73.585216"><ele>69</ele></trkpt>
   <trkpt lat="45.517889" lon="-73.585162"><ele>69</ele></trkpt>
   <trkpt lat="45.517869" lon="-73.585117"><ele>69</ele></trkpt>
   <trkpt lat="45.517063" lon="-73.583328"><ele>68</ele></trkpt>
   <trkpt lat="45.517023" lon="-73.58324"><ele>68</ele></trkpt>
   <trkpt lat="45.516881" lon="-73.582926"><ele>68.25</ele></trkpt>
   <trkpt lat="45.516866" lon="-73.582896"><ele>68.5</ele></trkpt>
   <trkpt lat="45.516851" lon="-73.582863"><ele>68.5</ele></trkpt>
   <trkpt lat="45.516826" lon="-73.582815"><ele>68.5</ele></trkpt>
   <trkpt lat="45.516794" lon="-73.582748"><ele>68.5</ele></trkpt>
   <trkpt lat="45.516605" lon="-73.582333"><ele>68</ele></trkpt>
   <trkpt lat="45.516024" lon="-73.581058"><ele>64.5</ele></trkpt>
   <trkpt lat="45.515809" lon="-73.580586"><ele>63</ele></trkpt>
   <trkpt lat="45.515794" lon="-73.580552"><ele>62.75</ele></trkpt>
   <trkpt lat="45.515767" lon="-73.580496"><ele>62.5</ele></trkpt>
   <trkpt lat="45.515735" lon="-73.580526"><ele>62.5</ele></trkpt>
   <trkpt lat="45.515704" lon="-73.580459"><ele>62.25</ele></trkpt>
   <trkpt lat="45.515683" lon="-73.580413"><ele>62</ele></trkpt>
   <trkpt lat="45.515264" lon="-73.579495"><ele>58.75</ele></trkpt>
   <trkpt lat="45.515234" lon="-73.57943"><ele>58.5</ele></trkpt>
   <trkpt lat="45.515219" lon="-73.579399"><ele>58.5</ele></trkpt>
   <trkpt lat="45.515212" lon="-73.579383"><ele>58.5</ele></trkpt>
   <trkpt lat="45.515095" lon="-73.579126"><ele>58</ele></trkpt>
   <trkpt lat="45.514791" lon="-73.578458"><ele>57.25</ele></trkpt>
   <trkpt lat="45.514762" lon="-73.578393"><ele>57.25</ele></trkpt>
   <trkpt lat="45.514694" lon="-73.578242"><ele>57</ele></trkpt>
   <trkpt lat="45.514677" lon="-73.578205"><ele>57</ele></trkpt>
   <trkpt lat="45.514625" lon="-73.578089"><ele>56.75</ele></trkpt>
   <trkpt lat="45.514422" lon="-73.577631"><ele>56.25</ele></trkpt>
   <trkpt lat="45.514178" lon="-73.577083"><ele>55.75</ele></trkpt>
   <trkpt lat="45.513826" lon="-73.576292"><ele>52.5</ele></trkpt>
   <trkpt lat="45.513815" lon="-73.576268"><ele>52.5</ele></trkpt>
   <trkpt lat="45.513804" lon="-73.576242"><ele>52.5</ele></trkpt>
   <trkpt lat="45.51377" lon="-73.576272"><ele>52.75</ele></trkpt>
   <trkpt lat="45.513741" lon="-73.576211"><ele>52.5</ele></trkpt>
   <trkpt lat="45.513724" lon="-73.576174"><ele>52.25</ele></trkpt>
   <trkpt lat="45.513741" lon="-73.576211"><ele>52.5</ele></trkpt>
   <trkpt lat="45.513719" lon="-73.576232"><ele>52.75</ele></trkpt>
   <trkpt lat="45.5136" lon="-73.576338"><ele>53.25</ele></trkpt>
   <trkpt lat="45.51324" lon="-73.576662"><ele>53.75</ele></trkpt>
   <trkpt lat="45.512926" lon="-73.576945"><ele>55</ele></trkpt>
   <trkpt lat="45.512873" lon="-73.576993"><ele>55.25</ele></trkpt>
   <trkpt lat="45.512808" lon="-73.577051"><ele>55.25</ele></trkpt>
   <trkpt lat="45.512139" lon="-73.577653"><ele>54.5</ele></trkpt>
   <trkpt lat="45.512026" lon="-73.577755"><ele>54</ele></trkpt>
   <trkpt lat="45.511889" lon="-73.577881"><ele>53</ele></trkpt>
   <trkpt lat="45.511745" lon="-73.578012"><ele>52</ele></trkpt>
   <trkpt lat="45.511683" lon="-73.578069"><ele>51.5</ele></trkpt>
   <trkpt lat="45.511594" lon="-73.578154"><ele>51.75</ele></trkpt>
   <trkpt lat="45.511556" lon="-73.578189"><ele>51.75</ele></trkpt>
   <trkpt lat="45.511592" lon="-73.578265"><ele>51.25</ele></trkpt>
   <trkpt lat="45.511608" lon="-73.578301"><ele>51.25</ele></trkpt>
   <trkpt lat="45.511625" lon="-73.578336"><ele>51</ele></trkpt>
   <trkpt lat="45.511758" lon="-73.578625"><ele>52</ele></trkpt>
   <trkpt lat="45.511951" lon="-73.579042"><ele>53.75</ele></trkpt>
   <trkpt lat="45.511997" lon="-73.579143"><ele>54</ele></trkpt>
   <trkpt lat="45.512018" lon="-73.579187"><ele>54.25</ele></trkpt>
   <trkpt lat="45.512074" lon="-73.579309"><ele>55</ele></trkpt>
   <trkpt lat="45.512252" lon="-73.579339"><ele>55.5</ele></trkpt>
   <trkpt lat="45.513473" lon="-73.581961"><ele>68.75</ele></trkpt>
   <trkpt lat="45.513523" lon="-73.582065"><ele>69.75</ele></trkpt>
   <trkpt lat="45.513564" lon="-73.58215"><ele>70.75</ele></trkpt>
   <trkpt lat="45.513686" lon="-73.582411"><ele>73.25</ele></trkpt>
   <trkpt lat="45.51416" lon="-73.583429"><ele>76</ele></trkpt>
  </trkseg>
 </trk>
</gpx>