<?xml version="1.0" encoding="UTF-8"?>
<!-- track-length = 14827 filtered ascend = 692 plain-ascend = 693 cost=17359 energy=0.2kwh time=2h 4m 20s -->
<gpx 
 xmlns="http://www.topografix.com/GPX/1/1" 
 xmlns:xsi="http://www.w3.org/2001/XMLSchema-instance" 
 xsi:schemaLocation="http://www.topografix.com/GPX/1/1 http://www.topografix.com/GPX/1/1/gpx.xsd" 
 version="1.1" 
 creator="BRouter-Web 0.18.1">
 <trk>
  <name>Saint-Jean-Saint-Nicolas -&gt; Orcières (14.8km)</name>
  <trkseg>
   <trkpt lat="44.683762" lon="6.307705"><ele>1334.5</ele></trkpt>
   <trkpt lat="44.683725" lon="6.308008"><ele>1335.75</ele></trkpt>
   <trkpt lat="44.683658" lon="6.308371"><ele>1337</ele></trkpt>
   <trkpt lat="44.683483" lon="6.30913"><ele>1341.75</ele></trkpt>
   <trkpt lat="44.683434" lon="6.309414"><ele>1343.25</ele></trkpt>
   <trkpt lat="44.68341" lon="6.309693"><ele>1344</ele></trkpt>
   <trkpt lat="44.683399" lon="6.310208"><ele>1342.25</ele></trkpt>
   <trkpt lat="44.683391" lon="6.310414"><ele>1341.75</ele></trkpt>
   <trkpt lat="44.683369" lon="6.310633"><ele>1341.5</ele></trkpt>
   <trkpt lat="44.683345" lon="6.310754"><ele>1341.5</ele></trkpt>
   <trkpt lat="44.683301" lon="6.310941"><ele>1342.25</ele></trkpt>
   <trkpt lat="44.683194" lon="6.311217"><ele>1343.25</ele></trkpt>
   <trkpt lat="44.683162" lon="6.311295"><ele>1343.5</ele></trkpt>
   <trkpt lat="44.682979" lon="6.311684"><ele>1343.75</ele></trkpt>
   <trkpt lat="44.682884" lon="6.311905"><ele>1343.5</ele></trkpt>
   <trkpt lat="44.682826" lon="6.312097"><ele>1344.5</ele></trkpt>
   <trkpt lat="44.682778" lon="6.312356"><ele>1346.25</ele></trkpt>
   <trkpt lat="44.682751" lon="6.312715"><ele>1349.25</ele></trkpt>
   <trkpt lat="44.682758" lon="6.312981"><ele>1352.25</ele></trkpt>
   <trkpt lat="44.682812" lon="6.314105"><ele>1362.25</ele></trkpt>
   <trkpt lat="44.682792" lon="6.3143"><ele>1363</ele></trkpt>
   <trkpt lat="44.682755" lon="6.314468"><ele>1363</ele></trkpt>
   <trkpt lat="44.682585" lon="6.315055"><ele>1361.75</ele></trkpt>
   <trkpt lat="44.682533" lon="6.315339"><ele>1362</ele></trkpt>
   <trkpt lat="44.682469" lon="6.316278"><ele>1365.75</ele></trkpt>
   <trkpt lat="44.682467" lon="6.316539"><ele>1366.25</ele></trkpt>
   <trkpt lat="44.682477" lon="6.316715"><ele>1366.75</ele></trkpt>
   <trkpt lat="44.682531" lon="6.317041"><ele>1369</ele></trkpt>
   <trkpt lat="44.682592" lon="6.31726"><ele>1370.75</ele></trkpt>
   <trkpt lat="44.682663" lon="6.317454"><ele>1373</ele></trkpt>
   <trkpt lat="44.682862" lon="6.317881"><ele>1377.75</ele></trkpt>
   <trkpt lat="44.68292" lon="6.318015"><ele>1378.25</ele></trkpt>
   <trkpt lat="44.682941" lon="6.318088"><ele>1378.25</ele></trkpt>
   <trkpt lat="44.68295" lon="6.318277"><ele>1378</ele></trkpt>
   <trkpt lat="44.682952" lon="6.31847"><ele>1378.25</ele></trkpt>
   <trkpt lat="44.682972" lon="6.318748"><ele>1379.75</ele></trkpt>
   <trkpt lat="44.683112" lon="6.319733"><ele>1386</ele></trkpt>
   <trkpt lat="44.683155" lon="6.320116"><ele>1390</ele></trkpt>
   <trkpt lat="44.68316" lon="6.320254"><ele>1391</ele></trkpt>
   <trkpt lat="44.683152" lon="6.32037"><ele>1391.25</ele></trkpt>
   <trkpt lat="44.683101" lon="6.320678"><ele>1390.5</ele></trkpt>
   <trkpt lat="44.68309" lon="6.320778"><ele>1390.5</ele></trkpt>
   <trkpt lat="44.683096" lon="6.32098"><ele>1392.25</ele></trkpt>
   <trkpt lat="44.683089" lon="6.32111"><ele>1392.75</ele></trkpt>
   <trkpt lat="44.683073" lon="6.321244"><ele>1392.75</ele></trkpt>
   <trkpt lat="44.682989" lon="6.321669"><ele>1392</ele></trkpt>
   <trkpt lat="44.682983" lon="6.321796"><ele>1392.5</ele></trkpt>
   <trkpt lat="44.682994" lon="6.321951"><ele>1394</ele></trkpt>
   <trkpt lat="44.683029" lon="6.322247"><ele>1395.75</ele></trkpt>
   <trkpt lat="44.683065" lon="6.32255"><ele>1397.25</ele></trkpt>
   <trkpt lat="44.683072" lon="6.322635"><ele>1397.25</ele></trkpt>
   <trkpt lat="44.683073" lon="6.322759"><ele>1397.5</ele></trkpt>
   <trkpt lat="44.683025" lon="6.323068"><ele>1398</ele></trkpt>
   <trkpt lat="44.683024" lon="6.32326"><ele>1398.5</ele></trkpt>
   <trkpt lat="44.683067" lon="6.323475"><ele>1400</ele></trkpt>
   <trkpt lat="44.683092" lon="6.323573"><ele>1400.75</ele></trkpt>
   <trkpt lat="44.683116" lon="6.32367"><ele>1401.5</ele></trkpt>
   <trkpt lat="44.683129" lon="6.323767"><ele>1402</ele></trkpt>
   <trkpt lat="44.683131" lon="6.323868"><ele>1402.5</ele></trkpt>
   <trkpt lat="44.683112" lon="6.324006"><ele>1402.5</ele></trkpt>
   <trkpt lat="44.683058" lon="6.324241"><ele>1402</ele></trkpt>
   <trkpt lat="44.683053" lon="6.324344"><ele>1401.75</ele></trkpt>
   <trkpt lat="44.683071" lon="6.324458"><ele>1402.25</ele></trkpt>
   <trkpt lat="44.683127" lon="6.324645"><ele>1403.5</ele></trkpt>
   <trkpt lat="44.683233" lon="6.324946"><ele>1406</ele></trkpt>
   <trkpt lat="44.683266" lon="6.325033"><ele>1407</ele></trkpt>
   <trkpt lat="44.683365" lon="6.325284"><ele>1409.75</ele></trkpt>
   <trkpt lat="44.68345" lon="6.32556"><ele>1411.75</ele></trkpt>
   <trkpt lat="44.683494" lon="6.32577"><ele>1413</ele></trkpt>
   <trkpt lat="44.683528" lon="6.325988"><ele>1413</ele></trkpt>
   <trkpt lat="44.68355" lon="6.326107"><ele>1413.25</ele></trkpt>
   <trkpt lat="44.683598" lon="6.326225"><ele>1413.25</ele></trkpt>
   <trkpt lat="44.683633" lon="6.326276"><ele>1413.5</ele></trkpt>
   <trkpt lat="44.683691" lon="6.326326"><ele>1414.25</ele></trkpt>
   <trkpt lat="44.683749" lon="6.326356"><ele>1415.25</ele></trkpt>
   <trkpt lat="44.683833" lon="6.326351"><ele>1417</ele></trkpt>
   <trkpt lat="44.683892" lon="6.32633"><ele>1418.25</ele></trkpt>
   <trkpt lat="44.683945" lon="6.326279"><ele>1419.25</ele></trkpt>
   <trkpt lat="44.683984" lon="6.326218"><ele>1420.5</ele></trkpt>
   <trkpt lat="44.684113" lon="6.32579"><ele>1426</ele></trkpt>
   <trkpt lat="44.684158" lon="6.325613"><ele>1427.5</ele></trkpt>
   <trkpt lat="44.684181" lon="6.325466"><ele>1428.25</ele></trkpt>
   <trkpt lat="44.684209" lon="6.325228"><ele>1428.25</ele></trkpt>
   <trkpt lat="44.684213" lon="6.325081"><ele>1427.5</ele></trkpt>
   <trkpt lat="44.684227" lon="6.324923"><ele>1426.75</ele></trkpt>
   <trkpt lat="44.68423" lon="6.324892"><ele>1426.75</ele></trkpt>
   <trkpt lat="44.684251" lon="6.324788"><ele>1426.75</ele></trkpt>
   <trkpt lat="44.684274" lon="6.324691"><ele>1426.5</ele></trkpt>
   <trkpt lat="44.684344" lon="6.324527"><ele>1426.75</ele></trkpt>
   <trkpt lat="44.684377" lon="6.324465"><ele>1426.75</ele></trkpt>
   <trkpt lat="44.684459" lon="6.324346"><ele>1427.75</ele></trkpt>
   <trkpt lat="44.68451" lon="6.324263"><ele>1428.75</ele></trkpt>
   <trkpt lat="44.684638" lon="6.324089"><ele>1430.75</ele></trkpt>
   <trkpt lat="44.684694" lon="6.323986"><ele>1431.5</ele></trkpt>
   <trkpt lat="44.684755" lon="6.323792"><ele>1432.25</ele></trkpt>
   <trkpt lat="44.684839" lon="6.323471"><ele>1434.5</ele></trkpt>
   <trkpt lat="44.684875" lon="6.323417"><ele>1435.5</ele></trkpt>
   <trkpt lat="44.684915" lon="6.323373"><ele>1436.75</ele></trkpt>
   <trkpt lat="44.684974" lon="6.323355"><ele>1438.25</ele></trkpt>
   <trkpt lat="44.685022" lon="6.323357"><ele>1439.5</ele></trkpt>
   <trkpt lat="44.685058" lon="6.323377"><ele>1440.5</ele></trkpt>
   <trkpt lat="44.685088" lon="6.323406"><ele>1441.5</ele></trkpt>
   <trkpt lat="44.685111" lon="6.323447"><ele>1442.25</ele></trkpt>
   <trkpt lat="44.685119" lon="6.323504"><ele>1442.5</ele></trkpt>
   <trkpt lat="44.685099" lon="6.323923"><ele>1441.75</ele></trkpt>
   <trkpt lat="44.685114" lon="6.324124"><ele>1443.25</ele></trkpt>
   <trkpt lat="44.685143" lon="6.32439"><ele>1447</ele></trkpt>
   <trkpt lat="44.685171" lon="6.324628"><ele>1449</ele></trkpt>
   <trkpt lat="44.685172" lon="6.324776"><ele>1449.75</ele></trkpt>
   <trkpt lat="44.685139" lon="6.325236"><ele>1450.75</ele></trkpt>
   <trkpt lat="44.685157" lon="6.325303"><ele>1451.5</ele></trkpt>
   <trkpt lat="44.68519" lon="6.325338"><ele>1452.25</ele></trkpt>
   <trkpt lat="44.68523" lon="6.325349"><ele>1453.5</ele></trkpt>
   <trkpt lat="44.685268" lon="6.325335"><ele>1454.5</ele></trkpt>
   <trkpt lat="44.685292" lon="6.325305"><ele>1455.25</ele></trkpt>
   <trkpt lat="44.685314" lon="6.325244"><ele>1455.75</ele></trkpt>
   <trkpt lat="44.685328" lon="6.324941"><ele>1455.25</ele></trkpt>
   <trkpt lat="44.685345" lon="6.324822"><ele>1455.5</ele></trkpt>
   <trkpt lat="44.685449" lon="6.324451"><ele>1458.75</ele></trkpt>
   <trkpt lat="44.685502" lon="6.324218"><ele>1459.5</ele></trkpt>
   <trkpt lat="44.685551" lon="6.323954"><ele>1461</ele></trkpt>
   <trkpt lat="44.685575" lon="6.323776"><ele>1461.25</ele></trkpt>
   <trkpt lat="44.685595" lon="6.323564"><ele>1462</ele></trkpt>
   <trkpt lat="44.685619" lon="6.323262"><ele>1464.5</ele></trkpt>
   <trkpt lat="44.685667" lon="6.323005"><ele>1469</ele></trkpt>
   <trkpt lat="44.685671" lon="6.322868"><ele>1470.75</ele></trkpt>
   <trkpt lat="44.685658" lon="6.322723"><ele>1472</ele></trkpt>
   <trkpt lat="44.685631" lon="6.322574"><ele>1473</ele></trkpt>
   <trkpt lat="44.685596" lon="6.322428"><ele>1474</ele></trkpt>
   <trkpt lat="44.685555" lon="6.322285"><ele>1474.75</ele></trkpt>
   <trkpt lat="44.685489" lon="6.32214"><ele>1475</ele></trkpt>
   <trkpt lat="44.68541" lon="6.321994"><ele>1474.75</ele></trkpt>
   <trkpt lat="44.685183" lon="6.321645"><ele>1473.5</ele></trkpt>
   <trkpt lat="44.68505" lon="6.321412"><ele>1473.25</ele></trkpt>
   <trkpt lat="44.684881" lon="6.321198"><ele>1472.25</ele></trkpt>
   <trkpt lat="44.684751" lon="6.321057"><ele>1471</ele></trkpt>
   <trkpt lat="44.684727" lon="6.32101"><ele>1471.25</ele></trkpt>
   <trkpt lat="44.684716" lon="6.320964"><ele>1471.75</ele></trkpt>
   <trkpt lat="44.684723" lon="6.320911"><ele>1473.25</ele></trkpt>
   <trkpt lat="44.684754" lon="6.320859"><ele>1475.25</ele></trkpt>
   <trkpt lat="44.684796" lon="6.320835"><ele>1477.25</ele></trkpt>
   <trkpt lat="44.684835" lon="6.320835"><ele>1478.5</ele></trkpt>
   <trkpt lat="44.684877" lon="6.320866"><ele>1479.25</ele></trkpt>
   <trkpt lat="44.684958" lon="6.320999"><ele>1479</ele></trkpt>
   <trkpt lat="44.685049" lon="6.321139"><ele>1478.75</ele></trkpt>
   <trkpt lat="44.685112" lon="6.321211"><ele>1479</ele></trkpt>
   <trkpt lat="44.68536" lon="6.321435"><ele>1482.5</ele></trkpt>
   <trkpt lat="44.685416" lon="6.32148"><ele>1483.5</ele></trkpt>
   <trkpt lat="44.685551" lon="6.321599"><ele>1485.75</ele></trkpt>
   <trkpt lat="44.685623" lon="6.321678"><ele>1487</ele></trkpt>
   <trkpt lat="44.685712" lon="6.321828"><ele>1488</ele></trkpt>
   <trkpt lat="44.685779" lon="6.321961"><ele>1488.75</ele></trkpt>
   <trkpt lat="44.685857" lon="6.32216"><ele>1488.75</ele></trkpt>
   <trkpt lat="44.685919" lon="6.322372"><ele>1489</ele></trkpt>
   <trkpt lat="44.686009" lon="6.322645"><ele>1490.25</ele></trkpt>
   <trkpt lat="44.68609" lon="6.322833"><ele>1492.25</ele></trkpt>
   <trkpt lat="44.68626" lon="6.323133"><ele>1497</ele></trkpt>
   <trkpt lat="44.686382" lon="6.323363"><ele>1500.25</ele></trkpt>
   <trkpt lat="44.686409" lon="6.32343"><ele>1500.75</ele></trkpt>
   <trkpt lat="44.686447" lon="6.323554"><ele>1501.25</ele></trkpt>
   <trkpt lat="44.686458" lon="6.323655"><ele>1501</ele></trkpt>
   <trkpt lat="44.686463" lon="6.323791"><ele>1500.5</ele></trkpt>
   <trkpt lat="44.686444" lon="6.32411"><ele>1499</ele></trkpt>
   <trkpt lat="44.686453" lon="6.324247"><ele>1499</ele></trkpt>
   <trkpt lat="44.686483" lon="6.324413"><ele>1499.5</ele></trkpt>
   <trkpt lat="44.686522" lon="6.324548"><ele>1500</ele></trkpt>
   <trkpt lat="44.686563" lon="6.324615"><ele>1501</ele></trkpt>
   <trkpt lat="44.686602" lon="6.324628"><ele>1502.25</ele></trkpt>
   <trkpt lat="44.686638" lon="6.324621"><ele>1503.5</ele></trkpt>
   <trkpt lat="44.686666" lon="6.324595"><ele>1504.75</ele></trkpt>
   <trkpt lat="44.686685" lon="6.32455"><ele>1505.75</ele></trkpt>
   <trkpt lat="44.686692" lon="6.324486"><ele>1506.5</ele></trkpt>
   <trkpt lat="44.68666" lon="6.324344"><ele>1506.25</ele></trkpt>
   <trkpt lat="44.686635" lon="6.324189"><ele>1506.5</ele></trkpt>
   <trkpt lat="44.686631" lon="6.324053"><ele>1506.75</ele></trkpt>
   <trkpt lat="44.686652" lon="6.323694"><ele>1509.5</ele></trkpt>
   <trkpt lat="44.686653" lon="6.323553"><ele>1510.75</ele></trkpt>
   <trkpt lat="44.686645" lon="6.323436"><ele>1511.25</ele></trkpt>
   <trkpt lat="44.686621" lon="6.323286"><ele>1511.75</ele></trkpt>
   <trkpt lat="44.686518" lon="6.322894"><ele>1512.75</ele></trkpt>
   <trkpt lat="44.686477" lon="6.322491"><ele>1515.5</ele></trkpt>
   <trkpt lat="44.686462" lon="6.322276"><ele>1517</ele></trkpt>
   <trkpt lat="44.686451" lon="6.322107"><ele>1517.75</ele></trkpt>
   <trkpt lat="44.686449" lon="6.321887"><ele>1519</ele></trkpt>
   <trkpt lat="44.686453" lon="6.321622"><ele>1520.5</ele></trkpt>
   <trkpt lat="44.686448" lon="6.321411"><ele>1521.75</ele></trkpt>
   <trkpt lat="44.686421" lon="6.321261"><ele>1521.75</ele></trkpt>
   <trkpt lat="44.686316" lon="6.320917"><ele>1523.5</ele></trkpt>
   <trkpt lat="44.686233" lon="6.320676"><ele>1526.75</ele></trkpt>
   <trkpt lat="44.686157" lon="6.320516"><ele>1529</ele></trkpt>
   <trkpt lat="44.685872" lon="6.320059"><ele>1531.75</ele></trkpt>
   <trkpt lat="44.685755" lon="6.319836"><ele>1532.75</ele></trkpt>
   <trkpt lat="44.685687" lon="6.319683"><ele>1533.75</ele></trkpt>
   <trkpt lat="44.685669" lon="6.319602"><ele>1534.75</ele></trkpt>
   <trkpt lat="44.685672" lon="6.319547"><ele>1535.5</ele></trkpt>
   <trkpt lat="44.685696" lon="6.319506"><ele>1537</ele></trkpt>
   <trkpt lat="44.685724" lon="6.319484"><ele>1538</ele></trkpt>
   <trkpt lat="44.68576" lon="6.319477"><ele>1539.25</ele></trkpt>
   <trkpt lat="44.685799" lon="6.3195"><ele>1540</ele></trkpt>
   <trkpt lat="44.685845" lon="6.319557"><ele>1540.25</ele></trkpt>
   <trkpt lat="44.686043" lon="6.31985"><ele>1539</ele></trkpt>
   <trkpt lat="44.686136" lon="6.319972"><ele>1539</ele></trkpt>
   <trkpt lat="44.686277" lon="6.320104"><ele>1540.25</ele></trkpt>
   <trkpt lat="44.686766" lon="6.320519"><ele>1547</ele></trkpt>
   <trkpt lat="44.686848" lon="6.320641"><ele>1548.5</ele></trkpt>
   <trkpt lat="44.68693" lon="6.32081"><ele>1548.75</ele></trkpt>
   <trkpt lat="44.686994" lon="6.321049"><ele>1551.75</ele></trkpt>
   <trkpt lat="44.687022" lon="6.321306"><ele>1552.25</ele></trkpt>
   <trkpt lat="44.687044" lon="6.321746"><ele>1551.25</ele></trkpt>
   <trkpt lat="44.687072" lon="6.321887"><ele>1551.25</ele></trkpt>
   <trkpt lat="44.687103" lon="6.322"><ele>1551.75</ele></trkpt>
   <trkpt lat="44.687152" lon="6.322098"><ele>1553</ele></trkpt>
   <trkpt lat="44.687205" lon="6.32218"><ele>1554.5</ele></trkpt>
   <trkpt lat="44.687705" lon="6.322722"><ele>1561.75</ele></trkpt>
   <trkpt lat="44.687823" lon="6.322888"><ele>1563</ele></trkpt>
   <trkpt lat="44.687899" lon="6.323034"><ele>1564.25</ele></trkpt>
   <trkpt lat="44.687969" lon="6.323207"><ele>1566</ele></trkpt>
   <trkpt lat="44.688115" lon="6.32374"><ele>1569</ele></trkpt>
   <trkpt lat="44.688247" lon="6.324145"><ele>1572.5</ele></trkpt>
   <trkpt lat="44.688284" lon="6.324307"><ele>1574</ele></trkpt>
   <trkpt lat="44.68832" lon="6.324621"><ele>1574.75</ele></trkpt>
   <trkpt lat="44.688344" lon="6.324728"><ele>1575</ele></trkpt>
   <trkpt lat="44.688372" lon="6.324788"><ele>1574</ele></trkpt>
   <trkpt lat="44.688413" lon="6.324826"><ele>1573.75</ele></trkpt>
   <trkpt lat="44.688449" lon="6.324834"><ele>1574</ele></trkpt>
   <trkpt lat="44.688487" lon="6.324823"><ele>1574.75</ele></trkpt>
   <trkpt lat="44.68852" lon="6.324788"><ele>1576.25</ele></trkpt>
   <trkpt lat="44.688543" lon="6.324743"><ele>1578</ele></trkpt>
   <trkpt lat="44.688554" lon="6.324676"><ele>1579.5</ele></trkpt>
   <trkpt lat="44.688553" lon="6.324594"><ele>1580.5</ele></trkpt>
   <trkpt lat="44.688541" lon="6.32453"><ele>1580.75</ele></trkpt>
   <trkpt lat="44.688525" lon="6.324438"><ele>1581.5</ele></trkpt>
   <trkpt lat="44.688489" lon="6.323726"><ele>1585.25</ele></trkpt>
   <trkpt lat="44.688482" lon="6.323294"><ele>1587.25</ele></trkpt>
   <trkpt lat="44.688499" lon="6.32295"><ele>1588</ele></trkpt>
   <trkpt lat="44.688493" lon="6.322794"><ele>1588</ele></trkpt>
   <trkpt lat="44.688375" lon="6.321968"><ele>1595</ele></trkpt>
   <trkpt lat="44.688312" lon="6.321707"><ele>1597.5</ele></trkpt>
   <trkpt lat="44.688266" lon="6.32155"><ele>1598.75</ele></trkpt>
   <trkpt lat="44.68819" lon="6.321373"><ele>1599.5</ele></trkpt>
   <trkpt lat="44.687967" lon="6.320921"><ele>1600.75</ele></trkpt>
   <trkpt lat="44.687938" lon="6.320815"><ele>1601.5</ele></trkpt>
   <trkpt lat="44.687927" lon="6.320744"><ele>1601.75</ele></trkpt>
   <trkpt lat="44.687937" lon="6.320675"><ele>1602.5</ele></trkpt>
   <trkpt lat="44.687962" lon="6.320637"><ele>1603.25</ele></trkpt>
   <trkpt lat="44.687991" lon="6.32061"><ele>1603.75</ele></trkpt>
   <trkpt lat="44.688028" lon="6.320609"><ele>1604.5</ele></trkpt>
   <trkpt lat="44.688078" lon="6.320624"><ele>1605</ele></trkpt>
   <trkpt lat="44.688111" lon="6.320657"><ele>1605</ele></trkpt>
   <trkpt lat="44.688157" lon="6.320728"><ele>1605</ele></trkpt>
   <trkpt lat="44.688369" lon="6.321197"><ele>1606</ele></trkpt>
   <trkpt lat="44.688487" lon="6.321346"><ele>1606.25</ele></trkpt>
   <trkpt lat="44.688582" lon="6.321444"><ele>1607.25</ele></trkpt>
   <trkpt lat="44.68869" lon="6.321512"><ele>1608.75</ele></trkpt>
   <trkpt lat="44.68882" lon="6.321554"><ele>1611</ele></trkpt>
   <trkpt lat="44.689081" lon="6.321605"><ele>1614</ele></trkpt>
   <trkpt lat="44.689215" lon="6.32161"><ele>1615.75</ele></trkpt>
   <trkpt lat="44.689287" lon="6.321582"><ele>1617</ele></trkpt>
   <trkpt lat="44.689346" lon="6.321527"><ele>1618</ele></trkpt>
   <trkpt lat="44.689394" lon="6.321456"><ele>1619</ele></trkpt>
   <trkpt lat="44.689417" lon="6.321375"><ele>1619.5</ele></trkpt>
   <trkpt lat="44.689435" lon="6.321268"><ele>1620.5</ele></trkpt>
   <trkpt lat="44.689435" lon="6.320558"><ele>1624.75</ele></trkpt>
   <trkpt lat="44.689432" lon="6.320373"><ele>1626</ele></trkpt>
   <trkpt lat="44.689405" lon="6.320175"><ele>1627.25</ele></trkpt>
   <trkpt lat="44.689314" lon="6.319792"><ele>1629.25</ele></trkpt>
   <trkpt lat="44.689293" lon="6.319586"><ele>1630.75</ele></trkpt>
   <trkpt lat="44.689303" lon="6.319395"><ele>1632</ele></trkpt>
   <trkpt lat="44.689344" lon="6.31921"><ele>1633</ele></trkpt>
   <trkpt lat="44.689466" lon="6.318897"><ele>1634</ele></trkpt>
   <trkpt lat="44.689605" lon="6.318674"><ele>1635.75</ele></trkpt>
   <trkpt lat="44.689655" lon="6.318623"><ele>1636.75</ele></trkpt>
   <trkpt lat="44.689716" lon="6.318592"><ele>1637.75</ele></trkpt>
   <trkpt lat="44.689784" lon="6.318583"><ele>1639</ele></trkpt>
   <trkpt lat="44.689852" lon="6.318598"><ele>1639.75</ele></trkpt>
   <trkpt lat="44.689914" lon="6.318643"><ele>1640.5</ele></trkpt>
   <trkpt lat="44.689982" lon="6.318719"><ele>1641.5</ele></trkpt>
   <trkpt lat="44.690086" lon="6.318883"><ele>1643.5</ele></trkpt>
   <trkpt lat="44.690131" lon="6.318966"><ele>1644</ele></trkpt>
   <trkpt lat="44.690168" lon="6.31907"><ele>1644.75</ele></trkpt>
   <trkpt lat="44.690198" lon="6.31918"><ele>1645.25</ele></trkpt>
   <trkpt lat="44.690243" lon="6.3195"><ele>1646</ele></trkpt>
   <trkpt lat="44.690265" lon="6.319593"><ele>1646.5</ele></trkpt>
   <trkpt lat="44.690316" lon="6.319693"><ele>1647.75</ele></trkpt>
   <trkpt lat="44.690374" lon="6.319783"><ele>1649.25</ele></trkpt>
   <trkpt lat="44.690467" lon="6.319925"><ele>1651.25</ele></trkpt>
   <trkpt lat="44.690499" lon="6.320009"><ele>1651.75</ele></trkpt>
   <trkpt lat="44.690528" lon="6.320109"><ele>1652.25</ele></trkpt>
   <trkpt lat="44.69055" lon="6.32022"><ele>1652.75</ele></trkpt>
   <trkpt lat="44.690586" lon="6.320493"><ele>1654</ele></trkpt>
   <trkpt lat="44.690621" lon="6.320688"><ele>1655.25</ele></trkpt>
   <trkpt lat="44.690662" lon="6.32084"><ele>1656.75</ele></trkpt>
   <trkpt lat="44.691204" lon="6.322159"><ele>1664</ele></trkpt>
   <trkpt lat="44.691293" lon="6.32233"><ele>1666.5</ele></trkpt>
   <trkpt lat="44.691352" lon="6.322429"><ele>1668</ele></trkpt>
   <trkpt lat="44.691442" lon="6.322554"><ele>1670.75</ele></trkpt>
   <trkpt lat="44.691475" lon="6.32264"><ele>1671.5</ele></trkpt>
   <trkpt lat="44.691559" lon="6.322958"><ele>1673</ele></trkpt>
   <trkpt lat="44.691575" lon="6.323031"><ele>1673</ele></trkpt>
   <trkpt lat="44.69159" lon="6.323102"><ele>1673</ele></trkpt>
   <trkpt lat="44.691651" lon="6.323384"><ele>1671.75</ele></trkpt>
   <trkpt lat="44.691678" lon="6.323458"><ele>1671.75</ele></trkpt>
   <trkpt lat="44.691717" lon="6.323528"><ele>1672</ele></trkpt>
   <trkpt lat="44.691771" lon="6.323594"><ele>1672.75</ele></trkpt>
   <trkpt lat="44.691892" lon="6.323684"><ele>1674.5</ele></trkpt>
   <trkpt lat="44.692098" lon="6.323796"><ele>1678</ele></trkpt>
   <trkpt lat="44.692274" lon="6.323913"><ele>1679.25</ele></trkpt>
   <trkpt lat="44.692524" lon="6.324111"><ele>1680</ele></trkpt>
   <trkpt lat="44.692584" lon="6.324136"><ele>1679.75</ele></trkpt>
   <trkpt lat="44.692624" lon="6.324141"><ele>1680</ele></trkpt>
   <trkpt lat="44.692661" lon="6.324131"><ele>1680.5</ele></trkpt>
   <trkpt lat="44.692695" lon="6.324102"><ele>1681.5</ele></trkpt>
   <trkpt lat="44.692713" lon="6.324059"><ele>1682.75</ele></trkpt>
   <trkpt lat="44.692714" lon="6.324015"><ele>1684</ele></trkpt>
   <trkpt lat="44.692704" lon="6.323967"><ele>1685.25</ele></trkpt>
   <trkpt lat="44.692682" lon="6.323921"><ele>1686.25</ele></trkpt>
   <trkpt lat="44.692628" lon="6.323878"><ele>1686.5</ele></trkpt>
   <trkpt lat="44.692519" lon="6.323835"><ele>1685.75</ele></trkpt>
   <trkpt lat="44.692431" lon="6.323783"><ele>1685.5</ele></trkpt>
   <trkpt lat="44.692337" lon="6.32367"><ele>1686.25</ele></trkpt>
   <trkpt lat="44.692274" lon="6.323553"><ele>1687.25</ele></trkpt>
   <trkpt lat="44.692185" lon="6.323268"><ele>1689.75</ele></trkpt>
   <trkpt lat="44.692017" lon="6.322584"><ele>1693.25</ele></trkpt>
   <trkpt lat="44.691994" lon="6.322447"><ele>1693.5</ele></trkpt>
   <trkpt lat="44.691992" lon="6.32231"><ele>1694.5</ele></trkpt>
   <trkpt lat="44.692039" lon="6.321888"><ele>1698.25</ele></trkpt>
   <trkpt lat="44.692046" lon="6.321694"><ele>1698.25</ele></trkpt>
   <trkpt lat="44.692037" lon="6.321524"><ele>1698.5</ele></trkpt>
   <trkpt lat="44.691962" lon="6.320833"><ele>1699.5</ele></trkpt>
   <trkpt lat="44.691953" lon="6.320695"><ele>1699.75</ele></trkpt>
   <trkpt lat="44.691954" lon="6.320551"><ele>1700.25</ele></trkpt>
   <trkpt lat="44.692012" lon="6.319791"><ele>1704.75</ele></trkpt>
   <trkpt lat="44.692016" lon="6.319303"><ele>1708.75</ele></trkpt>
   <trkpt lat="44.691988" lon="6.319061"><ele>1710.25</ele></trkpt>
   <trkpt lat="44.691939" lon="6.318826"><ele>1710.25</ele></trkpt>
   <trkpt lat="44.691883" lon="6.318612"><ele>1710.5</ele></trkpt>
   <trkpt lat="44.691681" lon="6.318088"><ele>1713.75</ele></trkpt>
   <trkpt lat="44.69159" lon="6.317806"><ele>1714.5</ele></trkpt>
   <trkpt lat="44.691543" lon="6.317604"><ele>1714.5</ele></trkpt>
   <trkpt lat="44.691519" lon="6.317325"><ele>1715.5</ele></trkpt>
   <trkpt lat="44.691482" lon="6.317076"><ele>1716</ele></trkpt>
   <trkpt lat="44.691349" lon="6.316409"><ele>1719.25</ele></trkpt>
   <trkpt lat="44.691312" lon="6.316279"><ele>1720.5</ele></trkpt>
   <trkpt lat="44.691256" lon="6.316149"><ele>1721.25</ele></trkpt>
   <trkpt lat="44.691107" lon="6.315907"><ele>1721</ele></trkpt>
   <trkpt lat="44.691053" lon="6.315797"><ele>1721.25</ele></trkpt>
   <trkpt lat="44.691012" lon="6.315671"><ele>1721.75</ele></trkpt>
   <trkpt lat="44.690932" lon="6.315297"><ele>1724.5</ele></trkpt>
   <trkpt lat="44.690898" lon="6.315013"><ele>1726.25</ele></trkpt>
   <trkpt lat="44.690897" lon="6.314866"><ele>1727</ele></trkpt>
   <trkpt lat="44.690905" lon="6.31475"><ele>1727.5</ele></trkpt>
   <trkpt lat="44.690922" lon="6.314657"><ele>1728.5</ele></trkpt>
   <trkpt lat="44.690953" lon="6.314526"><ele>1730.25</ele></trkpt>
   <trkpt lat="44.690984" lon="6.314374"><ele>1732</ele></trkpt>
   <trkpt lat="44.691028" lon="6.314013"><ele>1734.75</ele></trkpt>
   <trkpt lat="44.691049" lon="6.313877"><ele>1735.75</ele></trkpt>
   <trkpt lat="44.691069" lon="6.31379"><ele>1736.5</ele></trkpt>
   <trkpt lat="44.69108" lon="6.313741"><ele>1737</ele></trkpt>
   <trkpt lat="44.691113" lon="6.313599"><ele>1738</ele></trkpt>
   <trkpt lat="44.691157" lon="6.313393"><ele>1740.5</ele></trkpt>
   <trkpt lat="44.691185" lon="6.313193"><ele>1742.25</ele></trkpt>
   <trkpt lat="44.691181" lon="6.313019"><ele>1743</ele></trkpt>
   <trkpt lat="44.691157" lon="6.312845"><ele>1743.25</ele></trkpt>
   <trkpt lat="44.691098" lon="6.31253"><ele>1744</ele></trkpt>
   <trkpt lat="44.690996" lon="6.311854"><ele>1746.25</ele></trkpt>
   <trkpt lat="44.690979" lon="6.311588"><ele>1746.75</ele></trkpt>
   <trkpt lat="44.690991" lon="6.311471"><ele>1747.5</ele></trkpt>
   <trkpt lat="44.691022" lon="6.311418"><ele>1748.5</ele></trkpt>
   <trkpt lat="44.691064" lon="6.311396"><ele>1750.25</ele></trkpt>
   <trkpt lat="44.691107" lon="6.311405"><ele>1751.75</ele></trkpt>
   <trkpt lat="44.691141" lon="6.311435"><ele>1753</ele></trkpt>
   <trkpt lat="44.691164" lon="6.311486"><ele>1753.5</ele></trkpt>
   <trkpt lat="44.69118" lon="6.311592"><ele>1753.75</ele></trkpt>
   <trkpt lat="44.691191" lon="6.311768"><ele>1754</ele></trkpt>
   <trkpt lat="44.691228" lon="6.311937"><ele>1755</ele></trkpt>
   <trkpt lat="44.69127" lon="6.312081"><ele>1755.5</ele></trkpt>
   <trkpt lat="44.691339" lon="6.31226"><ele>1756.75</ele></trkpt>
   <trkpt lat="44.69144" lon="6.312488"><ele>1758.75</ele></trkpt>
   <trkpt lat="44.691801" lon="6.313312"><ele>1764.75</ele></trkpt>
   <trkpt lat="44.6919" lon="6.313485"><ele>1766</ele></trkpt>
   <trkpt lat="44.692106" lon="6.313738"><ele>1769</ele></trkpt>
   <trkpt lat="44.692167" lon="6.313821"><ele>1770.25</ele></trkpt>
   <trkpt lat="44.692241" lon="6.31392"><ele>1770.25</ele></trkpt>
   <trkpt lat="44.692324" lon="6.314048"><ele>1771.75</ele></trkpt>
   <trkpt lat="44.692387" lon="6.3142"><ele>1772.5</ele></trkpt>
   <trkpt lat="44.692542" lon="6.314783"><ele>1775</ele></trkpt>
   <trkpt lat="44.692619" lon="6.31496"><ele>1776.5</ele></trkpt>
   <trkpt lat="44.692961" lon="6.315574"><ele>1781</ele></trkpt>
   <trkpt lat="44.693019" lon="6.315728"><ele>1782.25</ele></trkpt>
   <trkpt lat="44.693058" lon="6.315867"><ele>1783</ele></trkpt>
   <trkpt lat="44.693082" lon="6.316018"><ele>1783.75</ele></trkpt>
   <trkpt lat="44.69311" lon="6.316478"><ele>1784.75</ele></trkpt>
   <trkpt lat="44.693152" lon="6.316692"><ele>1786.25</ele></trkpt>
   <trkpt lat="44.69319" lon="6.316802"><ele>1787.75</ele></trkpt>
   <trkpt lat="44.693232" lon="6.316883"><ele>1789.5</ele></trkpt>
   <trkpt lat="44.69332" lon="6.317046"><ele>1792.5</ele></trkpt>
   <trkpt lat="44.693364" lon="6.317147"><ele>1793.75</ele></trkpt>
   <trkpt lat="44.693384" lon="6.317241"><ele>1794.25</ele></trkpt>
   <trkpt lat="44.693396" lon="6.31771"><ele>1795.25</ele></trkpt>
   <trkpt lat="44.693486" lon="6.3185"><ele>1800.25</ele></trkpt>
   <trkpt lat="44.693494" lon="6.318664"><ele>1800.25</ele></trkpt>
   <trkpt lat="44.693505" lon="6.318862"><ele>1799.25</ele></trkpt>
   <trkpt lat="44.693528" lon="6.319115"><ele>1799.75</ele></trkpt>
   <trkpt lat="44.693553" lon="6.319283"><ele>1800.5</ele></trkpt>
   <trkpt lat="44.693685" lon="6.319881"><ele>1804</ele></trkpt>
   <trkpt lat="44.693712" lon="6.319999"><ele>1804.5</ele></trkpt>
   <trkpt lat="44.693781" lon="6.320263"><ele>1805</ele></trkpt>
   <trkpt lat="44.693823" lon="6.320377"><ele>1805.5</ele></trkpt>
   <trkpt lat="44.69388" lon="6.320496"><ele>1806.25</ele></trkpt>
   <trkpt lat="44.693948" lon="6.320611"><ele>1806.5</ele></trkpt>
  </trkseg>
 </trk>
</gpx>
