<?xml version="1.0" encoding="UTF-8"?>
<gpx 
 xmlns="http://www.topografix.com/GPX/1/1" 
 xmlns:xsi="http://www.w3.org/2001/XMLSchema-instance" 
 xsi:schemaLocation="http://www.topografix.com/GPX/1/1 http://www.topografix.com/GPX/1/1/gpx.xsd" 
 version="1.1" 
 creator="BRouter-Web 0.18.1">
 <trk>
  <name>Passo Duran (12.1km, trimmed to true climb span)</name>
  <trkseg>
   <trkpt lat="46.279057" lon="12.041283"><ele>623.25</ele></trkpt>
   <trkpt lat="46.279114" lon="12.041807"><ele>624.5</ele></trkpt>
   <trkpt lat="46.27915" lon="12.042099"><ele>624.75</ele></trkpt>
   <trkpt lat="46.279213" lon="12.04235"><ele>625.75</ele></trkpt>
   <trkpt lat="46.279394" lon="12.042934"><ele>627</ele></trkpt>
   <trkpt lat="46.279554" lon="12.043487"><ele>632.25</ele></trkpt>
   <trkpt lat="46.279611" lon="12.043805"><ele>635</ele></trkpt>
   <trkpt lat="46.279708" lon="12.044336"><ele>636.5</ele></trkpt>
   <trkpt lat="46.27978" lon="12.044732"><ele>639.5</ele></trkpt>
   <trkpt lat="46.279887" lon="12.045086"><ele>640.75</ele></trkpt>
   <trkpt lat="46.279929" lon="12.045282"><ele>641.5</ele></trkpt>
   <trkpt lat="46.279939" lon="12.045448"><ele>641.5</ele></trkpt>
   <trkpt lat="46.279925" lon="12.045592"><ele>642</ele></trkpt>
   <trkpt lat="46.279871" lon="12.045805"><ele>643.5</ele></trkpt>
   <trkpt lat="46.279798" lon="12.045943"><ele>645.25</ele></trkpt>
   <trkpt lat="46.279691" lon="12.046095"><ele>647.25</ele></trkpt>
   <trkpt lat="46.279589" lon="12.046179"><ele>648.5</ele></trkpt>
   <trkpt lat="46.278932" lon="12.046489"><ele>655.75</ele></trkpt>
   <trkpt lat="46.278722" lon="12.046657"><ele>658</ele></trkpt>
   <trkpt lat="46.277964" lon="12.047546"><ele>667.5</ele></trkpt>
   <trkpt lat="46.277209" lon="12.048436"><ele>676</ele></trkpt>
   <trkpt lat="46.276766" lon="12.048852"><ele>680</ele></trkpt>
   <trkpt lat="46.276406" lon="12.049282"><ele>683.75</ele></trkpt>
   <trkpt lat="46.275931" lon="12.049906"><ele>689</ele></trkpt>
   <trkpt lat="46.275855" lon="12.050007"><ele>689</ele></trkpt>
   <trkpt lat="46.275799" lon="12.050093"><ele>689.5</ele></trkpt>
   <trkpt lat="46.275727" lon="12.050202"><ele>690.25</ele></trkpt>
   <trkpt lat="46.275624" lon="12.050425"><ele>691.5</ele></trkpt>
   <trkpt lat="46.275558" lon="12.050683"><ele>692.25</ele></trkpt>
   <trkpt lat="46.275534" lon="12.05084"><ele>692.5</ele></trkpt>
   <trkpt lat="46.275532" lon="12.050942"><ele>693</ele></trkpt>
   <trkpt lat="46.275547" lon="12.051181"><ele>694.25</ele></trkpt>
   <trkpt lat="46.275565" lon="12.051286"><ele>694.25</ele></trkpt>
   <trkpt lat="46.275596" lon="12.051469"><ele>693.75</ele></trkpt>
   <trkpt lat="46.275823" lon="12.052322"><ele>700</ele></trkpt>
   <trkpt lat="46.275882" lon="12.052466"><ele>700.75</ele></trkpt>
   <trkpt lat="46.276255" lon="12.053127"><ele>704.75</ele></trkpt>
   <trkpt lat="46.276336" lon="12.053288"><ele>706.25</ele></trkpt>
   <trkpt lat="46.27642" lon="12.053488"><ele>708.25</ele></trkpt>
   <trkpt lat="46.276461" lon="12.053628"><ele>709</ele></trkpt>
   <trkpt lat="46.276568" lon="12.054133"><ele>711</ele></trkpt>
   <trkpt lat="46.276617" lon="12.054469"><ele>714.5</ele></trkpt>
   <trkpt lat="46.276621" lon="12.054593"><ele>714.5</ele></trkpt>
   <trkpt lat="46.276611" lon="12.055064"><ele>716.5</ele></trkpt>
   <trkpt lat="46.276617" lon="12.055164"><ele>717.5</ele></trkpt>
   <trkpt lat="46.276634" lon="12.055276"><ele>719.25</ele></trkpt>
   <trkpt lat="46.276656" lon="12.055371"><ele>720</ele></trkpt>
   <trkpt lat="46.276715" lon="12.055558"><ele>721.5</ele></trkpt>
   <trkpt lat="46.277063" lon="12.056364"><ele>721.5</ele></trkpt>
   <trkpt lat="46.277112" lon="12.056327"><ele>723</ele></trkpt>
   <trkpt lat="46.277503" lon="12.056469"><ele>726.75</ele></trkpt>
   <trkpt lat="46.277564" lon="12.056529"><ele>729.75</ele></trkpt>
   <trkpt lat="46.277611" lon="12.05664"><ele>732</ele></trkpt>
   <trkpt lat="46.277678" lon="12.056999"><ele>733.5</ele></trkpt>
   <trkpt lat="46.277853" lon="12.057195"><ele>736</ele></trkpt>
   <trkpt lat="46.27791" lon="12.057318"><ele>737</ele></trkpt>
   <trkpt lat="46.277954" lon="12.057437"><ele>737.25</ele></trkpt>
   <trkpt lat="46.278109" lon="12.05831"><ele>743.75</ele></trkpt>
   <trkpt lat="46.278138" lon="12.058604"><ele>745.75</ele></trkpt>
   <trkpt lat="46.278186" lon="12.058713"><ele>746.25</ele></trkpt>
   <trkpt lat="46.278405" lon="12.059116"><ele>748.75</ele></trkpt>
   <trkpt lat="46.278489" lon="12.059357"><ele>750.5</ele></trkpt>
   <trkpt lat="46.278627" lon="12.059886"><ele>753.5</ele></trkpt>
   <trkpt lat="46.278703" lon="12.060074"><ele>755</ele></trkpt>
   <trkpt lat="46.278793" lon="12.06022"><ele>756.5</ele></trkpt>
   <trkpt lat="46.278902" lon="12.060354"><ele>758</ele></trkpt>
   <trkpt lat="46.279024" lon="12.060462"><ele>759</ele></trkpt>
   <trkpt lat="46.279325" lon="12.060641"><ele>761.25</ele></trkpt>
   <trkpt lat="46.279441" lon="12.060762"><ele>762.25</ele></trkpt>
   <trkpt lat="46.279547" lon="12.060919"><ele>763.5</ele></trkpt>
   <trkpt lat="46.279703" lon="12.061264"><ele>765.5</ele></trkpt>
   <trkpt lat="46.279784" lon="12.061416"><ele>766.25</ele></trkpt>
   <trkpt lat="46.28046" lon="12.06238"><ele>772.75</ele></trkpt>
   <trkpt lat="46.280638" lon="12.062523"><ele>774.25</ele></trkpt>
   <trkpt lat="46.28092" lon="12.062673"><ele>776.5</ele></trkpt>
   <trkpt lat="46.281058" lon="12.062787"><ele>777.75</ele></trkpt>
   <trkpt lat="46.281304" lon="12.063295"><ele>782.25</ele></trkpt>
   <trkpt lat="46.281379" lon="12.063495"><ele>784</ele></trkpt>
   <trkpt lat="46.281413" lon="12.063693"><ele>785.5</ele></trkpt>
   <trkpt lat="46.281503" lon="12.063975"><ele>787.5</ele></trkpt>
   <trkpt lat="46.281621" lon="12.064068"><ele>788.25</ele></trkpt>
   <trkpt lat="46.281688" lon="12.064108"><ele>788.75</ele></trkpt>
   <trkpt lat="46.28179" lon="12.06413"><ele>789.5</ele></trkpt>
   <trkpt lat="46.281823" lon="12.064129"><ele>789.75</ele></trkpt>
   <trkpt lat="46.281866" lon="12.064153"><ele>790.25</ele></trkpt>
   <trkpt lat="46.281928" lon="12.064235"><ele>791</ele></trkpt>
   <trkpt lat="46.282011" lon="12.064453"><ele>792.5</ele></trkpt>
   <trkpt lat="46.282204" lon="12.064579"><ele>794.25</ele></trkpt>
   <trkpt lat="46.282598" lon="12.065067"><ele>800</ele></trkpt>
   <trkpt lat="46.283108" lon="12.065555"><ele>806.25</ele></trkpt>
   <trkpt lat="46.283395" lon="12.065968"><ele>810.5</ele></trkpt>
   <trkpt lat="46.283584" lon="12.066377"><ele>812.75</ele></trkpt>
   <trkpt lat="46.283678" lon="12.066667"><ele>815</ele></trkpt>
   <trkpt lat="46.283669" lon="12.066795"><ele>815.75</ele></trkpt>
   <trkpt lat="46.28357" lon="12.06735"><ele>818.5</ele></trkpt>
   <trkpt lat="46.283307" lon="12.067652"><ele>818</ele></trkpt>
   <trkpt lat="46.283286" lon="12.067733"><ele>817.75</ele></trkpt>
   <trkpt lat="46.283277" lon="12.06782"><ele>817.25</ele></trkpt>
   <trkpt lat="46.283266" lon="12.067917"><ele>816.75</ele></trkpt>
   <trkpt lat="46.283269" lon="12.068"><ele>816.5</ele></trkpt>
   <trkpt lat="46.283314" lon="12.068171"><ele>816.75</ele></trkpt>
   <trkpt lat="46.283306" lon="12.068224"><ele>815.75</ele></trkpt>
   <trkpt lat="46.283277" lon="12.068264"><ele>814.75</ele></trkpt>
   <trkpt lat="46.283188" lon="12.068374"><ele>813.5</ele></trkpt>
   <trkpt lat="46.283152" lon="12.068414"><ele>813.5</ele></trkpt>
   <trkpt lat="46.283212" lon="12.068614"><ele>814.25</ele></trkpt>
   <trkpt lat="46.283365" lon="12.069193"><ele>818.75</ele></trkpt>
   <trkpt lat="46.283634" lon="12.07006"><ele>824.25</ele></trkpt>
   <trkpt lat="46.283774" lon="12.070418"><ele>827</ele></trkpt>
   <trkpt lat="46.283818" lon="12.070511"><ele>827.5</ele></trkpt>
   <trkpt lat="46.283886" lon="12.070602"><ele>828.25</ele></trkpt>
   <trkpt lat="46.283958" lon="12.070674"><ele>828.5</ele></trkpt>
   <trkpt lat="46.284022" lon="12.07072"><ele>828.5</ele></trkpt>
   <trkpt lat="46.284064" lon="12.070747"><ele>828.5</ele></trkpt>
   <trkpt lat="46.284183" lon="12.070801"><ele>829</ele></trkpt>
   <trkpt lat="46.284549" lon="12.070979"><ele>834.5</ele></trkpt>
   <trkpt lat="46.284665" lon="12.071045"><ele>836.5</ele></trkpt>
   <trkpt lat="46.284862" lon="12.071184"><ele>840.5</ele></trkpt>
   <trkpt lat="46.285233" lon="12.071482"><ele>845</ele></trkpt>
   <trkpt lat="46.285328" lon="12.071524"><ele>846</ele></trkpt>
   <trkpt lat="46.285479" lon="12.071569"><ele>847</ele></trkpt>
   <trkpt lat="46.285596" lon="12.07159"><ele>848</ele></trkpt>
   <trkpt lat="46.285698" lon="12.071588"><ele>849</ele></trkpt>
   <trkpt lat="46.285909" lon="12.07155"><ele>851.5</ele></trkpt>
   <trkpt lat="46.286317" lon="12.071607"><ele>855.5</ele></trkpt>
   <trkpt lat="46.287124" lon="12.071685"><ele>862.25</ele></trkpt>
   <trkpt lat="46.288123" lon="12.071759"><ele>871.75</ele></trkpt>
   <trkpt lat="46.288653" lon="12.071821"><ele>875.25</ele></trkpt>
   <trkpt lat="46.289319" lon="12.071866"><ele>884.75</ele></trkpt>
   <trkpt lat="46.290038" lon="12.071893"><ele>891.5</ele></trkpt>
   <trkpt lat="46.290498" lon="12.071935"><ele>896</ele></trkpt>
   <trkpt lat="46.290621" lon="12.071978"><ele>897.25</ele></trkpt>
   <trkpt lat="46.290724" lon="12.072025"><ele>898</ele></trkpt>
   <trkpt lat="46.290813" lon="12.072078"><ele>898.75</ele></trkpt>
   <trkpt lat="46.290903" lon="12.072162"><ele>900</ele></trkpt>
   <trkpt lat="46.291216" lon="12.072584"><ele>904.5</ele></trkpt>
   <trkpt lat="46.291861" lon="12.073498"><ele>913.25</ele></trkpt>
   <trkpt lat="46.292153" lon="12.073892"><ele>918</ele></trkpt>
   <trkpt lat="46.292263" lon="12.074098"><ele>918.25</ele></trkpt>
   <trkpt lat="46.292624" lon="12.075141"><ele>925</ele></trkpt>
   <trkpt lat="46.292645" lon="12.075295"><ele>925.5</ele></trkpt>
   <trkpt lat="46.292691" lon="12.075931"><ele>932.25</ele></trkpt>
   <trkpt lat="46.292781" lon="12.076635"><ele>937.75</ele></trkpt>
   <trkpt lat="46.292973" lon="12.077239"><ele>947</ele></trkpt>
   <trkpt lat="46.292973" lon="12.077362"><ele>948.5</ele></trkpt>
   <trkpt lat="46.292889" lon="12.077726"><ele>949.75</ele></trkpt>
   <trkpt lat="46.292817" lon="12.07811"><ele>949.25</ele></trkpt>
   <trkpt lat="46.292793" lon="12.078373"><ele>951</ele></trkpt>
   <trkpt lat="46.292723" lon="12.078587"><ele>952</ele></trkpt>
   <trkpt lat="46.29259" lon="12.078825"><ele>954.25</ele></trkpt>
   <trkpt lat="46.29256" lon="12.078935"><ele>955.25</ele></trkpt>
   <trkpt lat="46.292543" lon="12.079075"><ele>956.75</ele></trkpt>
   <trkpt lat="46.292514" lon="12.079717"><ele>962.25</ele></trkpt>
   <trkpt lat="46.292522" lon="12.080204"><ele>966.75</ele></trkpt>
   <trkpt lat="46.292535" lon="12.080279"><ele>967.75</ele></trkpt>
   <trkpt lat="46.292596" lon="12.080435"><ele>969</ele></trkpt>
   <trkpt lat="46.292656" lon="12.080556"><ele>971</ele></trkpt>
   <trkpt lat="46.292677" lon="12.080703"><ele>972.25</ele></trkpt>
   <trkpt lat="46.292662" lon="12.081059"><ele>974</ele></trkpt>
   <trkpt lat="46.292649" lon="12.081922"><ele>980</ele></trkpt>
   <trkpt lat="46.292619" lon="12.082258"><ele>982.75</ele></trkpt>
   <trkpt lat="46.292497" lon="12.082865"><ele>988.25</ele></trkpt>
   <trkpt lat="46.292437" lon="12.083058"><ele>989</ele></trkpt>
   <trkpt lat="46.292371" lon="12.083227"><ele>990.75</ele></trkpt>
   <trkpt lat="46.292357" lon="12.083306"><ele>991.5</ele></trkpt>
   <trkpt lat="46.292359" lon="12.08339"><ele>991.75</ele></trkpt>
   <trkpt lat="46.292389" lon="12.083501"><ele>992</ele></trkpt>
   <trkpt lat="46.292964" lon="12.085111"><ele>1005</ele></trkpt>
   <trkpt lat="46.293241" lon="12.08594"><ele>1012.5</ele></trkpt>
   <trkpt lat="46.293645" lon="12.087112"><ele>1023.5</ele></trkpt>
   <trkpt lat="46.293748" lon="12.087365"><ele>1026.25</ele></trkpt>
   <trkpt lat="46.293842" lon="12.087526"><ele>1029</ele></trkpt>
   <trkpt lat="46.293988" lon="12.087656"><ele>1031.75</ele></trkpt>
   <trkpt lat="46.294141" lon="12.087755"><ele>1034.5</ele></trkpt>
   <trkpt lat="46.294309" lon="12.087841"><ele>1036.5</ele></trkpt>
   <trkpt lat="46.294484" lon="12.087907"><ele>1039</ele></trkpt>
   <trkpt lat="46.294571" lon="12.087921"><ele>1040.25</ele></trkpt>
   <trkpt lat="46.294669" lon="12.087923"><ele>1041.75</ele></trkpt>
   <trkpt lat="46.294868" lon="12.087865"><ele>1044.75</ele></trkpt>
   <trkpt lat="46.295129" lon="12.087695"><ele>1048.25</ele></trkpt>
   <trkpt lat="46.295227" lon="12.087659"><ele>1049</ele></trkpt>
   <trkpt lat="46.295315" lon="12.087644"><ele>1049.75</ele></trkpt>
   <trkpt lat="46.295415" lon="12.08765"><ele>1050.75</ele></trkpt>
   <trkpt lat="46.295668" lon="12.087692"><ele>1053.75</ele></trkpt>
   <trkpt lat="46.295747" lon="12.087688"><ele>1054.75</ele></trkpt>
   <trkpt lat="46.295808" lon="12.087668"><ele>1055.25</ele></trkpt>
   <trkpt lat="46.295892" lon="12.087613"><ele>1056</ele></trkpt>
   <trkpt lat="46.295965" lon="12.087555"><ele>1056.75</ele></trkpt>
   <trkpt lat="46.296034" lon="12.08748"><ele>1057.5</ele></trkpt>
   <trkpt lat="46.2961" lon="12.087371"><ele>1058.25</ele></trkpt>
   <trkpt lat="46.296155" lon="12.087254"><ele>1060.25</ele></trkpt>
   <trkpt lat="46.29618" lon="12.087118"><ele>1061.25</ele></trkpt>
   <trkpt lat="46.296202" lon="12.086815"><ele>1063</ele></trkpt>
   <trkpt lat="46.296182" lon="12.086502"><ele>1063.25</ele></trkpt>
   <trkpt lat="46.296146" lon="12.086197"><ele>1064.5</ele></trkpt>
   <trkpt lat="46.296109" lon="12.086053"><ele>1065.25</ele></trkpt>
   <trkpt lat="46.29606" lon="12.08592"><ele>1066.75</ele></trkpt>
   <trkpt lat="46.295991" lon="12.085795"><ele>1067.25</ele></trkpt>
   <trkpt lat="46.295921" lon="12.085693"><ele>1067.75</ele></trkpt>
   <trkpt lat="46.295626" lon="12.085392"><ele>1071</ele></trkpt>
   <trkpt lat="46.295579" lon="12.085293"><ele>1073</ele></trkpt>
   <trkpt lat="46.29555" lon="12.085204"><ele>1073.5</ele></trkpt>
   <trkpt lat="46.295471" lon="12.084856"><ele>1074.75</ele></trkpt>
   <trkpt lat="46.295431" lon="12.084734"><ele>1075.5</ele></trkpt>
   <trkpt lat="46.295378" lon="12.084623"><ele>1078.25</ele></trkpt>
   <trkpt lat="46.295244" lon="12.084399"><ele>1083.25</ele></trkpt>
   <trkpt lat="46.294961" lon="12.083865"><ele>1089.25</ele></trkpt>
   <trkpt lat="46.294864" lon="12.083588"><ele>1091.25</ele></trkpt>
   <trkpt lat="46.294826" lon="12.08342"><ele>1091.75</ele></trkpt>
   <trkpt lat="46.294728" lon="12.082697"><ele>1095.25</ele></trkpt>
   <trkpt lat="46.294606" lon="12.082195"><ele>1097.25</ele></trkpt>
   <trkpt lat="46.294589" lon="12.08207"><ele>1098.25</ele></trkpt>
   <trkpt lat="46.294591" lon="12.081966"><ele>1099.75</ele></trkpt>
   <trkpt lat="46.294618" lon="12.081856"><ele>1102</ele></trkpt>
   <trkpt lat="46.294671" lon="12.081773"><ele>1104.5</ele></trkpt>
   <trkpt lat="46.294746" lon="12.081723"><ele>1107</ele></trkpt>
   <trkpt lat="46.294826" lon="12.081707"><ele>1109</ele></trkpt>
   <trkpt lat="46.294914" lon="12.081729"><ele>1111</ele></trkpt>
   <trkpt lat="46.294983" lon="12.081791"><ele>1111.75</ele></trkpt>
   <trkpt lat="46.295047" lon="12.081877"><ele>1111.75</ele></trkpt>
   <trkpt lat="46.295096" lon="12.081986"><ele>1111.75</ele></trkpt>
   <trkpt lat="46.295138" lon="12.08211"><ele>1111.75</ele></trkpt>
   <trkpt lat="46.295242" lon="12.082332"><ele>1112.25</ele></trkpt>
   <trkpt lat="46.29532" lon="12.082416"><ele>1113.25</ele></trkpt>
   <trkpt lat="46.2954" lon="12.082469"><ele>1114</ele></trkpt>
   <trkpt lat="46.295495" lon="12.082511"><ele>1115</ele></trkpt>
   <trkpt lat="46.295677" lon="12.082574"><ele>1117.25</ele></trkpt>
   <trkpt lat="46.295754" lon="12.08264"><ele>1118.25</ele></trkpt>
   <trkpt lat="46.295829" lon="12.082731"><ele>1119</ele></trkpt>
   <trkpt lat="46.295905" lon="12.082864"><ele>1120.25</ele></trkpt>
   <trkpt lat="46.296005" lon="12.083156"><ele>1122.5</ele></trkpt>
   <trkpt lat="46.296064" lon="12.083808"><ele>1126.5</ele></trkpt>
   <trkpt lat="46.296102" lon="12.083956"><ele>1127.25</ele></trkpt>
   <trkpt lat="46.296155" lon="12.084091"><ele>1127.5</ele></trkpt>
   <trkpt lat="46.296224" lon="12.084193"><ele>1128.25</ele></trkpt>
   <trkpt lat="46.296331" lon="12.08428"><ele>1130.25</ele></trkpt>
   <trkpt lat="46.296428" lon="12.084317"><ele>1132.25</ele></trkpt>
   <trkpt lat="46.296516" lon="12.084318"><ele>1133.5</ele></trkpt>
   <trkpt lat="46.296616" lon="12.084291"><ele>1135.25</ele></trkpt>
   <trkpt lat="46.297314" lon="12.083954"><ele>1145.25</ele></trkpt>
   <trkpt lat="46.297543" lon="12.083903"><ele>1149.25</ele></trkpt>
   <trkpt lat="46.297764" lon="12.083932"><ele>1151</ele></trkpt>
   <trkpt lat="46.297972" lon="12.084014"><ele>1156</ele></trkpt>
   <trkpt lat="46.298066" lon="12.084076"><ele>1157.5</ele></trkpt>
   <trkpt lat="46.298221" lon="12.084244"><ele>1161</ele></trkpt>
   <trkpt lat="46.298294" lon="12.084473"><ele>1159</ele></trkpt>
   <trkpt lat="46.298292" lon="12.084574"><ele>1159.25</ele></trkpt>
   <trkpt lat="46.298269" lon="12.084665"><ele>1159.25</ele></trkpt>
   <trkpt lat="46.298227" lon="12.084763"><ele>1160.25</ele></trkpt>
   <trkpt lat="46.298085" lon="12.084907"><ele>1162.75</ele></trkpt>
   <trkpt lat="46.297972" lon="12.085064"><ele>1162.75</ele></trkpt>
   <trkpt lat="46.29793" lon="12.08527"><ele>1165.75</ele></trkpt>
   <trkpt lat="46.297928" lon="12.085405"><ele>1165.75</ele></trkpt>
   <trkpt lat="46.298026" lon="12.085922"><ele>1170</ele></trkpt>
   <trkpt lat="46.298045" lon="12.086203"><ele>1174</ele></trkpt>
   <trkpt lat="46.298024" lon="12.086451"><ele>1175.25</ele></trkpt>
   <trkpt lat="46.297992" lon="12.086582"><ele>1175.5</ele></trkpt>
   <trkpt lat="46.297855" lon="12.086879"><ele>1174.25</ele></trkpt>
   <trkpt lat="46.297831" lon="12.086992"><ele>1174.5</ele></trkpt>
   <trkpt lat="46.297837" lon="12.087116"><ele>1175</ele></trkpt>
   <trkpt lat="46.297871" lon="12.087211"><ele>1176.5</ele></trkpt>
   <trkpt lat="46.297924" lon="12.087291"><ele>1177.75</ele></trkpt>
   <trkpt lat="46.297993" lon="12.08734"><ele>1180</ele></trkpt>
   <trkpt lat="46.298055" lon="12.087356"><ele>1182.25</ele></trkpt>
   <trkpt lat="46.298116" lon="12.087344"><ele>1183.5</ele></trkpt>
   <trkpt lat="46.298174" lon="12.087293"><ele>1184.75</ele></trkpt>
   <trkpt lat="46.298252" lon="12.087101"><ele>1185.5</ele></trkpt>
   <trkpt lat="46.298261" lon="12.086985"><ele>1185.25</ele></trkpt>
   <trkpt lat="46.29825" lon="12.086567"><ele>1185.25</ele></trkpt>
   <trkpt lat="46.298263" lon="12.086429"><ele>1186.25</ele></trkpt>
   <trkpt lat="46.298367" lon="12.085889"><ele>1192.25</ele></trkpt>
   <trkpt lat="46.298449" lon="12.085662"><ele>1195.25</ele></trkpt>
   <trkpt lat="46.298496" lon="12.085581"><ele>1195.25</ele></trkpt>
   <trkpt lat="46.298569" lon="12.085538"><ele>1197</ele></trkpt>
   <trkpt lat="46.298664" lon="12.085512"><ele>1198.25</ele></trkpt>
   <trkpt lat="46.298835" lon="12.085508"><ele>1200.25</ele></trkpt>
   <trkpt lat="46.298945" lon="12.085461"><ele>1199.75</ele></trkpt>
   <trkpt lat="46.298996" lon="12.085403"><ele>1198.5</ele></trkpt>
   <trkpt lat="46.299036" lon="12.085341"><ele>1197.5</ele></trkpt>
   <trkpt lat="46.29906" lon="12.085252"><ele>1196.5</ele></trkpt>
   <trkpt lat="46.299069" lon="12.085151"><ele>1197.5</ele></trkpt>
   <trkpt lat="46.299049" lon="12.084936"><ele>1198.75</ele></trkpt>
   <trkpt lat="46.299034" lon="12.084667"><ele>1202.5</ele></trkpt>
   <trkpt lat="46.299049" lon="12.084521"><ele>1203.75</ele></trkpt>
   <trkpt lat="46.299105" lon="12.08426"><ele>1206</ele></trkpt>
   <trkpt lat="46.299244" lon="12.083856"><ele>1211.5</ele></trkpt>
   <trkpt lat="46.299271" lon="12.083697"><ele>1213.5</ele></trkpt>
   <trkpt lat="46.299266" lon="12.083579"><ele>1214</ele></trkpt>
   <trkpt lat="46.299236" lon="12.083449"><ele>1214.75</ele></trkpt>
   <trkpt lat="46.299196" lon="12.083327"><ele>1215</ele></trkpt>
   <trkpt lat="46.298854" lon="12.082831"><ele>1218.25</ele></trkpt>
   <trkpt lat="46.298677" lon="12.08252"><ele>1223</ele></trkpt>
   <trkpt lat="46.298628" lon="12.08241"><ele>1223.5</ele></trkpt>
   <trkpt lat="46.298549" lon="12.082186"><ele>1225.5</ele></trkpt>
   <trkpt lat="46.298476" lon="12.082088"><ele>1225.25</ele></trkpt>
   <trkpt lat="46.298405" lon="12.082028"><ele>1224.25</ele></trkpt>
   <trkpt lat="46.298221" lon="12.081902"><ele>1224</ele></trkpt>
   <trkpt lat="46.297939" lon="12.081656"><ele>1226.75</ele></trkpt>
   <trkpt lat="46.29778" lon="12.081457"><ele>1228.5</ele></trkpt>
   <trkpt lat="46.297715" lon="12.081348"><ele>1228.5</ele></trkpt>
   <trkpt lat="46.297667" lon="12.081222"><ele>1228.75</ele></trkpt>
   <trkpt lat="46.297613" lon="12.080947"><ele>1229.25</ele></trkpt>
   <trkpt lat="46.297607" lon="12.080331"><ele>1232.5</ele></trkpt>
   <trkpt lat="46.297622" lon="12.080133"><ele>1235.5</ele></trkpt>
   <trkpt lat="46.297676" lon="12.079981"><ele>1240</ele></trkpt>
   <trkpt lat="46.297713" lon="12.079945"><ele>1241.75</ele></trkpt>
   <trkpt lat="46.297799" lon="12.07991"><ele>1243.5</ele></trkpt>
   <trkpt lat="46.297882" lon="12.079916"><ele>1241.25</ele></trkpt>
   <trkpt lat="46.297924" lon="12.079938"><ele>1240.5</ele></trkpt>
   <trkpt lat="46.297977" lon="12.079999"><ele>1240.5</ele></trkpt>
   <trkpt lat="46.298464" lon="12.08079"><ele>1254.5</ele></trkpt>
   <trkpt lat="46.298566" lon="12.080898"><ele>1255.75</ele></trkpt>
   <trkpt lat="46.298671" lon="12.080962"><ele>1256.75</ele></trkpt>
   <trkpt lat="46.298866" lon="12.080962"><ele>1256.5</ele></trkpt>
   <trkpt lat="46.298983" lon="12.080931"><ele>1259</ele></trkpt>
   <trkpt lat="46.299158" lon="12.080789"><ele>1258.5</ele></trkpt>
   <trkpt lat="46.299327" lon="12.080679"><ele>1261</ele></trkpt>
   <trkpt lat="46.29951" lon="12.080568"><ele>1263.75</ele></trkpt>
   <trkpt lat="46.29969" lon="12.080488"><ele>1266.5</ele></trkpt>
   <trkpt lat="46.29985" lon="12.080448"><ele>1267.25</ele></trkpt>
   <trkpt lat="46.299931" lon="12.080461"><ele>1268.75</ele></trkpt>
   <trkpt lat="46.300075" lon="12.080561"><ele>1271.25</ele></trkpt>
   <trkpt lat="46.300288" lon="12.080783"><ele>1275.75</ele></trkpt>
   <trkpt lat="46.300403" lon="12.080934"><ele>1275.25</ele></trkpt>
   <trkpt lat="46.300481" lon="12.0811"><ele>1276.5</ele></trkpt>
   <trkpt lat="46.300813" lon="12.082121"><ele>1292.5</ele></trkpt>
   <trkpt lat="46.300858" lon="12.082214"><ele>1294</ele></trkpt>
   <trkpt lat="46.300913" lon="12.082292"><ele>1294.25</ele></trkpt>
   <trkpt lat="46.300977" lon="12.082352"><ele>1294</ele></trkpt>
   <trkpt lat="46.301062" lon="12.082392"><ele>1292.75</ele></trkpt>
   <trkpt lat="46.301289" lon="12.082443"><ele>1292.75</ele></trkpt>
   <trkpt lat="46.301414" lon="12.082471"><ele>1293.25</ele></trkpt>
   <trkpt lat="46.301465" lon="12.082494"><ele>1293.75</ele></trkpt>
   <trkpt lat="46.301505" lon="12.082523"><ele>1294.25</ele></trkpt>
   <trkpt lat="46.301604" lon="12.082646"><ele>1296</ele></trkpt>
   <trkpt lat="46.301731" lon="12.082919"><ele>1300.5</ele></trkpt>
   <trkpt lat="46.301802" lon="12.083008"><ele>1301.75</ele></trkpt>
   <trkpt lat="46.301964" lon="12.083099"><ele>1303.5</ele></trkpt>
   <trkpt lat="46.302054" lon="12.083118"><ele>1305.25</ele></trkpt>
   <trkpt lat="46.302141" lon="12.083116"><ele>1306</ele></trkpt>
   <trkpt lat="46.302289" lon="12.083096"><ele>1306.5</ele></trkpt>
   <trkpt lat="46.302516" lon="12.083094"><ele>1307.5</ele></trkpt>
   <trkpt lat="46.302627" lon="12.083055"><ele>1308.5</ele></trkpt>
   <trkpt lat="46.3027" lon="12.082994"><ele>1308.75</ele></trkpt>
   <trkpt lat="46.302833" lon="12.082855"><ele>1309</ele></trkpt>
   <trkpt lat="46.302922" lon="12.082799"><ele>1310.5</ele></trkpt>
   <trkpt lat="46.30325" lon="12.082782"><ele>1316.75</ele></trkpt>
   <trkpt lat="46.303434" lon="12.08281"><ele>1319.75</ele></trkpt>
   <trkpt lat="46.303628" lon="12.082866"><ele>1323.25</ele></trkpt>
   <trkpt lat="46.304084" lon="12.083055"><ele>1327.25</ele></trkpt>
   <trkpt lat="46.304171" lon="12.083072"><ele>1328.25</ele></trkpt>
   <trkpt lat="46.304257" lon="12.083088"><ele>1329.5</ele></trkpt>
   <trkpt lat="46.304474" lon="12.083072"><ele>1331.75</ele></trkpt>
   <trkpt lat="46.304749" lon="12.083034"><ele>1336.5</ele></trkpt>
   <trkpt lat="46.305019" lon="12.083016"><ele>1337.25</ele></trkpt>
   <trkpt lat="46.305163" lon="12.082971"><ele>1338.25</ele></trkpt>
   <trkpt lat="46.305324" lon="12.08286"><ele>1338</ele></trkpt>
   <trkpt lat="46.305486" lon="12.082816"><ele>1340.5</ele></trkpt>
   <trkpt lat="46.305697" lon="12.082732"><ele>1344.5</ele></trkpt>
   <trkpt lat="46.305931" lon="12.082615"><ele>1347.5</ele></trkpt>
   <trkpt lat="46.306426" lon="12.082504"><ele>1352.5</ele></trkpt>
   <trkpt lat="46.306682" lon="12.082476"><ele>1355</ele></trkpt>
   <trkpt lat="46.306871" lon="12.082526"><ele>1358.5</ele></trkpt>
   <trkpt lat="46.307332" lon="12.082827"><ele>1364.25</ele></trkpt>
   <trkpt lat="46.307438" lon="12.082971"><ele>1367</ele></trkpt>
   <trkpt lat="46.307532" lon="12.083021"><ele>1368</ele></trkpt>
   <trkpt lat="46.307605" lon="12.083021"><ele>1369</ele></trkpt>
   <trkpt lat="46.307833" lon="12.082977"><ele>1368.5</ele></trkpt>
   <trkpt lat="46.30795" lon="12.083038"><ele>1370</ele></trkpt>
   <trkpt lat="46.308161" lon="12.083277"><ele>1375.75</ele></trkpt>
   <trkpt lat="46.308328" lon="12.083394"><ele>1376.25</ele></trkpt>
   <trkpt lat="46.3084" lon="12.083427"><ele>1377.5</ele></trkpt>
   <trkpt lat="46.3087" lon="12.083533"><ele>1380</ele></trkpt>
   <trkpt lat="46.308789" lon="12.08365"><ele>1384.25</ele></trkpt>
   <trkpt lat="46.309201" lon="12.084128"><ele>1391.75</ele></trkpt>
   <trkpt lat="46.309329" lon="12.084195"><ele>1393</ele></trkpt>
   <trkpt lat="46.309501" lon="12.084223"><ele>1392.25</ele></trkpt>
   <trkpt lat="46.309763" lon="12.084384"><ele>1396</ele></trkpt>
   <trkpt lat="46.309929" lon="12.084523"><ele>1399.75</ele></trkpt>
   <trkpt lat="46.310057" lon="12.084523"><ele>1398.25</ele></trkpt>
   <trkpt lat="46.310231" lon="12.084626"><ele>1400.25</ele></trkpt>
   <trkpt lat="46.310527" lon="12.085078"><ele>1406.75</ele></trkpt>
   <trkpt lat="46.310605" lon="12.085348"><ele>1413.25</ele></trkpt>
   <trkpt lat="46.310762" lon="12.085521"><ele>1417.25</ele></trkpt>
   <trkpt lat="46.31099" lon="12.08553"><ele>1415.75</ele></trkpt>
   <trkpt lat="46.311056" lon="12.085505"><ele>1414.5</ele></trkpt>
   <trkpt lat="46.311157" lon="12.085494"><ele>1413.25</ele></trkpt>
   <trkpt lat="46.311244" lon="12.085532"><ele>1414</ele></trkpt>
   <trkpt lat="46.31146" lon="12.085739"><ele>1418.25</ele></trkpt>
   <trkpt lat="46.311531" lon="12.085843"><ele>1419.5</ele></trkpt>
   <trkpt lat="46.311585" lon="12.08601"><ele>1422.5</ele></trkpt>
   <trkpt lat="46.311664" lon="12.086491"><ele>1426.75</ele></trkpt>
   <trkpt lat="46.311731" lon="12.086717"><ele>1429.5</ele></trkpt>
   <trkpt lat="46.312413" lon="12.087907"><ele>1435</ele></trkpt>
   <trkpt lat="46.31244" lon="12.088136"><ele>1438</ele></trkpt>
   <trkpt lat="46.312453" lon="12.088351"><ele>1441</ele></trkpt>
   <trkpt lat="46.312512" lon="12.088527"><ele>1442.25</ele></trkpt>
   <trkpt lat="46.312673" lon="12.088902"><ele>1444.25</ele></trkpt>
   <trkpt lat="46.312698" lon="12.088989"><ele>1445</ele></trkpt>
   <trkpt lat="46.312716" lon="12.089305"><ele>1449.75</ele></trkpt>
   <trkpt lat="46.312748" lon="12.089478"><ele>1451.25</ele></trkpt>
   <trkpt lat="46.312791" lon="12.089633"><ele>1453</ele></trkpt>
   <trkpt lat="46.312887" lon="12.089895"><ele>1453.5</ele></trkpt>
   <trkpt lat="46.312884" lon="12.090009"><ele>1455</ele></trkpt>
   <trkpt lat="46.312854" lon="12.090071"><ele>1456.75</ele></trkpt>
   <trkpt lat="46.312775" lon="12.090152"><ele>1460.25</ele></trkpt>
   <trkpt lat="46.312767" lon="12.090253"><ele>1461.5</ele></trkpt>
   <trkpt lat="46.312819" lon="12.090471"><ele>1462.5</ele></trkpt>
   <trkpt lat="46.312853" lon="12.090658"><ele>1464</ele></trkpt>
   <trkpt lat="46.312903" lon="12.091015"><ele>1467.25</ele></trkpt>
   <trkpt lat="46.312921" lon="12.091432"><ele>1472.75</ele></trkpt>
   <trkpt lat="46.313025" lon="12.091747"><ele>1471.5</ele></trkpt>
   <trkpt lat="46.313103" lon="12.092061"><ele>1473.5</ele></trkpt>
   <trkpt lat="46.31312" lon="12.092292"><ele>1476.75</ele></trkpt>
   <trkpt lat="46.313104" lon="12.092536"><ele>1482</ele></trkpt>
   <trkpt lat="46.313125" lon="12.092724"><ele>1484.75</ele></trkpt>
   <trkpt lat="46.31321" lon="12.092915"><ele>1485</ele></trkpt>
   <trkpt lat="46.313322" lon="12.093127"><ele>1483.5</ele></trkpt>
   <trkpt lat="46.313427" lon="12.093412"><ele>1484.75</ele></trkpt>
   <trkpt lat="46.313541" lon="12.09387"><ele>1490.25</ele></trkpt>
   <trkpt lat="46.313543" lon="12.094092"><ele>1490.5</ele></trkpt>
   <trkpt lat="46.313431" lon="12.094664"><ele>1491.25</ele></trkpt>
   <trkpt lat="46.313382" lon="12.094795"><ele>1491.75</ele></trkpt>
   <trkpt lat="46.313325" lon="12.094893"><ele>1493.25</ele></trkpt>
   <trkpt lat="46.313056" lon="12.095241"><ele>1497.25</ele></trkpt>
   <trkpt lat="46.312836" lon="12.095544"><ele>1498.25</ele></trkpt>
   <trkpt lat="46.312678" lon="12.095824"><ele>1498.25</ele></trkpt>
   <trkpt lat="46.312586" lon="12.096066"><ele>1498.5</ele></trkpt>
   <trkpt lat="46.312532" lon="12.096306"><ele>1498</ele></trkpt>
   <trkpt lat="46.312452" lon="12.096923"><ele>1500.5</ele></trkpt>
   <trkpt lat="46.312406" lon="12.097423"><ele>1503.25</ele></trkpt>
   <trkpt lat="46.312397" lon="12.097655"><ele>1502</ele></trkpt>
   <trkpt lat="46.312411" lon="12.09785"><ele>1501.5</ele></trkpt>
   <trkpt lat="46.312479" lon="12.098249"><ele>1503.5</ele></trkpt>
   <trkpt lat="46.312601" lon="12.099069"><ele>1506.5</ele></trkpt>
   <trkpt lat="46.312656" lon="12.099553"><ele>1510.5</ele></trkpt>
   <trkpt lat="46.312689" lon="12.099725"><ele>1511.5</ele></trkpt>
   <trkpt lat="46.312755" lon="12.099899"><ele>1512.75</ele></trkpt>
   <trkpt lat="46.312813" lon="12.099967"><ele>1513.5</ele></trkpt>
   <trkpt lat="46.312891" lon="12.100019"><ele>1514</ele></trkpt>
   <trkpt lat="46.312986" lon="12.100052"><ele>1514.5</ele></trkpt>
   <trkpt lat="46.313184" lon="12.100083"><ele>1516.5</ele></trkpt>
   <trkpt lat="46.313656" lon="12.100127"><ele>1521.5</ele></trkpt>
   <trkpt lat="46.313842" lon="12.100135"><ele>1523.25</ele></trkpt>
   <trkpt lat="46.313935" lon="12.100123"><ele>1524</ele></trkpt>
   <trkpt lat="46.314027" lon="12.100079"><ele>1524</ele></trkpt>
   <trkpt lat="46.314175" lon="12.099926"><ele>1523.5</ele></trkpt>
   <trkpt lat="46.314276" lon="12.099748"><ele>1524</ele></trkpt>
   <trkpt lat="46.314407" lon="12.099456"><ele>1525</ele></trkpt>
   <trkpt lat="46.314442" lon="12.099244"><ele>1525.75</ele></trkpt>
   <trkpt lat="46.31445" lon="12.099126"><ele>1526.25</ele></trkpt>
   <trkpt lat="46.314455" lon="12.098471"><ele>1527.5</ele></trkpt>
   <trkpt lat="46.314492" lon="12.098225"><ele>1529</ele></trkpt>
   <trkpt lat="46.314601" lon="12.097743"><ele>1530.25</ele></trkpt>
   <trkpt lat="46.314666" lon="12.097531"><ele>1530</ele></trkpt>
   <trkpt lat="46.314716" lon="12.097327"><ele>1531.5</ele></trkpt>
   <trkpt lat="46.314727" lon="12.097215"><ele>1532</ele></trkpt>
   <trkpt lat="46.314724" lon="12.096996"><ele>1532</ele></trkpt>
   <trkpt lat="46.314754" lon="12.096799"><ele>1532</ele></trkpt>
   <trkpt lat="46.314784" lon="12.096709"><ele>1532</ele></trkpt>
   <trkpt lat="46.314878" lon="12.096552"><ele>1533</ele></trkpt>
   <trkpt lat="46.31509" lon="12.096261"><ele>1534.25</ele></trkpt>
   <trkpt lat="46.315165" lon="12.096191"><ele>1534.5</ele></trkpt>
   <trkpt lat="46.315427" lon="12.096102"><ele>1538</ele></trkpt>
   <trkpt lat="46.315492" lon="12.096066"><ele>1538.5</ele></trkpt>
   <trkpt lat="46.315539" lon="12.096025"><ele>1538.75</ele></trkpt>
   <trkpt lat="46.31564" lon="12.095799"><ele>1536.5</ele></trkpt>
   <trkpt lat="46.3157" lon="12.095752"><ele>1537</ele></trkpt>
   <trkpt lat="46.315994" lon="12.095669"><ele>1542.75</ele></trkpt>
   <trkpt lat="46.316033" lon="12.095654"><ele>1543.5</ele></trkpt>
   <trkpt lat="46.316083" lon="12.095608"><ele>1543</ele></trkpt>
   <trkpt lat="46.316121" lon="12.095561"><ele>1542.5</ele></trkpt>
   <trkpt lat="46.316199" lon="12.095358"><ele>1541.75</ele></trkpt>
   <trkpt lat="46.316241" lon="12.095276"><ele>1541.5</ele></trkpt>
   <trkpt lat="46.316281" lon="12.095231"><ele>1541.5</ele></trkpt>
   <trkpt lat="46.316426" lon="12.095122"><ele>1542.75</ele></trkpt>
   <trkpt lat="46.316543" lon="12.095023"><ele>1543.75</ele></trkpt>
   <trkpt lat="46.316628" lon="12.094914"><ele>1544.25</ele></trkpt>
   <trkpt lat="46.316704" lon="12.094796"><ele>1544.75</ele></trkpt>
   <trkpt lat="46.31674" lon="12.094666"><ele>1544</ele></trkpt>
   <trkpt lat="46.316807" lon="12.094377"><ele>1541.25</ele></trkpt>
   <trkpt lat="46.316864" lon="12.094285"><ele>1542</ele></trkpt>
   <trkpt lat="46.316936" lon="12.094221"><ele>1543.25</ele></trkpt>
   <trkpt lat="46.317127" lon="12.094123"><ele>1544.75</ele></trkpt>
   <trkpt lat="46.317456" lon="12.093919"><ele>1546.75</ele></trkpt>
   <trkpt lat="46.317536" lon="12.093835"><ele>1547.25</ele></trkpt>
   <trkpt lat="46.317599" lon="12.093719"><ele>1547.75</ele></trkpt>
   <trkpt lat="46.317666" lon="12.093548"><ele>1547.75</ele></trkpt>
   <trkpt lat="46.317766" lon="12.093258"><ele>1550.25</ele></trkpt>
   <trkpt lat="46.317868" lon="12.0929"><ele>1551.5</ele></trkpt>
   <trkpt lat="46.317907" lon="12.092814"><ele>1551.25</ele></trkpt>
   <trkpt lat="46.317955" lon="12.092758"><ele>1551.5</ele></trkpt>
   <trkpt lat="46.318004" lon="12.092728"><ele>1552</ele></trkpt>
   <trkpt lat="46.318355" lon="12.092743"><ele>1554.75</ele></trkpt>
   <trkpt lat="46.318512" lon="12.092745"><ele>1553.75</ele></trkpt>
   <trkpt lat="46.318562" lon="12.092784"><ele>1554.5</ele></trkpt>
   <trkpt lat="46.318658" lon="12.092925"><ele>1558</ele></trkpt>
   <trkpt lat="46.318848" lon="12.0933"><ele>1563</ele></trkpt>
   <trkpt lat="46.318939" lon="12.09351"><ele>1565.5</ele></trkpt>
   <trkpt lat="46.318986" lon="12.093582"><ele>1566</ele></trkpt>
   <trkpt lat="46.319051" lon="12.093652"><ele>1566.5</ele></trkpt>
   <trkpt lat="46.319116" lon="12.093694"><ele>1566.25</ele></trkpt>
   <trkpt lat="46.319184" lon="12.093716"><ele>1566.25</ele></trkpt>
   <trkpt lat="46.319249" lon="12.093716"><ele>1567.25</ele></trkpt>
   <trkpt lat="46.319314" lon="12.093695"><ele>1567.5</ele></trkpt>
   <trkpt lat="46.319373" lon="12.093661"><ele>1567.5</ele></trkpt>
   <trkpt lat="46.319484" lon="12.093552"><ele>1566.5</ele></trkpt>
   <trkpt lat="46.319574" lon="12.093436"><ele>1566.25</ele></trkpt>
   <trkpt lat="46.319635" lon="12.093298"><ele>1565.5</ele></trkpt>
   <trkpt lat="46.319675" lon="12.093152"><ele>1564.25</ele></trkpt>
   <trkpt lat="46.319717" lon="12.093083"><ele>1564.25</ele></trkpt>
   <trkpt lat="46.319765" lon="12.093034"><ele>1564.25</ele></trkpt>
   <trkpt lat="46.319886" lon="12.092959"><ele>1564.75</ele></trkpt>
   <trkpt lat="46.320026" lon="12.092911"><ele>1566.25</ele></trkpt>
   <trkpt lat="46.320104" lon="12.092895"><ele>1567</ele></trkpt>
   <trkpt lat="46.320185" lon="12.092892"><ele>1568</ele></trkpt>
   <trkpt lat="46.320324" lon="12.092913"><ele>1569.75</ele></trkpt>
   <trkpt lat="46.320696" lon="12.093067"><ele>1574</ele></trkpt>
   <trkpt lat="46.320783" lon="12.093091"><ele>1575.25</ele></trkpt>
   <trkpt lat="46.320975" lon="12.093123"><ele>1577.25</ele></trkpt>
   <trkpt lat="46.321345" lon="12.093152"><ele>1581.25</ele></trkpt>
   <trkpt lat="46.321525" lon="12.093174"><ele>1582.25</ele></trkpt>
   <trkpt lat="46.321828" lon="12.093146"><ele>1583</ele></trkpt>
   <trkpt lat="46.32198" lon="12.093165"><ele>1584.25</ele></trkpt>
   <trkpt lat="46.322116" lon="12.093216"><ele>1584.75</ele></trkpt>
   <trkpt lat="46.322301" lon="12.09332"><ele>1587</ele></trkpt>
   <trkpt lat="46.322347" lon="12.093364"><ele>1587.5</ele></trkpt>
   <trkpt lat="46.322385" lon="12.093424"><ele>1588.25</ele></trkpt>
   <trkpt lat="46.322434" lon="12.093573"><ele>1590</ele></trkpt>
   <trkpt lat="46.322494" lon="12.093724"><ele>1592</ele></trkpt>
   <trkpt lat="46.322565" lon="12.093852"><ele>1593.5</ele></trkpt>
   <trkpt lat="46.322737" lon="12.094019"><ele>1593.75</ele></trkpt>
   <trkpt lat="46.322798" lon="12.094142"><ele>1595.25</ele></trkpt>
   <trkpt lat="46.322903" lon="12.094638"><ele>1598.5</ele></trkpt>
   <trkpt lat="46.322959" lon="12.094875"><ele>1600</ele></trkpt>
   <trkpt lat="46.323032" lon="12.095047"><ele>1600.5</ele></trkpt>
   <trkpt lat="46.323122" lon="12.095147"><ele>1601.25</ele></trkpt>
   <trkpt lat="46.323173" lon="12.095185"><ele>1601.5</ele></trkpt>
   <trkpt lat="46.323262" lon="12.095225"><ele>1601.5</ele></trkpt>
   <trkpt lat="46.323415" lon="12.095263"><ele>1601.75</ele></trkpt>
   <trkpt lat="46.323667" lon="12.095301"><ele>1602</ele></trkpt>
   <trkpt lat="46.323813" lon="12.095337"><ele>1601.75</ele></trkpt>
   <trkpt lat="46.323966" lon="12.095403"><ele>1602</ele></trkpt>
   <trkpt lat="46.324117" lon="12.095478"><ele>1602.25</ele></trkpt>
  </trkseg>
 </trk>
</gpx>
