<?xml version="1.0" encoding="UTF-8"?>
<gpx 
 xmlns="http://www.topografix.com/GPX/1/1" 
 xmlns:xsi="http://www.w3.org/2001/XMLSchema-instance" 
 xsi:schemaLocation="http://www.topografix.com/GPX/1/1 http://www.topografix.com/GPX/1/1/gpx.xsd" 
 version="1.1" 
 creator="BRouter-Web 0.18.1">
 <trk>
  <name>Piancavallo (14.3km, trimmed to true climb span)</name>
  <trkseg>
   <trkpt lat="46.069683" lon="12.571707"><ele>156.75</ele></trkpt>
   <trkpt lat="46.069621" lon="12.571626"><ele>157.25</ele></trkpt>
   <trkpt lat="46.069591" lon="12.571527"><ele>157.75</ele></trkpt>
   <trkpt lat="46.069569" lon="12.571378"><ele>158.5</ele></trkpt>
   <trkpt lat="46.069711" lon="12.570996"><ele>161.75</ele></trkpt>
   <trkpt lat="46.069738" lon="12.57085"><ele>162.5</ele></trkpt>
   <trkpt lat="46.069743" lon="12.570685"><ele>163.5</ele></trkpt>
   <trkpt lat="46.069722" lon="12.570124"><ele>167.5</ele></trkpt>
   <trkpt lat="46.069724" lon="12.569984"><ele>168</ele></trkpt>
   <trkpt lat="46.069739" lon="12.569862"><ele>169.5</ele></trkpt>
   <trkpt lat="46.069928" lon="12.569214"><ele>173.75</ele></trkpt>
   <trkpt lat="46.070044" lon="12.568647"><ele>178.25</ele></trkpt>
   <trkpt lat="46.070141" lon="12.567827"><ele>181</ele></trkpt>
   <trkpt lat="46.070183" lon="12.567359"><ele>184</ele></trkpt>
   <trkpt lat="46.070194" lon="12.567134"><ele>186</ele></trkpt>
   <trkpt lat="46.070144" lon="12.566261"><ele>195.5</ele></trkpt>
   <trkpt lat="46.070129" lon="12.565861"><ele>197</ele></trkpt>
   <trkpt lat="46.07009" lon="12.565589"><ele>197</ele></trkpt>
   <trkpt lat="46.070059" lon="12.565306"><ele>200.75</ele></trkpt>
   <trkpt lat="46.070024" lon="12.565136"><ele>202.25</ele></trkpt>
   <trkpt lat="46.069977" lon="12.565007"><ele>202.25</ele></trkpt>
   <trkpt lat="46.069896" lon="12.564854"><ele>203.75</ele></trkpt>
   <trkpt lat="46.069377" lon="12.56414"><ele>210.5</ele></trkpt>
   <trkpt lat="46.068819" lon="12.563254"><ele>219</ele></trkpt>
   <trkpt lat="46.068778" lon="12.563158"><ele>219.75</ele></trkpt>
   <trkpt lat="46.068752" lon="12.563064"><ele>220.75</ele></trkpt>
   <trkpt lat="46.068733" lon="12.562955"><ele>221.25</ele></trkpt>
   <trkpt lat="46.068728" lon="12.562861"><ele>222</ele></trkpt>
   <trkpt lat="46.068734" lon="12.562801"><ele>222.75</ele></trkpt>
   <trkpt lat="46.068758" lon="12.562707"><ele>224</ele></trkpt>
   <trkpt lat="46.068806" lon="12.562607"><ele>225.5</ele></trkpt>
   <trkpt lat="46.06886" lon="12.562556"><ele>226.5</ele></trkpt>
   <trkpt lat="46.068921" lon="12.562524"><ele>227.25</ele></trkpt>
   <trkpt lat="46.068992" lon="12.562517"><ele>228</ele></trkpt>
   <trkpt lat="46.069065" lon="12.56253"><ele>229</ele></trkpt>
   <trkpt lat="46.069184" lon="12.562577"><ele>230.75</ele></trkpt>
   <trkpt lat="46.069629" lon="12.562971"><ele>234.75</ele></trkpt>
   <trkpt lat="46.07157" lon="12.564594"><ele>251</ele></trkpt>
   <trkpt lat="46.072012" lon="12.565013"><ele>257.75</ele></trkpt>
   <trkpt lat="46.072589" lon="12.565587"><ele>261.25</ele></trkpt>
   <trkpt lat="46.072815" lon="12.565795"><ele>264.25</ele></trkpt>
   <trkpt lat="46.072866" lon="12.56583"><ele>264.5</ele></trkpt>
   <trkpt lat="46.072924" lon="12.56584"><ele>265</ele></trkpt>
   <trkpt lat="46.072988" lon="12.565817"><ele>265.5</ele></trkpt>
   <trkpt lat="46.073058" lon="12.565747"><ele>266.25</ele></trkpt>
   <trkpt lat="46.073099" lon="12.565668"><ele>266.5</ele></trkpt>
   <trkpt lat="46.073137" lon="12.565531"><ele>267</ele></trkpt>
   <trkpt lat="46.073234" lon="12.564769"><ele>274.5</ele></trkpt>
   <trkpt lat="46.073277" lon="12.564617"><ele>276</ele></trkpt>
   <trkpt lat="46.073383" lon="12.56431"><ele>279.5</ele></trkpt>
   <trkpt lat="46.073473" lon="12.564146"><ele>281.75</ele></trkpt>
   <trkpt lat="46.073569" lon="12.564032"><ele>282.25</ele></trkpt>
   <trkpt lat="46.073825" lon="12.563764"><ele>285.75</ele></trkpt>
   <trkpt lat="46.073879" lon="12.563684"><ele>286.5</ele></trkpt>
   <trkpt lat="46.073898" lon="12.563606"><ele>286.75</ele></trkpt>
   <trkpt lat="46.073899" lon="12.563532"><ele>286.75</ele></trkpt>
   <trkpt lat="46.073872" lon="12.563428"><ele>287.75</ele></trkpt>
   <trkpt lat="46.073837" lon="12.56338"><ele>288.5</ele></trkpt>
   <trkpt lat="46.073804" lon="12.563351"><ele>289</ele></trkpt>
   <trkpt lat="46.073755" lon="12.563336"><ele>289.75</ele></trkpt>
   <trkpt lat="46.073692" lon="12.563342"><ele>290.75</ele></trkpt>
   <trkpt lat="46.073333" lon="12.563518"><ele>293.5</ele></trkpt>
   <trkpt lat="46.072952" lon="12.56364"><ele>296.5</ele></trkpt>
   <trkpt lat="46.072852" lon="12.563629"><ele>297.75</ele></trkpt>
   <trkpt lat="46.072775" lon="12.563561"><ele>299.5</ele></trkpt>
   <trkpt lat="46.072409" lon="12.563025"><ele>305.25</ele></trkpt>
   <trkpt lat="46.07231" lon="12.562918"><ele>306.5</ele></trkpt>
   <trkpt lat="46.071886" lon="12.562391"><ele>312.25</ele></trkpt>
   <trkpt lat="46.07186" lon="12.562339"><ele>312.75</ele></trkpt>
   <trkpt lat="46.071813" lon="12.562173"><ele>314</ele></trkpt>
   <trkpt lat="46.071805" lon="12.562095"><ele>314.75</ele></trkpt>
   <trkpt lat="46.071819" lon="12.561948"><ele>316.75</ele></trkpt>
   <trkpt lat="46.071903" lon="12.56135"><ele>321.5</ele></trkpt>
   <trkpt lat="46.071919" lon="12.561074"><ele>324.5</ele></trkpt>
   <trkpt lat="46.071912" lon="12.560975"><ele>325</ele></trkpt>
   <trkpt lat="46.071823" lon="12.560572"><ele>328.5</ele></trkpt>
   <trkpt lat="46.071756" lon="12.560375"><ele>329.75</ele></trkpt>
   <trkpt lat="46.071648" lon="12.560113"><ele>331.25</ele></trkpt>
   <trkpt lat="46.071634" lon="12.560048"><ele>331.5</ele></trkpt>
   <trkpt lat="46.071622" lon="12.559913"><ele>332.5</ele></trkpt>
   <trkpt lat="46.071633" lon="12.559526"><ele>336.75</ele></trkpt>
   <trkpt lat="46.071626" lon="12.559451"><ele>337.25</ele></trkpt>
   <trkpt lat="46.071611" lon="12.559386"><ele>338</ele></trkpt>
   <trkpt lat="46.071595" lon="12.559324"><ele>338.5</ele></trkpt>
   <trkpt lat="46.071551" lon="12.559224"><ele>339.5</ele></trkpt>
   <trkpt lat="46.071454" lon="12.559039"><ele>340.75</ele></trkpt>
   <trkpt lat="46.071218" lon="12.558657"><ele>345.25</ele></trkpt>
   <trkpt lat="46.071055" lon="12.558423"><ele>348.75</ele></trkpt>
   <trkpt lat="46.071017" lon="12.558358"><ele>349.5</ele></trkpt>
   <trkpt lat="46.070722" lon="12.557639"><ele>356</ele></trkpt>
   <trkpt lat="46.070713" lon="12.557585"><ele>356.5</ele></trkpt>
   <trkpt lat="46.070715" lon="12.557086"><ele>360</ele></trkpt>
   <trkpt lat="46.0707" lon="12.556936"><ele>361.25</ele></trkpt>
   <trkpt lat="46.070636" lon="12.556484"><ele>367</ele></trkpt>
   <trkpt lat="46.07057" lon="12.556178"><ele>367</ele></trkpt>
   <trkpt lat="46.070528" lon="12.556052"><ele>367.25</ele></trkpt>
   <trkpt lat="46.070321" lon="12.555729"><ele>369.5</ele></trkpt>
   <trkpt lat="46.070294" lon="12.555657"><ele>369.75</ele></trkpt>
   <trkpt lat="46.07028" lon="12.555573"><ele>369.75</ele></trkpt>
   <trkpt lat="46.07028" lon="12.555487"><ele>370.25</ele></trkpt>
   <trkpt lat="46.070397" lon="12.554743"><ele>375.75</ele></trkpt>
   <trkpt lat="46.070469" lon="12.554174"><ele>378</ele></trkpt>
   <trkpt lat="46.070499" lon="12.554037"><ele>379</ele></trkpt>
   <trkpt lat="46.070693" lon="12.553418"><ele>386.25</ele></trkpt>
   <trkpt lat="46.070722" lon="12.553263"><ele>387.5</ele></trkpt>
   <trkpt lat="46.070734" lon="12.553107"><ele>387.75</ele></trkpt>
   <trkpt lat="46.07071" lon="12.552926"><ele>388</ele></trkpt>
   <trkpt lat="46.070631" lon="12.55248"><ele>391.25</ele></trkpt>
   <trkpt lat="46.070611" lon="12.552279"><ele>392.25</ele></trkpt>
   <trkpt lat="46.070641" lon="12.552027"><ele>393.75</ele></trkpt>
   <trkpt lat="46.070695" lon="12.551826"><ele>394</ele></trkpt>
   <trkpt lat="46.070739" lon="12.551744"><ele>394.5</ele></trkpt>
   <trkpt lat="46.070798" lon="12.551659"><ele>395</ele></trkpt>
   <trkpt lat="46.071167" lon="12.551302"><ele>400.25</ele></trkpt>
   <trkpt lat="46.071232" lon="12.551268"><ele>401.25</ele></trkpt>
   <trkpt lat="46.071294" lon="12.551259"><ele>402.25</ele></trkpt>
   <trkpt lat="46.071729" lon="12.551298"><ele>405.5</ele></trkpt>
   <trkpt lat="46.071803" lon="12.551295"><ele>405.75</ele></trkpt>
   <trkpt lat="46.071946" lon="12.551248"><ele>406.5</ele></trkpt>
   <trkpt lat="46.072024" lon="12.551186"><ele>407</ele></trkpt>
   <trkpt lat="46.072139" lon="12.551062"><ele>408</ele></trkpt>
   <trkpt lat="46.072467" lon="12.55064"><ele>412.5</ele></trkpt>
   <trkpt lat="46.073666" lon="12.549149"><ele>428.75</ele></trkpt>
   <trkpt lat="46.073918" lon="12.548855"><ele>432.5</ele></trkpt>
   <trkpt lat="46.073981" lon="12.548755"><ele>433.75</ele></trkpt>
   <trkpt lat="46.07402" lon="12.548648"><ele>435</ele></trkpt>
   <trkpt lat="46.074113" lon="12.548249"><ele>438.75</ele></trkpt>
   <trkpt lat="46.074136" lon="12.548177"><ele>439</ele></trkpt>
   <trkpt lat="46.074167" lon="12.548131"><ele>439.5</ele></trkpt>
   <trkpt lat="46.074496" lon="12.547745"><ele>445.25</ele></trkpt>
   <trkpt lat="46.074535" lon="12.547675"><ele>446</ele></trkpt>
   <trkpt lat="46.074549" lon="12.547632"><ele>446.25</ele></trkpt>
   <trkpt lat="46.074562" lon="12.547527"><ele>446</ele></trkpt>
   <trkpt lat="46.074545" lon="12.547376"><ele>447.5</ele></trkpt>
   <trkpt lat="46.074501" lon="12.547004"><ele>451</ele></trkpt>
   <trkpt lat="46.0745" lon="12.54692"><ele>451.75</ele></trkpt>
   <trkpt lat="46.074509" lon="12.546841"><ele>452.5</ele></trkpt>
   <trkpt lat="46.074588" lon="12.546546"><ele>456.5</ele></trkpt>
   <trkpt lat="46.074599" lon="12.546437"><ele>457.25</ele></trkpt>
   <trkpt lat="46.074598" lon="12.546316"><ele>458.5</ele></trkpt>
   <trkpt lat="46.07458" lon="12.546188"><ele>459.5</ele></trkpt>
   <trkpt lat="46.074442" lon="12.545603"><ele>463</ele></trkpt>
   <trkpt lat="46.074431" lon="12.545516"><ele>463.75</ele></trkpt>
   <trkpt lat="46.074359" lon="12.544671"><ele>469.75</ele></trkpt>
   <trkpt lat="46.074363" lon="12.5446"><ele>470</ele></trkpt>
   <trkpt lat="46.074387" lon="12.544541"><ele>471</ele></trkpt>
   <trkpt lat="46.074416" lon="12.54452"><ele>471.75</ele></trkpt>
   <trkpt lat="46.074458" lon="12.544526"><ele>473</ele></trkpt>
   <trkpt lat="46.074488" lon="12.544554"><ele>473.5</ele></trkpt>
   <trkpt lat="46.074607" lon="12.544773"><ele>475.75</ele></trkpt>
   <trkpt lat="46.074954" lon="12.545565"><ele>481.25</ele></trkpt>
   <trkpt lat="46.075043" lon="12.545903"><ele>482.75</ele></trkpt>
   <trkpt lat="46.075075" lon="12.545973"><ele>483</ele></trkpt>
   <trkpt lat="46.075144" lon="12.546041"><ele>484</ele></trkpt>
   <trkpt lat="46.075196" lon="12.54607"><ele>484.75</ele></trkpt>
   <trkpt lat="46.075445" lon="12.546089"><ele>488.5</ele></trkpt>
   <trkpt lat="46.075504" lon="12.546103"><ele>489.25</ele></trkpt>
   <trkpt lat="46.075829" lon="12.546252"><ele>493.75</ele></trkpt>
   <trkpt lat="46.075906" lon="12.546263"><ele>494</ele></trkpt>
   <trkpt lat="46.07631" lon="12.546267"><ele>497.75</ele></trkpt>
   <trkpt lat="46.076365" lon="12.546281"><ele>498.5</ele></trkpt>
   <trkpt lat="46.076412" lon="12.546321"><ele>498.5</ele></trkpt>
   <trkpt lat="46.076441" lon="12.546374"><ele>497.75</ele></trkpt>
   <trkpt lat="46.076453" lon="12.546478"><ele>498.5</ele></trkpt>
   <trkpt lat="46.076442" lon="12.546901"><ele>500.75</ele></trkpt>
   <trkpt lat="46.076452" lon="12.547007"><ele>501.5</ele></trkpt>
   <trkpt lat="46.076473" lon="12.547094"><ele>502.25</ele></trkpt>
   <trkpt lat="46.07657" lon="12.547378"><ele>504.25</ele></trkpt>
   <trkpt lat="46.076588" lon="12.547453"><ele>504.25</ele></trkpt>
   <trkpt lat="46.076606" lon="12.547726"><ele>506</ele></trkpt>
   <trkpt lat="46.07662" lon="12.547822"><ele>506.5</ele></trkpt>
   <trkpt lat="46.076647" lon="12.547906"><ele>507</ele></trkpt>
   <trkpt lat="46.076705" lon="12.547989"><ele>507.75</ele></trkpt>
   <trkpt lat="46.076894" lon="12.548186"><ele>510</ele></trkpt>
   <trkpt lat="46.077044" lon="12.548307"><ele>511.75</ele></trkpt>
   <trkpt lat="46.077088" lon="12.548366"><ele>512.25</ele></trkpt>
   <trkpt lat="46.077129" lon="12.548445"><ele>513</ele></trkpt>
   <trkpt lat="46.077154" lon="12.548549"><ele>513.75</ele></trkpt>
   <trkpt lat="46.07717" lon="12.548667"><ele>514.5</ele></trkpt>
   <trkpt lat="46.077173" lon="12.54886"><ele>515.25</ele></trkpt>
   <trkpt lat="46.077185" lon="12.548915"><ele>515.5</ele></trkpt>
   <trkpt lat="46.077208" lon="12.548956"><ele>516.25</ele></trkpt>
   <trkpt lat="46.077235" lon="12.548972"><ele>516.75</ele></trkpt>
   <trkpt lat="46.077267" lon="12.548971"><ele>517.5</ele></trkpt>
   <trkpt lat="46.077298" lon="12.548958"><ele>518.25</ele></trkpt>
   <trkpt lat="46.077329" lon="12.548925"><ele>519</ele></trkpt>
   <trkpt lat="46.077358" lon="12.548819"><ele>520</ele></trkpt>
   <trkpt lat="46.077436" lon="12.548197"><ele>522</ele></trkpt>
   <trkpt lat="46.077465" lon="12.547532"><ele>526.75</ele></trkpt>
   <trkpt lat="46.077495" lon="12.547403"><ele>527.5</ele></trkpt>
   <trkpt lat="46.07755" lon="12.547206"><ele>528.5</ele></trkpt>
   <trkpt lat="46.07767" lon="12.546885"><ele>533.75</ele></trkpt>
   <trkpt lat="46.077798" lon="12.546503"><ele>536.5</ele></trkpt>
   <trkpt lat="46.077872" lon="12.546337"><ele>538.5</ele></trkpt>
   <trkpt lat="46.077896" lon="12.546253"><ele>539.5</ele></trkpt>
   <trkpt lat="46.077907" lon="12.546158"><ele>540</ele></trkpt>
   <trkpt lat="46.077894" lon="12.545829"><ele>542</ele></trkpt>
   <trkpt lat="46.077879" lon="12.545755"><ele>542.75</ele></trkpt>
   <trkpt lat="46.077826" lon="12.545557"><ele>544.5</ele></trkpt>
   <trkpt lat="46.077789" lon="12.545474"><ele>545.5</ele></trkpt>
   <trkpt lat="46.077689" lon="12.545283"><ele>547.75</ele></trkpt>
   <trkpt lat="46.077651" lon="12.545194"><ele>548.25</ele></trkpt>
   <trkpt lat="46.077634" lon="12.545105"><ele>549.25</ele></trkpt>
   <trkpt lat="46.077522" lon="12.544251"><ele>555.5</ele></trkpt>
   <trkpt lat="46.077515" lon="12.544136"><ele>556.5</ele></trkpt>
   <trkpt lat="46.077524" lon="12.543595"><ele>560.5</ele></trkpt>
   <trkpt lat="46.077542" lon="12.543522"><ele>561.25</ele></trkpt>
   <trkpt lat="46.07757" lon="12.543479"><ele>562.25</ele></trkpt>
   <trkpt lat="46.0776" lon="12.543455"><ele>563.25</ele></trkpt>
   <trkpt lat="46.077632" lon="12.543453"><ele>564</ele></trkpt>
   <trkpt lat="46.077684" lon="12.543468"><ele>565</ele></trkpt>
   <trkpt lat="46.077737" lon="12.543504"><ele>565.5</ele></trkpt>
   <trkpt lat="46.077888" lon="12.543663"><ele>567.5</ele></trkpt>
   <trkpt lat="46.078042" lon="12.543964"><ele>568.75</ele></trkpt>
   <trkpt lat="46.078204" lon="12.544383"><ele>571.75</ele></trkpt>
   <trkpt lat="46.078473" lon="12.544873"><ele>578</ele></trkpt>
   <trkpt lat="46.078875" lon="12.545416"><ele>585</ele></trkpt>
   <trkpt lat="46.07908" lon="12.545739"><ele>589.5</ele></trkpt>
   <trkpt lat="46.079305" lon="12.546179"><ele>589</ele></trkpt>
   <trkpt lat="46.079398" lon="12.546383"><ele>592</ele></trkpt>
   <trkpt lat="46.079461" lon="12.546552"><ele>595.25</ele></trkpt>
   <trkpt lat="46.07967" lon="12.546983"><ele>599.75</ele></trkpt>
   <trkpt lat="46.079849" lon="12.547211"><ele>603.5</ele></trkpt>
   <trkpt lat="46.080186" lon="12.547823"><ele>606.25</ele></trkpt>
   <trkpt lat="46.080214" lon="12.547863"><ele>606.75</ele></trkpt>
   <trkpt lat="46.08025" lon="12.547882"><ele>607.75</ele></trkpt>
   <trkpt lat="46.080274" lon="12.547885"><ele>608.5</ele></trkpt>
   <trkpt lat="46.080313" lon="12.547877"><ele>607.25</ele></trkpt>
   <trkpt lat="46.08035" lon="12.54782"><ele>606.25</ele></trkpt>
   <trkpt lat="46.080367" lon="12.547702"><ele>607.5</ele></trkpt>
   <trkpt lat="46.080353" lon="12.547633"><ele>609.5</ele></trkpt>
   <trkpt lat="46.080254" lon="12.547397"><ele>615.5</ele></trkpt>
   <trkpt lat="46.080209" lon="12.547271"><ele>616.75</ele></trkpt>
   <trkpt lat="46.080186" lon="12.547137"><ele>618.5</ele></trkpt>
   <trkpt lat="46.080172" lon="12.546982"><ele>620.5</ele></trkpt>
   <trkpt lat="46.08018" lon="12.546771"><ele>622.75</ele></trkpt>
   <trkpt lat="46.080285" lon="12.545868"><ele>633</ele></trkpt>
   <trkpt lat="46.080291" lon="12.545665"><ele>634.75</ele></trkpt>
   <trkpt lat="46.080262" lon="12.545218"><ele>638.75</ele></trkpt>
   <trkpt lat="46.080229" lon="12.545002"><ele>640</ele></trkpt>
   <trkpt lat="46.080158" lon="12.544823"><ele>642.5</ele></trkpt>
   <trkpt lat="46.080079" lon="12.544665"><ele>644</ele></trkpt>
   <trkpt lat="46.080045" lon="12.544514"><ele>644.75</ele></trkpt>
   <trkpt lat="46.080023" lon="12.544348"><ele>646.5</ele></trkpt>
   <trkpt lat="46.07998" lon="12.544157"><ele>648.5</ele></trkpt>
   <trkpt lat="46.079822" lon="12.543815"><ele>651.75</ele></trkpt>
   <trkpt lat="46.079769" lon="12.543661"><ele>652.75</ele></trkpt>
   <trkpt lat="46.0797" lon="12.543339"><ele>655</ele></trkpt>
   <trkpt lat="46.079692" lon="12.543275"><ele>656.25</ele></trkpt>
   <trkpt lat="46.079671" lon="12.5432"><ele>657.25</ele></trkpt>
   <trkpt lat="46.079649" lon="12.543158"><ele>657.5</ele></trkpt>
   <trkpt lat="46.07954" lon="12.542864"><ele>661.5</ele></trkpt>
   <trkpt lat="46.079499" lon="12.542712"><ele>663</ele></trkpt>
   <trkpt lat="46.079456" lon="12.542472"><ele>665.25</ele></trkpt>
   <trkpt lat="46.079423" lon="12.542342"><ele>666.75</ele></trkpt>
   <trkpt lat="46.0792" lon="12.541767"><ele>673.5</ele></trkpt>
   <trkpt lat="46.079139" lon="12.541559"><ele>676.25</ele></trkpt>
   <trkpt lat="46.079114" lon="12.541501"><ele>677</ele></trkpt>
   <trkpt lat="46.078956" lon="12.541275"><ele>679</ele></trkpt>
   <trkpt lat="46.078928" lon="12.541211"><ele>679.75</ele></trkpt>
   <trkpt lat="46.078902" lon="12.541016"><ele>682.75</ele></trkpt>
   <trkpt lat="46.078886" lon="12.540954"><ele>683</ele></trkpt>
   <trkpt lat="46.078553" lon="12.540197"><ele>690.75</ele></trkpt>
   <trkpt lat="46.078446" lon="12.540053"><ele>692</ele></trkpt>
   <trkpt lat="46.078391" lon="12.539924"><ele>693.25</ele></trkpt>
   <trkpt lat="46.078376" lon="12.539862"><ele>694</ele></trkpt>
   <trkpt lat="46.078333" lon="12.539541"><ele>698.25</ele></trkpt>
   <trkpt lat="46.078314" lon="12.539463"><ele>699.25</ele></trkpt>
   <trkpt lat="46.078279" lon="12.53941"><ele>699.75</ele></trkpt>
   <trkpt lat="46.077861" lon="12.539032"><ele>705</ele></trkpt>
   <trkpt lat="46.077801" lon="12.538962"><ele>706</ele></trkpt>
   <trkpt lat="46.077749" lon="12.538885"><ele>707</ele></trkpt>
   <trkpt lat="46.077533" lon="12.538335"><ele>712.75</ele></trkpt>
   <trkpt lat="46.077518" lon="12.538279"><ele>712.75</ele></trkpt>
   <trkpt lat="46.077526" lon="12.53823"><ele>713.5</ele></trkpt>
   <trkpt lat="46.077553" lon="12.538201"><ele>714.75</ele></trkpt>
   <trkpt lat="46.077582" lon="12.538188"><ele>716</ele></trkpt>
   <trkpt lat="46.077625" lon="12.538198"><ele>717.25</ele></trkpt>
   <trkpt lat="46.07766" lon="12.53823"><ele>718</ele></trkpt>
   <trkpt lat="46.077772" lon="12.538369"><ele>719</ele></trkpt>
   <trkpt lat="46.077848" lon="12.538429"><ele>719</ele></trkpt>
   <trkpt lat="46.077939" lon="12.538466"><ele>719.75</ele></trkpt>
   <trkpt lat="46.078262" lon="12.538543"><ele>722.5</ele></trkpt>
   <trkpt lat="46.078452" lon="12.5386"><ele>724.75</ele></trkpt>
   <trkpt lat="46.078551" lon="12.538654"><ele>725.5</ele></trkpt>
   <trkpt lat="46.078736" lon="12.538807"><ele>728</ele></trkpt>
   <trkpt lat="46.07881" lon="12.538906"><ele>728.75</ele></trkpt>
   <trkpt lat="46.078856" lon="12.538983"><ele>729</ele></trkpt>
   <trkpt lat="46.078969" lon="12.539209"><ele>729.75</ele></trkpt>
   <trkpt lat="46.079046" lon="12.539327"><ele>730.25</ele></trkpt>
   <trkpt lat="46.080153" lon="12.54062"><ele>742.75</ele></trkpt>
   <trkpt lat="46.080191" lon="12.54067"><ele>743</ele></trkpt>
   <trkpt lat="46.08039" lon="12.541018"><ele>744.5</ele></trkpt>
   <trkpt lat="46.080464" lon="12.541116"><ele>745</ele></trkpt>
   <trkpt lat="46.081121" lon="12.541832"><ele>754</ele></trkpt>
   <trkpt lat="46.082103" lon="12.542565"><ele>762.75</ele></trkpt>
   <trkpt lat="46.082228" lon="12.542658"><ele>765.25</ele></trkpt>
   <trkpt lat="46.082283" lon="12.542679"><ele>765.75</ele></trkpt>
   <trkpt lat="46.082345" lon="12.542689"><ele>766</ele></trkpt>
   <trkpt lat="46.082395" lon="12.542675"><ele>766.5</ele></trkpt>
   <trkpt lat="46.082456" lon="12.542629"><ele>767</ele></trkpt>
   <trkpt lat="46.082477" lon="12.542601"><ele>767.25</ele></trkpt>
   <trkpt lat="46.082509" lon="12.542532"><ele>768.25</ele></trkpt>
   <trkpt lat="46.08253" lon="12.54244"><ele>770.25</ele></trkpt>
   <trkpt lat="46.08253" lon="12.542348"><ele>771.5</ele></trkpt>
   <trkpt lat="46.082515" lon="12.542259"><ele>771.5</ele></trkpt>
   <trkpt lat="46.082472" lon="12.542174"><ele>772.25</ele></trkpt>
   <trkpt lat="46.082392" lon="12.542082"><ele>774</ele></trkpt>
   <trkpt lat="46.082034" lon="12.541774"><ele>776.5</ele></trkpt>
   <trkpt lat="46.081703" lon="12.541337"><ele>781.5</ele></trkpt>
   <trkpt lat="46.081328" lon="12.540759"><ele>788.25</ele></trkpt>
   <trkpt lat="46.081063" lon="12.540303"><ele>791.25</ele></trkpt>
   <trkpt lat="46.080279" lon="12.538676"><ele>805.75</ele></trkpt>
   <trkpt lat="46.080256" lon="12.53858"><ele>806.25</ele></trkpt>
   <trkpt lat="46.080248" lon="12.538495"><ele>806.75</ele></trkpt>
   <trkpt lat="46.080256" lon="12.538392"><ele>807.75</ele></trkpt>
   <trkpt lat="46.080281" lon="12.538309"><ele>809.5</ele></trkpt>
   <trkpt lat="46.080328" lon="12.538229"><ele>811.5</ele></trkpt>
   <trkpt lat="46.080384" lon="12.538178"><ele>812</ele></trkpt>
   <trkpt lat="46.080455" lon="12.538156"><ele>811.5</ele></trkpt>
   <trkpt lat="46.080521" lon="12.538168"><ele>811</ele></trkpt>
   <trkpt lat="46.080573" lon="12.538201"><ele>810.75</ele></trkpt>
   <trkpt lat="46.080676" lon="12.538324"><ele>811</ele></trkpt>
   <trkpt lat="46.081168" lon="12.539022"><ele>814.75</ele></trkpt>
   <trkpt lat="46.081236" lon="12.539084"><ele>815</ele></trkpt>
   <trkpt lat="46.081309" lon="12.539119"><ele>815.75</ele></trkpt>
   <trkpt lat="46.081398" lon="12.539131"><ele>816.75</ele></trkpt>
   <trkpt lat="46.081464" lon="12.539121"><ele>817</ele></trkpt>
   <trkpt lat="46.081517" lon="12.539091"><ele>817.25</ele></trkpt>
   <trkpt lat="46.081561" lon="12.539044"><ele>817.75</ele></trkpt>
   <trkpt lat="46.081605" lon="12.538971"><ele>818.5</ele></trkpt>
   <trkpt lat="46.081635" lon="12.538881"><ele>819.25</ele></trkpt>
   <trkpt lat="46.081644" lon="12.5388"><ele>820.25</ele></trkpt>
   <trkpt lat="46.081633" lon="12.538072"><ele>827</ele></trkpt>
   <trkpt lat="46.08169" lon="12.53667"><ele>839.75</ele></trkpt>
   <trkpt lat="46.081707" lon="12.536542"><ele>840.25</ele></trkpt>
   <trkpt lat="46.081746" lon="12.5364"><ele>841</ele></trkpt>
   <trkpt lat="46.081802" lon="12.536263"><ele>841</ele></trkpt>
   <trkpt lat="46.081908" lon="12.53606"><ele>843.75</ele></trkpt>
   <trkpt lat="46.081949" lon="12.535957"><ele>846</ele></trkpt>
   <trkpt lat="46.081977" lon="12.535838"><ele>848</ele></trkpt>
   <trkpt lat="46.08198" lon="12.535698"><ele>849.25</ele></trkpt>
   <trkpt lat="46.081968" lon="12.53559"><ele>849.75</ele></trkpt>
   <trkpt lat="46.081834" lon="12.534833"><ele>856</ele></trkpt>
   <trkpt lat="46.081808" lon="12.534614"><ele>857.75</ele></trkpt>
   <trkpt lat="46.081797" lon="12.534344"><ele>860.75</ele></trkpt>
   <trkpt lat="46.081789" lon="12.533235"><ele>870</ele></trkpt>
   <trkpt lat="46.08183" lon="12.532874"><ele>871.75</ele></trkpt>
   <trkpt lat="46.081835" lon="12.532779"><ele>871.25</ele></trkpt>
   <trkpt lat="46.081826" lon="12.532705"><ele>871.75</ele></trkpt>
   <trkpt lat="46.081799" lon="12.53261"><ele>872</ele></trkpt>
   <trkpt lat="46.081411" lon="12.531531"><ele>884.75</ele></trkpt>
   <trkpt lat="46.081374" lon="12.531388"><ele>885.5</ele></trkpt>
   <trkpt lat="46.081329" lon="12.531099"><ele>886.25</ele></trkpt>
   <trkpt lat="46.081299" lon="12.530968"><ele>887.5</ele></trkpt>
   <trkpt lat="46.081221" lon="12.530816"><ele>889.75</ele></trkpt>
   <trkpt lat="46.080944" lon="12.530418"><ele>895.5</ele></trkpt>
   <trkpt lat="46.080843" lon="12.530318"><ele>895.75</ele></trkpt>
   <trkpt lat="46.080395" lon="12.530031"><ele>899</ele></trkpt>
   <trkpt lat="46.080353" lon="12.529974"><ele>900</ele></trkpt>
   <trkpt lat="46.080333" lon="12.52991"><ele>900.75</ele></trkpt>
   <trkpt lat="46.080325" lon="12.529836"><ele>901.75</ele></trkpt>
   <trkpt lat="46.080329" lon="12.529746"><ele>903</ele></trkpt>
   <trkpt lat="46.080346" lon="12.529685"><ele>904.75</ele></trkpt>
   <trkpt lat="46.080386" lon="12.529633"><ele>906.5</ele></trkpt>
   <trkpt lat="46.080445" lon="12.5296"><ele>907.5</ele></trkpt>
   <trkpt lat="46.080508" lon="12.529591"><ele>907.75</ele></trkpt>
   <trkpt lat="46.080586" lon="12.529605"><ele>908</ele></trkpt>
   <trkpt lat="46.081169" lon="12.529977"><ele>909.75</ele></trkpt>
   <trkpt lat="46.081459" lon="12.530101"><ele>911</ele></trkpt>
   <trkpt lat="46.081771" lon="12.530214"><ele>912.5</ele></trkpt>
   <trkpt lat="46.082424" lon="12.530596"><ele>920</ele></trkpt>
   <trkpt lat="46.082559" lon="12.530644"><ele>922</ele></trkpt>
   <trkpt lat="46.082659" lon="12.53066"><ele>924</ele></trkpt>
   <trkpt lat="46.082786" lon="12.530667"><ele>927</ele></trkpt>
   <trkpt lat="46.082939" lon="12.530654"><ele>928</ele></trkpt>
   <trkpt lat="46.083076" lon="12.530617"><ele>929.25</ele></trkpt>
   <trkpt lat="46.083374" lon="12.530512"><ele>931.5</ele></trkpt>
   <trkpt lat="46.083453" lon="12.530498"><ele>932.75</ele></trkpt>
   <trkpt lat="46.08352" lon="12.530499"><ele>933.5</ele></trkpt>
   <trkpt lat="46.083579" lon="12.530516"><ele>933.5</ele></trkpt>
   <trkpt lat="46.083656" lon="12.530571"><ele>934</ele></trkpt>
   <trkpt lat="46.083707" lon="12.530639"><ele>935</ele></trkpt>
   <trkpt lat="46.083751" lon="12.530731"><ele>936</ele></trkpt>
   <trkpt lat="46.083789" lon="12.530845"><ele>937</ele></trkpt>
   <trkpt lat="46.083902" lon="12.531404"><ele>939.25</ele></trkpt>
   <trkpt lat="46.08395" lon="12.531635"><ele>941.25</ele></trkpt>
   <trkpt lat="46.083963" lon="12.531826"><ele>942.25</ele></trkpt>
   <trkpt lat="46.083979" lon="12.532373"><ele>946.25</ele></trkpt>
   <trkpt lat="46.084009" lon="12.533005"><ele>948.25</ele></trkpt>
   <trkpt lat="46.084054" lon="12.533228"><ele>948</ele></trkpt>
   <trkpt lat="46.084087" lon="12.533296"><ele>948.5</ele></trkpt>
   <trkpt lat="46.08415" lon="12.533315"><ele>950.5</ele></trkpt>
   <trkpt lat="46.084227" lon="12.533319"><ele>950.25</ele></trkpt>
   <trkpt lat="46.084264" lon="12.533297"><ele>950.25</ele></trkpt>
   <trkpt lat="46.084323" lon="12.533206"><ele>950.75</ele></trkpt>
   <trkpt lat="46.084429" lon="12.532922"><ele>953.75</ele></trkpt>
   <trkpt lat="46.084486" lon="12.532702"><ele>955.25</ele></trkpt>
   <trkpt lat="46.084617" lon="12.531749"><ele>962</ele></trkpt>
   <trkpt lat="46.084629" lon="12.53159"><ele>962.5</ele></trkpt>
   <trkpt lat="46.084625" lon="12.531337"><ele>964</ele></trkpt>
   <trkpt lat="46.084485" lon="12.529998"><ele>972</ele></trkpt>
   <trkpt lat="46.084463" lon="12.529892"><ele>972</ele></trkpt>
   <trkpt lat="46.084422" lon="12.529763"><ele>972</ele></trkpt>
   <trkpt lat="46.084378" lon="12.529659"><ele>973.25</ele></trkpt>
   <trkpt lat="46.08433" lon="12.529586"><ele>974</ele></trkpt>
   <trkpt lat="46.083678" lon="12.52884"><ele>979.75</ele></trkpt>
   <trkpt lat="46.083579" lon="12.528766"><ele>981</ele></trkpt>
   <trkpt lat="46.083502" lon="12.528732"><ele>981.75</ele></trkpt>
   <trkpt lat="46.083446" lon="12.528722"><ele>982</ele></trkpt>
   <trkpt lat="46.08338" lon="12.528723"><ele>982</ele></trkpt>
   <trkpt lat="46.083133" lon="12.528768"><ele>983</ele></trkpt>
   <trkpt lat="46.083053" lon="12.528758"><ele>984.25</ele></trkpt>
   <trkpt lat="46.082989" lon="12.528738"><ele>984.25</ele></trkpt>
   <trkpt lat="46.082913" lon="12.52869"><ele>984.75</ele></trkpt>
   <trkpt lat="46.082872" lon="12.528649"><ele>985</ele></trkpt>
   <trkpt lat="46.082822" lon="12.528587"><ele>985.75</ele></trkpt>
   <trkpt lat="46.08266" lon="12.528284"><ele>987.75</ele></trkpt>
   <trkpt lat="46.082414" lon="12.527852"><ele>991</ele></trkpt>
   <trkpt lat="46.082237" lon="12.527569"><ele>993.5</ele></trkpt>
   <trkpt lat="46.08087" lon="12.525912"><ele>1006</ele></trkpt>
   <trkpt lat="46.080721" lon="12.525669"><ele>1008.75</ele></trkpt>
   <trkpt lat="46.080678" lon="12.52556"><ele>1009.75</ele></trkpt>
   <trkpt lat="46.080654" lon="12.52544"><ele>1010.5</ele></trkpt>
   <trkpt lat="46.080638" lon="12.525319"><ele>1011.25</ele></trkpt>
   <trkpt lat="46.080584" lon="12.523774"><ele>1018.75</ele></trkpt>
   <trkpt lat="46.080572" lon="12.523604"><ele>1018.75</ele></trkpt>
   <trkpt lat="46.080542" lon="12.523402"><ele>1019</ele></trkpt>
   <trkpt lat="46.080497" lon="12.523206"><ele>1020.75</ele></trkpt>
   <trkpt lat="46.08042" lon="12.522943"><ele>1023.25</ele></trkpt>
   <trkpt lat="46.080312" lon="12.522652"><ele>1024.75</ele></trkpt>
   <trkpt lat="46.080076" lon="12.52209"><ele>1026.5</ele></trkpt>
   <trkpt lat="46.080028" lon="12.521935"><ele>1028</ele></trkpt>
   <trkpt lat="46.079996" lon="12.521791"><ele>1028.25</ele></trkpt>
   <trkpt lat="46.079979" lon="12.521666"><ele>1028</ele></trkpt>
   <trkpt lat="46.079979" lon="12.521567"><ele>1028.75</ele></trkpt>
   <trkpt lat="46.079995" lon="12.52147"><ele>1030</ele></trkpt>
   <trkpt lat="46.080044" lon="12.521368"><ele>1031.25</ele></trkpt>
   <trkpt lat="46.080118" lon="12.521297"><ele>1031.5</ele></trkpt>
   <trkpt lat="46.080181" lon="12.52128"><ele>1032</ele></trkpt>
   <trkpt lat="46.080246" lon="12.521288"><ele>1032.25</ele></trkpt>
   <trkpt lat="46.080323" lon="12.521331"><ele>1032.75</ele></trkpt>
   <trkpt lat="46.080414" lon="12.521419"><ele>1034</ele></trkpt>
   <trkpt lat="46.080488" lon="12.521521"><ele>1034.75</ele></trkpt>
   <trkpt lat="46.080563" lon="12.521676"><ele>1036</ele></trkpt>
   <trkpt lat="46.081088" lon="12.522912"><ele>1044.5</ele></trkpt>
   <trkpt lat="46.081736" lon="12.524099"><ele>1051</ele></trkpt>
   <trkpt lat="46.082436" lon="12.525341"><ele>1061.5</ele></trkpt>
   <trkpt lat="46.08251" lon="12.525446"><ele>1062.75</ele></trkpt>
   <trkpt lat="46.082571" lon="12.525504"><ele>1063</ele></trkpt>
   <trkpt lat="46.082743" lon="12.525624"><ele>1064.25</ele></trkpt>
   <trkpt lat="46.082851" lon="12.525674"><ele>1065.5</ele></trkpt>
   <trkpt lat="46.083029" lon="12.525715"><ele>1067.5</ele></trkpt>
   <trkpt lat="46.083502" lon="12.525758"><ele>1071.5</ele></trkpt>
   <trkpt lat="46.083625" lon="12.525777"><ele>1072</ele></trkpt>
   <trkpt lat="46.083761" lon="12.525826"><ele>1072.75</ele></trkpt>
   <trkpt lat="46.083929" lon="12.525915"><ele>1073.75</ele></trkpt>
   <trkpt lat="46.084048" lon="12.526008"><ele>1075.5</ele></trkpt>
   <trkpt lat="46.084891" lon="12.526735"><ele>1083.25</ele></trkpt>
   <trkpt lat="46.085503" lon="12.527235"><ele>1086</ele></trkpt>
   <trkpt lat="46.086502" lon="12.527843"><ele>1091</ele></trkpt>
   <trkpt lat="46.086728" lon="12.528027"><ele>1091.5</ele></trkpt>
   <trkpt lat="46.086977" lon="12.528183"><ele>1092.25</ele></trkpt>
   <trkpt lat="46.087098" lon="12.528286"><ele>1091</ele></trkpt>
   <trkpt lat="46.087285" lon="12.528469"><ele>1091</ele></trkpt>
   <trkpt lat="46.08781" lon="12.529085"><ele>1089.75</ele></trkpt>
   <trkpt lat="46.087931" lon="12.529175"><ele>1089.75</ele></trkpt>
   <trkpt lat="46.088043" lon="12.529219"><ele>1089.25</ele></trkpt>
   <trkpt lat="46.088153" lon="12.529231"><ele>1090</ele></trkpt>
   <trkpt lat="46.088303" lon="12.529216"><ele>1090.5</ele></trkpt>
   <trkpt lat="46.088478" lon="12.529166"><ele>1089.75</ele></trkpt>
   <trkpt lat="46.088809" lon="12.529002"><ele>1090</ele></trkpt>
   <trkpt lat="46.089878" lon="12.528316"><ele>1092.25</ele></trkpt>
   <trkpt lat="46.089985" lon="12.528247"><ele>1091.75</ele></trkpt>
   <trkpt lat="46.090399" lon="12.528052"><ele>1095.25</ele></trkpt>
   <trkpt lat="46.090758" lon="12.527855"><ele>1099.5</ele></trkpt>
   <trkpt lat="46.090991" lon="12.527721"><ele>1097.75</ele></trkpt>
   <trkpt lat="46.091128" lon="12.527685"><ele>1099.75</ele></trkpt>
   <trkpt lat="46.091197" lon="12.527673"><ele>1099.75</ele></trkpt>
   <trkpt lat="46.091482" lon="12.527696"><ele>1102.75</ele></trkpt>
   <trkpt lat="46.091855" lon="12.527706"><ele>1100.75</ele></trkpt>
   <trkpt lat="46.092386" lon="12.527742"><ele>1105.5</ele></trkpt>
   <trkpt lat="46.093018" lon="12.527651"><ele>1113</ele></trkpt>
   <trkpt lat="46.093197" lon="12.52766"><ele>1114</ele></trkpt>
   <trkpt lat="46.093456" lon="12.527712"><ele>1114.75</ele></trkpt>
   <trkpt lat="46.093811" lon="12.527847"><ele>1118</ele></trkpt>
   <trkpt lat="46.09416" lon="12.527868"><ele>1123.75</ele></trkpt>
   <trkpt lat="46.094493" lon="12.527848"><ele>1123</ele></trkpt>
   <trkpt lat="46.094646" lon="12.527872"><ele>1123</ele></trkpt>
   <trkpt lat="46.094913" lon="12.527988"><ele>1125.25</ele></trkpt>
   <trkpt lat="46.095503" lon="12.528395"><ele>1135</ele></trkpt>
   <trkpt lat="46.096286" lon="12.528803"><ele>1140.75</ele></trkpt>
   <trkpt lat="46.096451" lon="12.52883"><ele>1141</ele></trkpt>
   <trkpt lat="46.096586" lon="12.528839"><ele>1142.25</ele></trkpt>
   <trkpt lat="46.096733" lon="12.528814"><ele>1143.5</ele></trkpt>
   <trkpt lat="46.09696" lon="12.528748"><ele>1145.5</ele></trkpt>
   <trkpt lat="46.097209" lon="12.528609"><ele>1147.5</ele></trkpt>
   <trkpt lat="46.0983" lon="12.527901"><ele>1157.5</ele></trkpt>
   <trkpt lat="46.098471" lon="12.527838"><ele>1158.75</ele></trkpt>
   <trkpt lat="46.098622" lon="12.527821"><ele>1160</ele></trkpt>
   <trkpt lat="46.099108" lon="12.527868"><ele>1164.25</ele></trkpt>
   <trkpt lat="46.099508" lon="12.527892"><ele>1167.75</ele></trkpt>
   <trkpt lat="46.101908" lon="12.527659"><ele>1187</ele></trkpt>
   <trkpt lat="46.102141" lon="12.527605"><ele>1189.75</ele></trkpt>
   <trkpt lat="46.103177" lon="12.527193"><ele>1197.75</ele></trkpt>
   <trkpt lat="46.103347" lon="12.527084"><ele>1198.5</ele></trkpt>
   <trkpt lat="46.10351" lon="12.526916"><ele>1200</ele></trkpt>
   <trkpt lat="46.10363" lon="12.526753"><ele>1203</ele></trkpt>
   <trkpt lat="46.103728" lon="12.526586"><ele>1205.25</ele></trkpt>
   <trkpt lat="46.103839" lon="12.526293"><ele>1207.25</ele></trkpt>
   <trkpt lat="46.1039" lon="12.526075"><ele>1208</ele></trkpt>
   <trkpt lat="46.104108" lon="12.525214"><ele>1213</ele></trkpt>
   <trkpt lat="46.104232" lon="12.524828"><ele>1216.5</ele></trkpt>
   <trkpt lat="46.104363" lon="12.524493"><ele>1218.75</ele></trkpt>
   <trkpt lat="46.104568" lon="12.524111"><ele>1221</ele></trkpt>
   <trkpt lat="46.104904" lon="12.523657"><ele>1225</ele></trkpt>
   <trkpt lat="46.105005" lon="12.523504"><ele>1225.25</ele></trkpt>
   <trkpt lat="46.105123" lon="12.523383"><ele>1226.75</ele></trkpt>
   <trkpt lat="46.105864" lon="12.522856"><ele>1234.5</ele></trkpt>
   <trkpt lat="46.105901" lon="12.522817"><ele>1235.25</ele></trkpt>
   <trkpt lat="46.105965" lon="12.522738"><ele>1236.75</ele></trkpt>
   <trkpt lat="46.106006" lon="12.522635"><ele>1237.5</ele></trkpt>
   <trkpt lat="46.106038" lon="12.522512"><ele>1237.75</ele></trkpt>
   <trkpt lat="46.106057" lon="12.522334"><ele>1238.75</ele></trkpt>
   <trkpt lat="46.106049" lon="12.522211"><ele>1239</ele></trkpt>
   <trkpt lat="46.106022" lon="12.522086"><ele>1239.25</ele></trkpt>
   <trkpt lat="46.105979" lon="12.522016"><ele>1239</ele></trkpt>
   <trkpt lat="46.105925" lon="12.52196"><ele>1238.75</ele></trkpt>
   <trkpt lat="46.105861" lon="12.521931"><ele>1238.5</ele></trkpt>
   <trkpt lat="46.105805" lon="12.521922"><ele>1238.75</ele></trkpt>
   <trkpt lat="46.10564" lon="12.521949"><ele>1240</ele></trkpt>
   <trkpt lat="46.10518" lon="12.522143"><ele>1243.75</ele></trkpt>
   <trkpt lat="46.10484" lon="12.522315"><ele>1245</ele></trkpt>
   <trkpt lat="46.104494" lon="12.522545"><ele>1247</ele></trkpt>
   <trkpt lat="46.104263" lon="12.522718"><ele>1247.5</ele></trkpt>
   <trkpt lat="46.104214" lon="12.522741"><ele>1247.75</ele></trkpt>
   <trkpt lat="46.104115" lon="12.522759"><ele>1248</ele></trkpt>
   <trkpt lat="46.104059" lon="12.522742"><ele>1248.25</ele></trkpt>
   <trkpt lat="46.104003" lon="12.522701"><ele>1248.5</ele></trkpt>
   <trkpt lat="46.103954" lon="12.522644"><ele>1248.75</ele></trkpt>
   <trkpt lat="46.103918" lon="12.522576"><ele>1249.25</ele></trkpt>
   <trkpt lat="46.103895" lon="12.522487"><ele>1250</ele></trkpt>
   <trkpt lat="46.103895" lon="12.522397"><ele>1250</ele></trkpt>
   <trkpt lat="46.103907" lon="12.522312"><ele>1250</ele></trkpt>
   <trkpt lat="46.10394" lon="12.522232"><ele>1250.5</ele></trkpt>
   <trkpt lat="46.104005" lon="12.522138"><ele>1252.25</ele></trkpt>
   <trkpt lat="46.104081" lon="12.522054"><ele>1254.25</ele></trkpt>
   <trkpt lat="46.104188" lon="12.522012"><ele>1256</ele></trkpt>
   <trkpt lat="46.104754" lon="12.521924"><ele>1257.25</ele></trkpt>
   <trkpt lat="46.10489" lon="12.52189"><ele>1257</ele></trkpt>
   <trkpt lat="46.105028" lon="12.521836"><ele>1257.25</ele></trkpt>
   <trkpt lat="46.105143" lon="12.521777"><ele>1257.25</ele></trkpt>
   <trkpt lat="46.105318" lon="12.521651"><ele>1257.5</ele></trkpt>
   <trkpt lat="46.105471" lon="12.521502"><ele>1258.25</ele></trkpt>
   <trkpt lat="46.105879" lon="12.521"><ele>1261.75</ele></trkpt>
   <trkpt lat="46.106012" lon="12.520876"><ele>1262.5</ele></trkpt>
   <trkpt lat="46.106158" lon="12.520758"><ele>1263.5</ele></trkpt>
   <trkpt lat="46.106495" lon="12.520519"><ele>1264.5</ele></trkpt>
   <trkpt lat="46.106859" lon="12.520203"><ele>1267.75</ele></trkpt>
   <trkpt lat="46.10701" lon="12.520071"><ele>1268.25</ele></trkpt>
   <trkpt lat="46.107095" lon="12.52"><ele>1268.75</ele></trkpt>
   <trkpt lat="46.107218" lon="12.519903"><ele>1269.5</ele></trkpt>
   <trkpt lat="46.107277" lon="12.519869"><ele>1269.5</ele></trkpt>
   <trkpt lat="46.107417" lon="12.519755"><ele>1270</ele></trkpt>
   <trkpt lat="46.107501" lon="12.519719"><ele>1270</ele></trkpt>
   <trkpt lat="46.107532" lon="12.519723"><ele>1270.75</ele></trkpt>
   <trkpt lat="46.107638" lon="12.51974"><ele>1270.75</ele></trkpt>
   <trkpt lat="46.107684" lon="12.519761"><ele>1271</ele></trkpt>
   <trkpt lat="46.107765" lon="12.519839"><ele>1271.25</ele></trkpt>
   <trkpt lat="46.107933" lon="12.52015"><ele>1272.25</ele></trkpt>
   <trkpt lat="46.108062" lon="12.520416"><ele>1274.25</ele></trkpt>
   <trkpt lat="46.10808" lon="12.520451"><ele>1274.25</ele></trkpt>
   <trkpt lat="46.108126" lon="12.520601"><ele>1274.5</ele></trkpt>
   <trkpt lat="46.108227" lon="12.52146"><ele>1276.25</ele></trkpt>
   <trkpt lat="46.108292" lon="12.521994"><ele>1279.25</ele></trkpt>
   <trkpt lat="46.108316" lon="12.522067"><ele>1279.75</ele></trkpt>
   <trkpt lat="46.108376" lon="12.522159"><ele>1280.25</ele></trkpt>
   <trkpt lat="46.108441" lon="12.522223"><ele>1280.5</ele></trkpt>
   <trkpt lat="46.108544" lon="12.522305"><ele>1281.75</ele></trkpt>
   <trkpt lat="46.108841" lon="12.522468"><ele>1284.5</ele></trkpt>
   <trkpt lat="46.108964" lon="12.52255"><ele>1285</ele></trkpt>
   <trkpt lat="46.109049" lon="12.522648"><ele>1285.5</ele></trkpt>
   <trkpt lat="46.10934" lon="12.52304"><ele>1289</ele></trkpt>
   <trkpt lat="46.109548" lon="12.523245"><ele>1291.5</ele></trkpt>
   <trkpt lat="46.109641" lon="12.523356"><ele>1293</ele></trkpt>
   <trkpt lat="46.109689" lon="12.523449"><ele>1293.25</ele></trkpt>
   <trkpt lat="46.109746" lon="12.523517"><ele>1293.5</ele></trkpt>
   <trkpt lat="46.109868" lon="12.523588"><ele>1293.5</ele></trkpt>
   <trkpt lat="46.110093" lon="12.523669"><ele>1293.25</ele></trkpt>
   <trkpt lat="46.110166" lon="12.523695"><ele>1293.5</ele></trkpt>
   <trkpt lat="46.110253" lon="12.523755"><ele>1293.75</ele></trkpt>
   <trkpt lat="46.110393" lon="12.523948"><ele>1294.75</ele></trkpt>
   <trkpt lat="46.110478" lon="12.524025"><ele>1295</ele></trkpt>
  </trkseg>
 </trk>
</gpx>
