<?xml version="1.0" encoding="UTF-8"?>
<!-- track-length = 11507 filtered ascend = 500 plain-ascend = 398 cost=16431 energy=0.1kwh time=1h 30m 48s -->
<gpx 
 xmlns="http://www.topografix.com/GPX/1/1" 
 xmlns:xsi="http://www.w3.org/2001/XMLSchema-instance" 
 xsi:schemaLocation="http://www.topografix.com/GPX/1/1 http://www.topografix.com/GPX/1/1/gpx.xsd" 
 version="1.1" 
 creator="BRouter-Web 0.18.1">
 <trk>
  <name>puerto de Locubín (11.5km)</name>
  <trkseg>
   <trkpt lat="37.535062" lon="-3.944605"><ele>625.5</ele></trkpt>
   <trkpt lat="37.534772" lon="-3.944574"><ele>625.5</ele></trkpt>
   <trkpt lat="37.53413" lon="-3.94451"><ele>628.25</ele></trkpt>
   <trkpt lat="37.533113" lon="-3.944738"><ele>629.5</ele></trkpt>
   <trkpt lat="37.532924" lon="-3.94477"><ele>630.25</ele></trkpt>
   <trkpt lat="37.532817" lon="-3.944852"><ele>630.75</ele></trkpt>
   <trkpt lat="37.5323" lon="-3.945249"><ele>636.5</ele></trkpt>
   <trkpt lat="37.532265" lon="-3.94508"><ele>637.25</ele></trkpt>
   <trkpt lat="37.532256" lon="-3.944874"><ele>637.75</ele></trkpt>
   <trkpt lat="37.532268" lon="-3.944571"><ele>638.5</ele></trkpt>
   <trkpt lat="37.532332" lon="-3.943789"><ele>640.5</ele></trkpt>
   <trkpt lat="37.532367" lon="-3.943578"><ele>640.5</ele></trkpt>
   <trkpt lat="37.532442" lon="-3.943311"><ele>640.25</ele></trkpt>
   <trkpt lat="37.532542" lon="-3.943029"><ele>639.5</ele></trkpt>
   <trkpt lat="37.532598" lon="-3.942901"><ele>640.75</ele></trkpt>
   <trkpt lat="37.532712" lon="-3.942641"><ele>640.75</ele></trkpt>
   <trkpt lat="37.533044" lon="-3.942052"><ele>641.75</ele></trkpt>
   <trkpt lat="37.533127" lon="-3.941846"><ele>643.25</ele></trkpt>
   <trkpt lat="37.533188" lon="-3.941618"><ele>645.25</ele></trkpt>
   <trkpt lat="37.533217" lon="-3.941375"><ele>646.75</ele></trkpt>
   <trkpt lat="37.533215" lon="-3.941153"><ele>645.75</ele></trkpt>
   <trkpt lat="37.533117" lon="-3.940305"><ele>645</ele></trkpt>
   <trkpt lat="37.533094" lon="-3.940023"><ele>646.75</ele></trkpt>
   <trkpt lat="37.533098" lon="-3.939851"><ele>646.75</ele></trkpt>
   <trkpt lat="37.533124" lon="-3.939654"><ele>647</ele></trkpt>
   <trkpt lat="37.533183" lon="-3.939422"><ele>648</ele></trkpt>
   <trkpt lat="37.53386" lon="-3.93724"><ele>660.75</ele></trkpt>
   <trkpt lat="37.533956" lon="-3.936985"><ele>663.25</ele></trkpt>
   <trkpt lat="37.5341" lon="-3.937116"><ele>661.5</ele></trkpt>
   <trkpt lat="37.53424" lon="-3.93719"><ele>659.5</ele></trkpt>
   <trkpt lat="37.53433" lon="-3.937225"><ele>658.75</ele></trkpt>
   <trkpt lat="37.534446" lon="-3.937237"><ele>658.5</ele></trkpt>
   <trkpt lat="37.534785" lon="-3.937216"><ele>654.75</ele></trkpt>
   <trkpt lat="37.535117" lon="-3.937227"><ele>652.5</ele></trkpt>
   <trkpt lat="37.535357" lon="-3.93721"><ele>650.25</ele></trkpt>
   <trkpt lat="37.535476" lon="-3.937161"><ele>649.5</ele></trkpt>
   <trkpt lat="37.535565" lon="-3.937043"><ele>648.25</ele></trkpt>
   <trkpt lat="37.535777" lon="-3.936581"><ele>645.75</ele></trkpt>
   <trkpt lat="37.535811" lon="-3.936414"><ele>645.25</ele></trkpt>
   <trkpt lat="37.535824" lon="-3.936268"><ele>644.5</ele></trkpt>
   <trkpt lat="37.53585" lon="-3.936134"><ele>643.25</ele></trkpt>
   <trkpt lat="37.535971" lon="-3.935762"><ele>643.5</ele></trkpt>
   <trkpt lat="37.536028" lon="-3.935643"><ele>642.5</ele></trkpt>
   <trkpt lat="37.536124" lon="-3.935443"><ele>642.5</ele></trkpt>
   <trkpt lat="37.536244" lon="-3.935302"><ele>642</ele></trkpt>
   <trkpt lat="37.536636" lon="-3.935034"><ele>640</ele></trkpt>
   <trkpt lat="37.53682" lon="-3.934946"><ele>636.5</ele></trkpt>
   <trkpt lat="37.537186" lon="-3.93482"><ele>636.25</ele></trkpt>
   <trkpt lat="37.537467" lon="-3.934687"><ele>640</ele></trkpt>
   <trkpt lat="37.537628" lon="-3.934575"><ele>642</ele></trkpt>
   <trkpt lat="37.537723" lon="-3.934491"><ele>643.25</ele></trkpt>
   <trkpt lat="37.537793" lon="-3.934421"><ele>644.25</ele></trkpt>
   <trkpt lat="37.538126" lon="-3.934003"><ele>647.75</ele></trkpt>
   <trkpt lat="37.538249" lon="-3.933867"><ele>648.5</ele></trkpt>
   <trkpt lat="37.538652" lon="-3.933569"><ele>651.25</ele></trkpt>
   <trkpt lat="37.539244" lon="-3.932812"><ele>657.25</ele></trkpt>
   <trkpt lat="37.539456" lon="-3.93258"><ele>659</ele></trkpt>
   <trkpt lat="37.539708" lon="-3.932324"><ele>660.75</ele></trkpt>
   <trkpt lat="37.540078" lon="-3.931864"><ele>662.5</ele></trkpt>
   <trkpt lat="37.540484" lon="-3.931444"><ele>665.75</ele></trkpt>
   <trkpt lat="37.540678" lon="-3.931217"><ele>668</ele></trkpt>
   <trkpt lat="37.540967" lon="-3.930797"><ele>670.5</ele></trkpt>
   <trkpt lat="37.541189" lon="-3.930551"><ele>673.5</ele></trkpt>
   <trkpt lat="37.541544" lon="-3.930134"><ele>675.25</ele></trkpt>
   <trkpt lat="37.541735" lon="-3.92994"><ele>676.75</ele></trkpt>
   <trkpt lat="37.542329" lon="-3.929465"><ele>683.25</ele></trkpt>
   <trkpt lat="37.542616" lon="-3.929217"><ele>686.5</ele></trkpt>
   <trkpt lat="37.542861" lon="-3.928891"><ele>689</ele></trkpt>
   <trkpt lat="37.543023" lon="-3.928707"><ele>690.25</ele></trkpt>
   <trkpt lat="37.543362" lon="-3.928417"><ele>694.25</ele></trkpt>
   <trkpt lat="37.543451" lon="-3.928282"><ele>695</ele></trkpt>
   <trkpt lat="37.543524" lon="-3.9281"><ele>695.25</ele></trkpt>
   <trkpt lat="37.543612" lon="-3.927854"><ele>697</ele></trkpt>
   <trkpt lat="37.543741" lon="-3.927655"><ele>698.5</ele></trkpt>
   <trkpt lat="37.543886" lon="-3.927536"><ele>699.25</ele></trkpt>
   <trkpt lat="37.544125" lon="-3.927397"><ele>701.25</ele></trkpt>
   <trkpt lat="37.544361" lon="-3.927227"><ele>704.25</ele></trkpt>
   <trkpt lat="37.544671" lon="-3.927018"><ele>706.5</ele></trkpt>
   <trkpt lat="37.544794" lon="-3.926875"><ele>707.25</ele></trkpt>
   <trkpt lat="37.544886" lon="-3.926722"><ele>708.75</ele></trkpt>
   <trkpt lat="37.544937" lon="-3.926601"><ele>709.75</ele></trkpt>
   <trkpt lat="37.544971" lon="-3.926311"><ele>711.75</ele></trkpt>
   <trkpt lat="37.544995" lon="-3.926207"><ele>712.75</ele></trkpt>
   <trkpt lat="37.545035" lon="-3.926123"><ele>714</ele></trkpt>
   <trkpt lat="37.545173" lon="-3.925918"><ele>714.75</ele></trkpt>
   <trkpt lat="37.545202" lon="-3.925843"><ele>714.25</ele></trkpt>
   <trkpt lat="37.545216" lon="-3.925752"><ele>715.25</ele></trkpt>
   <trkpt lat="37.545193" lon="-3.92548"><ele>716.75</ele></trkpt>
   <trkpt lat="37.545199" lon="-3.925334"><ele>718</ele></trkpt>
   <trkpt lat="37.545234" lon="-3.925172"><ele>719</ele></trkpt>
   <trkpt lat="37.545337" lon="-3.924803"><ele>722</ele></trkpt>
   <trkpt lat="37.545386" lon="-3.924687"><ele>723</ele></trkpt>
   <trkpt lat="37.545446" lon="-3.924599"><ele>723.5</ele></trkpt>
   <trkpt lat="37.545528" lon="-3.924526"><ele>724.75</ele></trkpt>
   <trkpt lat="37.545614" lon="-3.924487"><ele>725.25</ele></trkpt>
   <trkpt lat="37.545703" lon="-3.924474"><ele>725.75</ele></trkpt>
   <trkpt lat="37.545803" lon="-3.924488"><ele>727.25</ele></trkpt>
   <trkpt lat="37.545932" lon="-3.924533"><ele>728.25</ele></trkpt>
   <trkpt lat="37.546114" lon="-3.924615"><ele>730</ele></trkpt>
   <trkpt lat="37.546283" lon="-3.92466"><ele>732.5</ele></trkpt>
   <trkpt lat="37.546401" lon="-3.924654"><ele>733</ele></trkpt>
   <trkpt lat="37.546531" lon="-3.924604"><ele>734.25</ele></trkpt>
   <trkpt lat="37.546625" lon="-3.924531"><ele>734.75</ele></trkpt>
   <trkpt lat="37.546724" lon="-3.924419"><ele>734.75</ele></trkpt>
   <trkpt lat="37.546994" lon="-3.924032"><ele>739</ele></trkpt>
   <trkpt lat="37.547152" lon="-3.923774"><ele>742</ele></trkpt>
   <trkpt lat="37.547211" lon="-3.923651"><ele>740.75</ele></trkpt>
   <trkpt lat="37.547243" lon="-3.923519"><ele>740.75</ele></trkpt>
   <trkpt lat="37.54725" lon="-3.923408"><ele>741</ele></trkpt>
   <trkpt lat="37.547234" lon="-3.923315"><ele>740.5</ele></trkpt>
   <trkpt lat="37.547193" lon="-3.923206"><ele>740.25</ele></trkpt>
   <trkpt lat="37.547112" lon="-3.923046"><ele>740.75</ele></trkpt>
   <trkpt lat="37.547077" lon="-3.922952"><ele>741.5</ele></trkpt>
   <trkpt lat="37.547046" lon="-3.922826"><ele>742.5</ele></trkpt>
   <trkpt lat="37.54704" lon="-3.922731"><ele>743</ele></trkpt>
   <trkpt lat="37.547053" lon="-3.922634"><ele>743.75</ele></trkpt>
   <trkpt lat="37.547093" lon="-3.922502"><ele>745.75</ele></trkpt>
   <trkpt lat="37.547278" lon="-3.922118"><ele>747.75</ele></trkpt>
   <trkpt lat="37.547343" lon="-3.922021"><ele>748.25</ele></trkpt>
   <trkpt lat="37.547422" lon="-3.92194"><ele>748.5</ele></trkpt>
   <trkpt lat="37.547512" lon="-3.921875"><ele>749.5</ele></trkpt>
   <trkpt lat="37.547701" lon="-3.921781"><ele>752.25</ele></trkpt>
   <trkpt lat="37.548131" lon="-3.92163"><ele>756</ele></trkpt>
   <trkpt lat="37.548292" lon="-3.921526"><ele>757.75</ele></trkpt>
   <trkpt lat="37.548562" lon="-3.921282"><ele>758.5</ele></trkpt>
   <trkpt lat="37.548704" lon="-3.921166"><ele>759.25</ele></trkpt>
   <trkpt lat="37.548875" lon="-3.921041"><ele>762</ele></trkpt>
   <trkpt lat="37.548944" lon="-3.920944"><ele>763.25</ele></trkpt>
   <trkpt lat="37.548983" lon="-3.920825"><ele>763.5</ele></trkpt>
   <trkpt lat="37.548986" lon="-3.920722"><ele>764.25</ele></trkpt>
   <trkpt lat="37.548969" lon="-3.920635"><ele>764.25</ele></trkpt>
   <trkpt lat="37.548922" lon="-3.920562"><ele>764.25</ele></trkpt>
   <trkpt lat="37.548849" lon="-3.920519"><ele>764.75</ele></trkpt>
   <trkpt lat="37.548757" lon="-3.920499"><ele>765.25</ele></trkpt>
   <trkpt lat="37.547676" lon="-3.920502"><ele>771.5</ele></trkpt>
   <trkpt lat="37.547497" lon="-3.920486"><ele>773</ele></trkpt>
   <trkpt lat="37.547417" lon="-3.920452"><ele>773.25</ele></trkpt>
   <trkpt lat="37.547346" lon="-3.920397"><ele>774</ele></trkpt>
   <trkpt lat="37.547295" lon="-3.920313"><ele>775.25</ele></trkpt>
   <trkpt lat="37.547272" lon="-3.920216"><ele>776.25</ele></trkpt>
   <trkpt lat="37.547266" lon="-3.920095"><ele>776.75</ele></trkpt>
   <trkpt lat="37.547288" lon="-3.919952"><ele>777.5</ele></trkpt>
   <trkpt lat="37.547329" lon="-3.919823"><ele>778</ele></trkpt>
   <trkpt lat="37.547403" lon="-3.91968"><ele>779.25</ele></trkpt>
   <trkpt lat="37.547496" lon="-3.919537"><ele>781</ele></trkpt>
   <trkpt lat="37.547597" lon="-3.919422"><ele>782.75</ele></trkpt>
   <trkpt lat="37.547876" lon="-3.919189"><ele>784.75</ele></trkpt>
   <trkpt lat="37.547998" lon="-3.919037"><ele>786.25</ele></trkpt>
   <trkpt lat="37.548153" lon="-3.918815"><ele>786.75</ele></trkpt>
   <trkpt lat="37.548423" lon="-3.918522"><ele>789.5</ele></trkpt>
   <trkpt lat="37.548642" lon="-3.918207"><ele>791</ele></trkpt>
   <trkpt lat="37.54873" lon="-3.918108"><ele>792</ele></trkpt>
   <trkpt lat="37.548823" lon="-3.918026"><ele>793</ele></trkpt>
   <trkpt lat="37.549022" lon="-3.917882"><ele>795.25</ele></trkpt>
   <trkpt lat="37.54909" lon="-3.917802"><ele>794.75</ele></trkpt>
   <trkpt lat="37.549128" lon="-3.917707"><ele>794.75</ele></trkpt>
   <trkpt lat="37.549129" lon="-3.917597"><ele>794.75</ele></trkpt>
   <trkpt lat="37.5491" lon="-3.917478"><ele>794.5</ele></trkpt>
   <trkpt lat="37.549017" lon="-3.917288"><ele>796.75</ele></trkpt>
   <trkpt lat="37.548988" lon="-3.917174"><ele>797.5</ele></trkpt>
   <trkpt lat="37.54898" lon="-3.91709"><ele>797</ele></trkpt>
   <trkpt lat="37.548985" lon="-3.916963"><ele>797</ele></trkpt>
   <trkpt lat="37.549016" lon="-3.916765"><ele>798.75</ele></trkpt>
   <trkpt lat="37.54901" lon="-3.916693"><ele>798.5</ele></trkpt>
   <trkpt lat="37.548979" lon="-3.916629"><ele>798.25</ele></trkpt>
   <trkpt lat="37.548922" lon="-3.916584"><ele>797.25</ele></trkpt>
   <trkpt lat="37.548868" lon="-3.916575"><ele>796.5</ele></trkpt>
   <trkpt lat="37.548789" lon="-3.916604"><ele>797</ele></trkpt>
   <trkpt lat="37.54868" lon="-3.916677"><ele>796.25</ele></trkpt>
   <trkpt lat="37.548548" lon="-3.916751"><ele>795.75</ele></trkpt>
   <trkpt lat="37.548396" lon="-3.916798"><ele>796.25</ele></trkpt>
   <trkpt lat="37.548266" lon="-3.916805"><ele>796.75</ele></trkpt>
   <trkpt lat="37.548175" lon="-3.916769"><ele>797.5</ele></trkpt>
   <trkpt lat="37.548118" lon="-3.916703"><ele>798.5</ele></trkpt>
   <trkpt lat="37.548088" lon="-3.916624"><ele>799.5</ele></trkpt>
   <trkpt lat="37.54807" lon="-3.916516"><ele>799.75</ele></trkpt>
   <trkpt lat="37.548085" lon="-3.916345"><ele>801.25</ele></trkpt>
   <trkpt lat="37.548162" lon="-3.91592"><ele>804.5</ele></trkpt>
   <trkpt lat="37.548175" lon="-3.91577"><ele>805.5</ele></trkpt>
   <trkpt lat="37.548151" lon="-3.915666"><ele>805.75</ele></trkpt>
   <trkpt lat="37.548115" lon="-3.915591"><ele>805.75</ele></trkpt>
   <trkpt lat="37.548058" lon="-3.915538"><ele>805.5</ele></trkpt>
   <trkpt lat="37.547955" lon="-3.915501"><ele>806.25</ele></trkpt>
   <trkpt lat="37.547484" lon="-3.915387"><ele>809.75</ele></trkpt>
   <trkpt lat="37.547396" lon="-3.915353"><ele>810.25</ele></trkpt>
   <trkpt lat="37.547341" lon="-3.915298"><ele>811</ele></trkpt>
   <trkpt lat="37.547291" lon="-3.915199"><ele>812</ele></trkpt>
   <trkpt lat="37.547255" lon="-3.915094"><ele>812.5</ele></trkpt>
   <trkpt lat="37.547236" lon="-3.914943"><ele>813.5</ele></trkpt>
   <trkpt lat="37.547237" lon="-3.91483"><ele>814</ele></trkpt>
   <trkpt lat="37.547258" lon="-3.914724"><ele>815</ele></trkpt>
   <trkpt lat="37.547302" lon="-3.914616"><ele>814.5</ele></trkpt>
   <trkpt lat="37.547387" lon="-3.914488"><ele>815.75</ele></trkpt>
   <trkpt lat="37.547616" lon="-3.914233"><ele>818.5</ele></trkpt>
   <trkpt lat="37.5477" lon="-3.914104"><ele>819.5</ele></trkpt>
   <trkpt lat="37.547748" lon="-3.913952"><ele>820.25</ele></trkpt>
   <trkpt lat="37.547769" lon="-3.913768"><ele>820.25</ele></trkpt>
   <trkpt lat="37.54779" lon="-3.91318"><ele>821.75</ele></trkpt>
   <trkpt lat="37.547824" lon="-3.912955"><ele>822.5</ele></trkpt>
   <trkpt lat="37.54789" lon="-3.912711"><ele>822.75</ele></trkpt>
   <trkpt lat="37.54798" lon="-3.91243"><ele>824.5</ele></trkpt>
   <trkpt lat="37.548119" lon="-3.912049"><ele>826</ele></trkpt>
   <trkpt lat="37.548282" lon="-3.91175"><ele>828</ele></trkpt>
   <trkpt lat="37.548369" lon="-3.911632"><ele>828.75</ele></trkpt>
   <trkpt lat="37.54844" lon="-3.911566"><ele>828.75</ele></trkpt>
   <trkpt lat="37.548528" lon="-3.911514"><ele>828.5</ele></trkpt>
   <trkpt lat="37.548675" lon="-3.911485"><ele>828</ele></trkpt>
   <trkpt lat="37.548972" lon="-3.911484"><ele>826.75</ele></trkpt>
   <trkpt lat="37.549234" lon="-3.911436"><ele>824.75</ele></trkpt>
   <trkpt lat="37.54949" lon="-3.911349"><ele>823</ele></trkpt>
   <trkpt lat="37.549631" lon="-3.911267"><ele>822</ele></trkpt>
   <trkpt lat="37.549762" lon="-3.911178"><ele>816.5</ele></trkpt>
   <trkpt lat="37.550319" lon="-3.910802"><ele>816.5</ele></trkpt>
   <trkpt lat="37.550411" lon="-3.91071"><ele>815.5</ele></trkpt>
   <trkpt lat="37.550469" lon="-3.910603"><ele>815.5</ele></trkpt>
   <trkpt lat="37.550499" lon="-3.910486"><ele>815</ele></trkpt>
   <trkpt lat="37.550512" lon="-3.910316"><ele>814</ele></trkpt>
   <trkpt lat="37.550491" lon="-3.909933"><ele>810.75</ele></trkpt>
   <trkpt lat="37.550504" lon="-3.9098"><ele>810.5</ele></trkpt>
   <trkpt lat="37.550536" lon="-3.909625"><ele>810.75</ele></trkpt>
   <trkpt lat="37.550603" lon="-3.909483"><ele>810.25</ele></trkpt>
   <trkpt lat="37.550779" lon="-3.909206"><ele>809.75</ele></trkpt>
   <trkpt lat="37.550945" lon="-3.908907"><ele>808.75</ele></trkpt>
   <trkpt lat="37.551071" lon="-3.908621"><ele>810</ele></trkpt>
   <trkpt lat="37.551158" lon="-3.908367"><ele>808</ele></trkpt>
   <trkpt lat="37.55123" lon="-3.90805"><ele>809</ele></trkpt>
   <trkpt lat="37.551283" lon="-3.907773"><ele>809.75</ele></trkpt>
   <trkpt lat="37.551305" lon="-3.907499"><ele>810.5</ele></trkpt>
   <trkpt lat="37.551294" lon="-3.907184"><ele>810.25</ele></trkpt>
   <trkpt lat="37.55126" lon="-3.9068"><ele>810.75</ele></trkpt>
   <trkpt lat="37.551262" lon="-3.906629"><ele>810.5</ele></trkpt>
   <trkpt lat="37.551286" lon="-3.90651"><ele>810.25</ele></trkpt>
   <trkpt lat="37.551334" lon="-3.906419"><ele>809.5</ele></trkpt>
   <trkpt lat="37.551392" lon="-3.906364"><ele>809.25</ele></trkpt>
   <trkpt lat="37.551465" lon="-3.906329"><ele>809.75</ele></trkpt>
   <trkpt lat="37.551776" lon="-3.906324"><ele>810.5</ele></trkpt>
   <trkpt lat="37.551869" lon="-3.906298"><ele>811</ele></trkpt>
   <trkpt lat="37.552034" lon="-3.906212"><ele>812.75</ele></trkpt>
   <trkpt lat="37.552223" lon="-3.906075"><ele>813.5</ele></trkpt>
   <trkpt lat="37.552333" lon="-3.906026"><ele>814.75</ele></trkpt>
   <trkpt lat="37.552454" lon="-3.906035"><ele>815.25</ele></trkpt>
   <trkpt lat="37.552597" lon="-3.906067"><ele>816</ele></trkpt>
   <trkpt lat="37.5527" lon="-3.906119"><ele>816.25</ele></trkpt>
   <trkpt lat="37.552775" lon="-3.906189"><ele>816.75</ele></trkpt>
   <trkpt lat="37.552822" lon="-3.906266"><ele>817.75</ele></trkpt>
   <trkpt lat="37.552863" lon="-3.906359"><ele>818.5</ele></trkpt>
   <trkpt lat="37.553019" lon="-3.906903"><ele>819.5</ele></trkpt>
   <trkpt lat="37.553075" lon="-3.907063"><ele>819.75</ele></trkpt>
   <trkpt lat="37.553128" lon="-3.907135"><ele>820.25</ele></trkpt>
   <trkpt lat="37.553197" lon="-3.90718"><ele>820.75</ele></trkpt>
   <trkpt lat="37.553258" lon="-3.90719"><ele>821.5</ele></trkpt>
   <trkpt lat="37.553319" lon="-3.907176"><ele>822.25</ele></trkpt>
   <trkpt lat="37.553385" lon="-3.907138"><ele>822</ele></trkpt>
   <trkpt lat="37.553469" lon="-3.907036"><ele>822</ele></trkpt>
   <trkpt lat="37.553687" lon="-3.906704"><ele>826.25</ele></trkpt>
   <trkpt lat="37.553769" lon="-3.906592"><ele>827</ele></trkpt>
   <trkpt lat="37.553889" lon="-3.906487"><ele>827.5</ele></trkpt>
   <trkpt lat="37.553997" lon="-3.906428"><ele>829</ele></trkpt>
   <trkpt lat="37.554081" lon="-3.906412"><ele>829.5</ele></trkpt>
   <trkpt lat="37.554139" lon="-3.906425"><ele>829.5</ele></trkpt>
   <trkpt lat="37.554194" lon="-3.906472"><ele>830</ele></trkpt>
   <trkpt lat="37.554237" lon="-3.906532"><ele>831.5</ele></trkpt>
   <trkpt lat="37.554266" lon="-3.906597"><ele>832</ele></trkpt>
   <trkpt lat="37.554304" lon="-3.906754"><ele>833.25</ele></trkpt>
   <trkpt lat="37.554334" lon="-3.907295"><ele>834.5</ele></trkpt>
   <trkpt lat="37.554351" lon="-3.90747"><ele>834.5</ele></trkpt>
   <trkpt lat="37.554393" lon="-3.907653"><ele>835.75</ele></trkpt>
   <trkpt lat="37.554434" lon="-3.907789"><ele>836.5</ele></trkpt>
   <trkpt lat="37.554481" lon="-3.907888"><ele>836.75</ele></trkpt>
   <trkpt lat="37.554552" lon="-3.90798"><ele>837.25</ele></trkpt>
   <trkpt lat="37.554635" lon="-3.908029"><ele>838</ele></trkpt>
   <trkpt lat="37.554721" lon="-3.908045"><ele>839</ele></trkpt>
   <trkpt lat="37.554797" lon="-3.90802"><ele>838.5</ele></trkpt>
   <trkpt lat="37.554856" lon="-3.907964"><ele>839</ele></trkpt>
   <trkpt lat="37.554927" lon="-3.90787"><ele>839.75</ele></trkpt>
   <trkpt lat="37.55526" lon="-3.907158"><ele>845.25</ele></trkpt>
   <trkpt lat="37.555584" lon="-3.906491"><ele>850.25</ele></trkpt>
   <trkpt lat="37.555713" lon="-3.906278"><ele>851.25</ele></trkpt>
   <trkpt lat="37.556044" lon="-3.905811"><ele>855.5</ele></trkpt>
   <trkpt lat="37.556191" lon="-3.905584"><ele>857.25</ele></trkpt>
   <trkpt lat="37.556292" lon="-3.905365"><ele>858.5</ele></trkpt>
   <trkpt lat="37.556342" lon="-3.905182"><ele>859.25</ele></trkpt>
   <trkpt lat="37.55635" lon="-3.905059"><ele>860.5</ele></trkpt>
   <trkpt lat="37.55634" lon="-3.904943"><ele>861</ele></trkpt>
   <trkpt lat="37.556277" lon="-3.904719"><ele>862</ele></trkpt>
   <trkpt lat="37.556162" lon="-3.904406"><ele>864.5</ele></trkpt>
   <trkpt lat="37.556126" lon="-3.904275"><ele>865.5</ele></trkpt>
   <trkpt lat="37.556122" lon="-3.904184"><ele>865.5</ele></trkpt>
   <trkpt lat="37.556132" lon="-3.904054"><ele>866.5</ele></trkpt>
   <trkpt lat="37.556171" lon="-3.903908"><ele>867.25</ele></trkpt>
   <trkpt lat="37.556234" lon="-3.903769"><ele>868.5</ele></trkpt>
   <trkpt lat="37.556359" lon="-3.903546"><ele>869.75</ele></trkpt>
   <trkpt lat="37.556495" lon="-3.903195"><ele>871.25</ele></trkpt>
   <trkpt lat="37.556518" lon="-3.903046"><ele>872.75</ele></trkpt>
   <trkpt lat="37.556508" lon="-3.902692"><ele>875</ele></trkpt>
   <trkpt lat="37.556522" lon="-3.902617"><ele>875.5</ele></trkpt>
   <trkpt lat="37.556584" lon="-3.902493"><ele>876.25</ele></trkpt>
   <trkpt lat="37.556695" lon="-3.902384"><ele>877.25</ele></trkpt>
   <trkpt lat="37.556764" lon="-3.902353"><ele>878.25</ele></trkpt>
   <trkpt lat="37.556842" lon="-3.902334"><ele>879</ele></trkpt>
   <trkpt lat="37.556927" lon="-3.902363"><ele>879.25</ele></trkpt>
   <trkpt lat="37.557115" lon="-3.902524"><ele>880.5</ele></trkpt>
   <trkpt lat="37.557209" lon="-3.902576"><ele>881.75</ele></trkpt>
   <trkpt lat="37.557332" lon="-3.902607"><ele>882.25</ele></trkpt>
   <trkpt lat="37.557464" lon="-3.902601"><ele>883.5</ele></trkpt>
   <trkpt lat="37.557596" lon="-3.902551"><ele>884.75</ele></trkpt>
   <trkpt lat="37.557737" lon="-3.902458"><ele>886</ele></trkpt>
   <trkpt lat="37.557867" lon="-3.902319"><ele>887.25</ele></trkpt>
   <trkpt lat="37.557981" lon="-3.902149"><ele>888.5</ele></trkpt>
   <trkpt lat="37.558069" lon="-3.901932"><ele>889.5</ele></trkpt>
   <trkpt lat="37.558139" lon="-3.901681"><ele>890.5</ele></trkpt>
   <trkpt lat="37.558253" lon="-3.900998"><ele>895.25</ele></trkpt>
   <trkpt lat="37.558277" lon="-3.900765"><ele>896.75</ele></trkpt>
   <trkpt lat="37.558302" lon="-3.900619"><ele>898</ele></trkpt>
   <trkpt lat="37.558354" lon="-3.90049"><ele>898.75</ele></trkpt>
   <trkpt lat="37.558439" lon="-3.900393"><ele>899.5</ele></trkpt>
   <trkpt lat="37.558585" lon="-3.900278"><ele>900.25</ele></trkpt>
   <trkpt lat="37.558827" lon="-3.900102"><ele>902</ele></trkpt>
   <trkpt lat="37.558998" lon="-3.899987"><ele>903.75</ele></trkpt>
   <trkpt lat="37.559165" lon="-3.899915"><ele>905</ele></trkpt>
   <trkpt lat="37.559273" lon="-3.899889"><ele>906.25</ele></trkpt>
   <trkpt lat="37.55935" lon="-3.899883"><ele>906.75</ele></trkpt>
   <trkpt lat="37.559429" lon="-3.899901"><ele>907</ele></trkpt>
   <trkpt lat="37.559495" lon="-3.899943"><ele>907</ele></trkpt>
   <trkpt lat="37.559585" lon="-3.900013"><ele>907.75</ele></trkpt>
   <trkpt lat="37.559647" lon="-3.900082"><ele>908.5</ele></trkpt>
   <trkpt lat="37.559696" lon="-3.900121"><ele>909.25</ele></trkpt>
   <trkpt lat="37.55974" lon="-3.90013"><ele>909.5</ele></trkpt>
   <trkpt lat="37.559788" lon="-3.900124"><ele>908.75</ele></trkpt>
   <trkpt lat="37.55984" lon="-3.900081"><ele>908.25</ele></trkpt>
   <trkpt lat="37.55991" lon="-3.89994"><ele>910</ele></trkpt>
   <trkpt lat="37.559982" lon="-3.899772"><ele>912.75</ele></trkpt>
   <trkpt lat="37.560028" lon="-3.899622"><ele>913.5</ele></trkpt>
   <trkpt lat="37.560044" lon="-3.899492"><ele>914.25</ele></trkpt>
   <trkpt lat="37.56003" lon="-3.899397"><ele>915</ele></trkpt>
   <trkpt lat="37.559923" lon="-3.899052"><ele>918</ele></trkpt>
   <trkpt lat="37.5599" lon="-3.898943"><ele>919.25</ele></trkpt>
   <trkpt lat="37.559894" lon="-3.898855"><ele>919.75</ele></trkpt>
   <trkpt lat="37.559909" lon="-3.898757"><ele>920.25</ele></trkpt>
   <trkpt lat="37.559964" lon="-3.898575"><ele>920.75</ele></trkpt>
   <trkpt lat="37.560092" lon="-3.898218"><ele>922</ele></trkpt>
   <trkpt lat="37.560221" lon="-3.897897"><ele>924.5</ele></trkpt>
   <trkpt lat="37.560264" lon="-3.89781"><ele>925.5</ele></trkpt>
   <trkpt lat="37.560323" lon="-3.897737"><ele>926.25</ele></trkpt>
   <trkpt lat="37.560397" lon="-3.897672"><ele>926.75</ele></trkpt>
   <trkpt lat="37.5607" lon="-3.89748"><ele>929.25</ele></trkpt>
   <trkpt lat="37.560802" lon="-3.897404"><ele>930</ele></trkpt>
   <trkpt lat="37.560864" lon="-3.897337"><ele>930.25</ele></trkpt>
   <trkpt lat="37.560902" lon="-3.897252"><ele>930.25</ele></trkpt>
   <trkpt lat="37.56092" lon="-3.897133"><ele>931.25</ele></trkpt>
   <trkpt lat="37.560915" lon="-3.896839"><ele>934</ele></trkpt>
   <trkpt lat="37.560906" lon="-3.896474"><ele>936.25</ele></trkpt>
   <trkpt lat="37.560881" lon="-3.896334"><ele>937.25</ele></trkpt>
   <trkpt lat="37.560839" lon="-3.896218"><ele>937.75</ele></trkpt>
   <trkpt lat="37.560771" lon="-3.896122"><ele>939</ele></trkpt>
   <trkpt lat="37.560654" lon="-3.895984"><ele>940.5</ele></trkpt>
   <trkpt lat="37.560591" lon="-3.895881"><ele>941.25</ele></trkpt>
   <trkpt lat="37.560558" lon="-3.895777"><ele>942.25</ele></trkpt>
   <trkpt lat="37.560544" lon="-3.895645"><ele>943.5</ele></trkpt>
   <trkpt lat="37.560566" lon="-3.895467"><ele>944.5</ele></trkpt>
   <trkpt lat="37.560617" lon="-3.895213"><ele>945.25</ele></trkpt>
   <trkpt lat="37.560653" lon="-3.894624"><ele>948.75</ele></trkpt>
   <trkpt lat="37.560664" lon="-3.894231"><ele>953</ele></trkpt>
   <trkpt lat="37.560682" lon="-3.894126"><ele>954.5</ele></trkpt>
   <trkpt lat="37.560713" lon="-3.894066"><ele>955</ele></trkpt>
   <trkpt lat="37.560775" lon="-3.894002"><ele>955.25</ele></trkpt>
   <trkpt lat="37.560846" lon="-3.893969"><ele>954.75</ele></trkpt>
   <trkpt lat="37.561006" lon="-3.893914"><ele>956</ele></trkpt>
   <trkpt lat="37.561182" lon="-3.893821"><ele>957.5</ele></trkpt>
   <trkpt lat="37.561273" lon="-3.893743"><ele>958</ele></trkpt>
   <trkpt lat="37.561351" lon="-3.893625"><ele>960.5</ele></trkpt>
   <trkpt lat="37.56149" lon="-3.893314"><ele>962</ele></trkpt>
   <trkpt lat="37.561512" lon="-3.893208"><ele>961.75</ele></trkpt>
   <trkpt lat="37.561509" lon="-3.893115"><ele>962.25</ele></trkpt>
   <trkpt lat="37.561483" lon="-3.893016"><ele>963.25</ele></trkpt>
   <trkpt lat="37.561332" lon="-3.892673"><ele>967.5</ele></trkpt>
   <trkpt lat="37.561306" lon="-3.892564"><ele>968</ele></trkpt>
   <trkpt lat="37.561302" lon="-3.892451"><ele>968.5</ele></trkpt>
   <trkpt lat="37.561327" lon="-3.892314"><ele>969.25</ele></trkpt>
   <trkpt lat="37.5614" lon="-3.892102"><ele>970.25</ele></trkpt>
   <trkpt lat="37.56151" lon="-3.891879"><ele>971.25</ele></trkpt>
   <trkpt lat="37.561557" lon="-3.891727"><ele>972.25</ele></trkpt>
   <trkpt lat="37.561588" lon="-3.891575"><ele>973</ele></trkpt>
   <trkpt lat="37.561594" lon="-3.89144"><ele>974.5</ele></trkpt>
   <trkpt lat="37.561585" lon="-3.891279"><ele>975.75</ele></trkpt>
   <trkpt lat="37.561541" lon="-3.89102"><ele>978.75</ele></trkpt>
   <trkpt lat="37.561535" lon="-3.890906"><ele>979.5</ele></trkpt>
   <trkpt lat="37.561556" lon="-3.890791"><ele>979.75</ele></trkpt>
   <trkpt lat="37.5616" lon="-3.890706"><ele>979.75</ele></trkpt>
   <trkpt lat="37.561647" lon="-3.890647"><ele>979</ele></trkpt>
   <trkpt lat="37.561719" lon="-3.890604"><ele>980</ele></trkpt>
   <trkpt lat="37.561808" lon="-3.890599"><ele>981.25</ele></trkpt>
   <trkpt lat="37.561983" lon="-3.890643"><ele>981.5</ele></trkpt>
   <trkpt lat="37.56209" lon="-3.89064"><ele>981</ele></trkpt>
   <trkpt lat="37.562162" lon="-3.890617"><ele>981.25</ele></trkpt>
   <trkpt lat="37.562264" lon="-3.89054"><ele>982.5</ele></trkpt>
   <trkpt lat="37.562576" lon="-3.890241"><ele>986</ele></trkpt>
   <trkpt lat="37.562639" lon="-3.890209"><ele>986.75</ele></trkpt>
   <trkpt lat="37.562712" lon="-3.890187"><ele>986.75</ele></trkpt>
   <trkpt lat="37.562763" lon="-3.89021"><ele>986.5</ele></trkpt>
   <trkpt lat="37.562808" lon="-3.890269"><ele>986.75</ele></trkpt>
   <trkpt lat="37.562828" lon="-3.890346"><ele>987.75</ele></trkpt>
   <trkpt lat="37.562826" lon="-3.890435"><ele>988</ele></trkpt>
   <trkpt lat="37.562757" lon="-3.890756"><ele>987.5</ele></trkpt>
   <trkpt lat="37.562751" lon="-3.890905"><ele>988.25</ele></trkpt>
   <trkpt lat="37.562747" lon="-3.891061"><ele>989</ele></trkpt>
   <trkpt lat="37.562757" lon="-3.891561"><ele>992</ele></trkpt>
   <trkpt lat="37.562769" lon="-3.891671"><ele>993.25</ele></trkpt>
   <trkpt lat="37.562801" lon="-3.891747"><ele>992.75</ele></trkpt>
   <trkpt lat="37.562842" lon="-3.89179"><ele>992.5</ele></trkpt>
   <trkpt lat="37.562916" lon="-3.891809"><ele>992.75</ele></trkpt>
   <trkpt lat="37.562988" lon="-3.891798"><ele>994</ele></trkpt>
   <trkpt lat="37.563094" lon="-3.891739"><ele>996.5</ele></trkpt>
   <trkpt lat="37.563324" lon="-3.89155"><ele>998</ele></trkpt>
   <trkpt lat="37.563475" lon="-3.891361"><ele>999.75</ele></trkpt>
   <trkpt lat="37.563789" lon="-3.891021"><ele>1001.5</ele></trkpt>
   <trkpt lat="37.563916" lon="-3.890834"><ele>1003.5</ele></trkpt>
   <trkpt lat="37.564223" lon="-3.890235"><ele>1006.75</ele></trkpt>
   <trkpt lat="37.5643" lon="-3.890043"><ele>1008</ele></trkpt>
   <trkpt lat="37.56438" lon="-3.889811"><ele>1009.5</ele></trkpt>
   <trkpt lat="37.564393" lon="-3.889682"><ele>1010.75</ele></trkpt>
   <trkpt lat="37.564372" lon="-3.889584"><ele>1010.25</ele></trkpt>
   <trkpt lat="37.564326" lon="-3.889494"><ele>1010.5</ele></trkpt>
   <trkpt lat="37.564222" lon="-3.889353"><ele>1012.25</ele></trkpt>
   <trkpt lat="37.564171" lon="-3.889251"><ele>1013.5</ele></trkpt>
   <trkpt lat="37.564139" lon="-3.889139"><ele>1014.25</ele></trkpt>
   <trkpt lat="37.564141" lon="-3.889041"><ele>1015</ele></trkpt>
   <trkpt lat="37.564171" lon="-3.888923"><ele>1015.5</ele></trkpt>
   <trkpt lat="37.564315" lon="-3.888645"><ele>1017.75</ele></trkpt>
   <trkpt lat="37.564406" lon="-3.888435"><ele>1019.25</ele></trkpt>
   <trkpt lat="37.564457" lon="-3.888245"><ele>1020</ele></trkpt>
   <trkpt lat="37.564471" lon="-3.888107"><ele>1020.5</ele></trkpt>
   <trkpt lat="37.564455" lon="-3.887976"><ele>1021.25</ele></trkpt>
   <trkpt lat="37.564407" lon="-3.887857"><ele>1022</ele></trkpt>
   <trkpt lat="37.56426" lon="-3.887657"><ele>1024</ele></trkpt>
   <trkpt lat="37.564194" lon="-3.887528"><ele>1024.25</ele></trkpt>
   <trkpt lat="37.564161" lon="-3.887423"><ele>1025.25</ele></trkpt>
   <trkpt lat="37.564147" lon="-3.887296"><ele>1026.25</ele></trkpt>
   <trkpt lat="37.564124" lon="-3.886646"><ele>1029.75</ele></trkpt>
   <trkpt lat="37.56414" lon="-3.886424"><ele>1030.5</ele></trkpt>
   <trkpt lat="37.564168" lon="-3.886152"><ele>1031.5</ele></trkpt>
   <trkpt lat="37.564201" lon="-3.885314"><ele>1035.25</ele></trkpt>
   <trkpt lat="37.564224" lon="-3.884992"><ele>1037.5</ele></trkpt>
   <trkpt lat="37.564225" lon="-3.884722"><ele>1038</ele></trkpt>
   <trkpt lat="37.564246" lon="-3.884469"><ele>1039</ele></trkpt>
   <trkpt lat="37.564241" lon="-3.884346"><ele>1039.75</ele></trkpt>
   <trkpt lat="37.564219" lon="-3.884246"><ele>1040.75</ele></trkpt>
   <trkpt lat="37.564036" lon="-3.883938"><ele>1045</ele></trkpt>
   <trkpt lat="37.56399" lon="-3.883843"><ele>1045.75</ele></trkpt>
   <trkpt lat="37.56398" lon="-3.883767"><ele>1045.75</ele></trkpt>
   <trkpt lat="37.56398" lon="-3.883694"><ele>1045.5</ele></trkpt>
   <trkpt lat="37.564013" lon="-3.883594"><ele>1045.25</ele></trkpt>
   <trkpt lat="37.564112" lon="-3.883432"><ele>1046</ele></trkpt>
   <trkpt lat="37.564628" lon="-3.882705"><ele>1046.5</ele></trkpt>
   <trkpt lat="37.564707" lon="-3.882582"><ele>1047</ele></trkpt>
   <trkpt lat="37.564734" lon="-3.882455"><ele>1047.75</ele></trkpt>
   <trkpt lat="37.56474" lon="-3.882276"><ele>1048.5</ele></trkpt>
   <trkpt lat="37.564697" lon="-3.881759"><ele>1052</ele></trkpt>
   <trkpt lat="37.564638" lon="-3.881407"><ele>1055</ele></trkpt>
   <trkpt lat="37.564629" lon="-3.881225"><ele>1056.5</ele></trkpt>
   <trkpt lat="37.564654" lon="-3.8811"><ele>1057.25</ele></trkpt>
   <trkpt lat="37.564698" lon="-3.880983"><ele>1057.75</ele></trkpt>
   <trkpt lat="37.564764" lon="-3.880906"><ele>1058</ele></trkpt>
   <trkpt lat="37.564884" lon="-3.880836"><ele>1058.75</ele></trkpt>
   <trkpt lat="37.5652" lon="-3.880723"><ele>1061.5</ele></trkpt>
   <trkpt lat="37.565485" lon="-3.880558"><ele>1066.5</ele></trkpt>
   <trkpt lat="37.565615" lon="-3.880469"><ele>1068.5</ele></trkpt>
   <trkpt lat="37.565705" lon="-3.880371"><ele>1069.25</ele></trkpt>
   <trkpt lat="37.565781" lon="-3.880247"><ele>1068.75</ele></trkpt>
   <trkpt lat="37.565827" lon="-3.880116"><ele>1068.5</ele></trkpt>
   <trkpt lat="37.565869" lon="-3.879952"><ele>1068.25</ele></trkpt>
   <trkpt lat="37.565924" lon="-3.879456"><ele>1066.5</ele></trkpt>
   <trkpt lat="37.565969" lon="-3.879273"><ele>1067.25</ele></trkpt>
   <trkpt lat="37.566094" lon="-3.878941"><ele>1069.25</ele></trkpt>
   <trkpt lat="37.566154" lon="-3.878717"><ele>1070.5</ele></trkpt>
   <trkpt lat="37.566275" lon="-3.878062"><ele>1073</ele></trkpt>
   <trkpt lat="37.566291" lon="-3.877832"><ele>1073.25</ele></trkpt>
   <trkpt lat="37.566303" lon="-3.877108"><ele>1074.5</ele></trkpt>
   <trkpt lat="37.566325" lon="-3.87692"><ele>1075</ele></trkpt>
   <trkpt lat="37.56637" lon="-3.876774"><ele>1075.5</ele></trkpt>
   <trkpt lat="37.566469" lon="-3.876529"><ele>1075</ele></trkpt>
   <trkpt lat="37.566518" lon="-3.876386"><ele>1074.5</ele></trkpt>
   <trkpt lat="37.566546" lon="-3.876202"><ele>1074.75</ele></trkpt>
   <trkpt lat="37.566583" lon="-3.875594"><ele>1076</ele></trkpt>
   <trkpt lat="37.566575" lon="-3.875337"><ele>1076.25</ele></trkpt>
   <trkpt lat="37.566504" lon="-3.874888"><ele>1077.75</ele></trkpt>
   <trkpt lat="37.566408" lon="-3.874303"><ele>1080.25</ele></trkpt>
   <trkpt lat="37.566384" lon="-3.87412"><ele>1081.25</ele></trkpt>
   <trkpt lat="37.566393" lon="-3.873379"><ele>1084.75</ele></trkpt>
   <trkpt lat="37.566381" lon="-3.873159"><ele>1085.75</ele></trkpt>
   <trkpt lat="37.566336" lon="-3.872895"><ele>1087.5</ele></trkpt>
   <trkpt lat="37.566248" lon="-3.872563"><ele>1089.25</ele></trkpt>
   <trkpt lat="37.565759" lon="-3.870858"><ele>1093.25</ele></trkpt>
   
  </trkseg>
 </trk>
</gpx>
