<?xml version="1.0" encoding="UTF-8"?>
<!-- track-length = 14508 filtered ascend = 536 plain-ascend = 488 cost=19178 energy=0.2kwh time=1h 43m 8s -->
<gpx 
 xmlns="http://www.topografix.com/GPX/1/1" 
 xmlns:xsi="http://www.w3.org/2001/XMLSchema-instance" 
 xsi:schemaLocation="http://www.topografix.com/GPX/1/1 http://www.topografix.com/GPX/1/1/gpx.xsd" 
 version="1.1" 
 creator="BRouter-Web 0.18.1">
 <trk>
  <name>Puerto de San Rafael</name>
  <trkseg>
   <trkpt lat="40.250611" lon="-0.754044"><ele>1025.25</ele></trkpt>
   <trkpt lat="40.250632" lon="-0.754005"><ele>1025.5</ele></trkpt>
   <trkpt lat="40.250835" lon="-0.754148"><ele>1025</ele></trkpt>
   <trkpt lat="40.251293" lon="-0.754567"><ele>1025</ele></trkpt>
   <trkpt lat="40.251346" lon="-0.754591"><ele>1025</ele></trkpt>
   <trkpt lat="40.251416" lon="-0.754599"><ele>1024.75</ele></trkpt>
   <trkpt lat="40.251658" lon="-0.754561"><ele>1025.75</ele></trkpt>
   <trkpt lat="40.251866" lon="-0.754505"><ele>1026.25</ele></trkpt>
   <trkpt lat="40.251948" lon="-0.75446"><ele>1026</ele></trkpt>
   <trkpt lat="40.252178" lon="-0.754301"><ele>1026</ele></trkpt>
   <trkpt lat="40.25242" lon="-0.754152"><ele>1026.25</ele></trkpt>
   <trkpt lat="40.252486" lon="-0.754103"><ele>1026.5</ele></trkpt>
   <trkpt lat="40.252666" lon="-0.753915"><ele>1027.75</ele></trkpt>
   <trkpt lat="40.252695" lon="-0.753885"><ele>1027.5</ele></trkpt>
   <trkpt lat="40.252853" lon="-0.753729"><ele>1028.75</ele></trkpt>
   <trkpt lat="40.253046" lon="-0.753591"><ele>1029.5</ele></trkpt>
   <trkpt lat="40.253092" lon="-0.7535"><ele>1031.25</ele></trkpt>
   <trkpt lat="40.253153" lon="-0.753335"><ele>1034</ele></trkpt>
   <trkpt lat="40.253187" lon="-0.753272"><ele>1035</ele></trkpt>
   <trkpt lat="40.253221" lon="-0.753227"><ele>1035.5</ele></trkpt>
   <trkpt lat="40.253404" lon="-0.753063"><ele>1036.25</ele></trkpt>
   <trkpt lat="40.25366" lon="-0.752758"><ele>1037.5</ele></trkpt>
   <trkpt lat="40.253723" lon="-0.75267"><ele>1037</ele></trkpt>
   <trkpt lat="40.253821" lon="-0.7525"><ele>1038</ele></trkpt>
   <trkpt lat="40.253878" lon="-0.752375"><ele>1039.25</ele></trkpt>
   <trkpt lat="40.253921" lon="-0.752224"><ele>1041.25</ele></trkpt>
   <trkpt lat="40.25408" lon="-0.751954"><ele>1043.75</ele></trkpt>
   <trkpt lat="40.254201" lon="-0.751769"><ele>1045</ele></trkpt>
   <trkpt lat="40.25429" lon="-0.751664"><ele>1045.75</ele></trkpt>
   <trkpt lat="40.254386" lon="-0.751576"><ele>1046.5</ele></trkpt>
   <trkpt lat="40.2545" lon="-0.751492"><ele>1047</ele></trkpt>
   <trkpt lat="40.254628" lon="-0.751415"><ele>1047.5</ele></trkpt>
   <trkpt lat="40.254985" lon="-0.751217"><ele>1048</ele></trkpt>
   <trkpt lat="40.255203" lon="-0.751063"><ele>1049.25</ele></trkpt>
   <trkpt lat="40.255275" lon="-0.750989"><ele>1049.25</ele></trkpt>
   <trkpt lat="40.255563" lon="-0.750639"><ele>1049.75</ele></trkpt>
   <trkpt lat="40.255643" lon="-0.750551"><ele>1049.75</ele></trkpt>
   <trkpt lat="40.255734" lon="-0.750456"><ele>1049.25</ele></trkpt>
   <trkpt lat="40.255849" lon="-0.750352"><ele>1050</ele></trkpt>
   <trkpt lat="40.255936" lon="-0.750288"><ele>1051</ele></trkpt>
   <trkpt lat="40.256411" lon="-0.750046"><ele>1052.5</ele></trkpt>
   <trkpt lat="40.256647" lon="-0.749908"><ele>1054.5</ele></trkpt>
   <trkpt lat="40.256881" lon="-0.749758"><ele>1055</ele></trkpt>
   <trkpt lat="40.257054" lon="-0.749615"><ele>1056</ele></trkpt>
   <trkpt lat="40.257141" lon="-0.749512"><ele>1055.75</ele></trkpt>
   <trkpt lat="40.257342" lon="-0.749241"><ele>1054.25</ele></trkpt>
   <trkpt lat="40.257723" lon="-0.748726"><ele>1052</ele></trkpt>
   <trkpt lat="40.257792" lon="-0.748634"><ele>1051.75</ele></trkpt>
   <trkpt lat="40.258377" lon="-0.747854"><ele>1051</ele></trkpt>
   <trkpt lat="40.259129" lon="-0.746804"><ele>1054.75</ele></trkpt>
   <trkpt lat="40.259245" lon="-0.746646"><ele>1055</ele></trkpt>
   <trkpt lat="40.259359" lon="-0.746516"><ele>1055.75</ele></trkpt>
   <trkpt lat="40.259506" lon="-0.746382"><ele>1057</ele></trkpt>
   <trkpt lat="40.259811" lon="-0.746159"><ele>1058</ele></trkpt>
   <trkpt lat="40.259995" lon="-0.746055"><ele>1059.25</ele></trkpt>
   <trkpt lat="40.260329" lon="-0.745915"><ele>1061.25</ele></trkpt>
   <trkpt lat="40.26047" lon="-0.745879"><ele>1061</ele></trkpt>
   <trkpt lat="40.260663" lon="-0.745857"><ele>1061.25</ele></trkpt>
   <trkpt lat="40.26085" lon="-0.745854"><ele>1062</ele></trkpt>
   <trkpt lat="40.261151" lon="-0.745893"><ele>1063</ele></trkpt>
   <trkpt lat="40.261207" lon="-0.745901"><ele>1063.25</ele></trkpt>
   <trkpt lat="40.261404" lon="-0.745933"><ele>1064</ele></trkpt>
   <trkpt lat="40.261518" lon="-0.74595"><ele>1064.25</ele></trkpt>
   <trkpt lat="40.261745" lon="-0.745986"><ele>1065.75</ele></trkpt>
   <trkpt lat="40.262316" lon="-0.746036"><ele>1068.75</ele></trkpt>
   <trkpt lat="40.263103" lon="-0.746057"><ele>1068.25</ele></trkpt>
   <trkpt lat="40.263784" lon="-0.746075"><ele>1070</ele></trkpt>
   <trkpt lat="40.263963" lon="-0.746071"><ele>1070.5</ele></trkpt>
   <trkpt lat="40.26412" lon="-0.746067"><ele>1071</ele></trkpt>
   <trkpt lat="40.264417" lon="-0.746039"><ele>1070.5</ele></trkpt>
   <trkpt lat="40.265112" lon="-0.745912"><ele>1070</ele></trkpt>
   <trkpt lat="40.26529" lon="-0.745896"><ele>1069.75</ele></trkpt>
   <trkpt lat="40.265417" lon="-0.745911"><ele>1069.5</ele></trkpt>
   <trkpt lat="40.265518" lon="-0.745929"><ele>1069.25</ele></trkpt>
   <trkpt lat="40.265626" lon="-0.745962"><ele>1069.25</ele></trkpt>
   <trkpt lat="40.265759" lon="-0.746017"><ele>1069.25</ele></trkpt>
   <trkpt lat="40.265874" lon="-0.74608"><ele>1069.25</ele></trkpt>
   <trkpt lat="40.266041" lon="-0.746198"><ele>1068.25</ele></trkpt>
   <trkpt lat="40.266502" lon="-0.746643"><ele>1069</ele></trkpt>
   <trkpt lat="40.266615" lon="-0.74673"><ele>1069.25</ele></trkpt>
   <trkpt lat="40.266709" lon="-0.74678"><ele>1069.75</ele></trkpt>
   <trkpt lat="40.266867" lon="-0.746817"><ele>1070.25</ele></trkpt>
   <trkpt lat="40.267013" lon="-0.74684"><ele>1070.75</ele></trkpt>
   <trkpt lat="40.267276" lon="-0.746834"><ele>1071.5</ele></trkpt>
   <trkpt lat="40.268007" lon="-0.746739"><ele>1070.75</ele></trkpt>
   <trkpt lat="40.268314" lon="-0.746676"><ele>1070.75</ele></trkpt>
   <trkpt lat="40.268591" lon="-0.7466"><ele>1070.25</ele></trkpt>
   <trkpt lat="40.268936" lon="-0.746443"><ele>1070.25</ele></trkpt>
   <trkpt lat="40.269194" lon="-0.746287"><ele>1071.25</ele></trkpt>
   <trkpt lat="40.269587" lon="-0.745999"><ele>1070.25</ele></trkpt>
   <trkpt lat="40.270049" lon="-0.745578"><ele>1068</ele></trkpt>
   <trkpt lat="40.270419" lon="-0.745241"><ele>1067.25</ele></trkpt>
   <trkpt lat="40.270671" lon="-0.745011"><ele>1069.25</ele></trkpt>
   <trkpt lat="40.271261" lon="-0.744441"><ele>1071</ele></trkpt>
   <trkpt lat="40.27155" lon="-0.744121"><ele>1076.5</ele></trkpt>
   <trkpt lat="40.27185" lon="-0.743835"><ele>1076.5</ele></trkpt>
   <trkpt lat="40.272126" lon="-0.743618"><ele>1077.25</ele></trkpt>
   <trkpt lat="40.272396" lon="-0.743433"><ele>1078.5</ele></trkpt>
   <trkpt lat="40.272648" lon="-0.743288"><ele>1079.5</ele></trkpt>
   <trkpt lat="40.273387" lon="-0.742995"><ele>1083</ele></trkpt>
   <trkpt lat="40.273546" lon="-0.74293"><ele>1083.75</ele></trkpt>
   <trkpt lat="40.273764" lon="-0.742824"><ele>1085</ele></trkpt>
   <trkpt lat="40.273972" lon="-0.742694"><ele>1086</ele></trkpt>
   <trkpt lat="40.274151" lon="-0.742563"><ele>1087.5</ele></trkpt>
   <trkpt lat="40.274382" lon="-0.742306"><ele>1090.25</ele></trkpt>
   <trkpt lat="40.27452" lon="-0.742084"><ele>1093</ele></trkpt>
   <trkpt lat="40.274595" lon="-0.741938"><ele>1094.25</ele></trkpt>
   <trkpt lat="40.274741" lon="-0.741504"><ele>1097.5</ele></trkpt>
   <trkpt lat="40.274794" lon="-0.741316"><ele>1100.75</ele></trkpt>
   <trkpt lat="40.274815" lon="-0.741215"><ele>1102.5</ele></trkpt>
   <trkpt lat="40.27509" lon="-0.739876"><ele>1107.25</ele></trkpt>
   <trkpt lat="40.275197" lon="-0.739319"><ele>1108</ele></trkpt>
   <trkpt lat="40.275347" lon="-0.738653"><ele>1110.25</ele></trkpt>
   <trkpt lat="40.27543" lon="-0.738429"><ele>1111</ele></trkpt>
   <trkpt lat="40.275519" lon="-0.738271"><ele>1112</ele></trkpt>
   <trkpt lat="40.275667" lon="-0.738069"><ele>1112.75</ele></trkpt>
   <trkpt lat="40.275799" lon="-0.737949"><ele>1113.25</ele></trkpt>
   <trkpt lat="40.275959" lon="-0.737854"><ele>1113.5</ele></trkpt>
   <trkpt lat="40.276129" lon="-0.737777"><ele>1113.75</ele></trkpt>
   <trkpt lat="40.276319" lon="-0.737751"><ele>1113.5</ele></trkpt>
   <trkpt lat="40.276606" lon="-0.737764"><ele>1114.5</ele></trkpt>
   <trkpt lat="40.277958" lon="-0.73801"><ele>1118</ele></trkpt>
   <trkpt lat="40.278026" lon="-0.73802"><ele>1118.5</ele></trkpt>
   <trkpt lat="40.278287" lon="-0.73803"><ele>1118.75</ele></trkpt>
   <trkpt lat="40.278622" lon="-0.738002"><ele>1119.25</ele></trkpt>
   <trkpt lat="40.278795" lon="-0.737967"><ele>1119.25</ele></trkpt>
   <trkpt lat="40.279089" lon="-0.73787"><ele>1121</ele></trkpt>
   <trkpt lat="40.279345" lon="-0.73776"><ele>1121.75</ele></trkpt>
   <trkpt lat="40.279621" lon="-0.73758"><ele>1123</ele></trkpt>
   <trkpt lat="40.27978" lon="-0.737457"><ele>1123.75</ele></trkpt>
   <trkpt lat="40.280008" lon="-0.737248"><ele>1124.75</ele></trkpt>
   <trkpt lat="40.28026" lon="-0.736991"><ele>1126.25</ele></trkpt>
   <trkpt lat="40.280578" lon="-0.73665"><ele>1129</ele></trkpt>
   <trkpt lat="40.280723" lon="-0.736473"><ele>1129.5</ele></trkpt>
   <trkpt lat="40.28084" lon="-0.73629"><ele>1131</ele></trkpt>
   <trkpt lat="40.280978" lon="-0.736023"><ele>1131.5</ele></trkpt>
   <trkpt lat="40.28103" lon="-0.735891"><ele>1131.5</ele></trkpt>
   <trkpt lat="40.281079" lon="-0.735739"><ele>1132</ele></trkpt>
   <trkpt lat="40.28112" lon="-0.735519"><ele>1133</ele></trkpt>
   <trkpt lat="40.281139" lon="-0.735373"><ele>1133.75</ele></trkpt>
   <trkpt lat="40.281143" lon="-0.735232"><ele>1134.5</ele></trkpt>
   <trkpt lat="40.281139" lon="-0.735084"><ele>1134.75</ele></trkpt>
   <trkpt lat="40.281126" lon="-0.734906"><ele>1135.25</ele></trkpt>
   <trkpt lat="40.281111" lon="-0.734786"><ele>1135.75</ele></trkpt>
   <trkpt lat="40.281079" lon="-0.734608"><ele>1135</ele></trkpt>
   <trkpt lat="40.281026" lon="-0.734424"><ele>1135</ele></trkpt>
   <trkpt lat="40.280926" lon="-0.734211"><ele>1137.75</ele></trkpt>
   <trkpt lat="40.280827" lon="-0.734052"><ele>1139</ele></trkpt>
   <trkpt lat="40.28073" lon="-0.733918"><ele>1139.75</ele></trkpt>
   <trkpt lat="40.280625" lon="-0.73379"><ele>1139.75</ele></trkpt>
   <trkpt lat="40.280409" lon="-0.733547"><ele>1139.5</ele></trkpt>
   <trkpt lat="40.280322" lon="-0.733422"><ele>1140.5</ele></trkpt>
   <trkpt lat="40.280259" lon="-0.733284"><ele>1141</ele></trkpt>
   <trkpt lat="40.280215" lon="-0.733157"><ele>1139.5</ele></trkpt>
   <trkpt lat="40.280179" lon="-0.733024"><ele>1138.75</ele></trkpt>
   <trkpt lat="40.280147" lon="-0.732861"><ele>1139</ele></trkpt>
   <trkpt lat="40.280132" lon="-0.732697"><ele>1140</ele></trkpt>
   <trkpt lat="40.280137" lon="-0.732509"><ele>1140.75</ele></trkpt>
   <trkpt lat="40.280158" lon="-0.732325"><ele>1142</ele></trkpt>
   <trkpt lat="40.280194" lon="-0.73216"><ele>1143.75</ele></trkpt>
   <trkpt lat="40.28024" lon="-0.732017"><ele>1146.5</ele></trkpt>
   <trkpt lat="40.280311" lon="-0.731849"><ele>1148.75</ele></trkpt>
   <trkpt lat="40.280379" lon="-0.73172"><ele>1149</ele></trkpt>
   <trkpt lat="40.280464" lon="-0.731588"><ele>1149.75</ele></trkpt>
   <trkpt lat="40.280706" lon="-0.731322"><ele>1155</ele></trkpt>
   <trkpt lat="40.280813" lon="-0.73118"><ele>1156</ele></trkpt>
   <trkpt lat="40.280889" lon="-0.731067"><ele>1157.5</ele></trkpt>
   <trkpt lat="40.280954" lon="-0.73094"><ele>1159.25</ele></trkpt>
   <trkpt lat="40.28101" lon="-0.730811"><ele>1160.5</ele></trkpt>
   <trkpt lat="40.281042" lon="-0.730683"><ele>1160.5</ele></trkpt>
   <trkpt lat="40.281073" lon="-0.730541"><ele>1160.5</ele></trkpt>
   <trkpt lat="40.281088" lon="-0.730405"><ele>1161.75</ele></trkpt>
   <trkpt lat="40.28109" lon="-0.730218"><ele>1163</ele></trkpt>
   <trkpt lat="40.281056" lon="-0.729884"><ele>1165.25</ele></trkpt>
   <trkpt lat="40.280973" lon="-0.729472"><ele>1167.75</ele></trkpt>
   <trkpt lat="40.280951" lon="-0.729284"><ele>1169.25</ele></trkpt>
   <trkpt lat="40.280951" lon="-0.72911"><ele>1170.5</ele></trkpt>
   <trkpt lat="40.28096" lon="-0.728969"><ele>1171.25</ele></trkpt>
   <trkpt lat="40.280989" lon="-0.728784"><ele>1172.25</ele></trkpt>
   <trkpt lat="40.281035" lon="-0.728615"><ele>1173.25</ele></trkpt>
   <trkpt lat="40.281148" lon="-0.728343"><ele>1176.75</ele></trkpt>
   <trkpt lat="40.281234" lon="-0.72821"><ele>1177</ele></trkpt>
   <trkpt lat="40.281309" lon="-0.728119"><ele>1178</ele></trkpt>
   <trkpt lat="40.281398" lon="-0.728026"><ele>1179.5</ele></trkpt>
   <trkpt lat="40.281502" lon="-0.727944"><ele>1179.75</ele></trkpt>
   <trkpt lat="40.281601" lon="-0.727878"><ele>1181</ele></trkpt>
   <trkpt lat="40.281724" lon="-0.727818"><ele>1183.25</ele></trkpt>
   <trkpt lat="40.281848" lon="-0.727783"><ele>1184.75</ele></trkpt>
   <trkpt lat="40.281972" lon="-0.727762"><ele>1185.75</ele></trkpt>
   <trkpt lat="40.282393" lon="-0.727743"><ele>1189.5</ele></trkpt>
   <trkpt lat="40.282723" lon="-0.727699"><ele>1192.5</ele></trkpt>
   <trkpt lat="40.282981" lon="-0.727617"><ele>1196.75</ele></trkpt>
   <trkpt lat="40.283402" lon="-0.727416"><ele>1200.75</ele></trkpt>
   <trkpt lat="40.283707" lon="-0.727262"><ele>1203.25</ele></trkpt>
   <trkpt lat="40.284014" lon="-0.727074"><ele>1204.25</ele></trkpt>
   <trkpt lat="40.284157" lon="-0.726975"><ele>1205.5</ele></trkpt>
   <trkpt lat="40.284267" lon="-0.726879"><ele>1207</ele></trkpt>
   <trkpt lat="40.284349" lon="-0.726797"><ele>1207.75</ele></trkpt>
   <trkpt lat="40.284466" lon="-0.726654"><ele>1207.5</ele></trkpt>
   <trkpt lat="40.284693" lon="-0.726356"><ele>1209.5</ele></trkpt>
   <trkpt lat="40.284961" lon="-0.725977"><ele>1212.5</ele></trkpt>
   <trkpt lat="40.285067" lon="-0.72585"><ele>1214.5</ele></trkpt>
   <trkpt lat="40.285162" lon="-0.725764"><ele>1215.75</ele></trkpt>
   <trkpt lat="40.285309" lon="-0.725661"><ele>1216.75</ele></trkpt>
   <trkpt lat="40.285568" lon="-0.725544"><ele>1215.75</ele></trkpt>
   <trkpt lat="40.286021" lon="-0.725401"><ele>1220.5</ele></trkpt>
   <trkpt lat="40.286373" lon="-0.725226"><ele>1222</ele></trkpt>
   <trkpt lat="40.286682" lon="-0.725054"><ele>1225</ele></trkpt>
   <trkpt lat="40.287121" lon="-0.724797"><ele>1227</ele></trkpt>
   <trkpt lat="40.287625" lon="-0.724456"><ele>1231.5</ele></trkpt>
   <trkpt lat="40.287838" lon="-0.724301"><ele>1232.5</ele></trkpt>
   <trkpt lat="40.287961" lon="-0.724195"><ele>1233.25</ele></trkpt>
   <trkpt lat="40.288072" lon="-0.724086"><ele>1234.5</ele></trkpt>
   <trkpt lat="40.288154" lon="-0.723986"><ele>1236.25</ele></trkpt>
   <trkpt lat="40.288252" lon="-0.723843"><ele>1237</ele></trkpt>
   <trkpt lat="40.288524" lon="-0.723363"><ele>1240.25</ele></trkpt>
   <trkpt lat="40.288634" lon="-0.723199"><ele>1241.25</ele></trkpt>
   <trkpt lat="40.28874" lon="-0.723068"><ele>1241</ele></trkpt>
   <trkpt lat="40.288836" lon="-0.722971"><ele>1241</ele></trkpt>
   <trkpt lat="40.28899" lon="-0.722831"><ele>1242.75</ele></trkpt>
   <trkpt lat="40.289845" lon="-0.722145"><ele>1249</ele></trkpt>
   <trkpt lat="40.290006" lon="-0.721996"><ele>1250.5</ele></trkpt>
   <trkpt lat="40.290124" lon="-0.721875"><ele>1251.25</ele></trkpt>
   <trkpt lat="40.290214" lon="-0.721753"><ele>1251</ele></trkpt>
   <trkpt lat="40.290286" lon="-0.721623"><ele>1251.25</ele></trkpt>
   <trkpt lat="40.290941" lon="-0.720262"><ele>1262</ele></trkpt>
   <trkpt lat="40.291031" lon="-0.720103"><ele>1262</ele></trkpt>
   <trkpt lat="40.291073" lon="-0.720041"><ele>1261.75</ele></trkpt>
   <trkpt lat="40.291181" lon="-0.719909"><ele>1263.5</ele></trkpt>
   <trkpt lat="40.291424" lon="-0.719667"><ele>1264.75</ele></trkpt>
   <trkpt lat="40.291766" lon="-0.719359"><ele>1267.75</ele></trkpt>
   <trkpt lat="40.291926" lon="-0.719225"><ele>1269.25</ele></trkpt>
   <trkpt lat="40.292146" lon="-0.719065"><ele>1271.75</ele></trkpt>
   <trkpt lat="40.292307" lon="-0.718975"><ele>1273</ele></trkpt>
   <trkpt lat="40.292465" lon="-0.718898"><ele>1272.75</ele></trkpt>
   <trkpt lat="40.293005" lon="-0.718667"><ele>1277.5</ele></trkpt>
   <trkpt lat="40.293212" lon="-0.71857"><ele>1278.25</ele></trkpt>
   <trkpt lat="40.293429" lon="-0.718458"><ele>1280</ele></trkpt>
   <trkpt lat="40.294163" lon="-0.718042"><ele>1285.75</ele></trkpt>
   <trkpt lat="40.294346" lon="-0.717951"><ele>1287.25</ele></trkpt>
   <trkpt lat="40.294481" lon="-0.717895"><ele>1288.5</ele></trkpt>
   <trkpt lat="40.294628" lon="-0.717844"><ele>1289.5</ele></trkpt>
   <trkpt lat="40.294808" lon="-0.717798"><ele>1290.25</ele></trkpt>
   <trkpt lat="40.295397" lon="-0.717691"><ele>1293.75</ele></trkpt>
   <trkpt lat="40.295539" lon="-0.717654"><ele>1295.25</ele></trkpt>
   <trkpt lat="40.295688" lon="-0.717591"><ele>1297</ele></trkpt>
   <trkpt lat="40.295861" lon="-0.717499"><ele>1299</ele></trkpt>
   <trkpt lat="40.29593" lon="-0.717457"><ele>1299</ele></trkpt>
   <trkpt lat="40.296029" lon="-0.717382"><ele>1299.75</ele></trkpt>
   <trkpt lat="40.296168" lon="-0.717261"><ele>1301.25</ele></trkpt>
   <trkpt lat="40.296216" lon="-0.71721"><ele>1301.5</ele></trkpt>
   <trkpt lat="40.296371" lon="-0.716982"><ele>1303.5</ele></trkpt>
   <trkpt lat="40.296488" lon="-0.716781"><ele>1306.25</ele></trkpt>
   <trkpt lat="40.296547" lon="-0.716674"><ele>1307.5</ele></trkpt>
   <trkpt lat="40.296606" lon="-0.716596"><ele>1308.25</ele></trkpt>
   <trkpt lat="40.296668" lon="-0.716527"><ele>1309</ele></trkpt>
   <trkpt lat="40.296737" lon="-0.716468"><ele>1309.75</ele></trkpt>
   <trkpt lat="40.296804" lon="-0.716425"><ele>1310.25</ele></trkpt>
   <trkpt lat="40.296886" lon="-0.716389"><ele>1310.75</ele></trkpt>
   <trkpt lat="40.296978" lon="-0.716368"><ele>1311.75</ele></trkpt>
   <trkpt lat="40.297072" lon="-0.716366"><ele>1312.5</ele></trkpt>
   <trkpt lat="40.297244" lon="-0.716409"><ele>1313.25</ele></trkpt>
   <trkpt lat="40.297334" lon="-0.716456"><ele>1314.5</ele></trkpt>
   <trkpt lat="40.297401" lon="-0.716505"><ele>1315.5</ele></trkpt>
   <trkpt lat="40.297474" lon="-0.716575"><ele>1316.25</ele></trkpt>
   <trkpt lat="40.297531" lon="-0.716654"><ele>1316.5</ele></trkpt>
   <trkpt lat="40.297581" lon="-0.716744"><ele>1317.25</ele></trkpt>
   <trkpt lat="40.297615" lon="-0.716847"><ele>1318</ele></trkpt>
   <trkpt lat="40.297625" lon="-0.716896"><ele>1318.25</ele></trkpt>
   <trkpt lat="40.29764" lon="-0.716966"><ele>1318.5</ele></trkpt>
   <trkpt lat="40.297655" lon="-0.717086"><ele>1319.75</ele></trkpt>
   <trkpt lat="40.297672" lon="-0.71749"><ele>1323.5</ele></trkpt>
   <trkpt lat="40.297698" lon="-0.717696"><ele>1324.25</ele></trkpt>
   <trkpt lat="40.297715" lon="-0.717761"><ele>1324.25</ele></trkpt>
   <trkpt lat="40.297756" lon="-0.717866"><ele>1324.5</ele></trkpt>
   <trkpt lat="40.297803" lon="-0.71796"><ele>1325.75</ele></trkpt>
   <trkpt lat="40.297914" lon="-0.718117"><ele>1327.5</ele></trkpt>
   <trkpt lat="40.297939" lon="-0.71815"><ele>1327.75</ele></trkpt>
   <trkpt lat="40.298041" lon="-0.71824"><ele>1329</ele></trkpt>
   <trkpt lat="40.298125" lon="-0.718296"><ele>1329.5</ele></trkpt>
   <trkpt lat="40.298207" lon="-0.718329"><ele>1330</ele></trkpt>
   <trkpt lat="40.298305" lon="-0.718353"><ele>1330.5</ele></trkpt>
   <trkpt lat="40.29846" lon="-0.718352"><ele>1331.5</ele></trkpt>
   <trkpt lat="40.29878" lon="-0.718319"><ele>1334.75</ele></trkpt>
   <trkpt lat="40.299047" lon="-0.718303"><ele>1337</ele></trkpt>
   <trkpt lat="40.299279" lon="-0.718339"><ele>1339</ele></trkpt>
   <trkpt lat="40.299443" lon="-0.718398"><ele>1339.75</ele></trkpt>
   <trkpt lat="40.299529" lon="-0.718442"><ele>1340</ele></trkpt>
   <trkpt lat="40.299673" lon="-0.718554"><ele>1341.75</ele></trkpt>
   <trkpt lat="40.299825" lon="-0.718703"><ele>1342.5</ele></trkpt>
   <trkpt lat="40.299897" lon="-0.718785"><ele>1343.5</ele></trkpt>
   <trkpt lat="40.300047" lon="-0.71899"><ele>1346.75</ele></trkpt>
   <trkpt lat="40.300121" lon="-0.71912"><ele>1347.5</ele></trkpt>
   <trkpt lat="40.300251" lon="-0.719416"><ele>1350.5</ele></trkpt>
   <trkpt lat="40.300319" lon="-0.719602"><ele>1352.5</ele></trkpt>
   <trkpt lat="40.300414" lon="-0.719831"><ele>1353.25</ele></trkpt>
   <trkpt lat="40.300537" lon="-0.720065"><ele>1354.5</ele></trkpt>
   <trkpt lat="40.300625" lon="-0.720194"><ele>1356</ele></trkpt>
   <trkpt lat="40.300741" lon="-0.720342"><ele>1357.5</ele></trkpt>
   <trkpt lat="40.300864" lon="-0.720471"><ele>1359.25</ele></trkpt>
   <trkpt lat="40.300986" lon="-0.720583"><ele>1360</ele></trkpt>
   <trkpt lat="40.301105" lon="-0.720664"><ele>1360.75</ele></trkpt>
   <trkpt lat="40.30123" lon="-0.720731"><ele>1361.5</ele></trkpt>
   <trkpt lat="40.301727" lon="-0.720951"><ele>1361</ele></trkpt>
   <trkpt lat="40.302164" lon="-0.721132"><ele>1362.5</ele></trkpt>
   <trkpt lat="40.303553" lon="-0.721686"><ele>1368.5</ele></trkpt>
   <trkpt lat="40.303807" lon="-0.721765"><ele>1368.75</ele></trkpt>
   <trkpt lat="40.303995" lon="-0.721809"><ele>1368.75</ele></trkpt>
   <trkpt lat="40.304836" lon="-0.721956"><ele>1368.25</ele></trkpt>
   <trkpt lat="40.305347" lon="-0.722019"><ele>1369</ele></trkpt>
   <trkpt lat="40.305646" lon="-0.72203"><ele>1368.5</ele></trkpt>
   <trkpt lat="40.305904" lon="-0.722021"><ele>1368.5</ele></trkpt>
   <trkpt lat="40.306101" lon="-0.722003"><ele>1368.5</ele></trkpt>
   <trkpt lat="40.306719" lon="-0.721921"><ele>1369.25</ele></trkpt>
   <trkpt lat="40.306997" lon="-0.72185"><ele>1369.25</ele></trkpt>
   <trkpt lat="40.307235" lon="-0.721771"><ele>1367.75</ele></trkpt>
   <trkpt lat="40.307416" lon="-0.721721"><ele>1368</ele></trkpt>
   <trkpt lat="40.307956" lon="-0.721615"><ele>1369.75</ele></trkpt>
   <trkpt lat="40.308115" lon="-0.721561"><ele>1370</ele></trkpt>
   <trkpt lat="40.308249" lon="-0.721494"><ele>1369.25</ele></trkpt>
   <trkpt lat="40.308496" lon="-0.721343"><ele>1369.5</ele></trkpt>
   <trkpt lat="40.308639" lon="-0.721271"><ele>1368.75</ele></trkpt>
   <trkpt lat="40.308752" lon="-0.721239"><ele>1367.25</ele></trkpt>
   <trkpt lat="40.308833" lon="-0.721233"><ele>1366</ele></trkpt>
   <trkpt lat="40.309014" lon="-0.721263"><ele>1367.25</ele></trkpt>
   <trkpt lat="40.309185" lon="-0.721342"><ele>1369.75</ele></trkpt>
   <trkpt lat="40.309435" lon="-0.721497"><ele>1370.75</ele></trkpt>
   <trkpt lat="40.309567" lon="-0.721549"><ele>1371.75</ele></trkpt>
   <trkpt lat="40.309711" lon="-0.721585"><ele>1372.75</ele></trkpt>
   <trkpt lat="40.309842" lon="-0.72159"><ele>1372</ele></trkpt>
   <trkpt lat="40.309976" lon="-0.721583"><ele>1371.75</ele></trkpt>
   <trkpt lat="40.310378" lon="-0.721539"><ele>1370</ele></trkpt>
   <trkpt lat="40.310508" lon="-0.721534"><ele>1368.75</ele></trkpt>
   <trkpt lat="40.310622" lon="-0.721541"><ele>1369.75</ele></trkpt>
   <trkpt lat="40.310737" lon="-0.721574"><ele>1371.5</ele></trkpt>
   <trkpt lat="40.310843" lon="-0.721624"><ele>1372.75</ele></trkpt>
   <trkpt lat="40.311036" lon="-0.721762"><ele>1373.25</ele></trkpt>
   <trkpt lat="40.31133" lon="-0.721979"><ele>1373.75</ele></trkpt>
   <trkpt lat="40.31145" lon="-0.722043"><ele>1374.5</ele></trkpt>
   <trkpt lat="40.311571" lon="-0.722087"><ele>1375.25</ele></trkpt>
   <trkpt lat="40.311693" lon="-0.722116"><ele>1375.75</ele></trkpt>
   <trkpt lat="40.311851" lon="-0.722135"><ele>1375.75</ele></trkpt>
   <trkpt lat="40.312284" lon="-0.722159"><ele>1376.5</ele></trkpt>
   <trkpt lat="40.312599" lon="-0.722209"><ele>1377.25</ele></trkpt>
   <trkpt lat="40.312717" lon="-0.722217"><ele>1377</ele></trkpt>
   <trkpt lat="40.312851" lon="-0.722209"><ele>1377.25</ele></trkpt>
   <trkpt lat="40.313289" lon="-0.722126"><ele>1378.75</ele></trkpt>
   <trkpt lat="40.313452" lon="-0.722082"><ele>1378.5</ele></trkpt>
   <trkpt lat="40.313583" lon="-0.722031"><ele>1378.25</ele></trkpt>
   <trkpt lat="40.313751" lon="-0.721944"><ele>1378.5</ele></trkpt>
   <trkpt lat="40.313944" lon="-0.721818"><ele>1379.75</ele></trkpt>
   <trkpt lat="40.314223" lon="-0.721652"><ele>1380</ele></trkpt>
   <trkpt lat="40.31438" lon="-0.721579"><ele>1380.5</ele></trkpt>
   <trkpt lat="40.314502" lon="-0.721532"><ele>1381</ele></trkpt>
   <trkpt lat="40.314613" lon="-0.721501"><ele>1381</ele></trkpt>
   <trkpt lat="40.314726" lon="-0.721494"><ele>1380.75</ele></trkpt>
   <trkpt lat="40.314827" lon="-0.721503"><ele>1381</ele></trkpt>
   <trkpt lat="40.314985" lon="-0.721565"><ele>1381.25</ele></trkpt>
   <trkpt lat="40.315075" lon="-0.721624"><ele>1382</ele></trkpt>
   <trkpt lat="40.315161" lon="-0.721708"><ele>1382</ele></trkpt>
   <trkpt lat="40.315443" lon="-0.722088"><ele>1382.25</ele></trkpt>
   <trkpt lat="40.315881" lon="-0.722713"><ele>1383.5</ele></trkpt>
   <trkpt lat="40.315969" lon="-0.722802"><ele>1383.5</ele></trkpt>
   <trkpt lat="40.31604" lon="-0.722853"><ele>1384</ele></trkpt>
   <trkpt lat="40.316139" lon="-0.722901"><ele>1384.5</ele></trkpt>
   <trkpt lat="40.316221" lon="-0.722913"><ele>1384.25</ele></trkpt>
   <trkpt lat="40.316297" lon="-0.722912"><ele>1384</ele></trkpt>
   <trkpt lat="40.316386" lon="-0.722888"><ele>1384.25</ele></trkpt>
   <trkpt lat="40.316457" lon="-0.722857"><ele>1384</ele></trkpt>
   <trkpt lat="40.31654" lon="-0.722801"><ele>1383.75</ele></trkpt>
   <trkpt lat="40.316703" lon="-0.722644"><ele>1383.75</ele></trkpt>
   <trkpt lat="40.316971" lon="-0.722327"><ele>1383.75</ele></trkpt>
   <trkpt lat="40.317258" lon="-0.721973"><ele>1382.5</ele></trkpt>
   <trkpt lat="40.317776" lon="-0.721388"><ele>1384</ele></trkpt>
   <trkpt lat="40.317894" lon="-0.721223"><ele>1384.75</ele></trkpt>
   <trkpt lat="40.318202" lon="-0.72076"><ele>1383.5</ele></trkpt>
   <trkpt lat="40.31842" lon="-0.720407"><ele>1383</ele></trkpt>
   <trkpt lat="40.318513" lon="-0.720226"><ele>1383.25</ele></trkpt>
   <trkpt lat="40.318636" lon="-0.719921"><ele>1382.25</ele></trkpt>
   <trkpt lat="40.318701" lon="-0.719505"><ele>1381</ele></trkpt>
   <trkpt lat="40.318736" lon="-0.719363"><ele>1381</ele></trkpt>
   <trkpt lat="40.318776" lon="-0.719276"><ele>1381.5</ele></trkpt>
   <trkpt lat="40.318851" lon="-0.719194"><ele>1382.25</ele></trkpt>
   <trkpt lat="40.318899" lon="-0.719155"><ele>1383</ele></trkpt>
   <trkpt lat="40.318966" lon="-0.71911"><ele>1383</ele></trkpt>
   <trkpt lat="40.319051" lon="-0.719081"><ele>1383</ele></trkpt>
   <trkpt lat="40.319141" lon="-0.719077"><ele>1382.5</ele></trkpt>
   <trkpt lat="40.319228" lon="-0.719094"><ele>1383</ele></trkpt>
   <trkpt lat="40.319304" lon="-0.719127"><ele>1382.75</ele></trkpt>
   <trkpt lat="40.319392" lon="-0.719181"><ele>1382</ele></trkpt>
   <trkpt lat="40.319759" lon="-0.719449"><ele>1382.5</ele></trkpt>
   <trkpt lat="40.320146" lon="-0.719709"><ele>1381.5</ele></trkpt>
   <trkpt lat="40.320298" lon="-0.719798"><ele>1381</ele></trkpt>
   <trkpt lat="40.320415" lon="-0.719852"><ele>1381.5</ele></trkpt>
   <trkpt lat="40.320524" lon="-0.719882"><ele>1382.25</ele></trkpt>
   <trkpt lat="40.320622" lon="-0.7199"><ele>1382</ele></trkpt>
   <trkpt lat="40.320743" lon="-0.719897"><ele>1382.25</ele></trkpt>
   <trkpt lat="40.32088" lon="-0.719861"><ele>1382.5</ele></trkpt>
   <trkpt lat="40.320994" lon="-0.719814"><ele>1381.5</ele></trkpt>
   <trkpt lat="40.3211" lon="-0.719748"><ele>1381.25</ele></trkpt>
   <trkpt lat="40.321216" lon="-0.719649"><ele>1381.25</ele></trkpt>
   <trkpt lat="40.321313" lon="-0.719544"><ele>1381.5</ele></trkpt>
   <trkpt lat="40.32187" lon="-0.718854"><ele>1381.75</ele></trkpt>
   <trkpt lat="40.322184" lon="-0.718397"><ele>1381</ele></trkpt>
   <trkpt lat="40.322266" lon="-0.718276"><ele>1382</ele></trkpt>
   <trkpt lat="40.322331" lon="-0.718234"><ele>1382.25</ele></trkpt>
   <trkpt lat="40.322401" lon="-0.718209"><ele>1381.5</ele></trkpt>
   <trkpt lat="40.322469" lon="-0.718215"><ele>1380.25</ele></trkpt>
   <trkpt lat="40.322516" lon="-0.71823"><ele>1380.25</ele></trkpt>
   <trkpt lat="40.322534" lon="-0.718235"><ele>1380.75</ele></trkpt>
   <trkpt lat="40.322592" lon="-0.718291"><ele>1381.75</ele></trkpt>
   <trkpt lat="40.322633" lon="-0.718355"><ele>1382</ele></trkpt>
   <trkpt lat="40.322659" lon="-0.718409"><ele>1381.5</ele></trkpt>
   <trkpt lat="40.322685" lon="-0.718493"><ele>1381</ele></trkpt>
   <trkpt lat="40.322717" lon="-0.718658"><ele>1380.5</ele></trkpt>
   <trkpt lat="40.322813" lon="-0.719354"><ele>1384</ele></trkpt>
   <trkpt lat="40.322864" lon="-0.719578"><ele>1384.5</ele></trkpt>
   <trkpt lat="40.322918" lon="-0.719766"><ele>1384.75</ele></trkpt>
   <trkpt lat="40.323009" lon="-0.720015"><ele>1384</ele></trkpt>
   <trkpt lat="40.323069" lon="-0.720149"><ele>1384.75</ele></trkpt>
   <trkpt lat="40.323131" lon="-0.720264"><ele>1385.75</ele></trkpt>
   <trkpt lat="40.323236" lon="-0.720427"><ele>1385.75</ele></trkpt>
   <trkpt lat="40.323393" lon="-0.72063"><ele>1385.75</ele></trkpt>
   <trkpt lat="40.323549" lon="-0.720816"><ele>1386</ele></trkpt>
   <trkpt lat="40.323665" lon="-0.720931"><ele>1386.25</ele></trkpt>
   <trkpt lat="40.323801" lon="-0.721041"><ele>1386.75</ele></trkpt>
   <trkpt lat="40.323926" lon="-0.721123"><ele>1386.75</ele></trkpt>
   <trkpt lat="40.324047" lon="-0.721173"><ele>1386.25</ele></trkpt>
   <trkpt lat="40.324221" lon="-0.721206"><ele>1386.75</ele></trkpt>
   <trkpt lat="40.324345" lon="-0.721184"><ele>1387</ele></trkpt>
   <trkpt lat="40.324456" lon="-0.721143"><ele>1387.25</ele></trkpt>
   <trkpt lat="40.324624" lon="-0.721052"><ele>1388.5</ele></trkpt>
   <trkpt lat="40.324742" lon="-0.720978"><ele>1389</ele></trkpt>
   <trkpt lat="40.324916" lon="-0.720825"><ele>1390</ele></trkpt>
   <trkpt lat="40.325055" lon="-0.720675"><ele>1390</ele></trkpt>
   <trkpt lat="40.325172" lon="-0.720524"><ele>1390.25</ele></trkpt>
   <trkpt lat="40.325299" lon="-0.720331"><ele>1390</ele></trkpt>
   <trkpt lat="40.325406" lon="-0.720139"><ele>1390.75</ele></trkpt>
   <trkpt lat="40.325526" lon="-0.719888"><ele>1391.5</ele></trkpt>
   <trkpt lat="40.325649" lon="-0.71959"><ele>1391.5</ele></trkpt>
   <trkpt lat="40.325793" lon="-0.719204"><ele>1392.75</ele></trkpt>
   <trkpt lat="40.325908" lon="-0.718857"><ele>1392</ele></trkpt>
   <trkpt lat="40.326111" lon="-0.718209"><ele>1394.75</ele></trkpt>
   <trkpt lat="40.326265" lon="-0.717683"><ele>1395.75</ele></trkpt>
   <trkpt lat="40.326398" lon="-0.717166"><ele>1397</ele></trkpt>
   <trkpt lat="40.326472" lon="-0.716796"><ele>1397.25</ele></trkpt>
   <trkpt lat="40.326549" lon="-0.716464"><ele>1398.75</ele></trkpt>
   <trkpt lat="40.326642" lon="-0.716153"><ele>1400.25</ele></trkpt>
   <trkpt lat="40.327093" lon="-0.714745"><ele>1402.25</ele></trkpt>
   <trkpt lat="40.327221" lon="-0.714397"><ele>1404.5</ele></trkpt>
   <trkpt lat="40.327319" lon="-0.714176"><ele>1404.75</ele></trkpt>
   <trkpt lat="40.327407" lon="-0.714004"><ele>1405.5</ele></trkpt>
   <trkpt lat="40.327504" lon="-0.713844"><ele>1405.5</ele></trkpt>
   <trkpt lat="40.327611" lon="-0.713713"><ele>1406.75</ele></trkpt>
   <trkpt lat="40.327954" lon="-0.713341"><ele>1409.25</ele></trkpt>
   <trkpt lat="40.328062" lon="-0.713254"><ele>1409.5</ele></trkpt>
   <trkpt lat="40.328188" lon="-0.713174"><ele>1409.5</ele></trkpt>
   <trkpt lat="40.328267" lon="-0.713146"><ele>1408.75</ele></trkpt>
   <trkpt lat="40.328345" lon="-0.713138"><ele>1408</ele></trkpt>
   <trkpt lat="40.328423" lon="-0.71315"><ele>1407.5</ele></trkpt>
   <trkpt lat="40.328503" lon="-0.713184"><ele>1407</ele></trkpt>
   <trkpt lat="40.328574" lon="-0.713226"><ele>1407.25</ele></trkpt>
   <trkpt lat="40.32874" lon="-0.713379"><ele>1408</ele></trkpt>
   <trkpt lat="40.328829" lon="-0.713475"><ele>1408.5</ele></trkpt>
   <trkpt lat="40.328883" lon="-0.713544"><ele>1408.75</ele></trkpt>
   <trkpt lat="40.328933" lon="-0.713653"><ele>1410.25</ele></trkpt>
   <trkpt lat="40.328962" lon="-0.713763"><ele>1410.5</ele></trkpt>
   <trkpt lat="40.328991" lon="-0.713923"><ele>1411.5</ele></trkpt>
   <trkpt lat="40.328991" lon="-0.714057"><ele>1413.25</ele></trkpt>
   <trkpt lat="40.328975" lon="-0.714241"><ele>1415</ele></trkpt>
   <trkpt lat="40.328896" lon="-0.714714"><ele>1416</ele></trkpt>
   <trkpt lat="40.328867" lon="-0.714928"><ele>1416.75</ele></trkpt>
   <trkpt lat="40.328818" lon="-0.71536"><ele>1419.75</ele></trkpt>
   <trkpt lat="40.328812" lon="-0.715505"><ele>1419.5</ele></trkpt>
   <trkpt lat="40.328821" lon="-0.715691"><ele>1420.75</ele></trkpt>
   <trkpt lat="40.32884" lon="-0.715863"><ele>1422.25</ele></trkpt>
   <trkpt lat="40.328871" lon="-0.716015"><ele>1423.25</ele></trkpt>
   <trkpt lat="40.328918" lon="-0.716139"><ele>1424.75</ele></trkpt>
   <trkpt lat="40.32896" lon="-0.71622"><ele>1425.75</ele></trkpt>
   <trkpt lat="40.329006" lon="-0.716283"><ele>1426.25</ele></trkpt>
   <trkpt lat="40.329081" lon="-0.71634"><ele>1426.75</ele></trkpt>
   <trkpt lat="40.329154" lon="-0.716376"><ele>1427</ele></trkpt>
   <trkpt lat="40.329258" lon="-0.716394"><ele>1427.5</ele></trkpt>
   <trkpt lat="40.329564" lon="-0.716402"><ele>1429.75</ele></trkpt>
   <trkpt lat="40.329872" lon="-0.716506"><ele>1431.5</ele></trkpt>
   <trkpt lat="40.329969" lon="-0.716527"><ele>1432.75</ele></trkpt>
   <trkpt lat="40.330052" lon="-0.716535"><ele>1433.5</ele></trkpt>
   <trkpt lat="40.330334" lon="-0.716531"><ele>1435.5</ele></trkpt>
   <trkpt lat="40.330544" lon="-0.716505"><ele>1437.25</ele></trkpt>
   <trkpt lat="40.330727" lon="-0.716461"><ele>1438</ele></trkpt>
   <trkpt lat="40.331406" lon="-0.716173"><ele>1444</ele></trkpt>
   <trkpt lat="40.33213" lon="-0.715872"><ele>1449.5</ele></trkpt>
   <trkpt lat="40.332526" lon="-0.715721"><ele>1453</ele></trkpt>
   <trkpt lat="40.332837" lon="-0.715637"><ele>1455</ele></trkpt>
   <trkpt lat="40.33334" lon="-0.715517"><ele>1458.5</ele></trkpt>
   <trkpt lat="40.333476" lon="-0.715477"><ele>1459.75</ele></trkpt>
   <trkpt lat="40.333491" lon="-0.71547"><ele>1461</ele></trkpt>
   <trkpt lat="40.333695" lon="-0.715373"><ele>1461</ele></trkpt>
   <trkpt lat="40.334069" lon="-0.715152"><ele>1463.75</ele></trkpt>
   <trkpt lat="40.334213" lon="-0.715088"><ele>1464.25</ele></trkpt>
   <trkpt lat="40.334827" lon="-0.714877"><ele>1471.25</ele></trkpt>
   <trkpt lat="40.335121" lon="-0.714759"><ele>1472.25</ele></trkpt>
   <trkpt lat="40.33584" lon="-0.714429"><ele>1478.25</ele></trkpt>
   <trkpt lat="40.335964" lon="-0.714387"><ele>1479.5</ele></trkpt>
   <trkpt lat="40.336127" lon="-0.714345"><ele>1480.75</ele></trkpt>
   <trkpt lat="40.336257" lon="-0.714327"><ele>1482.25</ele></trkpt>
   <trkpt lat="40.336599" lon="-0.71431"><ele>1485.75</ele></trkpt>
   <trkpt lat="40.336725" lon="-0.714293"><ele>1486.5</ele></trkpt>
   <trkpt lat="40.33683" lon="-0.714263"><ele>1486.75</ele></trkpt>
   <trkpt lat="40.337265" lon="-0.714072"><ele>1489.75</ele></trkpt>
   <trkpt lat="40.337776" lon="-0.71387"><ele>1494.5</ele></trkpt>
   <trkpt lat="40.33805" lon="-0.713736"><ele>1497.75</ele></trkpt>
   <trkpt lat="40.338239" lon="-0.713635"><ele>1498.25</ele></trkpt>
   <trkpt lat="40.338491" lon="-0.713486"><ele>1500</ele></trkpt>
   <trkpt lat="40.33878" lon="-0.713304"><ele>1502.25</ele></trkpt>
   <trkpt lat="40.338977" lon="-0.713208"><ele>1503.5</ele></trkpt>
   <trkpt lat="40.340386" lon="-0.712653"><ele>1515</ele></trkpt>
   <trkpt lat="40.340594" lon="-0.712531"><ele>1516.5</ele></trkpt>
   <trkpt lat="40.340727" lon="-0.712432"><ele>1517.5</ele></trkpt>
   <trkpt lat="40.34087" lon="-0.712298"><ele>1518.5</ele></trkpt>
   <trkpt lat="40.340995" lon="-0.712169"><ele>1520.5</ele></trkpt>
   <trkpt lat="40.341513" lon="-0.711598"><ele>1525.25</ele></trkpt>
   <trkpt lat="40.341593" lon="-0.711533"><ele>1525.75</ele></trkpt>
   <trkpt lat="40.341687" lon="-0.711491"><ele>1526</ele></trkpt>
   <trkpt lat="40.341855" lon="-0.711451"><ele>1528</ele></trkpt>
   <trkpt lat="40.341955" lon="-0.711417"><ele>1529</ele></trkpt>
   <trkpt lat="40.34208" lon="-0.711363"><ele>1529.5</ele></trkpt>
   <trkpt lat="40.342184" lon="-0.711291"><ele>1530.25</ele></trkpt>
   <trkpt lat="40.342293" lon="-0.711193"><ele>1531</ele></trkpt>
   <trkpt lat="40.342389" lon="-0.711089"><ele>1532</ele></trkpt>
   <trkpt lat="40.342456" lon="-0.710986"><ele>1533</ele></trkpt>
   <trkpt lat="40.342506" lon="-0.710888"><ele>1533.75</ele></trkpt>
   <trkpt lat="40.342649" lon="-0.710524"><ele>1535.75</ele></trkpt>
   <trkpt lat="40.342701" lon="-0.710368"><ele>1538.25</ele></trkpt>
   <trkpt lat="40.342772" lon="-0.710216"><ele>1539.5</ele></trkpt>
   <trkpt lat="40.342852" lon="-0.710089"><ele>1540.5</ele></trkpt>
   <trkpt lat="40.342923" lon="-0.710002"><ele>1541.5</ele></trkpt>
   <trkpt lat="40.342997" lon="-0.709928"><ele>1542.25</ele></trkpt>
   <trkpt lat="40.343059" lon="-0.709879"><ele>1543</ele></trkpt>
   <trkpt lat="40.343131" lon="-0.709834"><ele>1543.75</ele></trkpt>
   <trkpt lat="40.343209" lon="-0.709788"><ele>1543.75</ele></trkpt>
   <trkpt lat="40.34336" lon="-0.709742"><ele>1546.75</ele></trkpt>
   <trkpt lat="40.34344" lon="-0.709731"><ele>1548</ele></trkpt>
   <trkpt lat="40.343665" lon="-0.709746"><ele>1550.25</ele></trkpt>
   <trkpt lat="40.34397" lon="-0.709824"><ele>1553</ele></trkpt>
   <trkpt lat="40.344077" lon="-0.709837"><ele>1553.75</ele></trkpt>
   <trkpt lat="40.344259" lon="-0.709839"><ele>1555.25</ele></trkpt>
   <trkpt lat="40.34434" lon="-0.709827"><ele>1556</ele></trkpt>
   <trkpt lat="40.344607" lon="-0.709737"><ele>1557.5</ele></trkpt>
   <trkpt lat="40.344893" lon="-0.709602"><ele>1561</ele></trkpt>
    </trkseg>
 </trk>
</gpx>
