<?xml version="1.0" encoding="UTF-8"?>
<!-- track-length = 15830 filtered ascend = 641 plain-ascend = 478 cost=23836 energy=0.2kwh time=1h 55m 52s -->
<gpx 
 xmlns="http://www.topografix.com/GPX/1/1" 
 xmlns:xsi="http://www.w3.org/2001/XMLSchema-instance" 
 xsi:schemaLocation="http://www.topografix.com/GPX/1/1 http://www.topografix.com/GPX/1/1/gpx.xsd" 
 version="1.1" 
 creator="BRouter-Web 0.18.1">
 <trk>
  <name>Puerto del Viento</name>
  <trkseg>
   <trkpt lat="36.789083" lon="-4.949502"><ele>553</ele></trkpt>
   <trkpt lat="36.789143" lon="-4.949529"><ele>553.25</ele></trkpt>
   <trkpt lat="36.789219" lon="-4.949561"><ele>553.5</ele></trkpt>
   <trkpt lat="36.790062" lon="-4.949906"><ele>558</ele></trkpt>
   <trkpt lat="36.790211" lon="-4.949989"><ele>558.75</ele></trkpt>
   <trkpt lat="36.790329" lon="-4.950088"><ele>559</ele></trkpt>
   <trkpt lat="36.790358" lon="-4.950117"><ele>559.25</ele></trkpt>
   <trkpt lat="36.79042" lon="-4.950191"><ele>559.5</ele></trkpt>
   <trkpt lat="36.790483" lon="-4.950281"><ele>559.75</ele></trkpt>
   <trkpt lat="36.790605" lon="-4.950501"><ele>560.75</ele></trkpt>
   <trkpt lat="36.790657" lon="-4.950632"><ele>561</ele></trkpt>
   <trkpt lat="36.790779" lon="-4.95107"><ele>561.75</ele></trkpt>
   <trkpt lat="36.790995" lon="-4.951857"><ele>562.5</ele></trkpt>
   <trkpt lat="36.791101" lon="-4.95224"><ele>562.75</ele></trkpt>
   <trkpt lat="36.791208" lon="-4.952602"><ele>563.75</ele></trkpt>
   <trkpt lat="36.791233" lon="-4.952667"><ele>563.75</ele></trkpt>
   <trkpt lat="36.791268" lon="-4.952748"><ele>564.25</ele></trkpt>
   <trkpt lat="36.791381" lon="-4.952945"><ele>564.5</ele></trkpt>
   <trkpt lat="36.791415" lon="-4.953051"><ele>564.5</ele></trkpt>
   <trkpt lat="36.79144" lon="-4.953173"><ele>564.5</ele></trkpt>
   <trkpt lat="36.791438" lon="-4.953306"><ele>564.5</ele></trkpt>
   <trkpt lat="36.791428" lon="-4.953371"><ele>564.5</ele></trkpt>
   <trkpt lat="36.791346" lon="-4.953715"><ele>564.75</ele></trkpt>
   <trkpt lat="36.791317" lon="-4.953826"><ele>564.75</ele></trkpt>
   <trkpt lat="36.791308" lon="-4.953869"><ele>564.75</ele></trkpt>
   <trkpt lat="36.791282" lon="-4.953979"><ele>565</ele></trkpt>
   <trkpt lat="36.791157" lon="-4.954506"><ele>568</ele></trkpt>
   <trkpt lat="36.790781" lon="-4.956108"><ele>577.75</ele></trkpt>
   <trkpt lat="36.790714" lon="-4.956242"><ele>579.5</ele></trkpt>
   <trkpt lat="36.790503" lon="-4.956402"><ele>582</ele></trkpt>
   <trkpt lat="36.790422" lon="-4.956484"><ele>582.5</ele></trkpt>
   <trkpt lat="36.790368" lon="-4.95659"><ele>583</ele></trkpt>
   <trkpt lat="36.790354" lon="-4.956657"><ele>583.25</ele></trkpt>
   <trkpt lat="36.790369" lon="-4.956806"><ele>583.5</ele></trkpt>
   <trkpt lat="36.790585" lon="-4.957216"><ele>587.25</ele></trkpt>
   <trkpt lat="36.790631" lon="-4.957365"><ele>588.5</ele></trkpt>
   <trkpt lat="36.79064" lon="-4.957448"><ele>589</ele></trkpt>
   <trkpt lat="36.790628" lon="-4.957631"><ele>590.75</ele></trkpt>
   <trkpt lat="36.790469" lon="-4.958372"><ele>596.25</ele></trkpt>
   <trkpt lat="36.790459" lon="-4.958563"><ele>597.5</ele></trkpt>
   <trkpt lat="36.790469" lon="-4.958654"><ele>598</ele></trkpt>
   <trkpt lat="36.790552" lon="-4.958904"><ele>599.5</ele></trkpt>
   <trkpt lat="36.790634" lon="-4.959017"><ele>599.75</ele></trkpt>
   <trkpt lat="36.790757" lon="-4.959077"><ele>601.5</ele></trkpt>
   <trkpt lat="36.791054" lon="-4.959117"><ele>604.25</ele></trkpt>
   <trkpt lat="36.791202" lon="-4.959181"><ele>605.5</ele></trkpt>
   <trkpt lat="36.791338" lon="-4.959283"><ele>607</ele></trkpt>
   <trkpt lat="36.791588" lon="-4.959518"><ele>609.75</ele></trkpt>
   <trkpt lat="36.791693" lon="-4.959669"><ele>610.75</ele></trkpt>
   <trkpt lat="36.791736" lon="-4.959731"><ele>611</ele></trkpt>
   <trkpt lat="36.791808" lon="-4.959909"><ele>612.25</ele></trkpt>
   <trkpt lat="36.791862" lon="-4.960091"><ele>613.75</ele></trkpt>
   <trkpt lat="36.791895" lon="-4.960273"><ele>614.75</ele></trkpt>
   <trkpt lat="36.791882" lon="-4.960457"><ele>616.5</ele></trkpt>
   <trkpt lat="36.791852" lon="-4.960546"><ele>617.5</ele></trkpt>
   <trkpt lat="36.791673" lon="-4.960891"><ele>620</ele></trkpt>
   <trkpt lat="36.791652" lon="-4.960983"><ele>620.25</ele></trkpt>
   <trkpt lat="36.791649" lon="-4.961076"><ele>620.75</ele></trkpt>
   <trkpt lat="36.791667" lon="-4.96117"><ele>621</ele></trkpt>
   <trkpt lat="36.79193" lon="-4.961909"><ele>623.75</ele></trkpt>
   <trkpt lat="36.791973" lon="-4.962128"><ele>625.25</ele></trkpt>
   <trkpt lat="36.791979" lon="-4.962241"><ele>625.75</ele></trkpt>
   <trkpt lat="36.791913" lon="-4.962985"><ele>627.75</ele></trkpt>
   <trkpt lat="36.791955" lon="-4.963487"><ele>630.75</ele></trkpt>
   <trkpt lat="36.791949" lon="-4.963734"><ele>631.5</ele></trkpt>
   <trkpt lat="36.791901" lon="-4.963971"><ele>632.5</ele></trkpt>
   <trkpt lat="36.791797" lon="-4.964308"><ele>634.5</ele></trkpt>
   <trkpt lat="36.791775" lon="-4.964415"><ele>635</ele></trkpt>
   <trkpt lat="36.791769" lon="-4.964523"><ele>635.25</ele></trkpt>
   <trkpt lat="36.791808" lon="-4.964745"><ele>637</ele></trkpt>
   <trkpt lat="36.791994" lon="-4.965328"><ele>640</ele></trkpt>
   <trkpt lat="36.792082" lon="-4.96553"><ele>642</ele></trkpt>
   <trkpt lat="36.79222" lon="-4.965782"><ele>644.25</ele></trkpt>
   <trkpt lat="36.79225" lon="-4.965863"><ele>645</ele></trkpt>
   <trkpt lat="36.792263" lon="-4.965949"><ele>646</ele></trkpt>
   <trkpt lat="36.792256" lon="-4.966036"><ele>646.75</ele></trkpt>
   <trkpt lat="36.792222" lon="-4.966098"><ele>646.75</ele></trkpt>
   <trkpt lat="36.792167" lon="-4.966161"><ele>647</ele></trkpt>
   <trkpt lat="36.791561" lon="-4.966574"><ele>654.5</ele></trkpt>
   <trkpt lat="36.791424" lon="-4.966705"><ele>655.75</ele></trkpt>
   <trkpt lat="36.791347" lon="-4.966847"><ele>656.75</ele></trkpt>
   <trkpt lat="36.791308" lon="-4.967057"><ele>658</ele></trkpt>
   <trkpt lat="36.79129" lon="-4.967288"><ele>659</ele></trkpt>
   <trkpt lat="36.791281" lon="-4.968179"><ele>664.5</ele></trkpt>
   <trkpt lat="36.791299" lon="-4.968509"><ele>665.75</ele></trkpt>
   <trkpt lat="36.791336" lon="-4.968775"><ele>668.25</ele></trkpt>
   <trkpt lat="36.791389" lon="-4.96892"><ele>670.25</ele></trkpt>
   <trkpt lat="36.791429" lon="-4.968978"><ele>670.25</ele></trkpt>
   <trkpt lat="36.791479" lon="-4.969028"><ele>670.5</ele></trkpt>
   <trkpt lat="36.791613" lon="-4.969109"><ele>672</ele></trkpt>
   <trkpt lat="36.791995" lon="-4.969229"><ele>677</ele></trkpt>
   <trkpt lat="36.792129" lon="-4.969321"><ele>679.75</ele></trkpt>
   <trkpt lat="36.792239" lon="-4.969449"><ele>680.75</ele></trkpt>
   <trkpt lat="36.792299" lon="-4.969589"><ele>682.75</ele></trkpt>
   <trkpt lat="36.792308" lon="-4.969608"><ele>682.75</ele></trkpt>
   <trkpt lat="36.792324" lon="-4.969701"><ele>683</ele></trkpt>
   <trkpt lat="36.792339" lon="-4.970208"><ele>684</ele></trkpt>
   <trkpt lat="36.792368" lon="-4.970372"><ele>685.75</ele></trkpt>
   <trkpt lat="36.792438" lon="-4.970503"><ele>687.75</ele></trkpt>
   <trkpt lat="36.792491" lon="-4.970553"><ele>688.75</ele></trkpt>
   <trkpt lat="36.792681" lon="-4.97065"><ele>690.75</ele></trkpt>
   <trkpt lat="36.792736" lon="-4.970696"><ele>691</ele></trkpt>
   <trkpt lat="36.792781" lon="-4.970757"><ele>691</ele></trkpt>
   <trkpt lat="36.79281" lon="-4.970833"><ele>690.25</ele></trkpt>
   <trkpt lat="36.792823" lon="-4.97092"><ele>691.5</ele></trkpt>
   <trkpt lat="36.792817" lon="-4.971011"><ele>692.5</ele></trkpt>
   <trkpt lat="36.792792" lon="-4.971102"><ele>693</ele></trkpt>
   <trkpt lat="36.792614" lon="-4.971519"><ele>696.5</ele></trkpt>
   <trkpt lat="36.792559" lon="-4.971737"><ele>697.75</ele></trkpt>
   <trkpt lat="36.792548" lon="-4.971835"><ele>698.5</ele></trkpt>
   <trkpt lat="36.792565" lon="-4.972017"><ele>699.5</ele></trkpt>
   <trkpt lat="36.792654" lon="-4.972348"><ele>700.75</ele></trkpt>
   <trkpt lat="36.792646" lon="-4.972526"><ele>701</ele></trkpt>
   <trkpt lat="36.792572" lon="-4.972867"><ele>705</ele></trkpt>
   <trkpt lat="36.792546" lon="-4.973128"><ele>707.25</ele></trkpt>
   <trkpt lat="36.792527" lon="-4.973224"><ele>707.75</ele></trkpt>
   <trkpt lat="36.792483" lon="-4.97332"><ele>707.5</ele></trkpt>
   <trkpt lat="36.792426" lon="-4.973384"><ele>708</ele></trkpt>
   <trkpt lat="36.792382" lon="-4.973416"><ele>708.25</ele></trkpt>
   <trkpt lat="36.792335" lon="-4.973436"><ele>708.75</ele></trkpt>
   <trkpt lat="36.792274" lon="-4.973445"><ele>709.25</ele></trkpt>
   <trkpt lat="36.792172" lon="-4.973422"><ele>709.25</ele></trkpt>
   <trkpt lat="36.792097" lon="-4.973381"><ele>709.75</ele></trkpt>
   <trkpt lat="36.791644" lon="-4.973015"><ele>713.5</ele></trkpt>
   <trkpt lat="36.790798" lon="-4.972406"><ele>721</ele></trkpt>
   <trkpt lat="36.790713" lon="-4.97237"><ele>721.5</ele></trkpt>
   <trkpt lat="36.790636" lon="-4.972361"><ele>722.5</ele></trkpt>
   <trkpt lat="36.790564" lon="-4.972367"><ele>723.75</ele></trkpt>
   <trkpt lat="36.790485" lon="-4.972403"><ele>723.5</ele></trkpt>
   <trkpt lat="36.790416" lon="-4.972462"><ele>723.5</ele></trkpt>
   <trkpt lat="36.790359" lon="-4.97255"><ele>724.75</ele></trkpt>
   <trkpt lat="36.790213" lon="-4.97289"><ele>729.75</ele></trkpt>
   <trkpt lat="36.790137" lon="-4.973024"><ele>731.25</ele></trkpt>
   <trkpt lat="36.789939" lon="-4.973281"><ele>732.75</ele></trkpt>
   <trkpt lat="36.789836" lon="-4.973434"><ele>734</ele></trkpt>
   <trkpt lat="36.789763" lon="-4.973591"><ele>735.75</ele></trkpt>
   <trkpt lat="36.789721" lon="-4.973735"><ele>736.25</ele></trkpt>
   <trkpt lat="36.789701" lon="-4.973868"><ele>737</ele></trkpt>
   <trkpt lat="36.789707" lon="-4.973983"><ele>737.75</ele></trkpt>
   <trkpt lat="36.78973" lon="-4.974096"><ele>739</ele></trkpt>
   <trkpt lat="36.789815" lon="-4.974335"><ele>741.5</ele></trkpt>
   <trkpt lat="36.789828" lon="-4.974446"><ele>741.25</ele></trkpt>
   <trkpt lat="36.789811" lon="-4.974548"><ele>740.75</ele></trkpt>
   <trkpt lat="36.789772" lon="-4.974655"><ele>740.25</ele></trkpt>
   <trkpt lat="36.789695" lon="-4.974732"><ele>740.25</ele></trkpt>
   <trkpt lat="36.789634" lon="-4.974763"><ele>741</ele></trkpt>
   <trkpt lat="36.789557" lon="-4.974769"><ele>741.5</ele></trkpt>
   <trkpt lat="36.789477" lon="-4.974753"><ele>741.25</ele></trkpt>
   <trkpt lat="36.789406" lon="-4.974701"><ele>742.25</ele></trkpt>
   <trkpt lat="36.789346" lon="-4.974633"><ele>743.5</ele></trkpt>
   <trkpt lat="36.789114" lon="-4.974277"><ele>744.75</ele></trkpt>
   <trkpt lat="36.789017" lon="-4.974167"><ele>745.25</ele></trkpt>
   <trkpt lat="36.788935" lon="-4.974104"><ele>746</ele></trkpt>
   <trkpt lat="36.788704" lon="-4.973971"><ele>748.25</ele></trkpt>
   <trkpt lat="36.788593" lon="-4.97393"><ele>749.5</ele></trkpt>
   <trkpt lat="36.788479" lon="-4.973904"><ele>749.75</ele></trkpt>
   <trkpt lat="36.788394" lon="-4.973904"><ele>750.75</ele></trkpt>
   <trkpt lat="36.78831" lon="-4.973925"><ele>751.75</ele></trkpt>
   <trkpt lat="36.788231" lon="-4.97396"><ele>752</ele></trkpt>
   <trkpt lat="36.788144" lon="-4.974019"><ele>752.75</ele></trkpt>
   <trkpt lat="36.788069" lon="-4.974099"><ele>754.75</ele></trkpt>
   <trkpt lat="36.787847" lon="-4.974431"><ele>759</ele></trkpt>
   <trkpt lat="36.787784" lon="-4.974548"><ele>760.75</ele></trkpt>
   <trkpt lat="36.787529" lon="-4.9752"><ele>764.5</ele></trkpt>
   <trkpt lat="36.78747" lon="-4.97542"><ele>766.25</ele></trkpt>
   <trkpt lat="36.787368" lon="-4.975843"><ele>770.5</ele></trkpt>
   <trkpt lat="36.787222" lon="-4.97639"><ele>769.75</ele></trkpt>
   <trkpt lat="36.787196" lon="-4.976526"><ele>769.5</ele></trkpt>
   <trkpt lat="36.787186" lon="-4.976956"><ele>772.25</ele></trkpt>
   <trkpt lat="36.78722" lon="-4.977335"><ele>774.5</ele></trkpt>
   <trkpt lat="36.787215" lon="-4.977436"><ele>775.25</ele></trkpt>
   <trkpt lat="36.787193" lon="-4.97752"><ele>775.5</ele></trkpt>
   <trkpt lat="36.787158" lon="-4.977591"><ele>776.5</ele></trkpt>
   <trkpt lat="36.787097" lon="-4.977652"><ele>777</ele></trkpt>
   <trkpt lat="36.786897" lon="-4.977765"><ele>778</ele></trkpt>
   <trkpt lat="36.786772" lon="-4.977853"><ele>779</ele></trkpt>
   <trkpt lat="36.786686" lon="-4.977931"><ele>779.5</ele></trkpt>
   <trkpt lat="36.786634" lon="-4.978009"><ele>780.75</ele></trkpt>
   <trkpt lat="36.7866" lon="-4.978095"><ele>782</ele></trkpt>
   <trkpt lat="36.786591" lon="-4.978172"><ele>782.5</ele></trkpt>
   <trkpt lat="36.7866" lon="-4.978256"><ele>783</ele></trkpt>
   <trkpt lat="36.786652" lon="-4.978397"><ele>783.75</ele></trkpt>
   <trkpt lat="36.786873" lon="-4.978854"><ele>788.75</ele></trkpt>
   <trkpt lat="36.786901" lon="-4.978954"><ele>789.75</ele></trkpt>
   <trkpt lat="36.786966" lon="-4.979403"><ele>792.25</ele></trkpt>
   <trkpt lat="36.787095" lon="-4.980056"><ele>796.5</ele></trkpt>
   <trkpt lat="36.78723" lon="-4.980577"><ele>801.25</ele></trkpt>
   <trkpt lat="36.787447" lon="-4.981324"><ele>805</ele></trkpt>
   <trkpt lat="36.787489" lon="-4.981486"><ele>806.75</ele></trkpt>
   <trkpt lat="36.787517" lon="-4.981747"><ele>808.25</ele></trkpt>
   <trkpt lat="36.787546" lon="-4.98185"><ele>808.75</ele></trkpt>
   <trkpt lat="36.787596" lon="-4.981937"><ele>810</ele></trkpt>
   <trkpt lat="36.78774" lon="-4.982077"><ele>811.75</ele></trkpt>
   <trkpt lat="36.787903" lon="-4.982205"><ele>813</ele></trkpt>
   <trkpt lat="36.787982" lon="-4.982255"><ele>813.25</ele></trkpt>
   <trkpt lat="36.788067" lon="-4.982295"><ele>813.75</ele></trkpt>
   <trkpt lat="36.788232" lon="-4.98234"><ele>816.25</ele></trkpt>
   <trkpt lat="36.788323" lon="-4.982391"><ele>816.75</ele></trkpt>
   <trkpt lat="36.788424" lon="-4.98248"><ele>817.5</ele></trkpt>
   <trkpt lat="36.788499" lon="-4.982535"><ele>818</ele></trkpt>
   <trkpt lat="36.788809" lon="-4.982685"><ele>821.75</ele></trkpt>
   <trkpt lat="36.788984" lon="-4.982744"><ele>823</ele></trkpt>
   <trkpt lat="36.789182" lon="-4.982774"><ele>824</ele></trkpt>
   <trkpt lat="36.789267" lon="-4.9828"><ele>823.5</ele></trkpt>
   <trkpt lat="36.7894" lon="-4.982892"><ele>824</ele></trkpt>
   <trkpt lat="36.789451" lon="-4.982949"><ele>825.25</ele></trkpt>
   <trkpt lat="36.789522" lon="-4.983067"><ele>828.25</ele></trkpt>
   <trkpt lat="36.789562" lon="-4.983117"><ele>829</ele></trkpt>
   <trkpt lat="36.789609" lon="-4.98316"><ele>830</ele></trkpt>
   <trkpt lat="36.78966" lon="-4.983191"><ele>830.75</ele></trkpt>
   <trkpt lat="36.789718" lon="-4.983212"><ele>832</ele></trkpt>
   <trkpt lat="36.789777" lon="-4.983217"><ele>832</ele></trkpt>
   <trkpt lat="36.78985" lon="-4.983207"><ele>832</ele></trkpt>
   <trkpt lat="36.789903" lon="-4.983189"><ele>832.5</ele></trkpt>
   <trkpt lat="36.789978" lon="-4.983141"><ele>833.75</ele></trkpt>
   <trkpt lat="36.790099" lon="-4.983023"><ele>836.5</ele></trkpt>
   <trkpt lat="36.79016" lon="-4.982992"><ele>837.25</ele></trkpt>
   <trkpt lat="36.790235" lon="-4.982983"><ele>837.25</ele></trkpt>
   <trkpt lat="36.790338" lon="-4.983006"><ele>836.5</ele></trkpt>
   <trkpt lat="36.790392" lon="-4.983037"><ele>836.75</ele></trkpt>
   <trkpt lat="36.790454" lon="-4.983116"><ele>837.5</ele></trkpt>
   <trkpt lat="36.790484" lon="-4.98322"><ele>838.25</ele></trkpt>
   <trkpt lat="36.790487" lon="-4.983297"><ele>838.25</ele></trkpt>
   <trkpt lat="36.790475" lon="-4.983383"><ele>839.5</ele></trkpt>
   <trkpt lat="36.790443" lon="-4.983464"><ele>841</ele></trkpt>
   <trkpt lat="36.79039" lon="-4.983547"><ele>841.75</ele></trkpt>
   <trkpt lat="36.790272" lon="-4.983683"><ele>842.5</ele></trkpt>
   <trkpt lat="36.790235" lon="-4.983743"><ele>842.25</ele></trkpt>
   <trkpt lat="36.790207" lon="-4.983834"><ele>843.5</ele></trkpt>
   <trkpt lat="36.790123" lon="-4.984258"><ele>848.25</ele></trkpt>
   <trkpt lat="36.790093" lon="-4.984347"><ele>849</ele></trkpt>
   <trkpt lat="36.790054" lon="-4.984414"><ele>849.5</ele></trkpt>
   <trkpt lat="36.790008" lon="-4.98446"><ele>849.75</ele></trkpt>
   <trkpt lat="36.789956" lon="-4.984503"><ele>850.5</ele></trkpt>
   <trkpt lat="36.789831" lon="-4.984558"><ele>850.75</ele></trkpt>
   <trkpt lat="36.789773" lon="-4.984617"><ele>852</ele></trkpt>
   <trkpt lat="36.789728" lon="-4.984682"><ele>853.5</ele></trkpt>
   <trkpt lat="36.789688" lon="-4.984784"><ele>854.5</ele></trkpt>
   <trkpt lat="36.789639" lon="-4.984985"><ele>856.75</ele></trkpt>
   <trkpt lat="36.78959" lon="-4.985102"><ele>858.75</ele></trkpt>
   <trkpt lat="36.789557" lon="-4.985151"><ele>859.5</ele></trkpt>
   <trkpt lat="36.789509" lon="-4.985206"><ele>860.5</ele></trkpt>
   <trkpt lat="36.78948" lon="-4.985229"><ele>861</ele></trkpt>
   <trkpt lat="36.789402" lon="-4.985265"><ele>862.25</ele></trkpt>
   <trkpt lat="36.789296" lon="-4.985264"><ele>863.75</ele></trkpt>
   <trkpt lat="36.789245" lon="-4.985247"><ele>864.75</ele></trkpt>
   <trkpt lat="36.7892" lon="-4.985211"><ele>864.75</ele></trkpt>
   <trkpt lat="36.789108" lon="-4.985091"><ele>863</ele></trkpt>
   <trkpt lat="36.78899" lon="-4.984978"><ele>862.25</ele></trkpt>
   <trkpt lat="36.788899" lon="-4.98493"><ele>863</ele></trkpt>
   <trkpt lat="36.788808" lon="-4.984919"><ele>862.5</ele></trkpt>
   <trkpt lat="36.78871" lon="-4.984942"><ele>863</ele></trkpt>
   <trkpt lat="36.788618" lon="-4.984994"><ele>864.75</ele></trkpt>
   <trkpt lat="36.788496" lon="-4.985107"><ele>865.75</ele></trkpt>
   <trkpt lat="36.788417" lon="-4.985167"><ele>865.75</ele></trkpt>
   <trkpt lat="36.788356" lon="-4.985193"><ele>865</ele></trkpt>
   <trkpt lat="36.788287" lon="-4.985204"><ele>866.25</ele></trkpt>
   <trkpt lat="36.788206" lon="-4.985195"><ele>868.75</ele></trkpt>
   <trkpt lat="36.788129" lon="-4.985159"><ele>870</ele></trkpt>
   <trkpt lat="36.787923" lon="-4.984983"><ele>870.5</ele></trkpt>
   <trkpt lat="36.787839" lon="-4.984937"><ele>871.25</ele></trkpt>
   <trkpt lat="36.787714" lon="-4.984903"><ele>872</ele></trkpt>
   <trkpt lat="36.787581" lon="-4.984902"><ele>872.75</ele></trkpt>
   <trkpt lat="36.787487" lon="-4.984912"><ele>873.5</ele></trkpt>
   <trkpt lat="36.787372" lon="-4.984957"><ele>874</ele></trkpt>
   <trkpt lat="36.787272" lon="-4.985021"><ele>875.25</ele></trkpt>
   <trkpt lat="36.787164" lon="-4.985102"><ele>876.25</ele></trkpt>
   <trkpt lat="36.787071" lon="-4.985191"><ele>876.75</ele></trkpt>
   <trkpt lat="36.78692" lon="-4.985387"><ele>878.75</ele></trkpt>
   <trkpt lat="36.786824" lon="-4.985525"><ele>879.25</ele></trkpt>
   <trkpt lat="36.786743" lon="-4.985663"><ele>879.75</ele></trkpt>
   <trkpt lat="36.786688" lon="-4.985789"><ele>880.75</ele></trkpt>
   <trkpt lat="36.786594" lon="-4.986135"><ele>882</ele></trkpt>
   <trkpt lat="36.786545" lon="-4.986211"><ele>882.5</ele></trkpt>
   <trkpt lat="36.786515" lon="-4.986239"><ele>882.75</ele></trkpt>
   <trkpt lat="36.786449" lon="-4.986281"><ele>883</ele></trkpt>
   <trkpt lat="36.786363" lon="-4.986296"><ele>883.5</ele></trkpt>
   <trkpt lat="36.786279" lon="-4.986287"><ele>884</ele></trkpt>
   <trkpt lat="36.785841" lon="-4.986127"><ele>884</ele></trkpt>
   <trkpt lat="36.78573" lon="-4.986073"><ele>883.75</ele></trkpt>
   <trkpt lat="36.785494" lon="-4.985924"><ele>883</ele></trkpt>
   <trkpt lat="36.785424" lon="-4.98589"><ele>882</ele></trkpt>
   <trkpt lat="36.78536" lon="-4.985875"><ele>882</ele></trkpt>
   <trkpt lat="36.785283" lon="-4.98588"><ele>882.75</ele></trkpt>
   <trkpt lat="36.785207" lon="-4.985909"><ele>882.25</ele></trkpt>
   <trkpt lat="36.785131" lon="-4.985968"><ele>882.25</ele></trkpt>
   <trkpt lat="36.785014" lon="-4.986091"><ele>882.75</ele></trkpt>
   <trkpt lat="36.784949" lon="-4.986146"><ele>883</ele></trkpt>
   <trkpt lat="36.784864" lon="-4.986182"><ele>883.5</ele></trkpt>
   <trkpt lat="36.784815" lon="-4.986188"><ele>884</ele></trkpt>
   <trkpt lat="36.784752" lon="-4.986181"><ele>884</ele></trkpt>
   <trkpt lat="36.784625" lon="-4.986144"><ele>883.5</ele></trkpt>
   <trkpt lat="36.784188" lon="-4.985977"><ele>882.75</ele></trkpt>
   <trkpt lat="36.78412" lon="-4.985966"><ele>882.25</ele></trkpt>
   <trkpt lat="36.784052" lon="-4.985972"><ele>881.75</ele></trkpt>
   <trkpt lat="36.783995" lon="-4.985998"><ele>881.75</ele></trkpt>
   <trkpt lat="36.783929" lon="-4.986033"><ele>882</ele></trkpt>
   <trkpt lat="36.783858" lon="-4.986092"><ele>882.75</ele></trkpt>
   <trkpt lat="36.783793" lon="-4.986161"><ele>883</ele></trkpt>
   <trkpt lat="36.783583" lon="-4.986468"><ele>885.5</ele></trkpt>
   <trkpt lat="36.783492" lon="-4.986667"><ele>887</ele></trkpt>
   <trkpt lat="36.783411" lon="-4.98679"><ele>888.25</ele></trkpt>
   <trkpt lat="36.783358" lon="-4.986859"><ele>889</ele></trkpt>
   <trkpt lat="36.783293" lon="-4.986917"><ele>889.75</ele></trkpt>
   <trkpt lat="36.7832" lon="-4.986972"><ele>890.75</ele></trkpt>
   <trkpt lat="36.782099" lon="-4.987537"><ele>899.5</ele></trkpt>
   <trkpt lat="36.781997" lon="-4.987605"><ele>900.25</ele></trkpt>
   <trkpt lat="36.78196" lon="-4.987638"><ele>900.5</ele></trkpt>
   <trkpt lat="36.781875" lon="-4.987783"><ele>901.25</ele></trkpt>
   <trkpt lat="36.781785" lon="-4.98803"><ele>902.75</ele></trkpt>
   <trkpt lat="36.781712" lon="-4.988172"><ele>904.75</ele></trkpt>
   <trkpt lat="36.781577" lon="-4.988336"><ele>906</ele></trkpt>
   <trkpt lat="36.781199" lon="-4.988746"><ele>909.75</ele></trkpt>
   <trkpt lat="36.780788" lon="-4.98913"><ele>912.5</ele></trkpt>
   <trkpt lat="36.780683" lon="-4.989326"><ele>912.75</ele></trkpt>
   <trkpt lat="36.780642" lon="-4.989519"><ele>912.25</ele></trkpt>
   <trkpt lat="36.780675" lon="-4.990029"><ele>911.25</ele></trkpt>
   <trkpt lat="36.780716" lon="-4.990264"><ele>911.25</ele></trkpt>
   <trkpt lat="36.780723" lon="-4.990381"><ele>911.75</ele></trkpt>
   <trkpt lat="36.780706" lon="-4.9905"><ele>911.5</ele></trkpt>
   <trkpt lat="36.78049" lon="-4.991255"><ele>908.5</ele></trkpt>
   <trkpt lat="36.780286" lon="-4.992129"><ele>906</ele></trkpt>
   <trkpt lat="36.780276" lon="-4.992238"><ele>905.5</ele></trkpt>
   <trkpt lat="36.780348" lon="-4.992463"><ele>906.25</ele></trkpt>
   <trkpt lat="36.780345" lon="-4.99345"><ele>906.75</ele></trkpt>
   <trkpt lat="36.780378" lon="-4.993582"><ele>905.5</ele></trkpt>
   <trkpt lat="36.780412" lon="-4.99362"><ele>904.25</ele></trkpt>
   <trkpt lat="36.780508" lon="-4.993634"><ele>903.5</ele></trkpt>
   <trkpt lat="36.780741" lon="-4.993531"><ele>908.75</ele></trkpt>
   <trkpt lat="36.780886" lon="-4.993509"><ele>909.75</ele></trkpt>
   <trkpt lat="36.781139" lon="-4.993493"><ele>908.25</ele></trkpt>
   <trkpt lat="36.781762" lon="-4.993356"><ele>911.25</ele></trkpt>
   <trkpt lat="36.782241" lon="-4.993374"><ele>912</ele></trkpt>
   <trkpt lat="36.782592" lon="-4.9933"><ele>915.25</ele></trkpt>
   <trkpt lat="36.782746" lon="-4.993376"><ele>913.75</ele></trkpt>
   <trkpt lat="36.782795" lon="-4.993451"><ele>915</ele></trkpt>
   <trkpt lat="36.782824" lon="-4.993531"><ele>917</ele></trkpt>
   <trkpt lat="36.78284" lon="-4.99361"><ele>918.25</ele></trkpt>
   <trkpt lat="36.782843" lon="-4.993731"><ele>918.75</ele></trkpt>
   <trkpt lat="36.782831" lon="-4.993947"><ele>919.5</ele></trkpt>
   <trkpt lat="36.78274" lon="-4.994288"><ele>918.75</ele></trkpt>
   <trkpt lat="36.782706" lon="-4.994542"><ele>919.75</ele></trkpt>
   <trkpt lat="36.782703" lon="-4.994791"><ele>920</ele></trkpt>
   <trkpt lat="36.782743" lon="-4.994967"><ele>923</ele></trkpt>
   <trkpt lat="36.782833" lon="-4.995057"><ele>923.5</ele></trkpt>
   <trkpt lat="36.782942" lon="-4.995102"><ele>923</ele></trkpt>
   <trkpt lat="36.783443" lon="-4.995182"><ele>928</ele></trkpt>
   <trkpt lat="36.78361" lon="-4.995171"><ele>930</ele></trkpt>
   <trkpt lat="36.783776" lon="-4.99509"><ele>930.25</ele></trkpt>
   <trkpt lat="36.78401" lon="-4.994923"><ele>932.75</ele></trkpt>
   <trkpt lat="36.784135" lon="-4.994783"><ele>934.25</ele></trkpt>
   <trkpt lat="36.78429" lon="-4.994527"><ele>937</ele></trkpt>
   <trkpt lat="36.78435" lon="-4.994458"><ele>937.75</ele></trkpt>
   <trkpt lat="36.784579" lon="-4.994272"><ele>939.5</ele></trkpt>
   <trkpt lat="36.784781" lon="-4.994056"><ele>942</ele></trkpt>
   <trkpt lat="36.785005" lon="-4.993874"><ele>944.25</ele></trkpt>
   <trkpt lat="36.785072" lon="-4.993798"><ele>944.75</ele></trkpt>
   <trkpt lat="36.785313" lon="-4.993455"><ele>947.25</ele></trkpt>
   <trkpt lat="36.785416" lon="-4.993073"><ele>951.5</ele></trkpt>
   <trkpt lat="36.785531" lon="-4.99295"><ele>952.75</ele></trkpt>
   <trkpt lat="36.785662" lon="-4.992892"><ele>954</ele></trkpt>
   <trkpt lat="36.785958" lon="-4.992821"><ele>954</ele></trkpt>
   <trkpt lat="36.786289" lon="-4.992602"><ele>958.25</ele></trkpt>
   <trkpt lat="36.786399" lon="-4.992588"><ele>957.5</ele></trkpt>
   <trkpt lat="36.787021" lon="-4.992647"><ele>962.5</ele></trkpt>
   <trkpt lat="36.787177" lon="-4.992635"><ele>963</ele></trkpt>
   <trkpt lat="36.787455" lon="-4.992407"><ele>964</ele></trkpt>
   <trkpt lat="36.787537" lon="-4.992389"><ele>964.75</ele></trkpt>
   <trkpt lat="36.787868" lon="-4.992517"><ele>967.25</ele></trkpt>
   <trkpt lat="36.78795" lon="-4.99252"><ele>967.75</ele></trkpt>
   <trkpt lat="36.788127" lon="-4.992442"><ele>969.25</ele></trkpt>
   <trkpt lat="36.788509" lon="-4.992137"><ele>972.25</ele></trkpt>
   <trkpt lat="36.788595" lon="-4.992119"><ele>971.75</ele></trkpt>
   <trkpt lat="36.788643" lon="-4.99214"><ele>972</ele></trkpt>
   <trkpt lat="36.78871" lon="-4.992219"><ele>972.75</ele></trkpt>
   <trkpt lat="36.78875" lon="-4.992291"><ele>973.5</ele></trkpt>
   <trkpt lat="36.788775" lon="-4.992395"><ele>974.25</ele></trkpt>
   <trkpt lat="36.788836" lon="-4.993439"><ele>979</ele></trkpt>
   <trkpt lat="36.788893" lon="-4.993747"><ele>980.5</ele></trkpt>
   <trkpt lat="36.789081" lon="-4.994115"><ele>980</ele></trkpt>
   <trkpt lat="36.789753" lon="-4.995497"><ele>978.25</ele></trkpt>
   <trkpt lat="36.79034" lon="-4.99665"><ele>973</ele></trkpt>
   <trkpt lat="36.790481" lon="-4.996872"><ele>972.25</ele></trkpt>
   <trkpt lat="36.79072" lon="-4.997107"><ele>971.5</ele></trkpt>
   <trkpt lat="36.790849" lon="-4.997214"><ele>970.75</ele></trkpt>
   <trkpt lat="36.79208" lon="-4.998014"><ele>964.25</ele></trkpt>
   <trkpt lat="36.792346" lon="-4.998155"><ele>964</ele></trkpt>
   <trkpt lat="36.793072" lon="-4.998377"><ele>959.25</ele></trkpt>
   <trkpt lat="36.793261" lon="-4.998503"><ele>957.75</ele></trkpt>
   <trkpt lat="36.793337" lon="-4.998585"><ele>957.5</ele></trkpt>
   <trkpt lat="36.793476" lon="-4.998784"><ele>955.75</ele></trkpt>
   <trkpt lat="36.793818" lon="-4.999431"><ele>952</ele></trkpt>
   <trkpt lat="36.793921" lon="-4.999722"><ele>950.5</ele></trkpt>
   <trkpt lat="36.794088" lon="-5.000741"><ele>945.75</ele></trkpt>
   <trkpt lat="36.794455" lon="-5.003032"><ele>942</ele></trkpt>
   <trkpt lat="36.79451" lon="-5.003371"><ele>940.75</ele></trkpt>
   <trkpt lat="36.794626" lon="-5.003771"><ele>940</ele></trkpt>
   <trkpt lat="36.794794" lon="-5.004131"><ele>938.75</ele></trkpt>
   <trkpt lat="36.796369" lon="-5.007379"><ele>935.75</ele></trkpt>
   <trkpt lat="36.796481" lon="-5.007557"><ele>936.75</ele></trkpt>
   <trkpt lat="36.796547" lon="-5.007637"><ele>937.5</ele></trkpt>
   <trkpt lat="36.796704" lon="-5.007741"><ele>937.5</ele></trkpt>
   <trkpt lat="36.797121" lon="-5.007744"><ele>933</ele></trkpt>
   <trkpt lat="36.797283" lon="-5.007844"><ele>932.75</ele></trkpt>
   <trkpt lat="36.797422" lon="-5.007967"><ele>932</ele></trkpt>
   <trkpt lat="36.797744" lon="-5.008333"><ele>929.25</ele></trkpt>
   <trkpt lat="36.797892" lon="-5.008451"><ele>928.75</ele></trkpt>
   <trkpt lat="36.798079" lon="-5.008548"><ele>926.5</ele></trkpt>
   <trkpt lat="36.798127" lon="-5.008618"><ele>926.5</ele></trkpt>
   <trkpt lat="36.798142" lon="-5.008662"><ele>925.75</ele></trkpt>
   <trkpt lat="36.798145" lon="-5.008737"><ele>925</ele></trkpt>
   <trkpt lat="36.798124" lon="-5.008834"><ele>924.75</ele></trkpt>
   <trkpt lat="36.798049" lon="-5.008983"><ele>923.75</ele></trkpt>
   <trkpt lat="36.797814" lon="-5.009338"><ele>923.25</ele></trkpt>
   <trkpt lat="36.797728" lon="-5.009515"><ele>923.25</ele></trkpt>
   <trkpt lat="36.797696" lon="-5.009609"><ele>923.25</ele></trkpt>
   <trkpt lat="36.797673" lon="-5.009816"><ele>921.25</ele></trkpt>
   <trkpt lat="36.79764" lon="-5.01023"><ele>917.75</ele></trkpt>
   <trkpt lat="36.797666" lon="-5.01033"><ele>917.25</ele></trkpt>
   <trkpt lat="36.79771" lon="-5.010431"><ele>917</ele></trkpt>
   <trkpt lat="36.797758" lon="-5.010515"><ele>916.75</ele></trkpt>
   <trkpt lat="36.797914" lon="-5.010637"><ele>915.75</ele></trkpt>
   <trkpt lat="36.798309" lon="-5.010916"><ele>913.75</ele></trkpt>
   <trkpt lat="36.798468" lon="-5.010959"><ele>913.5</ele></trkpt>
   <trkpt lat="36.798718" lon="-5.010956"><ele>910.5</ele></trkpt>
   <trkpt lat="36.798884" lon="-5.010978"><ele>909.5</ele></trkpt>
   <trkpt lat="36.799138" lon="-5.011055"><ele>906.25</ele></trkpt>
   <trkpt lat="36.799305" lon="-5.011127"><ele>904.25</ele></trkpt>
   <trkpt lat="36.799441" lon="-5.011254"><ele>903.5</ele></trkpt>
   <trkpt lat="36.799547" lon="-5.011426"><ele>902.5</ele></trkpt>
   <trkpt lat="36.799662" lon="-5.011578"><ele>902</ele></trkpt>
   <trkpt lat="36.799866" lon="-5.011716"><ele>903</ele></trkpt>
   <trkpt lat="36.800066" lon="-5.01178"><ele>899.5</ele></trkpt>
   <trkpt lat="36.800563" lon="-5.011863"><ele>891.25</ele></trkpt>
   <trkpt lat="36.80073" lon="-5.01194"><ele>890.25</ele></trkpt>
   <trkpt lat="36.800879" lon="-5.01206"><ele>890</ele></trkpt>
   <trkpt lat="36.800985" lon="-5.012192"><ele>889.5</ele></trkpt>
   <trkpt lat="36.801153" lon="-5.012438"><ele>886</ele></trkpt>
   <trkpt lat="36.801236" lon="-5.012644"><ele>886.75</ele></trkpt>
   <trkpt lat="36.801296" lon="-5.012867"><ele>887</ele></trkpt>
   <trkpt lat="36.801358" lon="-5.013314"><ele>884</ele></trkpt>
   <trkpt lat="36.80137" lon="-5.013569"><ele>883</ele></trkpt>
   <trkpt lat="36.801354" lon="-5.013858"><ele>883</ele></trkpt>
   <trkpt lat="36.80125" lon="-5.014436"><ele>882</ele></trkpt>
   <trkpt lat="36.801178" lon="-5.014664"><ele>881.75</ele></trkpt>
   <trkpt lat="36.80086" lon="-5.015375"><ele>887.75</ele></trkpt>
   <trkpt lat="36.800827" lon="-5.015584"><ele>886.25</ele></trkpt>
   <trkpt lat="36.800795" lon="-5.015873"><ele>887.5</ele></trkpt>
   <trkpt lat="36.800759" lon="-5.016072"><ele>888.25</ele></trkpt>
   <trkpt lat="36.800702" lon="-5.016248"><ele>888.75</ele></trkpt>
   <trkpt lat="36.800488" lon="-5.016739"><ele>892.25</ele></trkpt>
   <trkpt lat="36.800023" lon="-5.018194"><ele>899.5</ele></trkpt>
   <trkpt lat="36.799998" lon="-5.018255"><ele>900.5</ele></trkpt>
   <trkpt lat="36.799976" lon="-5.018309"><ele>900.5</ele></trkpt>
   <trkpt lat="36.799863" lon="-5.018466"><ele>901.75</ele></trkpt>
   <trkpt lat="36.799534" lon="-5.018772"><ele>907</ele></trkpt>
   <trkpt lat="36.799484" lon="-5.018836"><ele>907.5</ele></trkpt>
   <trkpt lat="36.799453" lon="-5.018941"><ele>907.25</ele></trkpt>
   <trkpt lat="36.799372" lon="-5.019966"><ele>913</ele></trkpt>
   <trkpt lat="36.799362" lon="-5.020174"><ele>914</ele></trkpt>
   <trkpt lat="36.79937" lon="-5.020413"><ele>913.25</ele></trkpt>
   <trkpt lat="36.799334" lon="-5.020617"><ele>914.25</ele></trkpt>
   <trkpt lat="36.799273" lon="-5.020817"><ele>915</ele></trkpt>
   <trkpt lat="36.799132" lon="-5.021006"><ele>918.75</ele></trkpt>
   <trkpt lat="36.799004" lon="-5.021228"><ele>919.75</ele></trkpt>
   <trkpt lat="36.798933" lon="-5.021455"><ele>920</ele></trkpt>
   <trkpt lat="36.798872" lon="-5.021777"><ele>923</ele></trkpt>
   <trkpt lat="36.798752" lon="-5.022986"><ele>927.5</ele></trkpt>
   <trkpt lat="36.798556" lon="-5.023425"><ele>932.25</ele></trkpt>
   <trkpt lat="36.798452" lon="-5.023708"><ele>934</ele></trkpt>
   <trkpt lat="36.798372" lon="-5.024033"><ele>936.5</ele></trkpt>
   <trkpt lat="36.798367" lon="-5.024158"><ele>936.75</ele></trkpt>
   <trkpt lat="36.798386" lon="-5.024264"><ele>937.75</ele></trkpt>
   <trkpt lat="36.798414" lon="-5.024368"><ele>938.75</ele></trkpt>
   <trkpt lat="36.798456" lon="-5.024467"><ele>939.25</ele></trkpt>
   <trkpt lat="36.798669" lon="-5.024847"><ele>940.75</ele></trkpt>
   <trkpt lat="36.798747" lon="-5.025067"><ele>941.75</ele></trkpt>
   <trkpt lat="36.798795" lon="-5.025304"><ele>943.25</ele></trkpt>
   <trkpt lat="36.798803" lon="-5.025519"><ele>944.75</ele></trkpt>
   <trkpt lat="36.798789" lon="-5.025738"><ele>945</ele></trkpt>
   <trkpt lat="36.79877" lon="-5.025835"><ele>945.5</ele></trkpt>
   <trkpt lat="36.798705" lon="-5.026007"><ele>947</ele></trkpt>
   <trkpt lat="36.798654" lon="-5.026098"><ele>948.25</ele></trkpt>
   <trkpt lat="36.798517" lon="-5.026235"><ele>949.75</ele></trkpt>
   <trkpt lat="36.798228" lon="-5.026451"><ele>952</ele></trkpt>
   <trkpt lat="36.797961" lon="-5.026601"><ele>954.75</ele></trkpt>
   <trkpt lat="36.797454" lon="-5.02677"><ele>958.5</ele></trkpt>
   <trkpt lat="36.797292" lon="-5.026842"><ele>960.5</ele></trkpt>
   <trkpt lat="36.797205" lon="-5.026903"><ele>961.5</ele></trkpt>
   <trkpt lat="36.797084" lon="-5.027133"><ele>961</ele></trkpt>
   <trkpt lat="36.797007" lon="-5.027221"><ele>961.75</ele></trkpt>
   <trkpt lat="36.796884" lon="-5.027241"><ele>963.25</ele></trkpt>
   <trkpt lat="36.796648" lon="-5.027255"><ele>963.25</ele></trkpt>
   <trkpt lat="36.796541" lon="-5.02728"><ele>964</ele></trkpt>
   <trkpt lat="36.796168" lon="-5.027537"><ele>963.75</ele></trkpt>
   <trkpt lat="36.796019" lon="-5.027701"><ele>965.5</ele></trkpt>
   <trkpt lat="36.795896" lon="-5.027941"><ele>966.5</ele></trkpt>
   <trkpt lat="36.795767" lon="-5.028276"><ele>967.75</ele></trkpt>
   <trkpt lat="36.795741" lon="-5.028405"><ele>968</ele></trkpt>
   <trkpt lat="36.795733" lon="-5.028518"><ele>968.25</ele></trkpt>
   <trkpt lat="36.795763" lon="-5.028857"><ele>968.5</ele></trkpt>
   <trkpt lat="36.795739" lon="-5.029086"><ele>968.75</ele></trkpt>
   <trkpt lat="36.79563" lon="-5.029287"><ele>970</ele></trkpt>
   <trkpt lat="36.79552" lon="-5.029453"><ele>971</ele></trkpt>
   <trkpt lat="36.795429" lon="-5.029658"><ele>971.75</ele></trkpt>
   <trkpt lat="36.795375" lon="-5.029999"><ele>972</ele></trkpt>
   <trkpt lat="36.795304" lon="-5.030335"><ele>972.5</ele></trkpt>
   <trkpt lat="36.79521" lon="-5.030584"><ele>974</ele></trkpt>
   <trkpt lat="36.795095" lon="-5.030835"><ele>974.75</ele></trkpt>
   <trkpt lat="36.79495" lon="-5.031069"><ele>976.25</ele></trkpt>
   <trkpt lat="36.794326" lon="-5.031836"><ele>979.75</ele></trkpt>
   <trkpt lat="36.794246" lon="-5.031976"><ele>980.25</ele></trkpt>
   <trkpt lat="36.794177" lon="-5.032125"><ele>981</ele></trkpt>
   <trkpt lat="36.794052" lon="-5.032481"><ele>983</ele></trkpt>
   <trkpt lat="36.793987" lon="-5.032641"><ele>983</ele></trkpt>
   <trkpt lat="36.793791" lon="-5.03318"><ele>983.75</ele></trkpt>
   <trkpt lat="36.793621" lon="-5.03367"><ele>984.75</ele></trkpt>
   <trkpt lat="36.793568" lon="-5.033918"><ele>985.25</ele></trkpt>
   <trkpt lat="36.793558" lon="-5.034144"><ele>985.25</ele></trkpt>
   <trkpt lat="36.793548" lon="-5.034242"><ele>985</ele></trkpt>
   <trkpt lat="36.79352" lon="-5.034366"><ele>985</ele></trkpt>
   <trkpt lat="36.793438" lon="-5.034535"><ele>985.25</ele></trkpt>
   <trkpt lat="36.793355" lon="-5.034679"><ele>985.75</ele></trkpt>
   <trkpt lat="36.793269" lon="-5.034799"><ele>986</ele></trkpt>
   <trkpt lat="36.792904" lon="-5.035161"><ele>988.75</ele></trkpt>
   <trkpt lat="36.792759" lon="-5.035317"><ele>989.75</ele></trkpt>
   <trkpt lat="36.792637" lon="-5.035489"><ele>989.5</ele></trkpt>
   <trkpt lat="36.792416" lon="-5.035876"><ele>989.75</ele></trkpt>
   <trkpt lat="36.792354" lon="-5.035959"><ele>990.5</ele></trkpt>
   <trkpt lat="36.792277" lon="-5.036047"><ele>990.5</ele></trkpt>
   <trkpt lat="36.792081" lon="-5.036194"><ele>988</ele></trkpt>
   <trkpt lat="36.791734" lon="-5.036428"><ele>989.5</ele></trkpt>
   <trkpt lat="36.791631" lon="-5.036502"><ele>990</ele></trkpt>
   <trkpt lat="36.791525" lon="-5.036605"><ele>990.75</ele></trkpt>
   <trkpt lat="36.791433" lon="-5.03675"><ele>991.25</ele></trkpt>
   <trkpt lat="36.791383" lon="-5.036885"><ele>991.5</ele></trkpt>
   <trkpt lat="36.791346" lon="-5.037097"><ele>992.5</ele></trkpt>
   <trkpt lat="36.791108" lon="-5.038487"><ele>999</ele></trkpt>
   <trkpt lat="36.791086" lon="-5.038836"><ele>1001.25</ele></trkpt>
   <trkpt lat="36.79113" lon="-5.039948"><ele>1006.75</ele></trkpt>
   <trkpt lat="36.79111" lon="-5.040197"><ele>1008.75</ele></trkpt>
   <trkpt lat="36.791045" lon="-5.040439"><ele>1010</ele></trkpt>
   <trkpt lat="36.790951" lon="-5.040669"><ele>1011.5</ele></trkpt>
   <trkpt lat="36.79084" lon="-5.040893"><ele>1013.75</ele></trkpt>
   <trkpt lat="36.790396" lon="-5.041721"><ele>1020.5</ele></trkpt>
   <trkpt lat="36.78972" lon="-5.042756"><ele>1029.25</ele></trkpt>
   <trkpt lat="36.789503" lon="-5.043123"><ele>1032.75</ele></trkpt>
   <trkpt lat="36.789338" lon="-5.043539"><ele>1035.75</ele></trkpt>
   <trkpt lat="36.789103" lon="-5.044242"><ele>1040.25</ele></trkpt>
   <trkpt lat="36.788996" lon="-5.044508"><ele>1041.75</ele></trkpt>
   <trkpt lat="36.78868" lon="-5.045011"><ele>1046.5</ele></trkpt>
   <trkpt lat="36.788553" lon="-5.045357"><ele>1049</ele></trkpt>
   <trkpt lat="36.788471" lon="-5.045619"><ele>1050.75</ele></trkpt>
   <trkpt lat="36.788465" lon="-5.045747"><ele>1051.5</ele></trkpt>
   <trkpt lat="36.788487" lon="-5.045872"><ele>1052</ele></trkpt>
   <trkpt lat="36.78884" lon="-5.046547"><ele>1056.75</ele></trkpt>
   <trkpt lat="36.788908" lon="-5.046825"><ele>1058.75</ele></trkpt>
   <trkpt lat="36.788952" lon="-5.04716"><ele>1061</ele></trkpt>
   <trkpt lat="36.789085" lon="-5.048033"><ele>1066.25</ele></trkpt>
   <trkpt lat="36.789094" lon="-5.048212"><ele>1067.25</ele></trkpt>
   <trkpt lat="36.789077" lon="-5.048311"><ele>1068.25</ele></trkpt>
   <trkpt lat="36.789038" lon="-5.048396"><ele>1070.25</ele></trkpt>
   <trkpt lat="36.788995" lon="-5.048468"><ele>1071.25</ele></trkpt>
   <trkpt lat="36.788947" lon="-5.048527"><ele>1071.25</ele></trkpt>
    </trkseg>
 </trk>
</gpx>
