<?xml version="1.0" encoding="UTF-8"?>
<!-- track-length = 10866 filtered ascend = 346 plain-ascend = 261 cost=15401 energy=0.1kwh time=1h 9m 13s -->
<gpx 
 xmlns="http://www.topografix.com/GPX/1/1" 
 xmlns:xsi="http://www.w3.org/2001/XMLSchema-instance" 
 xsi:schemaLocation="http://www.topografix.com/GPX/1/1 http://www.topografix.com/GPX/1/1/gpx.xsd" 
 version="1.1" 
 creator="BRouter-Web 0.18.1">
 <trk>
  <name>Porte de Barx (10.9km)</name>
  <trkseg>
   <trkpt lat="39.044394" lon="-0.308465"><ele>42.75</ele></trkpt>
   <trkpt lat="39.044079" lon="-0.307873"><ele>43.25</ele></trkpt>
   <trkpt lat="39.044054" lon="-0.307912"><ele>43.25</ele></trkpt>
   <trkpt lat="39.04402" lon="-0.307938"><ele>43.5</ele></trkpt>
   <trkpt lat="39.043993" lon="-0.307948"><ele>43.5</ele></trkpt>
   <trkpt lat="39.043949" lon="-0.307943"><ele>43.75</ele></trkpt>
   <trkpt lat="39.04392" lon="-0.307927"><ele>43.75</ele></trkpt>
   <trkpt lat="39.043894" lon="-0.307901"><ele>43.75</ele></trkpt>
   <trkpt lat="39.043876" lon="-0.307866"><ele>44</ele></trkpt>
   <trkpt lat="39.043612" lon="-0.308028"><ele>44</ele></trkpt>
   <trkpt lat="39.043426" lon="-0.308145"><ele>44.25</ele></trkpt>
   <trkpt lat="39.043362" lon="-0.308176"><ele>44.75</ele></trkpt>
   <trkpt lat="39.043281" lon="-0.308208"><ele>45</ele></trkpt>
   <trkpt lat="39.043143" lon="-0.308246"><ele>45</ele></trkpt>
   <trkpt lat="39.042851" lon="-0.308307"><ele>45</ele></trkpt>
   <trkpt lat="39.042821" lon="-0.308312"><ele>45</ele></trkpt>
   <trkpt lat="39.042728" lon="-0.308308"><ele>44.75</ele></trkpt>
   <trkpt lat="39.042622" lon="-0.30827"><ele>44.75</ele></trkpt>
   <trkpt lat="39.042339" lon="-0.308133"><ele>45.5</ele></trkpt>
   <trkpt lat="39.042212" lon="-0.308056"><ele>46</ele></trkpt>
   <trkpt lat="39.042175" lon="-0.308021"><ele>46</ele></trkpt>
   <trkpt lat="39.042163" lon="-0.307965"><ele>46.25</ele></trkpt>
   <trkpt lat="39.042144" lon="-0.307858"><ele>46.25</ele></trkpt>
   <trkpt lat="39.042127" lon="-0.30782"><ele>46.25</ele></trkpt>
   <trkpt lat="39.041535" lon="-0.306833"><ele>47.75</ele></trkpt>
   <trkpt lat="39.04137" lon="-0.306567"><ele>49</ele></trkpt>
   <trkpt lat="39.041197" lon="-0.306316"><ele>48.25</ele></trkpt>
   <trkpt lat="39.041048" lon="-0.306123"><ele>49</ele></trkpt>
   <trkpt lat="39.040908" lon="-0.30597"><ele>49.25</ele></trkpt>
   <trkpt lat="39.040601" lon="-0.305764"><ele>50.25</ele></trkpt>
   <trkpt lat="39.040416" lon="-0.30565"><ele>50.75</ele></trkpt>
   <trkpt lat="39.040091" lon="-0.305465"><ele>52</ele></trkpt>
   <trkpt lat="39.039464" lon="-0.305111"><ele>52.75</ele></trkpt>
   <trkpt lat="39.03914" lon="-0.30496"><ele>55</ele></trkpt>
   <trkpt lat="39.038843" lon="-0.304864"><ele>55</ele></trkpt>
   <trkpt lat="39.038721" lon="-0.304836"><ele>56</ele></trkpt>
   <trkpt lat="39.037312" lon="-0.304664"><ele>62.5</ele></trkpt>
   <trkpt lat="39.037058" lon="-0.304636"><ele>64.25</ele></trkpt>
   <trkpt lat="39.036887" lon="-0.304618"><ele>65.25</ele></trkpt>
   <trkpt lat="39.035653" lon="-0.304481"><ele>74.25</ele></trkpt>
   <trkpt lat="39.035486" lon="-0.304446"><ele>75.25</ele></trkpt>
   <trkpt lat="39.035426" lon="-0.304425"><ele>75.75</ele></trkpt>
   <trkpt lat="39.035267" lon="-0.304347"><ele>77.25</ele></trkpt>
   <trkpt lat="39.034746" lon="-0.304069"><ele>81.5</ele></trkpt>
   <trkpt lat="39.034312" lon="-0.303837"><ele>84.75</ele></trkpt>
   <trkpt lat="39.033852" lon="-0.303618"><ele>88</ele></trkpt>
   <trkpt lat="39.033776" lon="-0.30357"><ele>89</ele></trkpt>
   <trkpt lat="39.033694" lon="-0.303512"><ele>90</ele></trkpt>
   <trkpt lat="39.033605" lon="-0.303435"><ele>90.5</ele></trkpt>
   <trkpt lat="39.033302" lon="-0.303158"><ele>94.25</ele></trkpt>
   <trkpt lat="39.033222" lon="-0.303119"><ele>94.75</ele></trkpt>
   <trkpt lat="39.033139" lon="-0.303093"><ele>95.25</ele></trkpt>
   <trkpt lat="39.033065" lon="-0.303081"><ele>95.5</ele></trkpt>
   <trkpt lat="39.032823" lon="-0.303078"><ele>96.5</ele></trkpt>
   <trkpt lat="39.032301" lon="-0.303095"><ele>100</ele></trkpt>
   <trkpt lat="39.032066" lon="-0.303102"><ele>101.75</ele></trkpt>
   <trkpt lat="39.031889" lon="-0.303122"><ele>103.5</ele></trkpt>
   <trkpt lat="39.03184" lon="-0.303141"><ele>104.25</ele></trkpt>
   <trkpt lat="39.031784" lon="-0.303202"><ele>104.75</ele></trkpt>
   <trkpt lat="39.031743" lon="-0.303316"><ele>104</ele></trkpt>
   <trkpt lat="39.031726" lon="-0.303395"><ele>104</ele></trkpt>
   <trkpt lat="39.031706" lon="-0.30363"><ele>104.25</ele></trkpt>
   <trkpt lat="39.03169" lon="-0.303713"><ele>104.75</ele></trkpt>
   <trkpt lat="39.031637" lon="-0.30389"><ele>106.5</ele></trkpt>
   <trkpt lat="39.031627" lon="-0.303972"><ele>107</ele></trkpt>
   <trkpt lat="39.031625" lon="-0.304052"><ele>107.25</ele></trkpt>
   <trkpt lat="39.031636" lon="-0.304129"><ele>107.25</ele></trkpt>
   <trkpt lat="39.031653" lon="-0.304201"><ele>107.5</ele></trkpt>
   <trkpt lat="39.031708" lon="-0.304353"><ele>107.25</ele></trkpt>
   <trkpt lat="39.031719" lon="-0.304421"><ele>107.5</ele></trkpt>
   <trkpt lat="39.031709" lon="-0.304491"><ele>108.75</ele></trkpt>
   <trkpt lat="39.031689" lon="-0.304525"><ele>110</ele></trkpt>
   <trkpt lat="39.031648" lon="-0.304546"><ele>111.75</ele></trkpt>
   <trkpt lat="39.031615" lon="-0.30455"><ele>112.75</ele></trkpt>
   <trkpt lat="39.031576" lon="-0.304529"><ele>113.5</ele></trkpt>
   <trkpt lat="39.031525" lon="-0.304478"><ele>113.75</ele></trkpt>
   <trkpt lat="39.031459" lon="-0.304359"><ele>113.5</ele></trkpt>
   <trkpt lat="39.031326" lon="-0.304088"><ele>114</ele></trkpt>
   <trkpt lat="39.031294" lon="-0.303975"><ele>114.25</ele></trkpt>
   <trkpt lat="39.031285" lon="-0.303891"><ele>114</ele></trkpt>
   <trkpt lat="39.031307" lon="-0.303706"><ele>114.25</ele></trkpt>
   <trkpt lat="39.031713" lon="-0.301881"><ele>121.75</ele></trkpt>
   <trkpt lat="39.031721" lon="-0.301823"><ele>121.75</ele></trkpt>
   <trkpt lat="39.031717" lon="-0.301764"><ele>122.25</ele></trkpt>
   <trkpt lat="39.0317" lon="-0.30169"><ele>123.5</ele></trkpt>
   <trkpt lat="39.031668" lon="-0.301621"><ele>124.25</ele></trkpt>
   <trkpt lat="39.031619" lon="-0.301541"><ele>124.5</ele></trkpt>
   <trkpt lat="39.031566" lon="-0.301471"><ele>125</ele></trkpt>
   <trkpt lat="39.031503" lon="-0.301404"><ele>125.75</ele></trkpt>
   <trkpt lat="39.031387" lon="-0.301309"><ele>127.5</ele></trkpt>
   <trkpt lat="39.031054" lon="-0.301069"><ele>129.75</ele></trkpt>
   <trkpt lat="39.030777" lon="-0.30087"><ele>131.25</ele></trkpt>
   <trkpt lat="39.030634" lon="-0.300785"><ele>131</ele></trkpt>
   <trkpt lat="39.030569" lon="-0.300771"><ele>131.25</ele></trkpt>
   <trkpt lat="39.030524" lon="-0.30077"><ele>132.25</ele></trkpt>
   <trkpt lat="39.03049" lon="-0.300793"><ele>133.5</ele></trkpt>
   <trkpt lat="39.030461" lon="-0.300821"><ele>134.75</ele></trkpt>
   <trkpt lat="39.030436" lon="-0.300889"><ele>136.5</ele></trkpt>
   <trkpt lat="39.030444" lon="-0.300958"><ele>137.5</ele></trkpt>
   <trkpt lat="39.030474" lon="-0.301017"><ele>138</ele></trkpt>
   <trkpt lat="39.030718" lon="-0.301159"><ele>137.75</ele></trkpt>
   <trkpt lat="39.030819" lon="-0.301227"><ele>138.5</ele></trkpt>
   <trkpt lat="39.0309" lon="-0.301292"><ele>138.25</ele></trkpt>
   <trkpt lat="39.030977" lon="-0.301367"><ele>138.25</ele></trkpt>
   <trkpt lat="39.031145" lon="-0.301578"><ele>139.25</ele></trkpt>
   <trkpt lat="39.031192" lon="-0.301654"><ele>139.75</ele></trkpt>
   <trkpt lat="39.031216" lon="-0.301719"><ele>139.5</ele></trkpt>
   <trkpt lat="39.031227" lon="-0.301773"><ele>139.5</ele></trkpt>
   <trkpt lat="39.031237" lon="-0.301899"><ele>140</ele></trkpt>
   <trkpt lat="39.031225" lon="-0.301979"><ele>140.75</ele></trkpt>
   <trkpt lat="39.031169" lon="-0.302229"><ele>142</ele></trkpt>
   <trkpt lat="39.031006" lon="-0.30279"><ele>145</ele></trkpt>
   <trkpt lat="39.030924" lon="-0.302972"><ele>145.75</ele></trkpt>
   <trkpt lat="39.030838" lon="-0.303126"><ele>146</ele></trkpt>
   <trkpt lat="39.03056" lon="-0.303522"><ele>149.5</ele></trkpt>
   <trkpt lat="39.030512" lon="-0.303606"><ele>149.5</ele></trkpt>
   <trkpt lat="39.030428" lon="-0.303776"><ele>151</ele></trkpt>
   <trkpt lat="39.030392" lon="-0.303878"><ele>151</ele></trkpt>
   <trkpt lat="39.030374" lon="-0.303952"><ele>152</ele></trkpt>
   <trkpt lat="39.030369" lon="-0.304019"><ele>152.5</ele></trkpt>
   <trkpt lat="39.030375" lon="-0.304084"><ele>152.5</ele></trkpt>
   <trkpt lat="39.030399" lon="-0.304141"><ele>152</ele></trkpt>
   <trkpt lat="39.030437" lon="-0.304206"><ele>152.25</ele></trkpt>
   <trkpt lat="39.030591" lon="-0.304361"><ele>152</ele></trkpt>
   <trkpt lat="39.030636" lon="-0.304423"><ele>152.25</ele></trkpt>
   <trkpt lat="39.030694" lon="-0.304515"><ele>152.5</ele></trkpt>
   <trkpt lat="39.030943" lon="-0.304993"><ele>154.5</ele></trkpt>
   <trkpt lat="39.030958" lon="-0.305034"><ele>154</ele></trkpt>
   <trkpt lat="39.030967" lon="-0.305085"><ele>153.75</ele></trkpt>
   <trkpt lat="39.030961" lon="-0.30514"><ele>154.25</ele></trkpt>
   <trkpt lat="39.030946" lon="-0.305187"><ele>155</ele></trkpt>
   <trkpt lat="39.030921" lon="-0.30524"><ele>156</ele></trkpt>
   <trkpt lat="39.030883" lon="-0.30529"><ele>157.5</ele></trkpt>
   <trkpt lat="39.030832" lon="-0.30535"><ele>158</ele></trkpt>
   <trkpt lat="39.030757" lon="-0.305417"><ele>158.25</ele></trkpt>
   <trkpt lat="39.030677" lon="-0.305468"><ele>159</ele></trkpt>
   <trkpt lat="39.030533" lon="-0.30554"><ele>161</ele></trkpt>
   <trkpt lat="39.030442" lon="-0.305602"><ele>161.75</ele></trkpt>
   <trkpt lat="39.030228" lon="-0.305778"><ele>162.75</ele></trkpt>
   <trkpt lat="39.030167" lon="-0.30582"><ele>162.25</ele></trkpt>
   <trkpt lat="39.030112" lon="-0.305837"><ele>162.75</ele></trkpt>
   <trkpt lat="39.030064" lon="-0.305842"><ele>163.25</ele></trkpt>
   <trkpt lat="39.029909" lon="-0.305839"><ele>167.25</ele></trkpt>
   <trkpt lat="39.029856" lon="-0.305862"><ele>167.75</ele></trkpt>
   <trkpt lat="39.029607" lon="-0.306056"><ele>168.25</ele></trkpt>
   <trkpt lat="39.02938" lon="-0.306163"><ele>170</ele></trkpt>
   <trkpt lat="39.029072" lon="-0.306332"><ele>173.5</ele></trkpt>
   <trkpt lat="39.028909" lon="-0.306429"><ele>174.25</ele></trkpt>
   <trkpt lat="39.028738" lon="-0.306543"><ele>176.75</ele></trkpt>
   <trkpt lat="39.028367" lon="-0.306887"><ele>179.75</ele></trkpt>
   <trkpt lat="39.028235" lon="-0.307014"><ele>181.25</ele></trkpt>
   <trkpt lat="39.028195" lon="-0.307063"><ele>181.75</ele></trkpt>
   <trkpt lat="39.028152" lon="-0.307128"><ele>182</ele></trkpt>
   <trkpt lat="39.028107" lon="-0.307233"><ele>181.25</ele></trkpt>
   <trkpt lat="39.028074" lon="-0.307344"><ele>182.25</ele></trkpt>
   <trkpt lat="39.028052" lon="-0.307505"><ele>183.25</ele></trkpt>
   <trkpt lat="39.028021" lon="-0.307594"><ele>187</ele></trkpt>
   <trkpt lat="39.027994" lon="-0.307615"><ele>188.5</ele></trkpt>
   <trkpt lat="39.027942" lon="-0.307611"><ele>189.5</ele></trkpt>
   <trkpt lat="39.027894" lon="-0.30758"><ele>190</ele></trkpt>
   <trkpt lat="39.027872" lon="-0.307529"><ele>190</ele></trkpt>
   <trkpt lat="39.027889" lon="-0.307381"><ele>191</ele></trkpt>
   <trkpt lat="39.027915" lon="-0.307295"><ele>191</ele></trkpt>
   <trkpt lat="39.027976" lon="-0.307114"><ele>190.75</ele></trkpt>
   <trkpt lat="39.028003" lon="-0.307047"><ele>190.75</ele></trkpt>
   <trkpt lat="39.028035" lon="-0.306991"><ele>190</ele></trkpt>
   <trkpt lat="39.028083" lon="-0.306924"><ele>189.75</ele></trkpt>
   <trkpt lat="39.028226" lon="-0.30679"><ele>190.25</ele></trkpt>
   <trkpt lat="39.028275" lon="-0.306732"><ele>190.75</ele></trkpt>
   <trkpt lat="39.028466" lon="-0.30647"><ele>193</ele></trkpt>
   <trkpt lat="39.028609" lon="-0.306308"><ele>193.5</ele></trkpt>
   <trkpt lat="39.029285" lon="-0.305624"><ele>198</ele></trkpt>
   <trkpt lat="39.029341" lon="-0.305558"><ele>198.5</ele></trkpt>
   <trkpt lat="39.029385" lon="-0.305484"><ele>198.75</ele></trkpt>
   <trkpt lat="39.029446" lon="-0.305316"><ele>200</ele></trkpt>
   <trkpt lat="39.029477" lon="-0.305249"><ele>200.5</ele></trkpt>
   <trkpt lat="39.029573" lon="-0.305109"><ele>200.75</ele></trkpt>
   <trkpt lat="39.029609" lon="-0.305043"><ele>201</ele></trkpt>
   <trkpt lat="39.029634" lon="-0.30496"><ele>201.5</ele></trkpt>
   <trkpt lat="39.029646" lon="-0.304879"><ele>201.5</ele></trkpt>
   <trkpt lat="39.029639" lon="-0.304802"><ele>202</ele></trkpt>
   <trkpt lat="39.029616" lon="-0.304743"><ele>203</ele></trkpt>
   <trkpt lat="39.029472" lon="-0.304526"><ele>205</ele></trkpt>
   <trkpt lat="39.029439" lon="-0.304462"><ele>205.5</ele></trkpt>
   <trkpt lat="39.029415" lon="-0.304383"><ele>206.25</ele></trkpt>
   <trkpt lat="39.02941" lon="-0.304325"><ele>206.5</ele></trkpt>
   <trkpt lat="39.029414" lon="-0.304267"><ele>206.5</ele></trkpt>
   <trkpt lat="39.02943" lon="-0.304187"><ele>205.75</ele></trkpt>
   <trkpt lat="39.029569" lon="-0.303585"><ele>208.5</ele></trkpt>
   <trkpt lat="39.029609" lon="-0.303371"><ele>210.25</ele></trkpt>
   <trkpt lat="39.029617" lon="-0.303278"><ele>210.75</ele></trkpt>
   <trkpt lat="39.029614" lon="-0.303187"><ele>211.5</ele></trkpt>
   <trkpt lat="39.029596" lon="-0.302999"><ele>212.25</ele></trkpt>
   <trkpt lat="39.029581" lon="-0.302904"><ele>212</ele></trkpt>
   <trkpt lat="39.029559" lon="-0.302828"><ele>212.25</ele></trkpt>
   <trkpt lat="39.029493" lon="-0.302655"><ele>212</ele></trkpt>
   <trkpt lat="39.029338" lon="-0.302303"><ele>210.5</ele></trkpt>
   <trkpt lat="39.029303" lon="-0.302264"><ele>211.25</ele></trkpt>
   <trkpt lat="39.029265" lon="-0.302244"><ele>212.25</ele></trkpt>
   <trkpt lat="39.029233" lon="-0.302243"><ele>213.5</ele></trkpt>
   <trkpt lat="39.029203" lon="-0.302268"><ele>215</ele></trkpt>
   <trkpt lat="39.029189" lon="-0.30231"><ele>216</ele></trkpt>
   <trkpt lat="39.029187" lon="-0.302359"><ele>216.75</ele></trkpt>
   <trkpt lat="39.029192" lon="-0.302416"><ele>217.25</ele></trkpt>
   <trkpt lat="39.029229" lon="-0.302526"><ele>217.75</ele></trkpt>
   <trkpt lat="39.029341" lon="-0.302791"><ele>219.75</ele></trkpt>
   <trkpt lat="39.029362" lon="-0.302893"><ele>220</ele></trkpt>
   <trkpt lat="39.029375" lon="-0.303028"><ele>220.75</ele></trkpt>
   <trkpt lat="39.029376" lon="-0.303156"><ele>221.5</ele></trkpt>
   <trkpt lat="39.029374" lon="-0.303278"><ele>222.25</ele></trkpt>
   <trkpt lat="39.029363" lon="-0.303368"><ele>222.25</ele></trkpt>
   <trkpt lat="39.029346" lon="-0.303442"><ele>222.25</ele></trkpt>
   <trkpt lat="39.029285" lon="-0.303613"><ele>223.5</ele></trkpt>
   <trkpt lat="39.029205" lon="-0.303791"><ele>225.25</ele></trkpt>
   <trkpt lat="39.029127" lon="-0.303919"><ele>227</ele></trkpt>
   <trkpt lat="39.028954" lon="-0.304168"><ele>228.25</ele></trkpt>
   <trkpt lat="39.028921" lon="-0.304255"><ele>229.25</ele></trkpt>
   <trkpt lat="39.028906" lon="-0.30434"><ele>229.5</ele></trkpt>
   <trkpt lat="39.028908" lon="-0.304419"><ele>229</ele></trkpt>
   <trkpt lat="39.028934" lon="-0.304685"><ele>229.75</ele></trkpt>
   <trkpt lat="39.028937" lon="-0.304829"><ele>229.75</ele></trkpt>
   <trkpt lat="39.028927" lon="-0.30489"><ele>230</ele></trkpt>
   <trkpt lat="39.028907" lon="-0.304943"><ele>231</ele></trkpt>
   <trkpt lat="39.02888" lon="-0.304976"><ele>232.25</ele></trkpt>
   <trkpt lat="39.028843" lon="-0.304992"><ele>233.75</ele></trkpt>
   <trkpt lat="39.028805" lon="-0.304971"><ele>235.25</ele></trkpt>
   <trkpt lat="39.028782" lon="-0.304923"><ele>236</ele></trkpt>
   <trkpt lat="39.028718" lon="-0.304445"><ele>237.75</ele></trkpt>
   <trkpt lat="39.028715" lon="-0.304379"><ele>238</ele></trkpt>
   <trkpt lat="39.028724" lon="-0.304262"><ele>237.75</ele></trkpt>
   <trkpt lat="39.028784" lon="-0.304054"><ele>238</ele></trkpt>
   <trkpt lat="39.028873" lon="-0.303837"><ele>238.75</ele></trkpt>
   <trkpt lat="39.028892" lon="-0.303763"><ele>238.75</ele></trkpt>
   <trkpt lat="39.028896" lon="-0.303677"><ele>239.25</ele></trkpt>
   <trkpt lat="39.028894" lon="-0.303602"><ele>239.75</ele></trkpt>
   <trkpt lat="39.028871" lon="-0.303512"><ele>240.5</ele></trkpt>
   <trkpt lat="39.028784" lon="-0.303251"><ele>243.25</ele></trkpt>
   <trkpt lat="39.028767" lon="-0.303145"><ele>243.5</ele></trkpt>
   <trkpt lat="39.028734" lon="-0.302797"><ele>243</ele></trkpt>
   <trkpt lat="39.028718" lon="-0.302685"><ele>243</ele></trkpt>
   <trkpt lat="39.028699" lon="-0.302624"><ele>243.25</ele></trkpt>
   <trkpt lat="39.028668" lon="-0.30258"><ele>244.25</ele></trkpt>
   <trkpt lat="39.028632" lon="-0.30256"><ele>245.5</ele></trkpt>
   <trkpt lat="39.028599" lon="-0.302557"><ele>246.75</ele></trkpt>
   <trkpt lat="39.028555" lon="-0.302578"><ele>248.75</ele></trkpt>
   <trkpt lat="39.028521" lon="-0.302631"><ele>250.5</ele></trkpt>
   <trkpt lat="39.028516" lon="-0.302705"><ele>251.25</ele></trkpt>
   <trkpt lat="39.028541" lon="-0.302904"><ele>251.75</ele></trkpt>
   <trkpt lat="39.028543" lon="-0.303045"><ele>252.5</ele></trkpt>
   <trkpt lat="39.028532" lon="-0.303307"><ele>253</ele></trkpt>
   <trkpt lat="39.028514" lon="-0.303435"><ele>254</ele></trkpt>
   <trkpt lat="39.028486" lon="-0.303584"><ele>255.25</ele></trkpt>
   <trkpt lat="39.028372" lon="-0.303973"><ele>255.25</ele></trkpt>
   <trkpt lat="39.028272" lon="-0.30437"><ele>257.75</ele></trkpt>
   <trkpt lat="39.02825" lon="-0.304562"><ele>258.25</ele></trkpt>
   <trkpt lat="39.028247" lon="-0.304666"><ele>258.25</ele></trkpt>
   <trkpt lat="39.028257" lon="-0.30495"><ele>258</ele></trkpt>
   <trkpt lat="39.028254" lon="-0.305017"><ele>258</ele></trkpt>
   <trkpt lat="39.028246" lon="-0.305061"><ele>257.75</ele></trkpt>
   <trkpt lat="39.028236" lon="-0.305093"><ele>257.75</ele></trkpt>
   <trkpt lat="39.028198" lon="-0.305154"><ele>258.75</ele></trkpt>
   <trkpt lat="39.028168" lon="-0.305175"><ele>259.5</ele></trkpt>
   <trkpt lat="39.028144" lon="-0.305182"><ele>260.5</ele></trkpt>
   <trkpt lat="39.028122" lon="-0.305181"><ele>261.25</ele></trkpt>
   <trkpt lat="39.028098" lon="-0.305166"><ele>262.25</ele></trkpt>
   <trkpt lat="39.028082" lon="-0.305145"><ele>263</ele></trkpt>
   <trkpt lat="39.028066" lon="-0.305106"><ele>263.5</ele></trkpt>
   <trkpt lat="39.02806" lon="-0.305025"><ele>263.75</ele></trkpt>
   <trkpt lat="39.028048" lon="-0.304359"><ele>267.5</ele></trkpt>
   <trkpt lat="39.028049" lon="-0.304148"><ele>268.25</ele></trkpt>
   <trkpt lat="39.028061" lon="-0.304051"><ele>268.5</ele></trkpt>
   <trkpt lat="39.028104" lon="-0.303812"><ele>268.25</ele></trkpt>
   <trkpt lat="39.028132" lon="-0.303508"><ele>268.75</ele></trkpt>
   <trkpt lat="39.028134" lon="-0.303421"><ele>268.75</ele></trkpt>
   <trkpt lat="39.028113" lon="-0.303228"><ele>269.5</ele></trkpt>
   <trkpt lat="39.028073" lon="-0.30306"><ele>271.25</ele></trkpt>
   <trkpt lat="39.028038" lon="-0.302952"><ele>271.75</ele></trkpt>
   <trkpt lat="39.027953" lon="-0.302722"><ele>271.5</ele></trkpt>
   <trkpt lat="39.027916" lon="-0.302653"><ele>271.25</ele></trkpt>
   <trkpt lat="39.027881" lon="-0.30261"><ele>271.75</ele></trkpt>
   <trkpt lat="39.027846" lon="-0.302583"><ele>272.25</ele></trkpt>
   <trkpt lat="39.027814" lon="-0.302576"><ele>273</ele></trkpt>
   <trkpt lat="39.027758" lon="-0.302592"><ele>274.25</ele></trkpt>
   <trkpt lat="39.027727" lon="-0.302623"><ele>274.75</ele></trkpt>
   <trkpt lat="39.02771" lon="-0.302666"><ele>275.75</ele></trkpt>
   <trkpt lat="39.027705" lon="-0.302705"><ele>276.5</ele></trkpt>
   <trkpt lat="39.02771" lon="-0.302749"><ele>277.25</ele></trkpt>
   <trkpt lat="39.02772" lon="-0.302779"><ele>277.75</ele></trkpt>
   <trkpt lat="39.027804" lon="-0.302882"><ele>278</ele></trkpt>
   <trkpt lat="39.027842" lon="-0.302953"><ele>278</ele></trkpt>
   <trkpt lat="39.027894" lon="-0.30309"><ele>278</ele></trkpt>
   <trkpt lat="39.027915" lon="-0.303231"><ele>278.25</ele></trkpt>
   <trkpt lat="39.027911" lon="-0.303361"><ele>279</ele></trkpt>
   <trkpt lat="39.02788" lon="-0.303497"><ele>280</ele></trkpt>
   <trkpt lat="39.027828" lon="-0.303642"><ele>281.5</ele></trkpt>
   <trkpt lat="39.027715" lon="-0.303882"><ele>284</ele></trkpt>
   <trkpt lat="39.027672" lon="-0.303991"><ele>284.5</ele></trkpt>
   <trkpt lat="39.027647" lon="-0.304095"><ele>284.75</ele></trkpt>
   <trkpt lat="39.02763" lon="-0.304202"><ele>284.75</ele></trkpt>
   <trkpt lat="39.027604" lon="-0.304479"><ele>285.75</ele></trkpt>
   <trkpt lat="39.027568" lon="-0.304665"><ele>288.25</ele></trkpt>
   <trkpt lat="39.02749" lon="-0.305065"><ele>288.25</ele></trkpt>
   <trkpt lat="39.027453" lon="-0.30523"><ele>289.5</ele></trkpt>
   <trkpt lat="39.027415" lon="-0.305334"><ele>289.5</ele></trkpt>
   <trkpt lat="39.027363" lon="-0.305416"><ele>289.75</ele></trkpt>
   <trkpt lat="39.027298" lon="-0.305485"><ele>290.75</ele></trkpt>
   <trkpt lat="39.026899" lon="-0.305801"><ele>294.5</ele></trkpt>
   <trkpt lat="39.026843" lon="-0.305856"><ele>295</ele></trkpt>
   <trkpt lat="39.026756" lon="-0.306002"><ele>295.5</ele></trkpt>
   <trkpt lat="39.026618" lon="-0.306417"><ele>296.5</ele></trkpt>
   <trkpt lat="39.026573" lon="-0.306512"><ele>296.5</ele></trkpt>
   <trkpt lat="39.026523" lon="-0.306587"><ele>297</ele></trkpt>
   <trkpt lat="39.026448" lon="-0.306662"><ele>298.5</ele></trkpt>
   <trkpt lat="39.026363" lon="-0.306734"><ele>299.5</ele></trkpt>
   <trkpt lat="39.026258" lon="-0.30681"><ele>300.25</ele></trkpt>
   <trkpt lat="39.026148" lon="-0.30687"><ele>301.5</ele></trkpt>
   <trkpt lat="39.025964" lon="-0.306954"><ele>302.75</ele></trkpt>
   <trkpt lat="39.025753" lon="-0.307071"><ele>303.75</ele></trkpt>
   <trkpt lat="39.025702" lon="-0.307111"><ele>304</ele></trkpt>
   <trkpt lat="39.025616" lon="-0.307201"><ele>304.25</ele></trkpt>
   <trkpt lat="39.025555" lon="-0.307288"><ele>305.25</ele></trkpt>
   <trkpt lat="39.025509" lon="-0.307383"><ele>305.75</ele></trkpt>
   <trkpt lat="39.025477" lon="-0.307466"><ele>305.75</ele></trkpt>
   <trkpt lat="39.025466" lon="-0.307544"><ele>306.25</ele></trkpt>
   <trkpt lat="39.02547" lon="-0.307648"><ele>307</ele></trkpt>
   <trkpt lat="39.025511" lon="-0.307948"><ele>307.5</ele></trkpt>
   <trkpt lat="39.025512" lon="-0.308059"><ele>308</ele></trkpt>
   <trkpt lat="39.025503" lon="-0.308151"><ele>308.25</ele></trkpt>
   <trkpt lat="39.025483" lon="-0.308243"><ele>308.75</ele></trkpt>
   <trkpt lat="39.02543" lon="-0.308358"><ele>309.75</ele></trkpt>
   <trkpt lat="39.025266" lon="-0.308603"><ele>311.25</ele></trkpt>
   <trkpt lat="39.025246" lon="-0.308657"><ele>312</ele></trkpt>
   <trkpt lat="39.025233" lon="-0.308715"><ele>312.5</ele></trkpt>
   <trkpt lat="39.025233" lon="-0.308779"><ele>313</ele></trkpt>
   <trkpt lat="39.025248" lon="-0.308846"><ele>313.25</ele></trkpt>
   <trkpt lat="39.025276" lon="-0.308915"><ele>313.5</ele></trkpt>
   <trkpt lat="39.025361" lon="-0.30905"><ele>313.75</ele></trkpt>
   <trkpt lat="39.025467" lon="-0.30918"><ele>314.75</ele></trkpt>
   <trkpt lat="39.025518" lon="-0.309253"><ele>314.75</ele></trkpt>
   <trkpt lat="39.025552" lon="-0.309326"><ele>315.25</ele></trkpt>
   <trkpt lat="39.025578" lon="-0.309398"><ele>315.75</ele></trkpt>
   <trkpt lat="39.025585" lon="-0.309452"><ele>316.25</ele></trkpt>
   <trkpt lat="39.025583" lon="-0.309508"><ele>316</ele></trkpt>
   <trkpt lat="39.025572" lon="-0.309562"><ele>316.25</ele></trkpt>
   <trkpt lat="39.025551" lon="-0.30961"><ele>316.25</ele></trkpt>
   <trkpt lat="39.025476" lon="-0.309679"><ele>317</ele></trkpt>
   <trkpt lat="39.025404" lon="-0.309704"><ele>317.5</ele></trkpt>
   <trkpt lat="39.025266" lon="-0.309738"><ele>319</ele></trkpt>
   <trkpt lat="39.025117" lon="-0.309746"><ele>320.25</ele></trkpt>
   <trkpt lat="39.024973" lon="-0.309724"><ele>321</ele></trkpt>
   <trkpt lat="39.024908" lon="-0.309701"><ele>321.25</ele></trkpt>
   <trkpt lat="39.024758" lon="-0.309635"><ele>321.75</ele></trkpt>
   <trkpt lat="39.024525" lon="-0.309507"><ele>321.25</ele></trkpt>
   <trkpt lat="39.024228" lon="-0.309334"><ele>320</ele></trkpt>
   <trkpt lat="39.024131" lon="-0.309265"><ele>319.75</ele></trkpt>
   <trkpt lat="39.024027" lon="-0.309177"><ele>319.25</ele></trkpt>
   <trkpt lat="39.023934" lon="-0.309085"><ele>319.25</ele></trkpt>
   <trkpt lat="39.023866" lon="-0.309005"><ele>319.5</ele></trkpt>
   <trkpt lat="39.023749" lon="-0.308847"><ele>319.75</ele></trkpt>
   <trkpt lat="39.023702" lon="-0.308732"><ele>319.5</ele></trkpt>
   <trkpt lat="39.023687" lon="-0.308667"><ele>319.5</ele></trkpt>
   <trkpt lat="39.02368" lon="-0.308595"><ele>319.5</ele></trkpt>
   <trkpt lat="39.023684" lon="-0.308507"><ele>319.25</ele></trkpt>
   <trkpt lat="39.023716" lon="-0.308301"><ele>319</ele></trkpt>
   <trkpt lat="39.023726" lon="-0.308166"><ele>318.75</ele></trkpt>
   <trkpt lat="39.023715" lon="-0.308042"><ele>318.75</ele></trkpt>
   <trkpt lat="39.023702" lon="-0.307989"><ele>318.75</ele></trkpt>
   <trkpt lat="39.023677" lon="-0.307924"><ele>318.75</ele></trkpt>
   <trkpt lat="39.02359" lon="-0.30776"><ele>318.75</ele></trkpt>
   <trkpt lat="39.023479" lon="-0.307596"><ele>319.25</ele></trkpt>
   <trkpt lat="39.023365" lon="-0.30745"><ele>319.75</ele></trkpt>
   <trkpt lat="39.023274" lon="-0.307358"><ele>319.75</ele></trkpt>
   <trkpt lat="39.023065" lon="-0.307123"><ele>320</ele></trkpt>
   <trkpt lat="39.022623" lon="-0.306712"><ele>319.5</ele></trkpt>
   <trkpt lat="39.022476" lon="-0.306576"><ele>320</ele></trkpt>
   <trkpt lat="39.022282" lon="-0.306419"><ele>320.25</ele></trkpt>
   <trkpt lat="39.022127" lon="-0.306325"><ele>320.75</ele></trkpt>
   <trkpt lat="39.021793" lon="-0.306166"><ele>320.75</ele></trkpt>
   <trkpt lat="39.020095" lon="-0.305354"><ele>325.25</ele></trkpt>
   <trkpt lat="39.01997" lon="-0.305272"><ele>326</ele></trkpt>
   <trkpt lat="39.019905" lon="-0.30521"><ele>326.5</ele></trkpt>
   <trkpt lat="39.019825" lon="-0.305118"><ele>327.5</ele></trkpt>
   <trkpt lat="39.01965" lon="-0.304919"><ele>329.5</ele></trkpt>
   <trkpt lat="39.019572" lon="-0.304819"><ele>330</ele></trkpt>
   <trkpt lat="39.019319" lon="-0.304499"><ele>332</ele></trkpt>
   <trkpt lat="39.019225" lon="-0.304381"><ele>332.5</ele></trkpt>
   <trkpt lat="39.019191" lon="-0.304348"><ele>332.75</ele></trkpt>
   <trkpt lat="39.019147" lon="-0.304314"><ele>333</ele></trkpt>
   <trkpt lat="39.019092" lon="-0.304288"><ele>333.5</ele></trkpt>
   <trkpt lat="39.019034" lon="-0.304275"><ele>333.75</ele></trkpt>
   <trkpt lat="39.018784" lon="-0.304249"><ele>335</ele></trkpt>
   <trkpt lat="39.018595" lon="-0.304202"><ele>335.5</ele></trkpt>
   <trkpt lat="39.018526" lon="-0.304173"><ele>335.75</ele></trkpt>
   <trkpt lat="39.018059" lon="-0.303926"><ele>338.5</ele></trkpt>
   <trkpt lat="39.01767" lon="-0.303731"><ele>340.25</ele></trkpt>
   <trkpt lat="39.017622" lon="-0.303699"><ele>340</ele></trkpt>
   <trkpt lat="39.017504" lon="-0.303596"><ele>340.25</ele></trkpt>
   <trkpt lat="39.017327" lon="-0.303396"><ele>340.5</ele></trkpt>
   <trkpt lat="39.016917" lon="-0.302841"><ele>341</ele></trkpt>
   <trkpt lat="39.01686" lon="-0.302725"><ele>341.25</ele></trkpt>
   <trkpt lat="39.016749" lon="-0.302455"><ele>342</ele></trkpt>
   <trkpt lat="39.016701" lon="-0.302353"><ele>342.5</ele></trkpt>
   <trkpt lat="39.016627" lon="-0.302247"><ele>343.25</ele></trkpt>
   <trkpt lat="39.016578" lon="-0.302188"><ele>343.25</ele></trkpt>
   <trkpt lat="39.016451" lon="-0.302038"><ele>343.5</ele></trkpt>
   <trkpt lat="39.016311" lon="-0.301903"><ele>343.75</ele></trkpt>
   <trkpt lat="39.016161" lon="-0.301798"><ele>343.75</ele></trkpt>
   <trkpt lat="39.01603" lon="-0.301736"><ele>344</ele></trkpt>
   <trkpt lat="39.015907" lon="-0.30172"><ele>344.75</ele></trkpt>
   <trkpt lat="39.015795" lon="-0.301725"><ele>345.25</ele></trkpt>
   <trkpt lat="39.015702" lon="-0.301739"><ele>345.5</ele></trkpt>
   <trkpt lat="39.015626" lon="-0.301778"><ele>345</ele></trkpt>
   <trkpt lat="39.015513" lon="-0.30187"><ele>344</ele></trkpt>
   <trkpt lat="39.01534" lon="-0.302049"><ele>342</ele></trkpt>
   <trkpt lat="39.015199" lon="-0.301857"><ele>344.25</ele></trkpt>
   <trkpt lat="39.015072" lon="-0.301665"><ele>346.25</ele></trkpt>
   <trkpt lat="39.015017" lon="-0.301575"><ele>347.5</ele></trkpt>
   <trkpt lat="39.014874" lon="-0.301404"><ele>350.5</ele></trkpt>
   <trkpt lat="39.014833" lon="-0.301354"><ele>351</ele></trkpt>
   <trkpt lat="39.014585" lon="-0.301071"><ele>350.5</ele></trkpt>
   <trkpt lat="39.014508" lon="-0.301032"><ele>350.75</ele></trkpt>
   <trkpt lat="39.014073" lon="-0.300942"><ele>351</ele></trkpt>
   <trkpt lat="39.013143" lon="-0.300772"><ele>347</ele></trkpt>
   <trkpt lat="39.013099" lon="-0.300756"><ele>346.75</ele></trkpt>
   <trkpt lat="39.013063" lon="-0.30073"><ele>346.75</ele></trkpt>
   <trkpt lat="39.012314" lon="-0.300087"><ele>343</ele></trkpt>
   <trkpt lat="39.012215" lon="-0.30002"><ele>342.75</ele></trkpt>
   <trkpt lat="39.012151" lon="-0.299995"><ele>342.25</ele></trkpt>
   <trkpt lat="39.011864" lon="-0.299978"><ele>341</ele></trkpt>
   <trkpt lat="39.011707" lon="-0.299975"><ele>341</ele></trkpt>
   <trkpt lat="39.011389" lon="-0.300009"><ele>340.75</ele></trkpt>
   <trkpt lat="39.011363" lon="-0.300023"><ele>341</ele></trkpt>
   <trkpt lat="39.011313" lon="-0.300034"><ele>341</ele></trkpt>
   <trkpt lat="39.011279" lon="-0.300023"><ele>341.25</ele></trkpt>
   <trkpt lat="39.011255" lon="-0.300012"><ele>341.25</ele></trkpt>
   <trkpt lat="39.011222" lon="-0.299982"><ele>341.5</ele></trkpt>
   <trkpt lat="39.011196" lon="-0.299941"><ele>341.75</ele></trkpt>
   <trkpt lat="39.010891" lon="-0.299714"><ele>342.75</ele></trkpt>
   <trkpt lat="39.009963" lon="-0.298936"><ele>345.75</ele></trkpt>
   <trkpt lat="39.009707" lon="-0.298721"><ele>347.5</ele></trkpt>
   <trkpt lat="39.009507" lon="-0.298563"><ele>348</ele></trkpt>
   <trkpt lat="39.009266" lon="-0.298396"><ele>348.25</ele></trkpt>
   <trkpt lat="39.009073" lon="-0.29828"><ele>349</ele></trkpt>
   <trkpt lat="39.008575" lon="-0.298043"><ele>351</ele></trkpt>
   <trkpt lat="39.008348" lon="-0.297933"><ele>352.25</ele></trkpt>
   <trkpt lat="39.008236" lon="-0.297866"><ele>352.75</ele></trkpt>
   <trkpt lat="39.008135" lon="-0.297785"><ele>353</ele></trkpt>
   <trkpt lat="39.008036" lon="-0.297671"><ele>353.75</ele></trkpt>
   <trkpt lat="39.007996" lon="-0.297608"><ele>354</ele></trkpt>
   <trkpt lat="39.007921" lon="-0.29744"><ele>354.75</ele></trkpt>
   <trkpt lat="39.00789" lon="-0.297314"><ele>355.5</ele></trkpt>
   <trkpt lat="39.00787" lon="-0.297183"><ele>356</ele></trkpt>
   <trkpt lat="39.007867" lon="-0.297082"><ele>356.25</ele></trkpt>
   <trkpt lat="39.007878" lon="-0.29696"><ele>357</ele></trkpt>
   <trkpt lat="39.007889" lon="-0.296896"><ele>357</ele></trkpt>
   <trkpt lat="39.007928" lon="-0.296744"><ele>357</ele></trkpt>
   <trkpt lat="39.008009" lon="-0.296448"><ele>356.75</ele></trkpt>
   <trkpt lat="39.008038" lon="-0.296316"><ele>356.75</ele></trkpt>
   <trkpt lat="39.008057" lon="-0.296195"><ele>357</ele></trkpt>
   <trkpt lat="39.008066" lon="-0.296103"><ele>357</ele></trkpt>
   <trkpt lat="39.008065" lon="-0.295964"><ele>357.5</ele></trkpt>
   <trkpt lat="39.008053" lon="-0.29581"><ele>358</ele></trkpt>
   <trkpt lat="39.00803" lon="-0.295689"><ele>358.25</ele></trkpt>
   <trkpt lat="39.007978" lon="-0.295502"><ele>358.75</ele></trkpt>
   <trkpt lat="39.007634" lon="-0.294462"><ele>361.75</ele></trkpt>
   <trkpt lat="39.007204" lon="-0.293161"><ele>365.25</ele></trkpt>
   <trkpt lat="39.007042" lon="-0.292683"><ele>365.75</ele></trkpt>
   <trkpt lat="39.006988" lon="-0.292513"><ele>366</ele></trkpt>
   <trkpt lat="39.006603" lon="-0.291348"><ele>366.75</ele></trkpt>
   <trkpt lat="39.006557" lon="-0.291209"><ele>366.75</ele></trkpt>
   <trkpt lat="39.006545" lon="-0.291176"><ele>366.75</ele></trkpt>
   <trkpt lat="39.00637" lon="-0.290643"><ele>367</ele></trkpt>
   <trkpt lat="39.006051" lon="-0.289684"><ele>368</ele></trkpt>
   <trkpt lat="39.005992" lon="-0.289495"><ele>368.75</ele></trkpt>
   <trkpt lat="39.005891" lon="-0.289196"><ele>369</ele></trkpt>
   <trkpt lat="39.00584" lon="-0.289035"><ele>369</ele></trkpt>
   <trkpt lat="39.005536" lon="-0.288125"><ele>370.75</ele></trkpt>
   <trkpt lat="39.004872" lon="-0.286114"><ele>375.5</ele></trkpt>
   <trkpt lat="39.004828" lon="-0.285989"><ele>375.5</ele></trkpt>
   <trkpt lat="39.004217" lon="-0.284145"><ele>380</ele></trkpt>
   <trkpt lat="39.004169" lon="-0.283995"><ele>380</ele></trkpt>
   <trkpt lat="39.00413" lon="-0.283887"><ele>379.75</ele></trkpt>
   <trkpt lat="39.004026" lon="-0.283568"><ele>380.5</ele></trkpt>
   <trkpt lat="39.003753" lon="-0.282716"><ele>380.25</ele></trkpt>
   <trkpt lat="39.003341" lon="-0.281431"><ele>380</ele></trkpt>
   <trkpt lat="39.002848" lon="-0.279917"><ele>378.5</ele></trkpt>
   <trkpt lat="39.002801" lon="-0.279773"><ele>378.75</ele></trkpt>
   <trkpt lat="39.002757" lon="-0.27964"><ele>379</ele></trkpt>
   <trkpt lat="39.002261" lon="-0.278141"><ele>381.75</ele></trkpt>
   <trkpt lat="39.001898" lon="-0.277045"><ele>385</ele></trkpt>
   <trkpt lat="39.001797" lon="-0.276715"><ele>385.5</ele></trkpt>
   
  </trkseg>
 </trk>
</gpx>
