<?xml version="1.0" encoding="UTF-8"?>
<!-- track-length = 11394 filtered ascend = 746 plain-ascend = 675 cost=37424 energy=0.2kwh time=1h 51m 7s -->
<gpx 
 xmlns="http://www.topografix.com/GPX/1/1" 
 xmlns:xsi="http://www.w3.org/2001/XMLSchema-instance" 
 xsi:schemaLocation="http://www.topografix.com/GPX/1/1 http://www.topografix.com/GPX/1/1/gpx.xsd" 
 version="1.1" 
 creator="BRouter-Web 0.18.1">
 <trk>
  <name>Puerto el Bartalo</name>
  <trkseg>
   <trkpt lat="40.056414" lon="0.067972"><ele>10</ele></trkpt>
   <trkpt lat="40.056435" lon="0.067966"><ele>10</ele></trkpt>
   <trkpt lat="40.056475" lon="0.067926"><ele>10</ele></trkpt>
   <trkpt lat="40.056484" lon="0.067858"><ele>10</ele></trkpt>
   <trkpt lat="40.056481" lon="0.067784"><ele>10</ele></trkpt>
   <trkpt lat="40.056465" lon="0.067663"><ele>10.25</ele></trkpt>
   <trkpt lat="40.056416" lon="0.067436"><ele>11</ele></trkpt>
   <trkpt lat="40.056425" lon="0.067364"><ele>11</ele></trkpt>
   <trkpt lat="40.056426" lon="0.067253"><ele>11</ele></trkpt>
   <trkpt lat="40.056417" lon="0.067082"><ele>11</ele></trkpt>
   <trkpt lat="40.056386" lon="0.066684"><ele>11</ele></trkpt>
   <trkpt lat="40.056382" lon="0.066639"><ele>11</ele></trkpt>
   <trkpt lat="40.056372" lon="0.066507"><ele>11.5</ele></trkpt>
   <trkpt lat="40.056329" lon="0.065954"><ele>12.5</ele></trkpt>
   <trkpt lat="40.05631" lon="0.065806"><ele>13</ele></trkpt>
   <trkpt lat="40.056375" lon="0.065711"><ele>13</ele></trkpt>
   <trkpt lat="40.056408" lon="0.065663"><ele>13</ele></trkpt>
   <trkpt lat="40.056243" lon="0.065585"><ele>13</ele></trkpt>
   <trkpt lat="40.05615" lon="0.065468"><ele>13</ele></trkpt>
   <trkpt lat="40.056047" lon="0.065339"><ele>13</ele></trkpt>
   <trkpt lat="40.055868" lon="0.065119"><ele>14</ele></trkpt>
   <trkpt lat="40.05582" lon="0.065059"><ele>14</ele></trkpt>
   <trkpt lat="40.055612" lon="0.064702"><ele>14</ele></trkpt>
   <trkpt lat="40.055498" lon="0.06449"><ele>14</ele></trkpt>
   <trkpt lat="40.055465" lon="0.064423"><ele>14.25</ele></trkpt>
   <trkpt lat="40.05545" lon="0.064393"><ele>14.25</ele></trkpt>
   <trkpt lat="40.055435" lon="0.064365"><ele>14.5</ele></trkpt>
   <trkpt lat="40.055381" lon="0.06426"><ele>14.75</ele></trkpt>
   <trkpt lat="40.055321" lon="0.064148"><ele>15</ele></trkpt>
   <trkpt lat="40.054813" lon="0.063264"><ele>16</ele></trkpt>
   <trkpt lat="40.054778" lon="0.063202"><ele>16.25</ele></trkpt>
   <trkpt lat="40.05469" lon="0.06305"><ele>17</ele></trkpt>
   <trkpt lat="40.054521" lon="0.062756"><ele>17</ele></trkpt>
   <trkpt lat="40.054488" lon="0.062699"><ele>17</ele></trkpt>
   <trkpt lat="40.05421" lon="0.062215"><ele>18.75</ele></trkpt>
   <trkpt lat="40.05407" lon="0.061972"><ele>19</ele></trkpt>
   <trkpt lat="40.054052" lon="0.06194"><ele>19</ele></trkpt>
   <trkpt lat="40.054015" lon="0.061875"><ele>19.25</ele></trkpt>
   <trkpt lat="40.053701" lon="0.061343"><ele>20.5</ele></trkpt>
   <trkpt lat="40.05365" lon="0.061257"><ele>20.75</ele></trkpt>
   <trkpt lat="40.053607" lon="0.061184"><ele>20.75</ele></trkpt>
   <trkpt lat="40.053274" lon="0.06062"><ele>20.75</ele></trkpt>
   <trkpt lat="40.053241" lon="0.060564"><ele>20.75</ele></trkpt>
   <trkpt lat="40.053186" lon="0.06047"><ele>21.25</ele></trkpt>
   <trkpt lat="40.05296" lon="0.060087"><ele>22</ele></trkpt>
   <trkpt lat="40.052892" lon="0.059972"><ele>22</ele></trkpt>
   <trkpt lat="40.052913" lon="0.059947"><ele>22.5</ele></trkpt>
   <trkpt lat="40.053013" lon="0.059832"><ele>22.5</ele></trkpt>
   <trkpt lat="40.053603" lon="0.059153"><ele>24.75</ele></trkpt>
   <trkpt lat="40.053647" lon="0.059103"><ele>25</ele></trkpt>
   <trkpt lat="40.053822" lon="0.0589"><ele>25.5</ele></trkpt>
   <trkpt lat="40.053936" lon="0.058747"><ele>26</ele></trkpt>
   <trkpt lat="40.054167" lon="0.058294"><ele>24.5</ele></trkpt>
   <trkpt lat="40.054246" lon="0.058123"><ele>26.5</ele></trkpt>
   <trkpt lat="40.054279" lon="0.058023"><ele>26.5</ele></trkpt>
   <trkpt lat="40.054338" lon="0.057862"><ele>26.25</ele></trkpt>
   <trkpt lat="40.054371" lon="0.057683"><ele>27</ele></trkpt>
   <trkpt lat="40.054382" lon="0.057507"><ele>27.75</ele></trkpt>
   <trkpt lat="40.054396" lon="0.057199"><ele>29</ele></trkpt>
   <trkpt lat="40.054408" lon="0.056879"><ele>29.25</ele></trkpt>
   <trkpt lat="40.054455" lon="0.055695"><ele>32.25</ele></trkpt>
   <trkpt lat="40.054464" lon="0.055486"><ele>32.25</ele></trkpt>
   <trkpt lat="40.054482" lon="0.055012"><ele>33</ele></trkpt>
   <trkpt lat="40.054515" lon="0.054119"><ele>35</ele></trkpt>
   <trkpt lat="40.054518" lon="0.053842"><ele>36</ele></trkpt>
   <trkpt lat="40.054526" lon="0.052971"><ele>39.25</ele></trkpt>
   <trkpt lat="40.054538" lon="0.052484"><ele>40.75</ele></trkpt>
   <trkpt lat="40.054563" lon="0.051937"><ele>39.25</ele></trkpt>
   <trkpt lat="40.054596" lon="0.05112"><ele>43</ele></trkpt>
   <trkpt lat="40.054624" lon="0.050969"><ele>43.75</ele></trkpt>
   <trkpt lat="40.054659" lon="0.050955"><ele>44</ele></trkpt>
   <trkpt lat="40.054693" lon="0.050905"><ele>44.5</ele></trkpt>
   <trkpt lat="40.054698" lon="0.050845"><ele>44.75</ele></trkpt>
   <trkpt lat="40.054669" lon="0.050782"><ele>44.75</ele></trkpt>
   <trkpt lat="40.054656" lon="0.050655"><ele>45</ele></trkpt>
   <trkpt lat="40.05466" lon="0.050506"><ele>45.5</ele></trkpt>
   <trkpt lat="40.05468" lon="0.050247"><ele>46.75</ele></trkpt>
   <trkpt lat="40.054714" lon="0.049419"><ele>49</ele></trkpt>
   <trkpt lat="40.054715" lon="0.049398"><ele>49</ele></trkpt>
   <trkpt lat="40.054764" lon="0.04822"><ele>53.75</ele></trkpt>
   <trkpt lat="40.054804" lon="0.047367"><ele>58.5</ele></trkpt>
   <trkpt lat="40.054836" lon="0.047183"><ele>60</ele></trkpt>
   <trkpt lat="40.054885" lon="0.047039"><ele>61</ele></trkpt>
   <trkpt lat="40.054964" lon="0.046885"><ele>62</ele></trkpt>
   <trkpt lat="40.055451" lon="0.045996"><ele>67.25</ele></trkpt>
   <trkpt lat="40.055505" lon="0.045909"><ele>67.5</ele></trkpt>
   <trkpt lat="40.055569" lon="0.045822"><ele>68</ele></trkpt>
   <trkpt lat="40.055628" lon="0.045767"><ele>68</ele></trkpt>
   <trkpt lat="40.055729" lon="0.045691"><ele>68.25</ele></trkpt>
   <trkpt lat="40.055863" lon="0.04561"><ele>68.75</ele></trkpt>
   <trkpt lat="40.056413" lon="0.045324"><ele>72</ele></trkpt>
   <trkpt lat="40.056542" lon="0.045264"><ele>71.75</ele></trkpt>
   <trkpt lat="40.056753" lon="0.045204"><ele>71.5</ele></trkpt>
   <trkpt lat="40.056842" lon="0.045189"><ele>71.5</ele></trkpt>
   <trkpt lat="40.056934" lon="0.045184"><ele>71.75</ele></trkpt>
   <trkpt lat="40.057027" lon="0.045195"><ele>71.75</ele></trkpt>
   <trkpt lat="40.057133" lon="0.045229"><ele>72.75</ele></trkpt>
   <trkpt lat="40.057641" lon="0.045435"><ele>76</ele></trkpt>
   <trkpt lat="40.057782" lon="0.045513"><ele>75</ele></trkpt>
   <trkpt lat="40.058537" lon="0.045976"><ele>80.5</ele></trkpt>
   <trkpt lat="40.058636" lon="0.046031"><ele>80.25</ele></trkpt>
   <trkpt lat="40.058735" lon="0.046064"><ele>80.75</ele></trkpt>
   <trkpt lat="40.058834" lon="0.04607"><ele>81</ele></trkpt>
   <trkpt lat="40.058931" lon="0.04606"><ele>80.75</ele></trkpt>
   <trkpt lat="40.059022" lon="0.046025"><ele>80.75</ele></trkpt>
   <trkpt lat="40.059114" lon="0.045979"><ele>81.25</ele></trkpt>
   <trkpt lat="40.059631" lon="0.045636"><ele>84.75</ele></trkpt>
   <trkpt lat="40.060256" lon="0.045216"><ele>90.25</ele></trkpt>
   <trkpt lat="40.060904" lon="0.044791"><ele>96.5</ele></trkpt>
   <trkpt lat="40.06116" lon="0.044661"><ele>98</ele></trkpt>
   <trkpt lat="40.061469" lon="0.044542"><ele>100.75</ele></trkpt>
   <trkpt lat="40.061905" lon="0.044396"><ele>102.25</ele></trkpt>
   <trkpt lat="40.062022" lon="0.044334"><ele>102</ele></trkpt>
   <trkpt lat="40.062281" lon="0.044146"><ele>106</ele></trkpt>
   <trkpt lat="40.062393" lon="0.044053"><ele>106</ele></trkpt>
   <trkpt lat="40.062485" lon="0.043969"><ele>107.5</ele></trkpt>
   <trkpt lat="40.062569" lon="0.043873"><ele>108.5</ele></trkpt>
   <trkpt lat="40.062632" lon="0.043759"><ele>108.75</ele></trkpt>
   <trkpt lat="40.062699" lon="0.043608"><ele>109.75</ele></trkpt>
   <trkpt lat="40.062814" lon="0.043267"><ele>111</ele></trkpt>
   <trkpt lat="40.06286" lon="0.043158"><ele>111.25</ele></trkpt>
   <trkpt lat="40.062983" lon="0.042955"><ele>113.5</ele></trkpt>
   <trkpt lat="40.063081" lon="0.042834"><ele>114.25</ele></trkpt>
   <trkpt lat="40.063166" lon="0.042745"><ele>115</ele></trkpt>
   <trkpt lat="40.063275" lon="0.042655"><ele>115.75</ele></trkpt>
   <trkpt lat="40.06391" lon="0.042236"><ele>120.25</ele></trkpt>
   <trkpt lat="40.064057" lon="0.042162"><ele>121.25</ele></trkpt>
   <trkpt lat="40.064383" lon="0.042087"><ele>126</ele></trkpt>
   <trkpt lat="40.064471" lon="0.042056"><ele>127</ele></trkpt>
   <trkpt lat="40.06456" lon="0.042003"><ele>127</ele></trkpt>
   <trkpt lat="40.064934" lon="0.041743"><ele>130</ele></trkpt>
   <trkpt lat="40.065285" lon="0.041529"><ele>131</ele></trkpt>
   <trkpt lat="40.065587" lon="0.04135"><ele>133.25</ele></trkpt>
   <trkpt lat="40.065691" lon="0.041296"><ele>133.75</ele></trkpt>
   <trkpt lat="40.065808" lon="0.04128"><ele>135.5</ele></trkpt>
   <trkpt lat="40.066086" lon="0.041278"><ele>138.5</ele></trkpt>
   <trkpt lat="40.066171" lon="0.041267"><ele>140.25</ele></trkpt>
   <trkpt lat="40.066246" lon="0.041238"><ele>141.25</ele></trkpt>
   <trkpt lat="40.066318" lon="0.041182"><ele>141.75</ele></trkpt>
   <trkpt lat="40.066732" lon="0.040782"><ele>145.75</ele></trkpt>
   <trkpt lat="40.066803" lon="0.040724"><ele>146.25</ele></trkpt>
   <trkpt lat="40.066883" lon="0.040678"><ele>147.5</ele></trkpt>
   <trkpt lat="40.066985" lon="0.040635"><ele>148.75</ele></trkpt>
   <trkpt lat="40.067146" lon="0.040588"><ele>149.25</ele></trkpt>
   <trkpt lat="40.06816" lon="0.040357"><ele>159.25</ele></trkpt>
   <trkpt lat="40.068385" lon="0.040308"><ele>161.25</ele></trkpt>
   <trkpt lat="40.068536" lon="0.040292"><ele>162.5</ele></trkpt>
   <trkpt lat="40.068665" lon="0.0403"><ele>164</ele></trkpt>
   <trkpt lat="40.068792" lon="0.04032"><ele>165.25</ele></trkpt>
   <trkpt lat="40.069182" lon="0.040445"><ele>168.25</ele></trkpt>
   <trkpt lat="40.06928" lon="0.040467"><ele>168.5</ele></trkpt>
   <trkpt lat="40.069391" lon="0.04048"><ele>171</ele></trkpt>
   <trkpt lat="40.069507" lon="0.040476"><ele>173.75</ele></trkpt>
   <trkpt lat="40.069631" lon="0.040461"><ele>176.75</ele></trkpt>
   <trkpt lat="40.070031" lon="0.040375"><ele>176.75</ele></trkpt>
   <trkpt lat="40.070227" lon="0.040359"><ele>179</ele></trkpt>
   <trkpt lat="40.070405" lon="0.040357"><ele>180</ele></trkpt>
   <trkpt lat="40.070599" lon="0.040368"><ele>181.5</ele></trkpt>
   <trkpt lat="40.071115" lon="0.040438"><ele>187.75</ele></trkpt>
   <trkpt lat="40.071226" lon="0.040422"><ele>189.75</ele></trkpt>
   <trkpt lat="40.071285" lon="0.040398"><ele>190.25</ele></trkpt>
   <trkpt lat="40.071341" lon="0.040359"><ele>190</ele></trkpt>
   <trkpt lat="40.071457" lon="0.040244"><ele>190.75</ele></trkpt>
   <trkpt lat="40.071612" lon="0.040043"><ele>192</ele></trkpt>
   <trkpt lat="40.071669" lon="0.039986"><ele>192.5</ele></trkpt>
   <trkpt lat="40.071727" lon="0.03994"><ele>193</ele></trkpt>
   <trkpt lat="40.071826" lon="0.039881"><ele>194.5</ele></trkpt>
   <trkpt lat="40.072351" lon="0.039652"><ele>197.25</ele></trkpt>
   <trkpt lat="40.07244" lon="0.039637"><ele>197.5</ele></trkpt>
   <trkpt lat="40.072514" lon="0.039661"><ele>198.75</ele></trkpt>
   <trkpt lat="40.072547" lon="0.039691"><ele>199.5</ele></trkpt>
   <trkpt lat="40.072575" lon="0.039732"><ele>200.5</ele></trkpt>
   <trkpt lat="40.072598" lon="0.039784"><ele>201</ele></trkpt>
   <trkpt lat="40.072613" lon="0.039834"><ele>201.5</ele></trkpt>
   <trkpt lat="40.072622" lon="0.039903"><ele>202.25</ele></trkpt>
   <trkpt lat="40.072617" lon="0.039999"><ele>203.5</ele></trkpt>
   <trkpt lat="40.072603" lon="0.040047"><ele>204.25</ele></trkpt>
   <trkpt lat="40.072577" lon="0.040098"><ele>205</ele></trkpt>
   <trkpt lat="40.072544" lon="0.040134"><ele>205.75</ele></trkpt>
   <trkpt lat="40.072486" lon="0.040177"><ele>206.5</ele></trkpt>
   <trkpt lat="40.072426" lon="0.040197"><ele>207</ele></trkpt>
   <trkpt lat="40.072367" lon="0.040203"><ele>207.5</ele></trkpt>
   <trkpt lat="40.072104" lon="0.040176"><ele>207.25</ele></trkpt>
   <trkpt lat="40.072043" lon="0.040189"><ele>207.25</ele></trkpt>
   <trkpt lat="40.071971" lon="0.04024"><ele>208</ele></trkpt>
   <trkpt lat="40.071943" lon="0.040281"><ele>209</ele></trkpt>
   <trkpt lat="40.07192" lon="0.040332"><ele>209</ele></trkpt>
   <trkpt lat="40.071908" lon="0.040386"><ele>209.75</ele></trkpt>
   <trkpt lat="40.071909" lon="0.040453"><ele>210.5</ele></trkpt>
   <trkpt lat="40.071918" lon="0.040504"><ele>211.25</ele></trkpt>
   <trkpt lat="40.071941" lon="0.040573"><ele>212.75</ele></trkpt>
   <trkpt lat="40.071978" lon="0.04062"><ele>215</ele></trkpt>
   <trkpt lat="40.072016" lon="0.040657"><ele>216.75</ele></trkpt>
   <trkpt lat="40.07206" lon="0.040682"><ele>217.75</ele></trkpt>
   <trkpt lat="40.072105" lon="0.040692"><ele>218</ele></trkpt>
   <trkpt lat="40.072153" lon="0.040691"><ele>218</ele></trkpt>
   <trkpt lat="40.072204" lon="0.040679"><ele>217.5</ele></trkpt>
   <trkpt lat="40.072254" lon="0.040653"><ele>217</ele></trkpt>
   <trkpt lat="40.072464" lon="0.040503"><ele>214.25</ele></trkpt>
   <trkpt lat="40.072504" lon="0.040483"><ele>213.75</ele></trkpt>
   <trkpt lat="40.072544" lon="0.040473"><ele>213.5</ele></trkpt>
   <trkpt lat="40.072595" lon="0.040484"><ele>214</ele></trkpt>
   <trkpt lat="40.072634" lon="0.040502"><ele>214.75</ele></trkpt>
   <trkpt lat="40.07268" lon="0.040537"><ele>216</ele></trkpt>
   <trkpt lat="40.072727" lon="0.040603"><ele>217.25</ele></trkpt>
   <trkpt lat="40.072754" lon="0.040657"><ele>217.75</ele></trkpt>
   <trkpt lat="40.072772" lon="0.040718"><ele>218.5</ele></trkpt>
   <trkpt lat="40.072776" lon="0.040796"><ele>219.5</ele></trkpt>
   <trkpt lat="40.072765" lon="0.040868"><ele>220.5</ele></trkpt>
   <trkpt lat="40.072743" lon="0.04093"><ele>221.75</ele></trkpt>
   <trkpt lat="40.072702" lon="0.040987"><ele>222.75</ele></trkpt>
   <trkpt lat="40.072646" lon="0.041035"><ele>223.25</ele></trkpt>
   <trkpt lat="40.072583" lon="0.041057"><ele>223.25</ele></trkpt>
   <trkpt lat="40.072509" lon="0.041065"><ele>223</ele></trkpt>
   <trkpt lat="40.072432" lon="0.04105"><ele>223.5</ele></trkpt>
   <trkpt lat="40.072121" lon="0.040958"><ele>225.75</ele></trkpt>
   <trkpt lat="40.072022" lon="0.040938"><ele>226.75</ele></trkpt>
   <trkpt lat="40.071941" lon="0.04093"><ele>227.75</ele></trkpt>
   <trkpt lat="40.071864" lon="0.040941"><ele>227.25</ele></trkpt>
   <trkpt lat="40.07178" lon="0.040977"><ele>227.5</ele></trkpt>
   <trkpt lat="40.071312" lon="0.041228"><ele>230.25</ele></trkpt>
   <trkpt lat="40.071272" lon="0.041255"><ele>230.25</ele></trkpt>
   <trkpt lat="40.071246" lon="0.041282"><ele>230.75</ele></trkpt>
   <trkpt lat="40.071207" lon="0.041341"><ele>232</ele></trkpt>
   <trkpt lat="40.071183" lon="0.041403"><ele>232.75</ele></trkpt>
   <trkpt lat="40.071175" lon="0.041453"><ele>232.5</ele></trkpt>
   <trkpt lat="40.071169" lon="0.041519"><ele>232.25</ele></trkpt>
   <trkpt lat="40.071175" lon="0.041581"><ele>232</ele></trkpt>
   <trkpt lat="40.071195" lon="0.041662"><ele>232.25</ele></trkpt>
   <trkpt lat="40.071302" lon="0.041932"><ele>228.75</ele></trkpt>
   <trkpt lat="40.071326" lon="0.042029"><ele>230</ele></trkpt>
   <trkpt lat="40.071336" lon="0.042124"><ele>231.5</ele></trkpt>
   <trkpt lat="40.07134" lon="0.042411"><ele>234.75</ele></trkpt>
   <trkpt lat="40.071362" lon="0.042486"><ele>236</ele></trkpt>
   <trkpt lat="40.071387" lon="0.042542"><ele>237.25</ele></trkpt>
   <trkpt lat="40.071415" lon="0.042585"><ele>238.25</ele></trkpt>
   <trkpt lat="40.071466" lon="0.04263"><ele>239.5</ele></trkpt>
   <trkpt lat="40.071528" lon="0.042667"><ele>240.5</ele></trkpt>
   <trkpt lat="40.071593" lon="0.042689"><ele>241.25</ele></trkpt>
   <trkpt lat="40.071646" lon="0.042691"><ele>242</ele></trkpt>
   <trkpt lat="40.071696" lon="0.04268"><ele>242.75</ele></trkpt>
   <trkpt lat="40.071746" lon="0.042651"><ele>243.5</ele></trkpt>
   <trkpt lat="40.071793" lon="0.042612"><ele>243.75</ele></trkpt>
   <trkpt lat="40.071843" lon="0.042558"><ele>243.5</ele></trkpt>
   <trkpt lat="40.07188" lon="0.042502"><ele>243</ele></trkpt>
   <trkpt lat="40.07191" lon="0.04244"><ele>242.25</ele></trkpt>
   <trkpt lat="40.071926" lon="0.042369"><ele>241.75</ele></trkpt>
   <trkpt lat="40.071926" lon="0.042288"><ele>241.25</ele></trkpt>
   <trkpt lat="40.071915" lon="0.042197"><ele>241</ele></trkpt>
   <trkpt lat="40.071895" lon="0.042106"><ele>242</ele></trkpt>
   <trkpt lat="40.071818" lon="0.041864"><ele>242.5</ele></trkpt>
   <trkpt lat="40.071794" lon="0.041765"><ele>243.75</ele></trkpt>
   <trkpt lat="40.071785" lon="0.041699"><ele>245</ele></trkpt>
   <trkpt lat="40.071786" lon="0.041637"><ele>245.75</ele></trkpt>
   <trkpt lat="40.071794" lon="0.041585"><ele>245.5</ele></trkpt>
   <trkpt lat="40.071818" lon="0.041525"><ele>245.25</ele></trkpt>
   <trkpt lat="40.071846" lon="0.04148"><ele>245.25</ele></trkpt>
   <trkpt lat="40.071876" lon="0.041449"><ele>245.25</ele></trkpt>
   <trkpt lat="40.071912" lon="0.041427"><ele>245.25</ele></trkpt>
   <trkpt lat="40.071958" lon="0.041414"><ele>245.25</ele></trkpt>
   <trkpt lat="40.072016" lon="0.041415"><ele>245</ele></trkpt>
   <trkpt lat="40.072078" lon="0.04143"><ele>245</ele></trkpt>
   <trkpt lat="40.072142" lon="0.041456"><ele>245.5</ele></trkpt>
   <trkpt lat="40.072212" lon="0.041503"><ele>247</ele></trkpt>
   <trkpt lat="40.07229" lon="0.041569"><ele>247.75</ele></trkpt>
   <trkpt lat="40.072444" lon="0.041726"><ele>249.5</ele></trkpt>
   <trkpt lat="40.072505" lon="0.041779"><ele>250</ele></trkpt>
   <trkpt lat="40.07257" lon="0.041821"><ele>250.75</ele></trkpt>
   <trkpt lat="40.072642" lon="0.04185"><ele>251</ele></trkpt>
   <trkpt lat="40.072723" lon="0.041865"><ele>251</ele></trkpt>
   <trkpt lat="40.072797" lon="0.041866"><ele>251.25</ele></trkpt>
   <trkpt lat="40.072874" lon="0.04185"><ele>252.5</ele></trkpt>
   <trkpt lat="40.073102" lon="0.041782"><ele>255.75</ele></trkpt>
   <trkpt lat="40.073178" lon="0.04177"><ele>256.25</ele></trkpt>
   <trkpt lat="40.073245" lon="0.041774"><ele>257</ele></trkpt>
   <trkpt lat="40.07331" lon="0.041796"><ele>258</ele></trkpt>
   <trkpt lat="40.073385" lon="0.041846"><ele>258.5</ele></trkpt>
   <trkpt lat="40.07344" lon="0.041906"><ele>259.25</ele></trkpt>
   <trkpt lat="40.073491" lon="0.041982"><ele>260.5</ele></trkpt>
   <trkpt lat="40.073566" lon="0.042125"><ele>261.25</ele></trkpt>
   <trkpt lat="40.073614" lon="0.042202"><ele>260.75</ele></trkpt>
   <trkpt lat="40.073691" lon="0.042298"><ele>261.75</ele></trkpt>
   <trkpt lat="40.073764" lon="0.042358"><ele>262.25</ele></trkpt>
   <trkpt lat="40.073832" lon="0.042389"><ele>262</ele></trkpt>
   <trkpt lat="40.073909" lon="0.042401"><ele>261.75</ele></trkpt>
   <trkpt lat="40.074003" lon="0.042403"><ele>263.25</ele></trkpt>
   <trkpt lat="40.074147" lon="0.04239"><ele>265</ele></trkpt>
   <trkpt lat="40.075444" lon="0.042227"><ele>273</ele></trkpt>
   <trkpt lat="40.075514" lon="0.042239"><ele>273.5</ele></trkpt>
   <trkpt lat="40.075582" lon="0.042272"><ele>273.5</ele></trkpt>
   <trkpt lat="40.075628" lon="0.042319"><ele>273</ele></trkpt>
   <trkpt lat="40.075677" lon="0.042407"><ele>273.5</ele></trkpt>
   <trkpt lat="40.075696" lon="0.042475"><ele>274.5</ele></trkpt>
   <trkpt lat="40.075702" lon="0.042539"><ele>275.75</ele></trkpt>
   <trkpt lat="40.075699" lon="0.042623"><ele>277.25</ele></trkpt>
   <trkpt lat="40.075686" lon="0.042689"><ele>278.5</ele></trkpt>
   <trkpt lat="40.07566" lon="0.042763"><ele>279.5</ele></trkpt>
   <trkpt lat="40.075628" lon="0.042823"><ele>280.75</ele></trkpt>
   <trkpt lat="40.075591" lon="0.042866"><ele>281.5</ele></trkpt>
   <trkpt lat="40.075544" lon="0.042904"><ele>281.75</ele></trkpt>
   <trkpt lat="40.075495" lon="0.042927"><ele>282.25</ele></trkpt>
   <trkpt lat="40.075433" lon="0.042941"><ele>282</ele></trkpt>
   <trkpt lat="40.075341" lon="0.04295"><ele>281.25</ele></trkpt>
   <trkpt lat="40.074752" lon="0.042933"><ele>284.75</ele></trkpt>
   <trkpt lat="40.074677" lon="0.042944"><ele>284.75</ele></trkpt>
   <trkpt lat="40.074601" lon="0.042967"><ele>285</ele></trkpt>
   <trkpt lat="40.074501" lon="0.043019"><ele>286</ele></trkpt>
   <trkpt lat="40.074442" lon="0.04307"><ele>287</ele></trkpt>
   <trkpt lat="40.074368" lon="0.043168"><ele>287</ele></trkpt>
   <trkpt lat="40.074234" lon="0.043489"><ele>289.5</ele></trkpt>
   <trkpt lat="40.074205" lon="0.043541"><ele>289.75</ele></trkpt>
   <trkpt lat="40.074166" lon="0.043587"><ele>289.5</ele></trkpt>
   <trkpt lat="40.074114" lon="0.043629"><ele>290.75</ele></trkpt>
   <trkpt lat="40.074068" lon="0.043647"><ele>291.5</ele></trkpt>
   <trkpt lat="40.074011" lon="0.043651"><ele>292.25</ele></trkpt>
   <trkpt lat="40.073957" lon="0.043645"><ele>292.5</ele></trkpt>
   <trkpt lat="40.073885" lon="0.043623"><ele>292.25</ele></trkpt>
   <trkpt lat="40.073823" lon="0.043591"><ele>292.75</ele></trkpt>
   <trkpt lat="40.073757" lon="0.043545"><ele>292.75</ele></trkpt>
   <trkpt lat="40.073629" lon="0.043438"><ele>293</ele></trkpt>
   <trkpt lat="40.07357" lon="0.043406"><ele>293.25</ele></trkpt>
   <trkpt lat="40.073524" lon="0.043385"><ele>293</ele></trkpt>
   <trkpt lat="40.073479" lon="0.043375"><ele>293.25</ele></trkpt>
   <trkpt lat="40.073412" lon="0.043373"><ele>294</ele></trkpt>
   <trkpt lat="40.073375" lon="0.04338"><ele>294.5</ele></trkpt>
   <trkpt lat="40.073304" lon="0.043406"><ele>295</ele></trkpt>
   <trkpt lat="40.073195" lon="0.043477"><ele>294.75</ele></trkpt>
   <trkpt lat="40.072873" lon="0.04378"><ele>297.25</ele></trkpt>
   <trkpt lat="40.072789" lon="0.04384"><ele>297.5</ele></trkpt>
   <trkpt lat="40.072706" lon="0.043887"><ele>298.5</ele></trkpt>
   <trkpt lat="40.072604" lon="0.04393"><ele>300.5</ele></trkpt>
   <trkpt lat="40.072517" lon="0.043956"><ele>301.25</ele></trkpt>
   <trkpt lat="40.07242" lon="0.043972"><ele>302</ele></trkpt>
   <trkpt lat="40.072149" lon="0.043989"><ele>302</ele></trkpt>
   <trkpt lat="40.071995" lon="0.044026"><ele>302.5</ele></trkpt>
   <trkpt lat="40.071615" lon="0.044182"><ele>304.75</ele></trkpt>
   <trkpt lat="40.071519" lon="0.044231"><ele>304.75</ele></trkpt>
   <trkpt lat="40.071477" lon="0.044263"><ele>305</ele></trkpt>
   <trkpt lat="40.071437" lon="0.044307"><ele>305.5</ele></trkpt>
   <trkpt lat="40.071413" lon="0.04436"><ele>306.25</ele></trkpt>
   <trkpt lat="40.071398" lon="0.044418"><ele>307.5</ele></trkpt>
   <trkpt lat="40.071401" lon="0.044531"><ele>307</ele></trkpt>
   <trkpt lat="40.07142" lon="0.044596"><ele>306.75</ele></trkpt>
   <trkpt lat="40.071457" lon="0.044658"><ele>306.5</ele></trkpt>
   <trkpt lat="40.071497" lon="0.044697"><ele>306.75</ele></trkpt>
   <trkpt lat="40.071544" lon="0.044722"><ele>307</ele></trkpt>
   <trkpt lat="40.071594" lon="0.044728"><ele>307.5</ele></trkpt>
   <trkpt lat="40.071645" lon="0.044716"><ele>308.5</ele></trkpt>
   <trkpt lat="40.071711" lon="0.044675"><ele>309</ele></trkpt>
   <trkpt lat="40.072031" lon="0.044417"><ele>312</ele></trkpt>
   <trkpt lat="40.07211" lon="0.044366"><ele>311.75</ele></trkpt>
   <trkpt lat="40.072197" lon="0.044326"><ele>312</ele></trkpt>
   <trkpt lat="40.072309" lon="0.044301"><ele>312.5</ele></trkpt>
   <trkpt lat="40.072404" lon="0.044293"><ele>313.25</ele></trkpt>
   <trkpt lat="40.073011" lon="0.044245"><ele>319</ele></trkpt>
   <trkpt lat="40.073115" lon="0.044259"><ele>320.25</ele></trkpt>
   <trkpt lat="40.073197" lon="0.044281"><ele>321</ele></trkpt>
   <trkpt lat="40.073285" lon="0.044316"><ele>322.25</ele></trkpt>
   <trkpt lat="40.073385" lon="0.044372"><ele>323.5</ele></trkpt>
   <trkpt lat="40.073902" lon="0.044755"><ele>326.75</ele></trkpt>
   <trkpt lat="40.074044" lon="0.044848"><ele>326.5</ele></trkpt>
   <trkpt lat="40.07418" lon="0.044915"><ele>327.75</ele></trkpt>
   <trkpt lat="40.074314" lon="0.044955"><ele>329.5</ele></trkpt>
   <trkpt lat="40.074513" lon="0.044992"><ele>332</ele></trkpt>
   <trkpt lat="40.074775" lon="0.044993"><ele>333.75</ele></trkpt>
   <trkpt lat="40.075197" lon="0.044992"><ele>336.5</ele></trkpt>
   <trkpt lat="40.075468" lon="0.044992"><ele>336.5</ele></trkpt>
   <trkpt lat="40.075696" lon="0.044979"><ele>337.5</ele></trkpt>
   <trkpt lat="40.075816" lon="0.044958"><ele>338.25</ele></trkpt>
   <trkpt lat="40.075914" lon="0.04493"><ele>338.75</ele></trkpt>
   <trkpt lat="40.076001" lon="0.044889"><ele>339.5</ele></trkpt>
   <trkpt lat="40.076088" lon="0.04483"><ele>339.75</ele></trkpt>
   <trkpt lat="40.076332" lon="0.044627"><ele>342</ele></trkpt>
   <trkpt lat="40.076759" lon="0.044203"><ele>346.75</ele></trkpt>
   <trkpt lat="40.076869" lon="0.044119"><ele>347.5</ele></trkpt>
   <trkpt lat="40.077018" lon="0.044036"><ele>348.75</ele></trkpt>
   <trkpt lat="40.077304" lon="0.043918"><ele>351.5</ele></trkpt>
   <trkpt lat="40.077388" lon="0.043999"><ele>353.5</ele></trkpt>
   <trkpt lat="40.077499" lon="0.044033"><ele>355.5</ele></trkpt>
   <trkpt lat="40.077615" lon="0.04402"><ele>356.5</ele></trkpt>
   <trkpt lat="40.077734" lon="0.043984"><ele>358</ele></trkpt>
   <trkpt lat="40.077867" lon="0.04391"><ele>359.5</ele></trkpt>
   <trkpt lat="40.077974" lon="0.043821"><ele>359.75</ele></trkpt>
   <trkpt lat="40.078123" lon="0.043667"><ele>361.5</ele></trkpt>
   <trkpt lat="40.078256" lon="0.043484"><ele>362.5</ele></trkpt>
   <trkpt lat="40.078437" lon="0.043173"><ele>364.25</ele></trkpt>
   <trkpt lat="40.078597" lon="0.042873"><ele>368.75</ele></trkpt>
   <trkpt lat="40.078703" lon="0.042762"><ele>370</ele></trkpt>
   <trkpt lat="40.078934" lon="0.042563"><ele>371.5</ele></trkpt>
   <trkpt lat="40.079051" lon="0.042518"><ele>373.25</ele></trkpt>
   <trkpt lat="40.07912" lon="0.042508"><ele>374.25</ele></trkpt>
   <trkpt lat="40.07917" lon="0.04253"><ele>374.75</ele></trkpt>
   <trkpt lat="40.0792" lon="0.042558"><ele>375.5</ele></trkpt>
   <trkpt lat="40.079228" lon="0.042603"><ele>376.25</ele></trkpt>
   <trkpt lat="40.07949" lon="0.043837"><ele>379</ele></trkpt>
   <trkpt lat="40.079632" lon="0.043917"><ele>380.75</ele></trkpt>
   <trkpt lat="40.07949" lon="0.043837"><ele>379</ele></trkpt>
   <trkpt lat="40.079547" lon="0.044032"><ele>377.25</ele></trkpt>
   <trkpt lat="40.079597" lon="0.044139"><ele>376</ele></trkpt>
   <trkpt lat="40.07968" lon="0.044179"><ele>376.75</ele></trkpt>
   <trkpt lat="40.079758" lon="0.044182"><ele>377</ele></trkpt>
   <trkpt lat="40.079879" lon="0.044151"><ele>376.5</ele></trkpt>
   <trkpt lat="40.08013" lon="0.043972"><ele>379.75</ele></trkpt>
   <trkpt lat="40.080221" lon="0.043954"><ele>378.75</ele></trkpt>
   <trkpt lat="40.080282" lon="0.044012"><ele>377.5</ele></trkpt>
   <trkpt lat="40.080313" lon="0.044106"><ele>378.25</ele></trkpt>
   <trkpt lat="40.080315" lon="0.044239"><ele>377.75</ele></trkpt>
   <trkpt lat="40.080384" lon="0.044408"><ele>378.5</ele></trkpt>
   <trkpt lat="40.080837" lon="0.04515"><ele>386</ele></trkpt>
   <trkpt lat="40.080935" lon="0.045247"><ele>387</ele></trkpt>
   <trkpt lat="40.081227" lon="0.045355"><ele>390.75</ele></trkpt>
   <trkpt lat="40.081307" lon="0.045403"><ele>391.75</ele></trkpt>
   <trkpt lat="40.081335" lon="0.045467"><ele>391.5</ele></trkpt>
   <trkpt lat="40.081346" lon="0.045539"><ele>391</ele></trkpt>
   <trkpt lat="40.081327" lon="0.045626"><ele>393.25</ele></trkpt>
   <trkpt lat="40.081272" lon="0.045709"><ele>395.5</ele></trkpt>
   <trkpt lat="40.08121" lon="0.045754"><ele>396</ele></trkpt>
   <trkpt lat="40.081053" lon="0.04583"><ele>395.75</ele></trkpt>
   <trkpt lat="40.081012" lon="0.045877"><ele>396</ele></trkpt>
   <trkpt lat="40.081009" lon="0.04594"><ele>397.25</ele></trkpt>
   <trkpt lat="40.081053" lon="0.045981"><ele>399</ele></trkpt>
   <trkpt lat="40.081199" lon="0.046003"><ele>403</ele></trkpt>
   <trkpt lat="40.081313" lon="0.046007"><ele>406.25</ele></trkpt>
   <trkpt lat="40.081416" lon="0.045973"><ele>408.5</ele></trkpt>
   <trkpt lat="40.08155" lon="0.045879"><ele>412.5</ele></trkpt>
   <trkpt lat="40.081752" lon="0.045674"><ele>416.5</ele></trkpt>
   <trkpt lat="40.081966" lon="0.045498"><ele>422</ele></trkpt>
   <trkpt lat="40.082053" lon="0.045454"><ele>422.75</ele></trkpt>
   <trkpt lat="40.082126" lon="0.045451"><ele>424.5</ele></trkpt>
   <trkpt lat="40.082247" lon="0.045505"><ele>428.75</ele></trkpt>
   <trkpt lat="40.082493" lon="0.045659"><ele>434.75</ele></trkpt>
   <trkpt lat="40.082623" lon="0.045708"><ele>436.5</ele></trkpt>
   <trkpt lat="40.082844" lon="0.045753"><ele>438.5</ele></trkpt>
   <trkpt lat="40.082974" lon="0.045793"><ele>441.25</ele></trkpt>
   <trkpt lat="40.083245" lon="0.045927"><ele>446.5</ele></trkpt>
   <trkpt lat="40.083478" lon="0.046014"><ele>451</ele></trkpt>
   <trkpt lat="40.083637" lon="0.046073"><ele>451</ele></trkpt>
   <trkpt lat="40.083912" lon="0.046149"><ele>454.75</ele></trkpt>
   <trkpt lat="40.084312" lon="0.046239"><ele>458.5</ele></trkpt>
   <trkpt lat="40.084459" lon="0.046343"><ele>459</ele></trkpt>
   <trkpt lat="40.084749" lon="0.04605"><ele>462.5</ele></trkpt>
   <trkpt lat="40.08489" lon="0.045958"><ele>463.75</ele></trkpt>
   <trkpt lat="40.085021" lon="0.045916"><ele>465</ele></trkpt>
   <trkpt lat="40.085119" lon="0.045932"><ele>466.75</ele></trkpt>
   <trkpt lat="40.085251" lon="0.045994"><ele>468</ele></trkpt>
   <trkpt lat="40.085471" lon="0.046081"><ele>470.75</ele></trkpt>
   <trkpt lat="40.085646" lon="0.046112"><ele>471.25</ele></trkpt>
   <trkpt lat="40.085873" lon="0.046035"><ele>472.5</ele></trkpt>
   <trkpt lat="40.085945" lon="0.046037"><ele>473.5</ele></trkpt>
   <trkpt lat="40.086083" lon="0.046194"><ele>471.25</ele></trkpt>
   <trkpt lat="40.086191" lon="0.046249"><ele>472.5</ele></trkpt>
   <trkpt lat="40.086431" lon="0.046276"><ele>477.75</ele></trkpt>
   <trkpt lat="40.086649" lon="0.046357"><ele>480.25</ele></trkpt>
   <trkpt lat="40.086857" lon="0.046477"><ele>481</ele></trkpt>
   <trkpt lat="40.087013" lon="0.046484"><ele>482.75</ele></trkpt>
   <trkpt lat="40.087087" lon="0.046443"><ele>484.75</ele></trkpt>
   <trkpt lat="40.087127" lon="0.046422"><ele>484.75</ele></trkpt>
   <trkpt lat="40.087136" lon="0.046323"><ele>486.5</ele></trkpt>
   <trkpt lat="40.087097" lon="0.046242"><ele>488</ele></trkpt>
   <trkpt lat="40.086855" lon="0.046173"><ele>487</ele></trkpt>
   <trkpt lat="40.086787" lon="0.046133"><ele>487.25</ele></trkpt>
   <trkpt lat="40.086725" lon="0.046029"><ele>489.25</ele></trkpt>
   <trkpt lat="40.086715" lon="0.045956"><ele>490.75</ele></trkpt>
   <trkpt lat="40.086742" lon="0.045931"><ele>491.75</ele></trkpt>
   <trkpt lat="40.08706" lon="0.045918"><ele>495.75</ele></trkpt>
   <trkpt lat="40.087101" lon="0.045902"><ele>496.5</ele></trkpt>
   <trkpt lat="40.087241" lon="0.045884"><ele>498.5</ele></trkpt>
   <trkpt lat="40.087396" lon="0.045834"><ele>499.75</ele></trkpt>
   <trkpt lat="40.087482" lon="0.045768"><ele>501.25</ele></trkpt>
   <trkpt lat="40.087515" lon="0.045634"><ele>503.5</ele></trkpt>
   <trkpt lat="40.087512" lon="0.045555"><ele>505.25</ele></trkpt>
   <trkpt lat="40.087427" lon="0.045253"><ele>510</ele></trkpt>
   <trkpt lat="40.087298" lon="0.044902"><ele>515.75</ele></trkpt>
   <trkpt lat="40.087162" lon="0.044665"><ele>519</ele></trkpt>
   <trkpt lat="40.087069" lon="0.044557"><ele>520.75</ele></trkpt>
   <trkpt lat="40.08698" lon="0.044472"><ele>522.25</ele></trkpt>
   <trkpt lat="40.086829" lon="0.044237"><ele>525.75</ele></trkpt>
   <trkpt lat="40.086657" lon="0.04404"><ele>529.25</ele></trkpt>
   <trkpt lat="40.08659" lon="0.043829"><ele>531.75</ele></trkpt>
   <trkpt lat="40.086566" lon="0.043632"><ele>534</ele></trkpt>
   <trkpt lat="40.086576" lon="0.04314"><ele>540</ele></trkpt>
   <trkpt lat="40.086617" lon="0.042483"><ele>547.5</ele></trkpt>
   <trkpt lat="40.086654" lon="0.042306"><ele>552</ele></trkpt>
   <trkpt lat="40.086707" lon="0.042058"><ele>552</ele></trkpt>
   <trkpt lat="40.086777" lon="0.041797"><ele>555.5</ele></trkpt>
   <trkpt lat="40.086892" lon="0.041651"><ele>558.25</ele></trkpt>
   <trkpt lat="40.08716" lon="0.041516"><ele>561.75</ele></trkpt>
   <trkpt lat="40.087188" lon="0.041461"><ele>563.25</ele></trkpt>
   <trkpt lat="40.087174" lon="0.041387"><ele>565</ele></trkpt>
   <trkpt lat="40.086516" lon="0.04113"><ele>576.75</ele></trkpt>
   <trkpt lat="40.086407" lon="0.041094"><ele>578.5</ele></trkpt>
   <trkpt lat="40.085785" lon="0.041102"><ele>587</ele></trkpt>
   <trkpt lat="40.08562" lon="0.041085"><ele>590</ele></trkpt>
   <trkpt lat="40.085379" lon="0.041028"><ele>593.75</ele></trkpt>
   <trkpt lat="40.085213" lon="0.04096"><ele>596.25</ele></trkpt>
   <trkpt lat="40.085143" lon="0.040918"><ele>597.25</ele></trkpt>
   <trkpt lat="40.085084" lon="0.040843"><ele>599</ele></trkpt>
   <trkpt lat="40.084981" lon="0.040593"><ele>601.75</ele></trkpt>
   <trkpt lat="40.084843" lon="0.040341"><ele>604.75</ele></trkpt>
   <trkpt lat="40.084816" lon="0.040246"><ele>606.5</ele></trkpt>
   <trkpt lat="40.084813" lon="0.040163"><ele>606.75</ele></trkpt>
   <trkpt lat="40.08487" lon="0.040052"><ele>608.25</ele></trkpt>
   <trkpt lat="40.084972" lon="0.040055"><ele>610</ele></trkpt>
   <trkpt lat="40.085164" lon="0.040162"><ele>613</ele></trkpt>
   <trkpt lat="40.085494" lon="0.040232"><ele>617.75</ele></trkpt>
   <trkpt lat="40.085587" lon="0.040218"><ele>619</ele></trkpt>
   <trkpt lat="40.08569" lon="0.040154"><ele>620.25</ele></trkpt>
   <trkpt lat="40.085877" lon="0.03995"><ele>624.25</ele></trkpt>
   <trkpt lat="40.08589" lon="0.039937"><ele>624.25</ele></trkpt>
   <trkpt lat="40.085979" lon="0.039899"><ele>626</ele></trkpt>
   <trkpt lat="40.086121" lon="0.039913"><ele>627.25</ele></trkpt>
   <trkpt lat="40.086283" lon="0.039883"><ele>628</ele></trkpt>
   <trkpt lat="40.086337" lon="0.03985"><ele>629</ele></trkpt>
   <trkpt lat="40.08632" lon="0.039754"><ele>630.75</ele></trkpt>
   <trkpt lat="40.086047" lon="0.039596"><ele>631</ele></trkpt>
   <trkpt lat="40.085885" lon="0.03957"><ele>632</ele></trkpt>
   <trkpt lat="40.08583" lon="0.039533"><ele>633</ele></trkpt>
   <trkpt lat="40.08579" lon="0.039452"><ele>633.75</ele></trkpt>
   <trkpt lat="40.085752" lon="0.03881"><ele>643.5</ele></trkpt>
   <trkpt lat="40.085712" lon="0.0387"><ele>645</ele></trkpt>
   <trkpt lat="40.085431" lon="0.038539"><ele>646.5</ele></trkpt>
   <trkpt lat="40.085382" lon="0.038459"><ele>647</ele></trkpt>
   <trkpt lat="40.08541" lon="0.038384"><ele>648.5</ele></trkpt>
   <trkpt lat="40.085833" lon="0.038238"><ele>658.5</ele></trkpt>
   <trkpt lat="40.085951" lon="0.038248"><ele>660.25</ele></trkpt>
   <trkpt lat="40.086392" lon="0.03847"><ele>664.5</ele></trkpt>
   <trkpt lat="40.086467" lon="0.03849"><ele>664</ele></trkpt>
   <trkpt lat="40.086521" lon="0.038479"><ele>664.5</ele></trkpt>
   <trkpt lat="40.086731" lon="0.038369"><ele>667.25</ele></trkpt>
   <trkpt lat="40.086807" lon="0.038306"><ele>667.75</ele></trkpt>
   <trkpt lat="40.086865" lon="0.038189"><ele>669.5</ele></trkpt>
   <trkpt lat="40.086957" lon="0.037824"><ele>674.25</ele></trkpt>
   <trkpt lat="40.087008" lon="0.037309"><ele>681</ele></trkpt>
   <trkpt lat="40.087046" lon="0.037178"><ele>684.25</ele></trkpt>
   <trkpt lat="40.087074" lon="0.037088"><ele>684.25</ele></trkpt>
   <trkpt lat="40.087192" lon="0.03685"><ele>686.25</ele></trkpt>
   <trkpt lat="40.087275" lon="0.036777"><ele>686.25</ele></trkpt>
   <trkpt lat="40.08737" lon="0.036754"><ele>685.5</ele></trkpt>
   <trkpt lat="40.087423" lon="0.036689"><ele>686.5</ele></trkpt>
   <trkpt lat="40.087409" lon="0.036576"><ele>686.75</ele></trkpt>
   <trkpt lat="40.087446" lon="0.036529"><ele>685.5</ele></trkpt>
   <trkpt lat="40.087499" lon="0.0363"><ele>683</ele></trkpt>
   <trkpt lat="40.087566" lon="0.036042"><ele>679.5</ele></trkpt>
   <trkpt lat="40.08771" lon="0.035605"><ele>672.5</ele></trkpt>
   <trkpt lat="40.087719" lon="0.035525"><ele>671.75</ele></trkpt>
   <trkpt lat="40.08769" lon="0.03543"><ele>671</ele></trkpt>
   <trkpt lat="40.087628" lon="0.035341"><ele>671.25</ele></trkpt>
   <trkpt lat="40.087334" lon="0.03518"><ele>676</ele></trkpt>
   <trkpt lat="40.087269" lon="0.03504"><ele>674.75</ele></trkpt>
   <trkpt lat="40.087256" lon="0.034877"><ele>673.5</ele></trkpt>
   <trkpt lat="40.087199" lon="0.034717"><ele>674.75</ele></trkpt>
   <trkpt lat="40.086957" lon="0.034274"><ele>673.25</ele></trkpt>
   <trkpt lat="40.08682" lon="0.034133"><ele>672.25</ele></trkpt>
   <trkpt lat="40.086442" lon="0.033874"><ele>670.25</ele></trkpt>
   <trkpt lat="40.086362" lon="0.03375"><ele>670</ele></trkpt>
   <trkpt lat="40.086331" lon="0.033639"><ele>669.5</ele></trkpt>
   <trkpt lat="40.086337" lon="0.033422"><ele>669.75</ele></trkpt>
   <trkpt lat="40.086264" lon="0.033093"><ele>671.5</ele></trkpt>
   <trkpt lat="40.086247" lon="0.032946"><ele>672.5</ele></trkpt>
   <trkpt lat="40.086266" lon="0.032869"><ele>672.5</ele></trkpt>
   <trkpt lat="40.086324" lon="0.032809"><ele>671.75</ele></trkpt>
   <trkpt lat="40.086429" lon="0.032802"><ele>670.5</ele></trkpt>
   <trkpt lat="40.086586" lon="0.032824"><ele>670</ele></trkpt>
   <trkpt lat="40.086973" lon="0.032977"><ele>665.25</ele></trkpt>
   <trkpt lat="40.087294" lon="0.033075"><ele>662.25</ele></trkpt>
   <trkpt lat="40.087554" lon="0.03324"><ele>657.25</ele></trkpt>
   <trkpt lat="40.087721" lon="0.03331"><ele>656.25</ele></trkpt>
   <trkpt lat="40.087967" lon="0.033354"><ele>655.75</ele></trkpt>
   <trkpt lat="40.088083" lon="0.033376"><ele>655.75</ele></trkpt>
   <trkpt lat="40.088322" lon="0.033397"><ele>656.75</ele></trkpt>
   <trkpt lat="40.088595" lon="0.033335"><ele>659.75</ele></trkpt>
   <trkpt lat="40.088664" lon="0.033291"><ele>659.5</ele></trkpt>
   <trkpt lat="40.088715" lon="0.033211"><ele>659.25</ele></trkpt>
   <trkpt lat="40.088753" lon="0.033115"><ele>658.75</ele></trkpt>
   <trkpt lat="40.088759" lon="0.033037"><ele>658.75</ele></trkpt>
   <trkpt lat="40.088712" lon="0.033004"><ele>659.5</ele></trkpt>
   <trkpt lat="40.088492" lon="0.033005"><ele>663.5</ele></trkpt>
   <trkpt lat="40.088376" lon="0.032989"><ele>666</ele></trkpt>
   <trkpt lat="40.088262" lon="0.032943"><ele>668</ele></trkpt>
   <trkpt lat="40.087968" lon="0.032741"><ele>675.5</ele></trkpt>
   <trkpt lat="40.087909" lon="0.0327"><ele>675.5</ele></trkpt>
   <trkpt lat="40.087657" lon="0.03249"><ele>682</ele></trkpt>
   <trkpt lat="40.087229" lon="0.032251"><ele>690</ele></trkpt>
   <trkpt lat="40.086951" lon="0.032128"><ele>693.5</ele></trkpt>
   <trkpt lat="40.086822" lon="0.032047"><ele>695.75</ele></trkpt>
   <trkpt lat="40.0865" lon="0.031826"><ele>700.75</ele></trkpt>
   <trkpt lat="40.086373" lon="0.031759"><ele>703</ele></trkpt>
   <trkpt lat="40.086238" lon="0.03172"><ele>705.75</ele></trkpt>
   <trkpt lat="40.085932" lon="0.031556"><ele>712.25</ele></trkpt>
   <trkpt lat="40.085888" lon="0.031486"><ele>714.5</ele></trkpt>
   <trkpt lat="40.085827" lon="0.031343"><ele>717.75</ele></trkpt>
   <trkpt lat="40.085791" lon="0.031194"><ele>718.5</ele></trkpt>
    </trkseg>
 </trk>
</gpx>
