<?xml version="1.0" encoding="UTF-8"?>
<!-- track-length = 9057 filtered ascend = 474 plain-ascend = 449 cost=10699 energy=0.1kwh time=1h 24m 11s -->
<gpx 
 xmlns="http://www.topografix.com/GPX/1/1" 
 xmlns:xsi="http://www.w3.org/2001/XMLSchema-instance" 
 xsi:schemaLocation="http://www.topografix.com/GPX/1/1 http://www.topografix.com/GPX/1/1/gpx.xsd" 
 version="1.1" 
 creator="BRouter-Web 0.18.1">
 <trk>
  <name>Lavigerie -&gt; puy Mary (9.1km)</name>
  <trkseg>
   <trkpt lat="45.140062" lon="2.748619"><ele>1114.25</ele></trkpt>
   <trkpt lat="45.139994" lon="2.748646"><ele>1113.75</ele></trkpt>
   <trkpt lat="45.139878" lon="2.748311"><ele>1114</ele></trkpt>
   <trkpt lat="45.139753" lon="2.748113"><ele>1114.75</ele></trkpt>
   <trkpt lat="45.139564" lon="2.747939"><ele>1115</ele></trkpt>
   <trkpt lat="45.13945" lon="2.747802"><ele>1115.5</ele></trkpt>
   <trkpt lat="45.139332" lon="2.747556"><ele>1115</ele></trkpt>
   <trkpt lat="45.139224" lon="2.747176"><ele>1117</ele></trkpt>
   <trkpt lat="45.139097" lon="2.746964"><ele>1116.5</ele></trkpt>
   <trkpt lat="45.138965" lon="2.74679"><ele>1116.75</ele></trkpt>
   <trkpt lat="45.138812" lon="2.746609"><ele>1117</ele></trkpt>
   <trkpt lat="45.138707" lon="2.746429"><ele>1117</ele></trkpt>
   <trkpt lat="45.13856" lon="2.745948"><ele>1117.25</ele></trkpt>
   <trkpt lat="45.138494" lon="2.745827"><ele>1117.75</ele></trkpt>
   <trkpt lat="45.138434" lon="2.74574"><ele>1117.75</ele></trkpt>
   <trkpt lat="45.138412" lon="2.745707"><ele>1117.75</ele></trkpt>
   <trkpt lat="45.138292" lon="2.745462"><ele>1118</ele></trkpt>
   <trkpt lat="45.138233" lon="2.745189"><ele>1119</ele></trkpt>
   <trkpt lat="45.138123" lon="2.744279"><ele>1120.25</ele></trkpt>
   <trkpt lat="45.138062" lon="2.744143"><ele>1120.25</ele></trkpt>
   <trkpt lat="45.137973" lon="2.743965"><ele>1121</ele></trkpt>
   <trkpt lat="45.137863" lon="2.743792"><ele>1122.25</ele></trkpt>
   <trkpt lat="45.137753" lon="2.743518"><ele>1124.25</ele></trkpt>
   <trkpt lat="45.137697" lon="2.743233"><ele>1126.25</ele></trkpt>
   <trkpt lat="45.13763" lon="2.742682"><ele>1130.25</ele></trkpt>
   <trkpt lat="45.137521" lon="2.74189"><ele>1135.25</ele></trkpt>
   <trkpt lat="45.137426" lon="2.741026"><ele>1138.25</ele></trkpt>
   <trkpt lat="45.13736" lon="2.740842"><ele>1139.25</ele></trkpt>
   <trkpt lat="45.137282" lon="2.740668"><ele>1141</ele></trkpt>
   <trkpt lat="45.137241" lon="2.740521"><ele>1142.25</ele></trkpt>
   <trkpt lat="45.137241" lon="2.740351"><ele>1143</ele></trkpt>
   <trkpt lat="45.137295" lon="2.740122"><ele>1145.25</ele></trkpt>
   <trkpt lat="45.137293" lon="2.74003"><ele>1145.75</ele></trkpt>
   <trkpt lat="45.137292" lon="2.739966"><ele>1146.25</ele></trkpt>
   <trkpt lat="45.137237" lon="2.739761"><ele>1147.75</ele></trkpt>
   <trkpt lat="45.136986" lon="2.739279"><ele>1151</ele></trkpt>
   <trkpt lat="45.136954" lon="2.739217"><ele>1151.25</ele></trkpt>
   <trkpt lat="45.13692" lon="2.739079"><ele>1151.75</ele></trkpt>
   <trkpt lat="45.136903" lon="2.738928"><ele>1151.75</ele></trkpt>
   <trkpt lat="45.136818" lon="2.738508"><ele>1155.25</ele></trkpt>
   <trkpt lat="45.136375" lon="2.737349"><ele>1160.75</ele></trkpt>
   <trkpt lat="45.136243" lon="2.737066"><ele>1161.25</ele></trkpt>
   <trkpt lat="45.136205" lon="2.736914"><ele>1162</ele></trkpt>
   <trkpt lat="45.136193" lon="2.73674"><ele>1163.25</ele></trkpt>
   <trkpt lat="45.13619" lon="2.73659"><ele>1164.75</ele></trkpt>
   <trkpt lat="45.136168" lon="2.736436"><ele>1165.25</ele></trkpt>
   <trkpt lat="45.136135" lon="2.736121"><ele>1167.5</ele></trkpt>
   <trkpt lat="45.136175" lon="2.73563"><ele>1170.25</ele></trkpt>
   <trkpt lat="45.136157" lon="2.735318"><ele>1172.25</ele></trkpt>
   <trkpt lat="45.136102" lon="2.734908"><ele>1173.25</ele></trkpt>
   <trkpt lat="45.136098" lon="2.734235"><ele>1177.25</ele></trkpt>
   <trkpt lat="45.136115" lon="2.733771"><ele>1179</ele></trkpt>
   <trkpt lat="45.136161" lon="2.733488"><ele>1180.75</ele></trkpt>
   <trkpt lat="45.136229" lon="2.733157"><ele>1184</ele></trkpt>
   <trkpt lat="45.136231" lon="2.733004"><ele>1185</ele></trkpt>
   <trkpt lat="45.136229" lon="2.732962"><ele>1185.5</ele></trkpt>
   <trkpt lat="45.136211" lon="2.732829"><ele>1186.5</ele></trkpt>
   <trkpt lat="45.136202" lon="2.732639"><ele>1186.75</ele></trkpt>
   <trkpt lat="45.136214" lon="2.732513"><ele>1186.75</ele></trkpt>
   <trkpt lat="45.136302" lon="2.732098"><ele>1189.5</ele></trkpt>
   <trkpt lat="45.136335" lon="2.731955"><ele>1191</ele></trkpt>
   <trkpt lat="45.13634" lon="2.731875"><ele>1192</ele></trkpt>
   <trkpt lat="45.136335" lon="2.731832"><ele>1192.25</ele></trkpt>
   <trkpt lat="45.136319" lon="2.731785"><ele>1192.25</ele></trkpt>
   <trkpt lat="45.136251" lon="2.731668"><ele>1192</ele></trkpt>
   <trkpt lat="45.136232" lon="2.731637"><ele>1192</ele></trkpt>
   <trkpt lat="45.136149" lon="2.731501"><ele>1192.25</ele></trkpt>
   <trkpt lat="45.136079" lon="2.731357"><ele>1192.5</ele></trkpt>
   <trkpt lat="45.135931" lon="2.730957"><ele>1194.25</ele></trkpt>
   <trkpt lat="45.135867" lon="2.730812"><ele>1194.5</ele></trkpt>
   <trkpt lat="45.135791" lon="2.730659"><ele>1194.5</ele></trkpt>
   <trkpt lat="45.135602" lon="2.730314"><ele>1194.25</ele></trkpt>
   <trkpt lat="45.135457" lon="2.729966"><ele>1195.5</ele></trkpt>
   <trkpt lat="45.135146" lon="2.728969"><ele>1203.5</ele></trkpt>
   <trkpt lat="45.135011" lon="2.728466"><ele>1206.25</ele></trkpt>
   <trkpt lat="45.134901" lon="2.728001"><ele>1211</ele></trkpt>
   <trkpt lat="45.134723" lon="2.726994"><ele>1215.5</ele></trkpt>
   <trkpt lat="45.134582" lon="2.725989"><ele>1218</ele></trkpt>
   <trkpt lat="45.134499" lon="2.724966"><ele>1224.25</ele></trkpt>
   <trkpt lat="45.134456" lon="2.724342"><ele>1226</ele></trkpt>
   <trkpt lat="45.134444" lon="2.723944"><ele>1227.75</ele></trkpt>
   <trkpt lat="45.134474" lon="2.72376"><ele>1228.5</ele></trkpt>
   <trkpt lat="45.134531" lon="2.723613"><ele>1229.75</ele></trkpt>
   <trkpt lat="45.134631" lon="2.723469"><ele>1231.5</ele></trkpt>
   <trkpt lat="45.134657" lon="2.723412"><ele>1231.75</ele></trkpt>
   <trkpt lat="45.134675" lon="2.723331"><ele>1231.5</ele></trkpt>
   <trkpt lat="45.134664" lon="2.723251"><ele>1233</ele></trkpt>
   <trkpt lat="45.134627" lon="2.723183"><ele>1233.5</ele></trkpt>
   <trkpt lat="45.134515" lon="2.723056"><ele>1233.75</ele></trkpt>
   <trkpt lat="45.134455" lon="2.722954"><ele>1233.5</ele></trkpt>
   <trkpt lat="45.134414" lon="2.722851"><ele>1233.75</ele></trkpt>
   <trkpt lat="45.13439" lon="2.722739"><ele>1234.25</ele></trkpt>
   <trkpt lat="45.134385" lon="2.722626"><ele>1234.75</ele></trkpt>
   <trkpt lat="45.134388" lon="2.722382"><ele>1236</ele></trkpt>
   <trkpt lat="45.13438" lon="2.72223"><ele>1235.75</ele></trkpt>
   <trkpt lat="45.134311" lon="2.722001"><ele>1238</ele></trkpt>
   <trkpt lat="45.134018" lon="2.721439"><ele>1241.5</ele></trkpt>
   <trkpt lat="45.133813" lon="2.72102"><ele>1242.75</ele></trkpt>
   <trkpt lat="45.133711" lon="2.720644"><ele>1244.5</ele></trkpt>
   <trkpt lat="45.133584" lon="2.719217"><ele>1252.25</ele></trkpt>
   <trkpt lat="45.133512" lon="2.718676"><ele>1256</ele></trkpt>
   <trkpt lat="45.133423" lon="2.718072"><ele>1257.5</ele></trkpt>
   <trkpt lat="45.13323" lon="2.716955"><ele>1263</ele></trkpt>
   <trkpt lat="45.132942" lon="2.715195"><ele>1271.5</ele></trkpt>
   <trkpt lat="45.13277" lon="2.713938"><ele>1276.25</ele></trkpt>
   <trkpt lat="45.13259" lon="2.713144"><ele>1280.75</ele></trkpt>
   <trkpt lat="45.132503" lon="2.712793"><ele>1281.75</ele></trkpt>
   <trkpt lat="45.132456" lon="2.71244"><ele>1283.5</ele></trkpt>
   <trkpt lat="45.132431" lon="2.712148"><ele>1284</ele></trkpt>
   <trkpt lat="45.132423" lon="2.711874"><ele>1286</ele></trkpt>
   <trkpt lat="45.132416" lon="2.711701"><ele>1287</ele></trkpt>
   <trkpt lat="45.132414" lon="2.711108"><ele>1290.25</ele></trkpt>
   <trkpt lat="45.132437" lon="2.710822"><ele>1290.75</ele></trkpt>
   <trkpt lat="45.132439" lon="2.710583"><ele>1292.75</ele></trkpt>
   <trkpt lat="45.132403" lon="2.710213"><ele>1294.75</ele></trkpt>
   <trkpt lat="45.13227" lon="2.709446"><ele>1297</ele></trkpt>
   <trkpt lat="45.13222" lon="2.708893"><ele>1299.75</ele></trkpt>
   <trkpt lat="45.132184" lon="2.708619"><ele>1301.25</ele></trkpt>
   <trkpt lat="45.132005" lon="2.707943"><ele>1303</ele></trkpt>
   <trkpt lat="45.13171" lon="2.706742"><ele>1307</ele></trkpt>
   <trkpt lat="45.131566" lon="2.706248"><ele>1309.5</ele></trkpt>
   <trkpt lat="45.131502" lon="2.706028"><ele>1312.5</ele></trkpt>
   <trkpt lat="45.131207" lon="2.704883"><ele>1319</ele></trkpt>
   <trkpt lat="45.130994" lon="2.704206"><ele>1322.75</ele></trkpt>
   <trkpt lat="45.130911" lon="2.704063"><ele>1323.75</ele></trkpt>
   <trkpt lat="45.13071" lon="2.703845"><ele>1324.75</ele></trkpt>
   <trkpt lat="45.130555" lon="2.703647"><ele>1326.75</ele></trkpt>
   <trkpt lat="45.130479" lon="2.703505"><ele>1328</ele></trkpt>
   <trkpt lat="45.130433" lon="2.703365"><ele>1329.5</ele></trkpt>
   <trkpt lat="45.130407" lon="2.703212"><ele>1330</ele></trkpt>
   <trkpt lat="45.130374" lon="2.702931"><ele>1330.75</ele></trkpt>
   <trkpt lat="45.130349" lon="2.702814"><ele>1331.5</ele></trkpt>
   <trkpt lat="45.130307" lon="2.702742"><ele>1331.75</ele></trkpt>
   <trkpt lat="45.130252" lon="2.702675"><ele>1331.75</ele></trkpt>
   <trkpt lat="45.130156" lon="2.702604"><ele>1332</ele></trkpt>
   <trkpt lat="45.129976" lon="2.702497"><ele>1333.75</ele></trkpt>
   <trkpt lat="45.129849" lon="2.702439"><ele>1333</ele></trkpt>
   <trkpt lat="45.129619" lon="2.70237"><ele>1332.5</ele></trkpt>
   <trkpt lat="45.129461" lon="2.702349"><ele>1332.25</ele></trkpt>
   <trkpt lat="45.129257" lon="2.702264"><ele>1331.75</ele></trkpt>
   <trkpt lat="45.129133" lon="2.702183"><ele>1332.25</ele></trkpt>
   <trkpt lat="45.128738" lon="2.70188"><ele>1331.25</ele></trkpt>
   <trkpt lat="45.128632" lon="2.701838"><ele>1330.25</ele></trkpt>
   <trkpt lat="45.128156" lon="2.701762"><ele>1328.25</ele></trkpt>
   <trkpt lat="45.127989" lon="2.701706"><ele>1327.75</ele></trkpt>
   <trkpt lat="45.127844" lon="2.701633"><ele>1328</ele></trkpt>
   <trkpt lat="45.12773" lon="2.701537"><ele>1328.5</ele></trkpt>
   <trkpt lat="45.127527" lon="2.701322"><ele>1329.25</ele></trkpt>
   <trkpt lat="45.126894" lon="2.700449"><ele>1332.5</ele></trkpt>
   <trkpt lat="45.126564" lon="2.699777"><ele>1335.25</ele></trkpt>
   <trkpt lat="45.125826" lon="2.698598"><ele>1338</ele></trkpt>
   <trkpt lat="45.125671" lon="2.698382"><ele>1339.75</ele></trkpt>
   <trkpt lat="45.125322" lon="2.698077"><ele>1340.25</ele></trkpt>
   <trkpt lat="45.124993" lon="2.697809"><ele>1341.75</ele></trkpt>
   <trkpt lat="45.124834" lon="2.697699"><ele>1342.75</ele></trkpt>
   <trkpt lat="45.124663" lon="2.697619"><ele>1343.25</ele></trkpt>
   <trkpt lat="45.123844" lon="2.697397"><ele>1346.5</ele></trkpt>
   <trkpt lat="45.123567" lon="2.697311"><ele>1345.75</ele></trkpt>
   <trkpt lat="45.123315" lon="2.697201"><ele>1347.5</ele></trkpt>
   <trkpt lat="45.122892" lon="2.696992"><ele>1349.25</ele></trkpt>
   <trkpt lat="45.122692" lon="2.69688"><ele>1350.75</ele></trkpt>
   <trkpt lat="45.12236" lon="2.696657"><ele>1352.25</ele></trkpt>
   <trkpt lat="45.121953" lon="2.696452"><ele>1353</ele></trkpt>
   <trkpt lat="45.121793" lon="2.696357"><ele>1354.25</ele></trkpt>
   <trkpt lat="45.121403" lon="2.696084"><ele>1357</ele></trkpt>
   <trkpt lat="45.121271" lon="2.69597"><ele>1357</ele></trkpt>
   <trkpt lat="45.121154" lon="2.695856"><ele>1357.5</ele></trkpt>
   <trkpt lat="45.120883" lon="2.695496"><ele>1359.5</ele></trkpt>
   <trkpt lat="45.120758" lon="2.695368"><ele>1360.25</ele></trkpt>
   <trkpt lat="45.120634" lon="2.695274"><ele>1360.75</ele></trkpt>
   <trkpt lat="45.120272" lon="2.695073"><ele>1360.5</ele></trkpt>
   <trkpt lat="45.120121" lon="2.694952"><ele>1361.25</ele></trkpt>
   <trkpt lat="45.119797" lon="2.694615"><ele>1363.75</ele></trkpt>
   <trkpt lat="45.119642" lon="2.694481"><ele>1364.25</ele></trkpt>
   <trkpt lat="45.118982" lon="2.694047"><ele>1365.5</ele></trkpt>
   <trkpt lat="45.118782" lon="2.693894"><ele>1367.25</ele></trkpt>
   <trkpt lat="45.118247" lon="2.693391"><ele>1369.25</ele></trkpt>
   <trkpt lat="45.117689" lon="2.692849"><ele>1372.75</ele></trkpt>
   <trkpt lat="45.117399" lon="2.692648"><ele>1374.25</ele></trkpt>
   <trkpt lat="45.116837" lon="2.692321"><ele>1376.5</ele></trkpt>
   <trkpt lat="45.116635" lon="2.692179"><ele>1377.5</ele></trkpt>
   <trkpt lat="45.116515" lon="2.692085"><ele>1377.5</ele></trkpt>
   <trkpt lat="45.116395" lon="2.691967"><ele>1378.5</ele></trkpt>
   <trkpt lat="45.116273" lon="2.69183"><ele>1378.5</ele></trkpt>
   <trkpt lat="45.115996" lon="2.69141"><ele>1379.25</ele></trkpt>
   <trkpt lat="45.115832" lon="2.691178"><ele>1381</ele></trkpt>
   <trkpt lat="45.115629" lon="2.690956"><ele>1382</ele></trkpt>
   <trkpt lat="45.115412" lon="2.690758"><ele>1382.5</ele></trkpt>
   <trkpt lat="45.114395" lon="2.690069"><ele>1388</ele></trkpt>
   <trkpt lat="45.114249" lon="2.689949"><ele>1389.25</ele></trkpt>
   <trkpt lat="45.114129" lon="2.689808"><ele>1390.25</ele></trkpt>
   <trkpt lat="45.114002" lon="2.689613"><ele>1391.5</ele></trkpt>
   <trkpt lat="45.113919" lon="2.68939"><ele>1393.25</ele></trkpt>
   <trkpt lat="45.113869" lon="2.689118"><ele>1395.75</ele></trkpt>
   <trkpt lat="45.113818" lon="2.688056"><ele>1401.75</ele></trkpt>
   <trkpt lat="45.11379" lon="2.687387"><ele>1404.5</ele></trkpt>
   <trkpt lat="45.113777" lon="2.687258"><ele>1405</ele></trkpt>
   <trkpt lat="45.113753" lon="2.68713"><ele>1404.75</ele></trkpt>
   <trkpt lat="45.1137" lon="2.686969"><ele>1404.5</ele></trkpt>
   <trkpt lat="45.113647" lon="2.686844"><ele>1406.5</ele></trkpt>
   <trkpt lat="45.113587" lon="2.68673"><ele>1408.75</ele></trkpt>
   <trkpt lat="45.113535" lon="2.686657"><ele>1410.25</ele></trkpt>
   <trkpt lat="45.113476" lon="2.686597"><ele>1410.75</ele></trkpt>
   <trkpt lat="45.113394" lon="2.686535"><ele>1411.5</ele></trkpt>
   <trkpt lat="45.113298" lon="2.686486"><ele>1412.25</ele></trkpt>
   <trkpt lat="45.113191" lon="2.686444"><ele>1413</ele></trkpt>
   <trkpt lat="45.112955" lon="2.686399"><ele>1414.75</ele></trkpt>
   <trkpt lat="45.112605" lon="2.68638"><ele>1417</ele></trkpt>
   <trkpt lat="45.112473" lon="2.686352"><ele>1417.75</ele></trkpt>
   <trkpt lat="45.112341" lon="2.686304"><ele>1418.5</ele></trkpt>
   <trkpt lat="45.112179" lon="2.686214"><ele>1419.5</ele></trkpt>
   <trkpt lat="45.111413" lon="2.68575"><ele>1429.25</ele></trkpt>
   <trkpt lat="45.111212" lon="2.685606"><ele>1432.25</ele></trkpt>
   <trkpt lat="45.111076" lon="2.685498"><ele>1434.25</ele></trkpt>
   <trkpt lat="45.110959" lon="2.685377"><ele>1434.75</ele></trkpt>
   <trkpt lat="45.110879" lon="2.685239"><ele>1436.75</ele></trkpt>
   <trkpt lat="45.110857" lon="2.685154"><ele>1437.5</ele></trkpt>
   <trkpt lat="45.110849" lon="2.685066"><ele>1438.25</ele></trkpt>
   <trkpt lat="45.110846" lon="2.684911"><ele>1439.75</ele></trkpt>
   <trkpt lat="45.110843" lon="2.684845"><ele>1440.5</ele></trkpt>
   <trkpt lat="45.110835" lon="2.684799"><ele>1441</ele></trkpt>
   <trkpt lat="45.110801" lon="2.684702"><ele>1442</ele></trkpt>
   <trkpt lat="45.110761" lon="2.684639"><ele>1443.25</ele></trkpt>
   <trkpt lat="45.110719" lon="2.684596"><ele>1443.75</ele></trkpt>
   <trkpt lat="45.110558" lon="2.684466"><ele>1445.25</ele></trkpt>
   <trkpt lat="45.110291" lon="2.6842"><ele>1449</ele></trkpt>
   <trkpt lat="45.110062" lon="2.683969"><ele>1452.75</ele></trkpt>
   <trkpt lat="45.109686" lon="2.683557"><ele>1459</ele></trkpt>
   <trkpt lat="45.109571" lon="2.68344"><ele>1460.75</ele></trkpt>
   <trkpt lat="45.109493" lon="2.683374"><ele>1461.25</ele></trkpt>
   <trkpt lat="45.109103" lon="2.683102"><ele>1462.75</ele></trkpt>
   <trkpt lat="45.10908" lon="2.683063"><ele>1463.5</ele></trkpt>
   <trkpt lat="45.109074" lon="2.683018"><ele>1465</ele></trkpt>
   <trkpt lat="45.109085" lon="2.68297"><ele>1467.25</ele></trkpt>
   <trkpt lat="45.109118" lon="2.682945"><ele>1469</ele></trkpt>
   <trkpt lat="45.109152" lon="2.68294"><ele>1470</ele></trkpt>
   <trkpt lat="45.109203" lon="2.682964"><ele>1470.5</ele></trkpt>
   <trkpt lat="45.109352" lon="2.683057"><ele>1470.5</ele></trkpt>
   <trkpt lat="45.109594" lon="2.683163"><ele>1472</ele></trkpt>
   <trkpt lat="45.10999" lon="2.683353"><ele>1476.75</ele></trkpt>
   <trkpt lat="45.110099" lon="2.683428"><ele>1479.25</ele></trkpt>
   <trkpt lat="45.110307" lon="2.683635"><ele>1480</ele></trkpt>
   <trkpt lat="45.110431" lon="2.683715"><ele>1482</ele></trkpt>
   <trkpt lat="45.11069" lon="2.683824"><ele>1485.5</ele></trkpt>
   <trkpt lat="45.110825" lon="2.683865"><ele>1487.75</ele></trkpt>
   <trkpt lat="45.111015" lon="2.683814"><ele>1488.5</ele></trkpt>
   <trkpt lat="45.111135" lon="2.683747"><ele>1489.5</ele></trkpt>
   <trkpt lat="45.111216" lon="2.683688"><ele>1489.25</ele></trkpt>
   <trkpt lat="45.111281" lon="2.683623"><ele>1491.25</ele></trkpt>
   <trkpt lat="45.111345" lon="2.683499"><ele>1493</ele></trkpt>
   <trkpt lat="45.111481" lon="2.683043"><ele>1499</ele></trkpt>
   <trkpt lat="45.111516" lon="2.682869"><ele>1501</ele></trkpt>
   <trkpt lat="45.111529" lon="2.682721"><ele>1502.5</ele></trkpt>
   <trkpt lat="45.111502" lon="2.682524"><ele>1505.5</ele></trkpt>
   <trkpt lat="45.11145" lon="2.682333"><ele>1506.75</ele></trkpt>
   <trkpt lat="45.111448" lon="2.682267"><ele>1505.75</ele></trkpt>
   <trkpt lat="45.111473" lon="2.682171"><ele>1506.25</ele></trkpt>
   <trkpt lat="45.11151" lon="2.682106"><ele>1507.75</ele></trkpt>
   <trkpt lat="45.111552" lon="2.682062"><ele>1508.25</ele></trkpt>
   <trkpt lat="45.11163" lon="2.682012"><ele>1507.5</ele></trkpt>
   <trkpt lat="45.111825" lon="2.681948"><ele>1508</ele></trkpt>
   <trkpt lat="45.11188" lon="2.681913"><ele>1508.25</ele></trkpt>
   <trkpt lat="45.111913" lon="2.681852"><ele>1508.5</ele></trkpt>
   <trkpt lat="45.11194" lon="2.681733"><ele>1509.25</ele></trkpt>
   <trkpt lat="45.111952" lon="2.681469"><ele>1511.5</ele></trkpt>
   <trkpt lat="45.111941" lon="2.681305"><ele>1513</ele></trkpt>
   <trkpt lat="45.111905" lon="2.681121"><ele>1515.5</ele></trkpt>
   <trkpt lat="45.111894" lon="2.681001"><ele>1517.5</ele></trkpt>
   <trkpt lat="45.111919" lon="2.680905"><ele>1517.25</ele></trkpt>
   <trkpt lat="45.112136" lon="2.680429"><ele>1520.5</ele></trkpt>
   <trkpt lat="45.112168" lon="2.680323"><ele>1521.75</ele></trkpt>
   <trkpt lat="45.112181" lon="2.680219"><ele>1522.5</ele></trkpt>
   <trkpt lat="45.112147" lon="2.679859"><ele>1524.5</ele></trkpt>
   <trkpt lat="45.11212" lon="2.679627"><ele>1526.25</ele></trkpt>
   <trkpt lat="45.112092" lon="2.679524"><ele>1527.5</ele></trkpt>
   <trkpt lat="45.111888" lon="2.67918"><ele>1533</ele></trkpt>
   <trkpt lat="45.111834" lon="2.67905"><ele>1534.25</ele></trkpt>
   <trkpt lat="45.111804" lon="2.678936"><ele>1534.5</ele></trkpt>
   <trkpt lat="45.111783" lon="2.6788"><ele>1535.5</ele></trkpt>
   <trkpt lat="45.11177" lon="2.678637"><ele>1537</ele></trkpt>
   <trkpt lat="45.111768" lon="2.678469"><ele>1538.5</ele></trkpt>
   <trkpt lat="45.111794" lon="2.677931"><ele>1541.75</ele></trkpt>
   <trkpt lat="45.111824" lon="2.677531"><ele>1544.5</ele></trkpt>
   <trkpt lat="45.111829" lon="2.677433"><ele>1545.5</ele></trkpt>
   <trkpt lat="45.111845" lon="2.677106"><ele>1548.75</ele></trkpt>
   <trkpt lat="45.111862" lon="2.676962"><ele>1550.5</ele></trkpt>
   <trkpt lat="45.111882" lon="2.676842"><ele>1551.25</ele></trkpt>
   <trkpt lat="45.111914" lon="2.676716"><ele>1551.5</ele></trkpt>
   <trkpt lat="45.111961" lon="2.676576"><ele>1552.25</ele></trkpt>
   <trkpt lat="45.112185" lon="2.676022"><ele>1556.75</ele></trkpt>
   <trkpt lat="45.11226" lon="2.675869"><ele>1557</ele></trkpt>
   <trkpt lat="45.11236" lon="2.675687"><ele>1558</ele></trkpt>
   <trkpt lat="45.112452" lon="2.675457"><ele>1560.25</ele></trkpt>
   <trkpt lat="45.112499" lon="2.67529"><ele>1561.75</ele></trkpt>
   <trkpt lat="45.112597" lon="2.674844"><ele>1565.25</ele></trkpt>
   <trkpt lat="45.112738" lon="2.67441"><ele>1569</ele></trkpt>
   <trkpt lat="45.112839" lon="2.674126"><ele>1571</ele></trkpt>
   <trkpt lat="45.112942" lon="2.673897"><ele>1573.75</ele></trkpt>
   <trkpt lat="45.11303" lon="2.673722"><ele>1575.5</ele></trkpt>
   <trkpt lat="45.113105" lon="2.673541"><ele>1577</ele></trkpt>
   <trkpt lat="45.113266" lon="2.673048"><ele>1583</ele></trkpt>
   <trkpt lat="45.113348" lon="2.672857"><ele>1581</ele></trkpt>
   <trkpt lat="45.113443" lon="2.672683"><ele>1583</ele></trkpt>
   <trkpt lat="45.113552" lon="2.672519"><ele>1585.5</ele></trkpt>
   <trkpt lat="45.113741" lon="2.672294"><ele>1586.5</ele></trkpt>
   <trkpt lat="45.114057" lon="2.67195"><ele>1587.75</ele></trkpt>
  </trkseg>
 </trk>
</gpx>
