<?xml version="1.0" encoding="UTF-8"?>
<gpx creator="Lanterne Rouge" version="1.1" xmlns="http://www.topografix.com/GPX/1/1" xmlns:xsi="http://www.w3.org/2001/XMLSchema-instance" xsi:schemaLocation="http://www.topografix.com/GPX/1/1 http://www.topografix.com/GPX/1/1/gpx.xsd">
 <metadata>
  <name>Tater Tot</name>
  <author>
   <name>Lanterne Rouge</name>
   <link href="https://lanternerouge.app"/>
  </author>
 </metadata>
 <wpt lat="43.685778731770114" lon="-114.35912301465765">
  <name>START</name>
 </wpt>
 <wpt lat="43.73940478352034" lon="-114.23230055016062">
  <name>Tater Tot</name>
 </wpt>
 <wpt lat="43.74394076643594" lon="-114.29807216049772">
  <name>Tater Tot</name>
 </wpt>
 <wpt lat="43.71857573892558" lon="-114.33388177160417">
  <name>Timed Finish</name>
 </wpt>
 <trk>
  <name>Tater Tot</name>
  <type>cycling</type>
  <trkseg>
   <trkpt lat="43.68578740158658" lon="-114.35916579420444">
    <ele>1791.3909661600815</ele>
   </trkpt>
   <trkpt lat="43.68569786713179" lon="-114.35878629693471">
    <ele>1792.197630202767</ele>
   </trkpt>
   <trkpt lat="43.686460001632256" lon="-114.35831667678326">
    <ele>1793.411110924557</ele>
   </trkpt>
   <trkpt lat="43.687160001627596" lon="-114.357883343453">
    <ele>1794.9670041868123</ele>
   </trkpt>
   <trkpt lat="43.68786" lon="-114.35745000000001">
    <ele>1796.2812542621211</ele>
   </trkpt>
   <trkpt lat="43.688570000000006" lon="-114.35706">
    <ele>1797.6016829810821</ele>
   </trkpt>
   <trkpt lat="43.68932" lon="-114.35673000000001">
    <ele>1798.742293732099</ele>
   </trkpt>
   <trkpt lat="43.6901" lon="-114.35660000000001">
    <ele>1799.8952331210032</ele>
   </trkpt>
   <trkpt lat="43.6906" lon="-114.35667000000001">
    <ele>1801.0697085140816</ele>
   </trkpt>
   <trkpt lat="43.69110000028668" lon="-114.35682999872216">
    <ele>1802.540715116668</ele>
   </trkpt>
   <trkpt lat="43.6916" lon="-114.35699000000001">
    <ele>1804.6141853723132</ele>
   </trkpt>
   <trkpt lat="43.692310000000006" lon="-114.35725000000001">
    <ele>1807.2180434940515</ele>
   </trkpt>
   <trkpt lat="43.692789999999995" lon="-114.35731000000001">
    <ele>1808.0273917450559</ele>
   </trkpt>
   <trkpt lat="43.6929658004557" lon="-114.35732326620641">
    <ele>1808.0273917450559</ele>
   </trkpt>
   <trkpt lat="43.69314194941668" lon="-114.35733856095241">
    <ele>1808.0273917450559</ele>
   </trkpt>
   <trkpt lat="43.69371441213978" lon="-114.35725172857232">
    <ele>1809.1136788420874</ele>
   </trkpt>
   <trkpt lat="43.69455491345134" lon="-114.35705791562992">
    <ele>1810.9233753981564</ele>
   </trkpt>
   <trkpt lat="43.69525849025211" lon="-114.35686688712806">
    <ele>1814.2961899618178</ele>
   </trkpt>
   <trkpt lat="43.69565053974302" lon="-114.35672158767265">
    <ele>1816.1477827434198</ele>
   </trkpt>
   <trkpt lat="43.696007196645155" lon="-114.35654244323612">
    <ele>1816.6985261078873</ele>
   </trkpt>
   <trkpt lat="43.696313543877814" lon="-114.35634214111587">
    <ele>1817.9323001977173</ele>
   </trkpt>
   <trkpt lat="43.69661739776022" lon="-114.35609067606357">
    <ele>1818.6456712498239</ele>
   </trkpt>
   <trkpt lat="43.696916324356984" lon="-114.35578680455421">
    <ele>1818.7775000884417</ele>
   </trkpt>
   <trkpt lat="43.69718365428177" lon="-114.35545067582149">
    <ele>1818.774356168248</ele>
   </trkpt>
   <trkpt lat="43.69751245352106" lon="-114.35496333935421">
    <ele>1818.6666815095175</ele>
   </trkpt>
   <trkpt lat="43.697825038878015" lon="-114.35443326754134">
    <ele>1818.8948915382018</ele>
   </trkpt>
   <trkpt lat="43.69832439255353" lon="-114.35349472422821">
    <ele>1819.21653927695</ele>
   </trkpt>
   <trkpt lat="43.698855230408014" lon="-114.3525797317378">
    <ele>1820.5354593699547</ele>
   </trkpt>
   <trkpt lat="43.69910803652649" lon="-114.35218088271202">
    <ele>1820.760120920404</ele>
   </trkpt>
   <trkpt lat="43.69928500792365" lon="-114.3519715377393">
    <ele>1821.1218126025972</ele>
   </trkpt>
   <trkpt lat="43.69953382117107" lon="-114.35174594214885">
    <ele>1821.5900209754068</ele>
   </trkpt>
   <trkpt lat="43.699921409989194" lon="-114.35146328803407">
    <ele>1822.1031049177718</ele>
   </trkpt>
   <trkpt lat="43.7007284463755" lon="-114.35095766665837">
    <ele>1822.418407823694</ele>
   </trkpt>
   <trkpt lat="43.701514454056024" lon="-114.35048571566334">
    <ele>1822.2305895808468</ele>
   </trkpt>
   <trkpt lat="43.702305805510065" lon="-114.3500044771555">
    <ele>1822.6558712025453</ele>
   </trkpt>
   <trkpt lat="43.70306871611308" lon="-114.34953417660432">
    <ele>1824.5593848913657</ele>
   </trkpt>
   <trkpt lat="43.70381739080405" lon="-114.34906736078916">
    <ele>1827.3913436879327</ele>
   </trkpt>
   <trkpt lat="43.70462116143459" lon="-114.34855910859321">
    <ele>1829.8673854694177</ele>
   </trkpt>
   <trkpt lat="43.705410482026586" lon="-114.34804376644487">
    <ele>1832.6051719175505</ele>
   </trkpt>
   <trkpt lat="43.70621316834007" lon="-114.34750856333532">
    <ele>1835.3855862478204</ele>
   </trkpt>
   <trkpt lat="43.70666955803516" lon="-114.34718176039402">
    <ele>1836.9154727696025</ele>
   </trkpt>
   <trkpt lat="43.70693877041411" lon="-114.34694735928082">
    <ele>1837.0724730698553</ele>
   </trkpt>
   <trkpt lat="43.70711073651811" lon="-114.34675015146887">
    <ele>1837.5948752540353</ele>
   </trkpt>
   <trkpt lat="43.70744553737834" lon="-114.34627491859867">
    <ele>1837.4840817697443</ele>
   </trkpt>
   <trkpt lat="43.70793351111085" lon="-114.34549590141516">
    <ele>1836.734509270417</ele>
   </trkpt>
   <trkpt lat="43.70848766728203" lon="-114.34454176506127">
    <ele>1836.7888465496844</ele>
   </trkpt>
   <trkpt lat="43.70882613581004" lon="-114.343982752281">
    <ele>1837.9790272401763</ele>
   </trkpt>
   <trkpt lat="43.70914899154133" lon="-114.34351655891284">
    <ele>1838.8137238182833</ele>
   </trkpt>
   <trkpt lat="43.709499351775705" lon="-114.34308060033354">
    <ele>1839.2162276276904</ele>
   </trkpt>
   <trkpt lat="43.70986727799159" lon="-114.34268710815543">
    <ele>1839.4309610172775</ele>
   </trkpt>
   <trkpt lat="43.71023896786142" lon="-114.34234303406481">
    <ele>1839.80704996286</ele>
   </trkpt>
   <trkpt lat="43.71066225440117" lon="-114.34200302999692">
    <ele>1840.598517661845</ele>
   </trkpt>
   <trkpt lat="43.71141860841235" lon="-114.34144609554002">
    <ele>1841.9299370744193</ele>
   </trkpt>
   <trkpt lat="43.71216910950823" lon="-114.34090981096413">
    <ele>1843.1640752648661</ele>
   </trkpt>
   <trkpt lat="43.712946194511204" lon="-114.34035703474684">
    <ele>1844.3843580892997</ele>
   </trkpt>
   <trkpt lat="43.71371761140487" lon="-114.33979943905454">
    <ele>1844.8720809369609</ele>
   </trkpt>
   <trkpt lat="43.71445110817278" lon="-114.33924869605372">
    <ele>1845.7696657445765</ele>
   </trkpt>
   <trkpt lat="43.715175664090665" lon="-114.33866472434208">
    <ele>1846.7843216171084</ele>
   </trkpt>
   <trkpt lat="43.715674387192685" lon="-114.33821561346579">
    <ele>1847.9430040703917</ele>
   </trkpt>
   <trkpt lat="43.71608512057811" lon="-114.33779549173181">
    <ele>1849.1357050848637</ele>
   </trkpt>
   <trkpt lat="43.71645760481376" lon="-114.33735706697453">
    <ele>1850.2502494121575</ele>
   </trkpt>
   <trkpt lat="43.716790652152014" lon="-114.33690190740599">
    <ele>1851.5991964383581</ele>
   </trkpt>
   <trkpt lat="43.717190033483966" lon="-114.33627350007238">
    <ele>1852.6850407834002</ele>
   </trkpt>
   <trkpt lat="43.717607976779945" lon="-114.33557374063132">
    <ele>1853.685547305259</ele>
   </trkpt>
   <trkpt lat="43.71805865891561" lon="-114.33471084354026">
    <ele>1854.410280679386</ele>
   </trkpt>
   <trkpt lat="43.71855266708163" lon="-114.33369800064409">
    <ele>1855.2823121049476</ele>
   </trkpt>
   <trkpt lat="43.71904024189124" lon="-114.33265811217203">
    <ele>1856.0237374431308</ele>
   </trkpt>
   <trkpt lat="43.71950695755352" lon="-114.33163596479821">
    <ele>1856.1110878107222</ele>
   </trkpt>
   <trkpt lat="43.71987673898044" lon="-114.33090297950447">
    <ele>1855.6991104636993</ele>
   </trkpt>
   <trkpt lat="43.72033111086981" lon="-114.33008615409848">
    <ele>1854.8806399843834</ele>
   </trkpt>
   <trkpt lat="43.72090089462246" lon="-114.32914204012904">
    <ele>1853.255529851068</ele>
   </trkpt>
   <trkpt lat="43.721488495839886" lon="-114.32823211107359">
    <ele>1851.9503026554423</ele>
   </trkpt>
   <trkpt lat="43.7220293794765" lon="-114.32744740712012">
    <ele>1851.6646945552984</ele>
   </trkpt>
   <trkpt lat="43.72261694834747" lon="-114.32664576931744">
    <ele>1852.8418543267987</ele>
   </trkpt>
   <trkpt lat="43.7232357433897" lon="-114.32580071933789">
    <ele>1853.7653237719376</ele>
   </trkpt>
   <trkpt lat="43.72367699644596" lon="-114.32515525586561">
    <ele>1853.6786246983736</ele>
   </trkpt>
   <trkpt lat="43.72404779624517" lon="-114.32455233730671">
    <ele>1853.371716540475</ele>
   </trkpt>
   <trkpt lat="43.72435251774286" lon="-114.3239889882635">
    <ele>1853.5580305406068</ele>
   </trkpt>
   <trkpt lat="43.72459698081165" lon="-114.32347090016226">
    <ele>1854.8056456918748</ele>
   </trkpt>
   <trkpt lat="43.72489366902296" lon="-114.32274229661054">
    <ele>1856.1704490283228</ele>
   </trkpt>
   <trkpt lat="43.72527390907918" lon="-114.32170647683277">
    <ele>1857.0898433703308</ele>
   </trkpt>
   <trkpt lat="43.725648480058084" lon="-114.32061475085952">
    <ele>1858.8632052527016</ele>
   </trkpt>
   <trkpt lat="43.72601455794473" lon="-114.31956739637121">
    <ele>1860.7406675477912</ele>
   </trkpt>
   <trkpt lat="43.726412233425016" lon="-114.31851838483612">
    <ele>1863.0931360400675</ele>
   </trkpt>
   <trkpt lat="43.72681022694128" lon="-114.31756170711229">
    <ele>1864.058667922972</ele>
   </trkpt>
   <trkpt lat="43.727244390666435" lon="-114.31658056537705">
    <ele>1865.273355207322</ele>
   </trkpt>
   <trkpt lat="43.72769105794117" lon="-114.31557941780683">
    <ele>1866.7281796219102</ele>
   </trkpt>
   <trkpt lat="43.72810270803404" lon="-114.31465986846192">
    <ele>1868.8100652018243</ele>
   </trkpt>
   <trkpt lat="43.72852283403507" lon="-114.31372343725273">
    <ele>1869.1879027291188</ele>
   </trkpt>
   <trkpt lat="43.728934286947826" lon="-114.31280784474896">
    <ele>1869.2922519152712</ele>
   </trkpt>
   <trkpt lat="43.72938047496538" lon="-114.3118163145009">
    <ele>1869.487091477527</ele>
   </trkpt>
   <trkpt lat="43.72981243417964" lon="-114.31085757406356">
    <ele>1869.5817424871673</ele>
   </trkpt>
   <trkpt lat="43.73028639670041" lon="-114.30980924832838">
    <ele>1870.4850245694254</ele>
   </trkpt>
   <trkpt lat="43.73078912895208" lon="-114.30885693115205">
    <ele>1872.392718792372</ele>
   </trkpt>
   <trkpt lat="43.731330492056486" lon="-114.30790790463823">
    <ele>1875.834745191797</ele>
   </trkpt>
   <trkpt lat="43.73179532252176" lon="-114.30715712602617">
    <ele>1879.509501438921</ele>
   </trkpt>
   <trkpt lat="43.73224438331567" lon="-114.3064970259317">
    <ele>1883.4502926967052</ele>
   </trkpt>
   <trkpt lat="43.732854205511906" lon="-114.30563271151385">
    <ele>1887.2242783423947</ele>
   </trkpt>
   <trkpt lat="43.73346036764255" lon="-114.30477651091466">
    <ele>1890.0451117780724</ele>
   </trkpt>
   <trkpt lat="43.73400268661524" lon="-114.30402102137609">
    <ele>1891.8931187264843</ele>
   </trkpt>
   <trkpt lat="43.7341614343925" lon="-114.30380411851199">
    <ele>1892.0218203147433</ele>
   </trkpt>
   <trkpt lat="43.73418246419058" lon="-114.30363101829707">
    <ele>1892.0218203147433</ele>
   </trkpt>
   <trkpt lat="43.734190035895516" lon="-114.30340752506238">
    <ele>1892.3750352544682</ele>
   </trkpt>
   <trkpt lat="43.73420091191923" lon="-114.30293772106697">
    <ele>1892.757701351336</ele>
   </trkpt>
   <trkpt lat="43.734131904007" lon="-114.30230025653351">
    <ele>1894.5168922280338</ele>
   </trkpt>
   <trkpt lat="43.73407021017191" lon="-114.301865147378">
    <ele>1894.969964396459</ele>
   </trkpt>
   <trkpt lat="43.734003017465085" lon="-114.30151029475567">
    <ele>1895.512264126955</ele>
   </trkpt>
   <trkpt lat="43.734" lon="-114.30119">
    <ele>1895.9276311772126</ele>
   </trkpt>
   <trkpt lat="43.734160004836944" lon="-114.30013500291632">
    <ele>1898.092109075369</ele>
   </trkpt>
   <trkpt lat="43.734320000000004" lon="-114.29908">
    <ele>1900.9806229399196</ele>
   </trkpt>
   <trkpt lat="43.73449" lon="-114.29824">
    <ele>1902.1111307938118</ele>
   </trkpt>
   <trkpt lat="43.73452" lon="-114.29796">
    <ele>1903.1252254100464</ele>
   </trkpt>
   <trkpt lat="43.73433000000001" lon="-114.29697000000002">
    <ele>1905.6948669053336</ele>
   </trkpt>
   <trkpt lat="43.734210000000004" lon="-114.29617">
    <ele>1907.8451794424175</ele>
   </trkpt>
   <trkpt lat="43.73413" lon="-114.29528">
    <ele>1910.740955129085</ele>
   </trkpt>
   <trkpt lat="43.734120000000004" lon="-114.294785">
    <ele>1913.1650881122264</ele>
   </trkpt>
   <trkpt lat="43.73411" lon="-114.29429">
    <ele>1913.1650881122264</ele>
   </trkpt>
   <trkpt lat="43.734120000000004" lon="-114.29384">
    <ele>1916.0606698745669</ele>
   </trkpt>
   <trkpt lat="43.734280000000005" lon="-114.29305000000001">
    <ele>1918.335639840776</ele>
   </trkpt>
   <trkpt lat="43.734320000000004" lon="-114.29263">
    <ele>1918.5653931353422</ele>
   </trkpt>
   <trkpt lat="43.73431" lon="-114.29219">
    <ele>1918.9445518711623</ele>
   </trkpt>
   <trkpt lat="43.73421500181099" lon="-114.2915399987587">
    <ele>1919.5716714679234</ele>
   </trkpt>
   <trkpt lat="43.734120000000004" lon="-114.29089">
    <ele>1920.5815843561415</ele>
   </trkpt>
   <trkpt lat="43.73407" lon="-114.29023000000001">
    <ele>1922.2936224495024</ele>
   </trkpt>
   <trkpt lat="43.73408500449292" lon="-114.28921500011161">
    <ele>1924.9321422014007</ele>
   </trkpt>
   <trkpt lat="43.734100000000005" lon="-114.2882">
    <ele>1927.4319186459034</ele>
   </trkpt>
   <trkpt lat="43.734133339638255" lon="-114.28735000079146">
    <ele>1930.1929846692574</ele>
   </trkpt>
   <trkpt lat="43.734166672977665" lon="-114.28650000063658">
    <ele>1932.6749781877065</ele>
   </trkpt>
   <trkpt lat="43.73418333648883" lon="-114.28607500031829">
    <ele>1934.4380595785524</ele>
   </trkpt>
   <trkpt lat="43.7342" lon="-114.28565">
    <ele>1935.1460530024422</ele>
   </trkpt>
   <trkpt lat="43.73423333777964" lon="-114.28514500113006">
    <ele>1936.5782979044209</ele>
   </trkpt>
   <trkpt lat="43.734266675559276" lon="-114.28464000226012">
    <ele>1938.2952654068151</ele>
   </trkpt>
   <trkpt lat="43.73430000889224" lon="-114.28413500226571">
    <ele>1939.1765577656506</ele>
   </trkpt>
   <trkpt lat="43.734333342225206" lon="-114.28363000227131">
    <ele>1941.6942355930132</ele>
   </trkpt>
   <trkpt lat="43.7344" lon="-114.28262000000001">
    <ele>1943.4962793648895</ele>
   </trkpt>
   <trkpt lat="43.7344" lon="-114.28263000000001">
    <ele>1943.4962793648895</ele>
   </trkpt>
   <trkpt lat="43.73451" lon="-114.28159000000001">
    <ele>1944.346441875673</ele>
   </trkpt>
   <trkpt lat="43.73459000513479" lon="-114.28050500140623">
    <ele>1946.3772589293046</ele>
   </trkpt>
   <trkpt lat="43.73467" lon="-114.27942000000002">
    <ele>1949.1143784126655</ele>
   </trkpt>
   <trkpt lat="43.734750000000005" lon="-114.27854">
    <ele>1951.898263794889</ele>
   </trkpt>
   <trkpt lat="43.73473000820261" lon="-114.27756999933777">
    <ele>1953.6482164965164</ele>
   </trkpt>
   <trkpt lat="43.73471000820229" lon="-114.27659999932331">
    <ele>1955.0586796905673</ele>
   </trkpt>
   <trkpt lat="43.73469" lon="-114.27563">
    <ele>1957.5418881347541</ele>
   </trkpt>
   <trkpt lat="43.73467" lon="-114.27549">
    <ele>1957.5418881347541</ele>
   </trkpt>
   <trkpt lat="43.734570000000005" lon="-114.27522">
    <ele>1959.6076930124827</ele>
   </trkpt>
   <trkpt lat="43.7344" lon="-114.2749">
    <ele>1961.2150766284365</ele>
   </trkpt>
   <trkpt lat="43.73425" lon="-114.27465000000001">
    <ele>1962.3274862609533</ele>
   </trkpt>
   <trkpt lat="43.7341" lon="-114.2744">
    <ele>1964.593592166447</ele>
   </trkpt>
   <trkpt lat="43.73395" lon="-114.27415">
    <ele>1965.9935300839427</ele>
   </trkpt>
   <trkpt lat="43.73384" lon="-114.27389000000001">
    <ele>1966.795164062886</ele>
   </trkpt>
   <trkpt lat="43.73366" lon="-114.27325">
    <ele>1967.128984688413</ele>
   </trkpt>
   <trkpt lat="43.73362" lon="-114.2728">
    <ele>1966.271050557268</ele>
   </trkpt>
   <trkpt lat="43.73362" lon="-114.27239000000002">
    <ele>1965.3102247744423</ele>
   </trkpt>
   <trkpt lat="43.733700000000006" lon="-114.27195">
    <ele>1966.4148416392068</ele>
   </trkpt>
   <trkpt lat="43.73396501491111" lon="-114.27088251413541">
    <ele>1969.2275310687724</ele>
   </trkpt>
   <trkpt lat="43.73409751739935" lon="-114.27034876647917">
    <ele>1970.8239343574162</ele>
   </trkpt>
   <trkpt lat="43.73423001988759" lon="-114.26981501882292">
    <ele>1971.6127011901795</ele>
   </trkpt>
   <trkpt lat="43.734362517408435" lon="-114.26928126644285">
    <ele>1972.302164507917</ele>
   </trkpt>
   <trkpt lat="43.73449501492928" lon="-114.26874751406275">
    <ele>1974.8802230704975</ele>
   </trkpt>
   <trkpt lat="43.73476" lon="-114.26768000000001">
    <ele>1977.4434648508757</ele>
   </trkpt>
   <trkpt lat="43.73476" lon="-114.2677">
    <ele>1977.4434648508757</ele>
   </trkpt>
   <trkpt lat="43.734950000000005" lon="-114.26684000000002">
    <ele>1979.7661016313523</ele>
   </trkpt>
   <trkpt lat="43.735036670876774" lon="-114.26634833620727">
    <ele>1981.9149877024865</ele>
   </trkpt>
   <trkpt lat="43.73512334175354" lon="-114.26585667241454">
    <ele>1982.6792953247118</ele>
   </trkpt>
   <trkpt lat="43.735210008415365" lon="-114.26536500577546">
    <ele>1984.0183009343953</ele>
   </trkpt>
   <trkpt lat="43.73529667507718" lon="-114.26487333913637">
    <ele>1985.5004074588498</ele>
   </trkpt>
   <trkpt lat="43.73538333753859" lon="-114.2643816695682">
    <ele>1987.2847937308275</ele>
   </trkpt>
   <trkpt lat="43.73547000000001" lon="-114.26389">
    <ele>1989.1970236670572</ele>
   </trkpt>
   <trkpt lat="43.735585" lon="-114.263465">
    <ele>1990.0621481304186</ele>
   </trkpt>
   <trkpt lat="43.7357" lon="-114.26304">
    <ele>1991.8827109621566</ele>
   </trkpt>
   <trkpt lat="43.73613" lon="-114.26205000000002">
    <ele>1994.087712192127</ele>
   </trkpt>
   <trkpt lat="43.73666" lon="-114.2612">
    <ele>1996.356156784827</ele>
   </trkpt>
   <trkpt lat="43.736790000000006" lon="-114.26094">
    <ele>1998.1249456641426</ele>
   </trkpt>
   <trkpt lat="43.73702500215143" lon="-114.2602450025919">
    <ele>1999.823627435024</ele>
   </trkpt>
   <trkpt lat="43.737142501075716" lon="-114.25989750129595">
    <ele>2000.8105181251478</ele>
   </trkpt>
   <trkpt lat="43.737260000000006" lon="-114.25955">
    <ele>2002.7615985523953</ele>
   </trkpt>
   <trkpt lat="43.737370000000006" lon="-114.25914000000002">
    <ele>2003.5677273891524</ele>
   </trkpt>
   <trkpt lat="43.73744000000001" lon="-114.2587">
    <ele>2005.8225297736394</ele>
   </trkpt>
   <trkpt lat="43.737480000000005" lon="-114.25827000000001">
    <ele>2007.284319253044</ele>
   </trkpt>
   <trkpt lat="43.73752" lon="-114.25784000000002">
    <ele>2008.4720904260375</ele>
   </trkpt>
   <trkpt lat="43.73753000000001" lon="-114.2574">
    <ele>2009.6881459574638</ele>
   </trkpt>
   <trkpt lat="43.73752500435914" lon="-114.25689999983771">
    <ele>2011.1556668560684</ele>
   </trkpt>
   <trkpt lat="43.737520008718285" lon="-114.25639999967542">
    <ele>2012.697004039536</ele>
   </trkpt>
   <trkpt lat="43.73751500871832" lon="-114.25589999968008">
    <ele>2013.6002903628137</ele>
   </trkpt>
   <trkpt lat="43.73751000871836" lon="-114.25539999968473">
    <ele>2016.078022850362</ele>
   </trkpt>
   <trkpt lat="43.737500000000004" lon="-114.2544">
    <ele>2018.0689255299353</ele>
   </trkpt>
   <trkpt lat="43.73752" lon="-114.25418">
    <ele>2018.838656839358</ele>
   </trkpt>
   <trkpt lat="43.737615000000005" lon="-114.25364">
    <ele>2020.5644314026424</ele>
   </trkpt>
   <trkpt lat="43.73771000000001" lon="-114.2531">
    <ele>2022.3358071631053</ele>
   </trkpt>
   <trkpt lat="43.737750000000005" lon="-114.25266">
    <ele>2024.534196740315</ele>
   </trkpt>
   <trkpt lat="43.73772500330105" lon="-114.25204499957523">
    <ele>2027.0135149745088</ele>
   </trkpt>
   <trkpt lat="43.73770000660209" lon="-114.25142999915046">
    <ele>2029.4597488444288</ele>
   </trkpt>
   <trkpt lat="43.73767500330105" lon="-114.25081499957523">
    <ele>2031.6269712181886</ele>
   </trkpt>
   <trkpt lat="43.73765" lon="-114.2502">
    <ele>2033.8412753126954</ele>
   </trkpt>
   <trkpt lat="43.737610000000004" lon="-114.24965500000002">
    <ele>2035.7584052667503</ele>
   </trkpt>
   <trkpt lat="43.737570000000005" lon="-114.24911000000002">
    <ele>2037.1559777374282</ele>
   </trkpt>
   <trkpt lat="43.73744000000001" lon="-114.24859000000001">
    <ele>2038.3466566392422</ele>
   </trkpt>
   <trkpt lat="43.73722" lon="-114.248">
    <ele>2039.4372980216788</ele>
   </trkpt>
   <trkpt lat="43.73709" lon="-114.24756000000001">
    <ele>2040.381136438146</ele>
   </trkpt>
   <trkpt lat="43.73699500295059" lon="-114.24714833070205">
    <ele>2041.6478421308525</ele>
   </trkpt>
   <trkpt lat="43.736900005901184" lon="-114.24673666140409">
    <ele>2043.3661881327157</ele>
   </trkpt>
   <trkpt lat="43.73680500589683" lon="-114.24632499471858">
    <ele>2045.4218917579499</ele>
   </trkpt>
   <trkpt lat="43.73671000589246" lon="-114.24591332803305">
    <ele>2048.3729746710674</ele>
   </trkpt>
   <trkpt lat="43.73661500294624" lon="-114.24550166401653">
    <ele>2051.2394629066985</ele>
   </trkpt>
   <trkpt lat="43.736520000000006" lon="-114.24509">
    <ele>2054.1107774561397</ele>
   </trkpt>
   <trkpt lat="43.736540000000005" lon="-114.24495">
    <ele>2054.1107774561397</ele>
   </trkpt>
   <trkpt lat="43.736650000000004" lon="-114.24468">
    <ele>2055.3604227973847</ele>
   </trkpt>
   <trkpt lat="43.736700000000006" lon="-114.24447">
    <ele>2055.3604227973847</ele>
   </trkpt>
   <trkpt lat="43.736720000000005" lon="-114.24433">
    <ele>2056.480552801955</ele>
   </trkpt>
   <trkpt lat="43.736720000000005" lon="-114.24411">
    <ele>2057.017643593178</ele>
   </trkpt>
   <trkpt lat="43.736700000000006" lon="-114.24397">
    <ele>2057.591791199839</ele>
   </trkpt>
   <trkpt lat="43.73662" lon="-114.2437">
    <ele>2059.4933123686415</ele>
   </trkpt>
   <trkpt lat="43.7364" lon="-114.24325">
    <ele>2061.0570562415483</ele>
   </trkpt>
   <trkpt lat="43.73635" lon="-114.24303">
    <ele>2061.540310992685</ele>
   </trkpt>
   <trkpt lat="43.736380000000004" lon="-114.24289">
    <ele>2062.6206671550267</ele>
   </trkpt>
   <trkpt lat="43.73648" lon="-114.24262">
    <ele>2063.222843219757</ele>
   </trkpt>
   <trkpt lat="43.736540000000005" lon="-114.24235000000002">
    <ele>2063.933657938433</ele>
   </trkpt>
   <trkpt lat="43.736560000000004" lon="-114.24182">
    <ele>2066.4804666786035</ele>
   </trkpt>
   <trkpt lat="43.73664" lon="-114.2411">
    <ele>2068.322643105811</ele>
   </trkpt>
   <trkpt lat="43.73666" lon="-114.24066">
    <ele>2068.7581654319474</ele>
   </trkpt>
   <trkpt lat="43.73665500245056" lon="-114.23990999972384">
    <ele>2070.7036441136984</ele>
   </trkpt>
   <trkpt lat="43.73665250122528" lon="-114.23953499986192">
    <ele>2071.107127922238</ele>
   </trkpt>
   <trkpt lat="43.736650000000004" lon="-114.23916000000001">
    <ele>2072.99953948516</ele>
   </trkpt>
   <trkpt lat="43.736645001864076" lon="-114.23869749984921">
    <ele>2074.2261588819633</ele>
   </trkpt>
   <trkpt lat="43.73664000372815" lon="-114.2382349996984">
    <ele>2078.046384579102</ele>
   </trkpt>
   <trkpt lat="43.73663500186407" lon="-114.2377724998492">
    <ele>2082.6724146317406</ele>
   </trkpt>
   <trkpt lat="43.736630000000005" lon="-114.23731000000001">
    <ele>2085.359247677035</ele>
   </trkpt>
   <trkpt lat="43.736665" lon="-114.236945">
    <ele>2086.757101212074</ele>
   </trkpt>
   <trkpt lat="43.736700000000006" lon="-114.23658">
    <ele>2087.708228422332</ele>
   </trkpt>
   <trkpt lat="43.736780001558586" lon="-114.23615500122135">
    <ele>2089.945499717303</ele>
   </trkpt>
   <trkpt lat="43.736860003117165" lon="-114.2357300024427">
    <ele>2093.128773000004</ele>
   </trkpt>
   <trkpt lat="43.73694000155858" lon="-114.23530500122135">
    <ele>2094.802688364565</ele>
   </trkpt>
   <trkpt lat="43.73702" lon="-114.23488">
    <ele>2096.773959011301</ele>
   </trkpt>
   <trkpt lat="43.73704" lon="-114.23457">
    <ele>2097.9965952849334</ele>
   </trkpt>
   <trkpt lat="43.73704" lon="-114.23414000000001">
    <ele>2101.1607154406797</ele>
   </trkpt>
   <trkpt lat="43.73704" lon="-114.23371000000002">
    <ele>2106.5326513734517</ele>
   </trkpt>
   <trkpt lat="43.737080000000006" lon="-114.23341">
    <ele>2106.5326513734517</ele>
   </trkpt>
   <trkpt lat="43.737170000000006" lon="-114.23322">
    <ele>2107.0295844647467</ele>
   </trkpt>
   <trkpt lat="43.737320000000004" lon="-114.23306000000001">
    <ele>2107.6966619668815</ele>
   </trkpt>
   <trkpt lat="43.73758666666667" lon="-114.23290333333334">
    <ele>2108.352878910112</ele>
   </trkpt>
   <trkpt lat="43.737853333333334" lon="-114.23274666666669">
    <ele>2109.7996042802083</ele>
   </trkpt>
   <trkpt lat="43.73812" lon="-114.23259000000002">
    <ele>2112.0661088769657</ele>
   </trkpt>
   <trkpt lat="43.73825" lon="-114.23251">
    <ele>2112.671456837226</ele>
   </trkpt>
   <trkpt lat="43.738800000000005" lon="-114.23245000000001">
    <ele>2115.8167219512648</ele>
   </trkpt>
   <trkpt lat="43.73894000000001" lon="-114.23237">
    <ele>2116.865952130574</ele>
   </trkpt>
   <trkpt lat="43.73928" lon="-114.2321">
    <ele>2118.001821221953</ele>
   </trkpt>
   <trkpt lat="43.73933" lon="-114.23207000000001">
    <ele>2118.001821221953</ele>
   </trkpt>
   <trkpt lat="43.73937" lon="-114.2321">
    <ele>2118.001821221953</ele>
   </trkpt>
   <trkpt lat="43.7394195707451" lon="-114.23228144092076">
    <ele>2117.913808863485</ele>
   </trkpt>
   <trkpt lat="43.739430000000006" lon="-114.23246">
    <ele>2118.001821221953</ele>
   </trkpt>
   <trkpt lat="43.73935" lon="-114.23253000000001">
    <ele>2117.8909872518666</ele>
   </trkpt>
   <trkpt lat="43.73935" lon="-114.23254000000001">
    <ele>2117.8909872518666</ele>
   </trkpt>
   <trkpt lat="43.73921000000001" lon="-114.23255">
    <ele>2118.057543963283</ele>
   </trkpt>
   <trkpt lat="43.739000000000004" lon="-114.23251">
    <ele>2117.175269852964</ele>
   </trkpt>
   <trkpt lat="43.738800000000005" lon="-114.23245000000001">
    <ele>2117.2609678521962</ele>
   </trkpt>
   <trkpt lat="43.738525" lon="-114.23248000000001">
    <ele>2116.034311874182</ele>
   </trkpt>
   <trkpt lat="43.73825" lon="-114.23251">
    <ele>2113.5015205482237</ele>
   </trkpt>
   <trkpt lat="43.73812" lon="-114.23259000000002">
    <ele>2112.868083119122</ele>
   </trkpt>
   <trkpt lat="43.737853333333334" lon="-114.23274666666669">
    <ele>2110.781348466026</ele>
   </trkpt>
   <trkpt lat="43.73758666666667" lon="-114.23290333333334">
    <ele>2109.79960428021</ele>
   </trkpt>
   <trkpt lat="43.737320000000004" lon="-114.23306000000001">
    <ele>2109.1702456337075</ele>
   </trkpt>
   <trkpt lat="43.737170000000006" lon="-114.23322">
    <ele>2108.538025297212</ele>
   </trkpt>
   <trkpt lat="43.737080000000006" lon="-114.23341">
    <ele>2104.053645571549</ele>
   </trkpt>
   <trkpt lat="43.73705" lon="-114.23360000000001">
    <ele>2104.053645571549</ele>
   </trkpt>
   <trkpt lat="43.73705" lon="-114.23361000000001">
    <ele>2104.053645571549</ele>
   </trkpt>
   <trkpt lat="43.73704" lon="-114.23371000000002">
    <ele>2103.162374811899</ele>
   </trkpt>
   <trkpt lat="43.73704" lon="-114.23414000000001">
    <ele>2101.654220192745</ele>
   </trkpt>
   <trkpt lat="43.73704" lon="-114.23457">
    <ele>2099.2480718955817</ele>
   </trkpt>
   <trkpt lat="43.73702" lon="-114.23488">
    <ele>2096.773959361208</ele>
   </trkpt>
   <trkpt lat="43.73694000159085" lon="-114.23530500104991">
    <ele>2094.802688760706</ele>
   </trkpt>
   <trkpt lat="43.73686000318171" lon="-114.2357300020998">
    <ele>2093.1287733961453</ele>
   </trkpt>
   <trkpt lat="43.73678000159086" lon="-114.2361550010499">
    <ele>2089.9455001134443</ele>
   </trkpt>
   <trkpt lat="43.736700000000006" lon="-114.23658">
    <ele>2087.7082286478058</ele>
   </trkpt>
   <trkpt lat="43.736665" lon="-114.236945">
    <ele>2086.7571011499044</ele>
   </trkpt>
   <trkpt lat="43.736630000000005" lon="-114.23731000000001">
    <ele>2085.3592473514855</ele>
   </trkpt>
   <trkpt lat="43.736635001865665" lon="-114.23777249999634">
    <ele>2082.6724140111073</ele>
   </trkpt>
   <trkpt lat="43.73664000373133" lon="-114.23823499999266">
    <ele>2078.046383834342</ele>
   </trkpt>
   <trkpt lat="43.73664500186567" lon="-114.23869749999633">
    <ele>2074.2261578168104</ele>
   </trkpt>
   <trkpt lat="43.736650000000004" lon="-114.23916000000001">
    <ele>2072.9995383246287</ele>
   </trkpt>
   <trkpt lat="43.73665250122671" lon="-114.23953500007548">
    <ele>2071.107127090197</ele>
   </trkpt>
   <trkpt lat="43.73665500245341" lon="-114.23991000015093">
    <ele>2070.703643420331</ele>
   </trkpt>
   <trkpt lat="43.73666" lon="-114.24066">
    <ele>2068.7581648985265</ele>
   </trkpt>
   <trkpt lat="43.73664" lon="-114.2411">
    <ele>2068.3226427438026</ele>
   </trkpt>
   <trkpt lat="43.736560000000004" lon="-114.24182">
    <ele>2066.480466678606</ele>
   </trkpt>
   <trkpt lat="43.736540000000005" lon="-114.24235000000002">
    <ele>2063.9336579384353</ele>
   </trkpt>
   <trkpt lat="43.73648" lon="-114.24262">
    <ele>2063.2228432197594</ele>
   </trkpt>
   <trkpt lat="43.736380000000004" lon="-114.24289">
    <ele>2062.6206671550285</ele>
   </trkpt>
   <trkpt lat="43.73635" lon="-114.24303">
    <ele>2061.540310992687</ele>
   </trkpt>
   <trkpt lat="43.7364" lon="-114.24325">
    <ele>2061.05705624155</ele>
   </trkpt>
   <trkpt lat="43.73662" lon="-114.2437">
    <ele>2059.4933123686433</ele>
   </trkpt>
   <trkpt lat="43.736700000000006" lon="-114.24397">
    <ele>2057.5917911998404</ele>
   </trkpt>
   <trkpt lat="43.736720000000005" lon="-114.24411">
    <ele>2057.01764359318</ele>
   </trkpt>
   <trkpt lat="43.736720000000005" lon="-114.24433">
    <ele>2056.480552801956</ele>
   </trkpt>
   <trkpt lat="43.736700000000006" lon="-114.24447">
    <ele>2055.3604227637434</ele>
   </trkpt>
   <trkpt lat="43.736650000000004" lon="-114.24468">
    <ele>2055.3604227637434</ele>
   </trkpt>
   <trkpt lat="43.736540000000005" lon="-114.24495">
    <ele>2054.110777324415</ele>
   </trkpt>
   <trkpt lat="43.736520000000006" lon="-114.24509">
    <ele>2054.110777324415</ele>
   </trkpt>
   <trkpt lat="43.73661500295927" lon="-114.24550166407303">
    <ele>2051.2394626529426</ele>
   </trkpt>
   <trkpt lat="43.736710005918525" lon="-114.24591332814607">
    <ele>2048.372974235939</ele>
   </trkpt>
   <trkpt lat="43.73680500592289" lon="-114.24632499483158">
    <ele>2045.421891211954</ele>
   </trkpt>
   <trkpt lat="43.73690000592725" lon="-114.2467366615171">
    <ele>2043.366187647276</ele>
   </trkpt>
   <trkpt lat="43.736995002963624" lon="-114.24714833075856">
    <ele>2041.6478418219635</ele>
   </trkpt>
   <trkpt lat="43.73709" lon="-114.24756000000001">
    <ele>2040.3811362474116</ele>
   </trkpt>
   <trkpt lat="43.73722" lon="-114.248">
    <ele>2039.4372979978405</ele>
   </trkpt>
   <trkpt lat="43.73744000000001" lon="-114.24859000000001">
    <ele>2038.5696885747525</ele>
   </trkpt>
   <trkpt lat="43.737570000000005" lon="-114.24911000000002">
    <ele>2037.3790096729385</ele>
   </trkpt>
   <trkpt lat="43.7376" lon="-114.24939">
    <ele>2036.2052909635265</ele>
   </trkpt>
   <trkpt lat="43.73765" lon="-114.2502">
    <ele>2033.9287268826718</ele>
   </trkpt>
   <trkpt lat="43.737662501646916" lon="-114.25050749969884">
    <ele>2032.2961585133633</ele>
   </trkpt>
   <trkpt lat="43.73767500329383" lon="-114.25081499939769">
    <ele>2030.7192721031006</ele>
   </trkpt>
   <trkpt lat="43.73770000658765" lon="-114.25142999879537">
    <ele>2029.8414807117501</ele>
   </trkpt>
   <trkpt lat="43.737712504940745" lon="-114.25173749909654">
    <ele>2029.1236022592673</ele>
   </trkpt>
   <trkpt lat="43.73772500329383" lon="-114.2520449993977">
    <ele>2027.2347287254217</ele>
   </trkpt>
   <trkpt lat="43.737750000000005" lon="-114.25266">
    <ele>2025.168630093967</ele>
   </trkpt>
   <trkpt lat="43.73771000000001" lon="-114.2531">
    <ele>2022.3358073348531</ele>
   </trkpt>
   <trkpt lat="43.737615000000005" lon="-114.25364">
    <ele>2020.5644314026463</ele>
   </trkpt>
   <trkpt lat="43.73752" lon="-114.25418">
    <ele>2018.8386568459184</ele>
   </trkpt>
   <trkpt lat="43.737500000000004" lon="-114.2544">
    <ele>2018.0689255381355</ele>
   </trkpt>
   <trkpt lat="43.73751000871808" lon="-114.25539999965655">
    <ele>2016.0780228990013</ele>
   </trkpt>
   <trkpt lat="43.737515008718034" lon="-114.2558999996519">
    <ele>2013.6002904347245</ele>
   </trkpt>
   <trkpt lat="43.737520008717986" lon="-114.25639999964726">
    <ele>2012.697004097065</ele>
   </trkpt>
   <trkpt lat="43.737525004359" lon="-114.25689999982363">
    <ele>2011.1556669070408</ele>
   </trkpt>
   <trkpt lat="43.73753000000001" lon="-114.2574">
    <ele>2009.6881459977776</ele>
   </trkpt>
   <trkpt lat="43.73752" lon="-114.25784000000002">
    <ele>2008.4720904349306</ele>
   </trkpt>
   <trkpt lat="43.737480000000005" lon="-114.25827000000001">
    <ele>2007.284319253048</ele>
   </trkpt>
   <trkpt lat="43.73744000000001" lon="-114.2587">
    <ele>2005.8225297736433</ele>
   </trkpt>
   <trkpt lat="43.737370000000006" lon="-114.25914000000002">
    <ele>2003.5677271602344</ele>
   </trkpt>
   <trkpt lat="43.737260000000006" lon="-114.25955">
    <ele>2002.7615982776938</ele>
   </trkpt>
   <trkpt lat="43.737142501029844" lon="-114.25989750143162">
    <ele>2000.8105178504466</ele>
   </trkpt>
   <trkpt lat="43.73702500205968" lon="-114.26024500286324">
    <ele>1999.8236272061065</ele>
   </trkpt>
   <trkpt lat="43.736790000000006" lon="-114.26094">
    <ele>1998.124945320766</ele>
   </trkpt>
   <trkpt lat="43.73666" lon="-114.2612">
    <ele>1996.356156465958</ele>
   </trkpt>
   <trkpt lat="43.73613" lon="-114.26205000000002">
    <ele>1994.0877121921342</ele>
   </trkpt>
   <trkpt lat="43.7357" lon="-114.26304">
    <ele>1991.8827109621618</ele>
   </trkpt>
   <trkpt lat="43.735585" lon="-114.263465">
    <ele>1990.0621481729506</ele>
   </trkpt>
   <trkpt lat="43.73547000000001" lon="-114.26389">
    <ele>1989.1970237824312</ele>
   </trkpt>
   <trkpt lat="43.7353833375532" lon="-114.26438166948532">
    <ele>1987.2847939724284</ele>
   </trkpt>
   <trkpt lat="43.73529667510639" lon="-114.26487333897065">
    <ele>1985.5004077489314</ele>
   </trkpt>
   <trkpt lat="43.735210008444575" lon="-114.26536500560974">
    <ele>1984.69190941186</ele>
   </trkpt>
   <trkpt lat="43.73512334178276" lon="-114.26585667224882">
    <ele>1983.0181523572285</ele>
   </trkpt>
   <trkpt lat="43.734950000000005" lon="-114.26684000000002">
    <ele>1980.105337410003</ele>
   </trkpt>
   <trkpt lat="43.73480000000001" lon="-114.26756">
    <ele>1977.1978170053874</ele>
   </trkpt>
   <trkpt lat="43.734662507875996" lon="-114.26810875755916">
    <ele>1975.5395796813166</ele>
   </trkpt>
   <trkpt lat="43.73452501575198" lon="-114.26865751511832">
    <ele>1974.7641078192785</ele>
   </trkpt>
   <trkpt lat="43.734387518377346" lon="-114.26920626763768">
    <ele>1973.1875574506334</ele>
   </trkpt>
   <trkpt lat="43.73425002100271" lon="-114.26975502015706">
    <ele>1971.7480301581322</ele>
   </trkpt>
   <trkpt lat="43.73411251837754" lon="-114.27030376763656">
    <ele>1970.9595922530414</ele>
   </trkpt>
   <trkpt lat="43.733975015752385" lon="-114.27085251511606">
    <ele>1969.2989850951865</ele>
   </trkpt>
   <trkpt lat="43.733700000000006" lon="-114.27195">
    <ele>1966.4202263075267</ele>
   </trkpt>
   <trkpt lat="43.73362" lon="-114.27239000000002">
    <ele>1965.3102247744473</ele>
   </trkpt>
   <trkpt lat="43.73362" lon="-114.2728">
    <ele>1966.2710505572718</ele>
   </trkpt>
   <trkpt lat="43.73366" lon="-114.27325">
    <ele>1967.128984688417</ele>
   </trkpt>
   <trkpt lat="43.73384" lon="-114.27389000000001">
    <ele>1966.7951640628892</ele>
   </trkpt>
   <trkpt lat="43.73395" lon="-114.27415">
    <ele>1965.993530083946</ele>
   </trkpt>
   <trkpt lat="43.7341" lon="-114.2744">
    <ele>1964.5935921664504</ele>
   </trkpt>
   <trkpt lat="43.73425" lon="-114.27465000000001">
    <ele>1962.327486260956</ele>
   </trkpt>
   <trkpt lat="43.7344" lon="-114.2749">
    <ele>1961.2150766284396</ele>
   </trkpt>
   <trkpt lat="43.734570000000005" lon="-114.27522">
    <ele>1959.6076930124864</ele>
   </trkpt>
   <trkpt lat="43.73467" lon="-114.27549">
    <ele>1957.5418881413664</ele>
   </trkpt>
   <trkpt lat="43.73469" lon="-114.27563">
    <ele>1957.5418881413664</ele>
   </trkpt>
   <trkpt lat="43.734710008203194" lon="-114.27659999936643">
    <ele>1955.058679704016</ele>
   </trkpt>
   <trkpt lat="43.73473000820349" lon="-114.27756999938087">
    <ele>1953.6482165144478</ele>
   </trkpt>
   <trkpt lat="43.734750000000005" lon="-114.27854">
    <ele>1951.898263799603</ele>
   </trkpt>
   <trkpt lat="43.73467" lon="-114.27942000000002">
    <ele>1949.1143783333828</ele>
   </trkpt>
   <trkpt lat="43.73459000512842" lon="-114.28050500149274">
    <ele>1946.3772588500217</ele>
   </trkpt>
   <trkpt lat="43.73451" lon="-114.28159000000001">
    <ele>1944.4907745742178</ele>
   </trkpt>
   <trkpt lat="43.734410000000004" lon="-114.28252">
    <ele>1943.4291716963799</ele>
   </trkpt>
   <trkpt lat="43.734340009486615" lon="-114.28356333582408">
    <ele>1941.2665733875806</ele>
   </trkpt>
   <trkpt lat="43.73430500948488" lon="-114.28408500251663">
    <ele>1939.31569328927</ele>
   </trkpt>
   <trkpt lat="43.73427000948314" lon="-114.28460666920917">
    <ele>1938.4065738257104</ele>
   </trkpt>
   <trkpt lat="43.73423500474157" lon="-114.2851283346046">
    <ele>1936.6464379559723</ele>
   </trkpt>
   <trkpt lat="43.7342" lon="-114.28565">
    <ele>1935.172387524474</ele>
   </trkpt>
   <trkpt lat="43.73418333647973" lon="-114.28607500055054">
    <ele>1934.4500549787597</ele>
   </trkpt>
   <trkpt lat="43.734166672959454" lon="-114.28650000110106">
    <ele>1932.6749773202228</ele>
   </trkpt>
   <trkpt lat="43.734133339620044" lon="-114.28735000125594">
    <ele>1930.1929837342686</ele>
   </trkpt>
   <trkpt lat="43.734100000000005" lon="-114.2882">
    <ele>1927.4319173691229</ele>
   </trkpt>
   <trkpt lat="43.73408500448871" lon="-114.28921500039687">
    <ele>1924.9321416258645</ele>
   </trkpt>
   <trkpt lat="43.73407" lon="-114.29023000000001">
    <ele>1922.2936218739662</ele>
   </trkpt>
   <trkpt lat="43.734120000000004" lon="-114.29089">
    <ele>1920.5815841318101</ele>
   </trkpt>
   <trkpt lat="43.73421500187243" lon="-114.29153999917904">
    <ele>1919.6894067452827</ele>
   </trkpt>
   <trkpt lat="43.73428954399942" lon="-114.29220029475567">
    <ele>1919.0622871485216</ele>
   </trkpt>
   <trkpt lat="43.73429954399942" lon="-114.29264029475567">
    <ele>1918.6595813572299</ele>
   </trkpt>
   <trkpt lat="43.734280000000005" lon="-114.29305000000001">
    <ele>1918.4533752863883</ele>
   </trkpt>
   <trkpt lat="43.734120000000004" lon="-114.29384">
    <ele>1916.0832023285238</ele>
   </trkpt>
   <trkpt lat="43.73411" lon="-114.29429">
    <ele>1913.1650881122307</ele>
   </trkpt>
   <trkpt lat="43.734120000000004" lon="-114.294785">
    <ele>1913.1650881122307</ele>
   </trkpt>
   <trkpt lat="43.73413" lon="-114.29528">
    <ele>1910.7409551290893</ele>
   </trkpt>
   <trkpt lat="43.734210000000004" lon="-114.29617">
    <ele>1907.8451794424236</ele>
   </trkpt>
   <trkpt lat="43.73433000000001" lon="-114.29697000000002">
    <ele>1905.69486690534</ele>
   </trkpt>
   <trkpt lat="43.73452" lon="-114.29796">
    <ele>1903.125225410051</ele>
   </trkpt>
   <trkpt lat="43.73449" lon="-114.29824">
    <ele>1902.111130793818</ele>
   </trkpt>
   <trkpt lat="43.734320000000004" lon="-114.29908">
    <ele>1900.980623074631</ele>
   </trkpt>
   <trkpt lat="43.734160004866546" lon="-114.30013500272116">
    <ele>1898.092109254984</ele>
   </trkpt>
   <trkpt lat="43.734" lon="-114.30119">
    <ele>1896.3615418757752</ele>
   </trkpt>
   <trkpt lat="43.73400487710185" lon="-114.30151286844466">
    <ele>1895.3160154236716</ele>
   </trkpt>
   <trkpt lat="43.734072069818566" lon="-114.30186">
    <ele>1894.8129654338325</ele>
   </trkpt>
   <trkpt lat="43.734171904007" lon="-114.3025002565335">
    <ele>1893.1378230220125</ele>
   </trkpt>
   <trkpt lat="43.73420091191923" lon="-114.30293772106697">
    <ele>1892.3239352435605</ele>
   </trkpt>
   <trkpt lat="43.73422529376094" lon="-114.30346447755804">
    <ele>1891.958561645997</ele>
   </trkpt>
   <trkpt lat="43.73424317652609" lon="-114.30354615049843">
    <ele>1891.958561645997</ele>
   </trkpt>
   <trkpt lat="43.734295568664734" lon="-114.30355443891497">
    <ele>1891.958561645997</ele>
   </trkpt>
   <trkpt lat="43.73439204773391" lon="-114.30348517277469">
    <ele>1891.7171562355536</ele>
   </trkpt>
   <trkpt lat="43.73469005767018" lon="-114.30306352003049">
    <ele>1893.026105665593</ele>
   </trkpt>
   <trkpt lat="43.735258395972245" lon="-114.30231126647904">
    <ele>1899.2697780535807</ele>
   </trkpt>
   <trkpt lat="43.73586672347414" lon="-114.30158145036201">
    <ele>1904.5105433370995</ele>
   </trkpt>
   <trkpt lat="43.73644883664963" lon="-114.30095418504568">
    <ele>1906.8516535376984</ele>
   </trkpt>
   <trkpt lat="43.7365713703296" lon="-114.30083279670832">
    <ele>1906.8516535376984</ele>
   </trkpt>
   <trkpt lat="43.73671322177587" lon="-114.30070975532858">
    <ele>1907.2860476303263</ele>
   </trkpt>
   <trkpt lat="43.73685666666667" lon="-114.30059">
    <ele>1907.2860476303263</ele>
   </trkpt>
   <trkpt lat="43.737" lon="-114.30047">
    <ele>1907.2860476303263</ele>
   </trkpt>
   <trkpt lat="43.737680000000005" lon="-114.29998">
    <ele>1909.4219573374821</ele>
   </trkpt>
   <trkpt lat="43.73842455619718" lon="-114.29948369808562">
    <ele>1912.5135041680041</ele>
   </trkpt>
   <trkpt lat="43.73916911024687" lon="-114.29898738382816">
    <ele>1913.6383229321373</ele>
   </trkpt>
   <trkpt lat="43.73991366214897" lon="-114.29849105722698">
    <ele>1915.3161576355965</ele>
   </trkpt>
   <trkpt lat="43.74065821190337" lon="-114.29799471828156">
    <ele>1917.7325701035388</ele>
   </trkpt>
   <trkpt lat="43.741402759509974" lon="-114.2974983669912">
    <ele>1919.7192899700658</ele>
   </trkpt>
   <trkpt lat="43.742147304968654" lon="-114.29700200335542">
    <ele>1921.9480874210585</ele>
   </trkpt>
   <trkpt lat="43.742891848279314" lon="-114.29650562737355">
    <ele>1924.1935401889361</ele>
   </trkpt>
   <trkpt lat="43.743636389441846" lon="-114.29600923904505">
    <ele>1926.3144896772164</ele>
   </trkpt>
   <trkpt lat="43.74438092845613" lon="-114.29551283836928">
    <ele>1928.1123231073325</ele>
   </trkpt>
   <trkpt lat="43.74512546532205" lon="-114.29501642534568">
    <ele>1928.9996605359584</ele>
   </trkpt>
   <trkpt lat="43.745870000000004" lon="-114.29452">
    <ele>1931.4823915465577</ele>
   </trkpt>
   <trkpt lat="43.74633000054753" lon="-114.29415500283126">
    <ele>1933.0129741958244</ele>
   </trkpt>
   <trkpt lat="43.746790000000004" lon="-114.29379000000002">
    <ele>1933.4048063822281</ele>
   </trkpt>
   <trkpt lat="43.746840000000006" lon="-114.29405000000001">
    <ele>1933.108058920115</ele>
   </trkpt>
   <trkpt lat="43.746715393377784" lon="-114.29431435726958">
    <ele>1932.9572834224032</ele>
   </trkpt>
   <trkpt lat="43.746595615621544" lon="-114.29495481397343">
    <ele>1932.407290529085</ele>
   </trkpt>
   <trkpt lat="43.746421461622546" lon="-114.29539036995511">
    <ele>1931.7703981221973</ele>
   </trkpt>
   <trkpt lat="43.74634502360772" lon="-114.29552185713378">
    <ele>1931.1449993753445</ele>
   </trkpt>
   <trkpt lat="43.74576765818257" lon="-114.29598865300865">
    <ele>1929.9317167104296</ele>
   </trkpt>
   <trkpt lat="43.745641891418416" lon="-114.29613157811009">
    <ele>1929.5603066547926</ele>
   </trkpt>
   <trkpt lat="43.74547646629264" lon="-114.2964238016198">
    <ele>1928.5405030684485</ele>
   </trkpt>
   <trkpt lat="43.74531501259035" lon="-114.29670699580099">
    <ele>1928.5405030684485</ele>
   </trkpt>
   <trkpt lat="43.7452072040731" lon="-114.29682192487998">
    <ele>1927.7068179561222</ele>
   </trkpt>
   <trkpt lat="43.74479457328291" lon="-114.29716301857603">
    <ele>1925.385513289308</ele>
   </trkpt>
   <trkpt lat="43.74451948785535" lon="-114.29758594821358">
    <ele>1923.3377579010837</ele>
   </trkpt>
   <trkpt lat="43.74433612714543" lon="-114.29778567332158">
    <ele>1921.8518272708568</ele>
   </trkpt>
   <trkpt lat="43.74416394431308" lon="-114.29791904065682">
    <ele>1921.2433293445356</ele>
   </trkpt>
   <trkpt lat="43.743800404404986" lon="-114.29816409101892">
    <ele>1919.6832972448974</ele>
   </trkpt>
   <trkpt lat="43.74361430571781" lon="-114.29830783795916">
    <ele>1918.9192471120364</ele>
   </trkpt>
   <trkpt lat="43.7435278095671" lon="-114.29830882033697">
    <ele>1918.3152857563357</ele>
   </trkpt>
   <trkpt lat="43.74314879244217" lon="-114.29824846845922">
    <ele>1917.8929168239335</ele>
   </trkpt>
   <trkpt lat="43.7430076981432" lon="-114.29826224477996">
    <ele>1917.8237066831769</ele>
   </trkpt>
   <trkpt lat="43.74274710157657" lon="-114.29833443020031">
    <ele>1917.3806565302825</ele>
   </trkpt>
   <trkpt lat="43.74221118357022" lon="-114.29864618729562">
    <ele>1916.4493885538704</ele>
   </trkpt>
   <trkpt lat="43.74211462219015" lon="-114.29872763879287">
    <ele>1916.3885314622983</ele>
   </trkpt>
   <trkpt lat="43.74189917557694" lon="-114.29899587873739">
    <ele>1915.89666231151</ele>
   </trkpt>
   <trkpt lat="43.741812927347446" lon="-114.29905932355062">
    <ele>1915.89666231151</ele>
   </trkpt>
   <trkpt lat="43.74166906837566" lon="-114.29907395408983">
    <ele>1915.89666231151</ele>
   </trkpt>
   <trkpt lat="43.74143434241722" lon="-114.29904280436519">
    <ele>1915.6762595301202</ele>
   </trkpt>
   <trkpt lat="43.74121986926187" lon="-114.29897404492489">
    <ele>1914.978143258424</ele>
   </trkpt>
   <trkpt lat="43.74102682837638" lon="-114.29894586290555">
    <ele>1914.7597609271766</ele>
   </trkpt>
   <trkpt lat="43.74075259808873" lon="-114.2988190629743">
    <ele>1914.0612892437946</ele>
   </trkpt>
   <trkpt lat="43.74063507995959" lon="-114.29880260108987">
    <ele>1914.0612892437946</ele>
   </trkpt>
   <trkpt lat="43.74044861325236" lon="-114.29885764480439">
    <ele>1913.5864217370884</ele>
   </trkpt>
   <trkpt lat="43.740209100753766" lon="-114.29898061509199">
    <ele>1913.4083879092598</ele>
   </trkpt>
   <trkpt lat="43.73970653519111" lon="-114.2993417021112">
    <ele>1911.0176485465033</ele>
   </trkpt>
   <trkpt lat="43.73894494190279" lon="-114.2999533431004">
    <ele>1907.9995514237628</ele>
   </trkpt>
   <trkpt lat="43.73874915471207" lon="-114.30006296351458">
    <ele>1907.5988028695117</ele>
   </trkpt>
   <trkpt lat="43.73859627056474" lon="-114.30010320559045">
    <ele>1907.3613483999375</ele>
   </trkpt>
   <trkpt lat="43.73844559269223" lon="-114.30009735449859">
    <ele>1907.3613483999375</ele>
   </trkpt>
   <trkpt lat="43.7382843031411" lon="-114.30005868014538">
    <ele>1906.931201122139</ele>
   </trkpt>
   <trkpt lat="43.73819287036949" lon="-114.30008347484859">
    <ele>1906.6229283837217</ele>
   </trkpt>
   <trkpt lat="43.73787574167379" lon="-114.30029323605753">
    <ele>1906.667891355697</ele>
   </trkpt>
   <trkpt lat="43.73757593442054" lon="-114.30052459070374">
    <ele>1907.0221150710947</ele>
   </trkpt>
   <trkpt lat="43.737425828279434" lon="-114.30062985278428">
    <ele>1906.905028204136</ele>
   </trkpt>
   <trkpt lat="43.73733054002007" lon="-114.30065647808313">
    <ele>1906.7574052897355</ele>
   </trkpt>
   <trkpt lat="43.73726407350587" lon="-114.30062120757798">
    <ele>1906.7574052897355</ele>
   </trkpt>
   <trkpt lat="43.73711353341106" lon="-114.30051835560208">
    <ele>1906.707878091449</ele>
   </trkpt>
   <trkpt lat="43.73701143835675" lon="-114.30048860659728">
    <ele>1906.7869494040021</ele>
   </trkpt>
   <trkpt lat="43.737002087890815" lon="-114.30048912452315">
    <ele>1906.7869494040021</ele>
   </trkpt>
   <trkpt lat="43.73685805859387" lon="-114.30060274968211">
    <ele>1906.7869494040021</ele>
   </trkpt>
   <trkpt lat="43.736713584581445" lon="-114.30071539947662">
    <ele>1906.9875978710875</ele>
   </trkpt>
   <trkpt lat="43.736571370331276" lon="-114.30083279671173">
    <ele>1906.9782369832217</ele>
   </trkpt>
   <trkpt lat="43.73644883665122" lon="-114.30095418504877">
    <ele>1907.2232282956031</ele>
   </trkpt>
   <trkpt lat="43.73586672347414" lon="-114.30158145036201">
    <ele>1904.5105433272956</ele>
   </trkpt>
   <trkpt lat="43.735258395972245" lon="-114.30231126647904">
    <ele>1899.2697780535755</ele>
   </trkpt>
   <trkpt lat="43.73469005767018" lon="-114.30306352003049">
    <ele>1894.969062762355</ele>
   </trkpt>
   <trkpt lat="43.73405965660317" lon="-114.30393572180053">
    <ele>1891.834112339181</ele>
   </trkpt>
   <trkpt lat="43.73346036764255" lon="-114.30477651091466">
    <ele>1890.044838250923</ele>
   </trkpt>
   <trkpt lat="43.732854205511906" lon="-114.30563271151385">
    <ele>1887.2242783423953</ele>
   </trkpt>
   <trkpt lat="43.73224438331567" lon="-114.3064970259317">
    <ele>1883.450292696706</ele>
   </trkpt>
   <trkpt lat="43.73179532252176" lon="-114.30715712602617">
    <ele>1879.5095014389215</ele>
   </trkpt>
   <trkpt lat="43.731330492056486" lon="-114.30790790463823">
    <ele>1875.8347451917973</ele>
   </trkpt>
   <trkpt lat="43.73078912895208" lon="-114.30885693115205">
    <ele>1872.3927187923725</ele>
   </trkpt>
   <trkpt lat="43.73028639670041" lon="-114.30980924832838">
    <ele>1870.4850245694258</ele>
   </trkpt>
   <trkpt lat="43.72981243417964" lon="-114.31085757406356">
    <ele>1869.5252525349667</ele>
   </trkpt>
   <trkpt lat="43.72938047496538" lon="-114.3118163145009">
    <ele>1869.3821380516774</ele>
   </trkpt>
   <trkpt lat="43.728934286947826" lon="-114.31280784474896">
    <ele>1869.2626926962675</ele>
   </trkpt>
   <trkpt lat="43.72852283403507" lon="-114.31372343725273">
    <ele>1868.930787201209</ele>
   </trkpt>
   <trkpt lat="43.72810270803404" lon="-114.31465986846192">
    <ele>1868.0937580155617</ele>
   </trkpt>
   <trkpt lat="43.72769105794117" lon="-114.31557941780683">
    <ele>1866.728179621911</ele>
   </trkpt>
   <trkpt lat="43.727244390666435" lon="-114.31658056537705">
    <ele>1865.273355207323</ele>
   </trkpt>
   <trkpt lat="43.72681022694128" lon="-114.31756170711229">
    <ele>1864.058667922973</ele>
   </trkpt>
   <trkpt lat="43.726412233425016" lon="-114.31851838483612">
    <ele>1863.0931360400684</ele>
   </trkpt>
   <trkpt lat="43.72601455794473" lon="-114.31956739637121">
    <ele>1860.7406675477923</ele>
   </trkpt>
   <trkpt lat="43.725648480058084" lon="-114.32061475085952">
    <ele>1858.8632052527028</ele>
   </trkpt>
   <trkpt lat="43.72527390907918" lon="-114.32170647683277">
    <ele>1857.0898433703321</ele>
   </trkpt>
   <trkpt lat="43.72489366902296" lon="-114.32274229661054">
    <ele>1856.170449028324</ele>
   </trkpt>
   <trkpt lat="43.72459698081165" lon="-114.32347090016226">
    <ele>1854.805645691876</ele>
   </trkpt>
   <trkpt lat="43.72435251774286" lon="-114.3239889882635">
    <ele>1853.5580305406081</ele>
   </trkpt>
   <trkpt lat="43.72404779624517" lon="-114.32455233730671">
    <ele>1853.3717165404762</ele>
   </trkpt>
   <trkpt lat="43.72367699644596" lon="-114.32515525586561">
    <ele>1853.6786246983747</ele>
   </trkpt>
   <trkpt lat="43.7232357433897" lon="-114.32580071933789">
    <ele>1853.7653237719387</ele>
   </trkpt>
   <trkpt lat="43.72261694834747" lon="-114.32664576931744">
    <ele>1852.8418543267999</ele>
   </trkpt>
   <trkpt lat="43.7220293794765" lon="-114.32744740712012">
    <ele>1851.6646945552995</ele>
   </trkpt>
   <trkpt lat="43.721488495839886" lon="-114.32823211107359">
    <ele>1851.9503026554437</ele>
   </trkpt>
   <trkpt lat="43.72090089462246" lon="-114.32914204012904">
    <ele>1853.2555298510695</ele>
   </trkpt>
   <trkpt lat="43.72033111086981" lon="-114.33008615409848">
    <ele>1854.8806399843845</ele>
   </trkpt>
   <trkpt lat="43.71987673898044" lon="-114.33090297950447">
    <ele>1855.6991104637002</ele>
   </trkpt>
   <trkpt lat="43.71950695755352" lon="-114.33163596479821">
    <ele>1856.1110878107231</ele>
   </trkpt>
   <trkpt lat="43.71904024189124" lon="-114.33265811217203">
    <ele>1856.0237374431317</ele>
   </trkpt>
   <trkpt lat="43.71855266708163" lon="-114.33369800064409">
    <ele>1855.2823121049485</ele>
   </trkpt>
   <trkpt lat="43.71805865891561" lon="-114.33471084354026">
    <ele>1854.4102806793871</ele>
   </trkpt>
   <trkpt lat="43.717607976779945" lon="-114.33557374063132">
    <ele>1853.6855473052601</ele>
   </trkpt>
   <trkpt lat="43.717190033483966" lon="-114.33627350007238">
    <ele>1852.6850407834015</ele>
   </trkpt>
   <trkpt lat="43.716790652152014" lon="-114.33690190740599">
    <ele>1851.5991964383593</ele>
   </trkpt>
   <trkpt lat="43.71645760481376" lon="-114.33735706697453">
    <ele>1850.2502494121588</ele>
   </trkpt>
   <trkpt lat="43.71608512057811" lon="-114.33779549173181">
    <ele>1849.1357050848649</ele>
   </trkpt>
   <trkpt lat="43.715674387192685" lon="-114.33821561346579">
    <ele>1847.9430040703926</ele>
   </trkpt>
   <trkpt lat="43.715175664090665" lon="-114.33866472434208">
    <ele>1846.7843216171095</ele>
   </trkpt>
   <trkpt lat="43.71445110817278" lon="-114.33924869605372">
    <ele>1845.7696657445777</ele>
   </trkpt>
   <trkpt lat="43.71371761140487" lon="-114.33979943905454">
    <ele>1844.8720809369622</ele>
   </trkpt>
   <trkpt lat="43.712946194511204" lon="-114.34035703474684">
    <ele>1844.3843580893008</ele>
   </trkpt>
   <trkpt lat="43.71216910950823" lon="-114.34090981096413">
    <ele>1843.1640752648673</ele>
   </trkpt>
   <trkpt lat="43.71141860841235" lon="-114.34144609554002">
    <ele>1841.9299370744204</ele>
   </trkpt>
   <trkpt lat="43.71066225440117" lon="-114.34200302999692">
    <ele>1840.5985176618462</ele>
   </trkpt>
   <trkpt lat="43.71023896786142" lon="-114.34234303406481">
    <ele>1839.807049962861</ele>
   </trkpt>
   <trkpt lat="43.70986727799159" lon="-114.34268710815543">
    <ele>1839.430961017278</ele>
   </trkpt>
   <trkpt lat="43.709499351775705" lon="-114.34308060033354">
    <ele>1839.216227627691</ele>
   </trkpt>
   <trkpt lat="43.70914899154133" lon="-114.34351655891284">
    <ele>1838.8137238182837</ele>
   </trkpt>
   <trkpt lat="43.70882613581004" lon="-114.343982752281">
    <ele>1837.979027240177</ele>
   </trkpt>
   <trkpt lat="43.70848766728203" lon="-114.34454176506127">
    <ele>1836.7888465496846</ele>
   </trkpt>
   <trkpt lat="43.70793351111085" lon="-114.34549590141516">
    <ele>1836.7345092704172</ele>
   </trkpt>
   <trkpt lat="43.70744553737834" lon="-114.34627491859867">
    <ele>1837.4840817697445</ele>
   </trkpt>
   <trkpt lat="43.70711073651811" lon="-114.34675015146887">
    <ele>1837.5948752540357</ele>
   </trkpt>
   <trkpt lat="43.70693877041411" lon="-114.34694735928082">
    <ele>1837.0724730698555</ele>
   </trkpt>
   <trkpt lat="43.70666955803516" lon="-114.34718176039402">
    <ele>1836.9154727696032</ele>
   </trkpt>
   <trkpt lat="43.70621316834007" lon="-114.34750856333532">
    <ele>1835.385586247821</ele>
   </trkpt>
   <trkpt lat="43.705410482026586" lon="-114.34804376644487">
    <ele>1832.6051719175512</ele>
   </trkpt>
   <trkpt lat="43.70462116143459" lon="-114.34855910859321">
    <ele>1829.8673854694182</ele>
   </trkpt>
   <trkpt lat="43.70381739080405" lon="-114.34906736078916">
    <ele>1827.3913436879332</ele>
   </trkpt>
   <trkpt lat="43.70306871611308" lon="-114.34953417660432">
    <ele>1824.559384891366</ele>
   </trkpt>
   <trkpt lat="43.702305805510065" lon="-114.3500044771555">
    <ele>1822.655871202546</ele>
   </trkpt>
   <trkpt lat="43.701514454056024" lon="-114.35048571566334">
    <ele>1822.2305895808474</ele>
   </trkpt>
   <trkpt lat="43.7007284463755" lon="-114.35095766665837">
    <ele>1822.4184078236947</ele>
   </trkpt>
   <trkpt lat="43.699921409989194" lon="-114.35146328803407">
    <ele>1822.1031049177723</ele>
   </trkpt>
   <trkpt lat="43.69953382117107" lon="-114.35174594214885">
    <ele>1821.5900209754072</ele>
   </trkpt>
   <trkpt lat="43.69928500792365" lon="-114.3519715377393">
    <ele>1821.1218126025974</ele>
   </trkpt>
   <trkpt lat="43.69910803652649" lon="-114.35218088271202">
    <ele>1820.7601209204045</ele>
   </trkpt>
   <trkpt lat="43.698855230408014" lon="-114.3525797317378">
    <ele>1820.5354593699549</ele>
   </trkpt>
   <trkpt lat="43.69832439255353" lon="-114.35349472422821">
    <ele>1819.21653927695</ele>
   </trkpt>
   <trkpt lat="43.697825038878015" lon="-114.35443326754134">
    <ele>1818.8948915382018</ele>
   </trkpt>
   <trkpt lat="43.69751245352106" lon="-114.35496333935421">
    <ele>1818.6666815095173</ele>
   </trkpt>
   <trkpt lat="43.69718365428177" lon="-114.35545067582149">
    <ele>1818.7743561682478</ele>
   </trkpt>
   <trkpt lat="43.696916324356984" lon="-114.35578680455421">
    <ele>1818.7775000884417</ele>
   </trkpt>
   <trkpt lat="43.69661739776022" lon="-114.35609067606357">
    <ele>1818.6456712498239</ele>
   </trkpt>
   <trkpt lat="43.696313543877814" lon="-114.35634214111587">
    <ele>1817.9323001977173</ele>
   </trkpt>
   <trkpt lat="43.696007196645155" lon="-114.35654244323612">
    <ele>1816.6985261078873</ele>
   </trkpt>
   <trkpt lat="43.69565053974302" lon="-114.35672158767265">
    <ele>1816.14778274342</ele>
   </trkpt>
   <trkpt lat="43.69525849025211" lon="-114.35686688712806">
    <ele>1814.296189961818</ele>
   </trkpt>
   <trkpt lat="43.69455491345134" lon="-114.35705791562992">
    <ele>1810.923375398157</ele>
   </trkpt>
   <trkpt lat="43.69371441213978" lon="-114.35725172857232">
    <ele>1809.1136788420877</ele>
   </trkpt>
   <trkpt lat="43.69314194941668" lon="-114.35733856095241">
    <ele>1808.0824025158868</ele>
   </trkpt>
   <trkpt lat="43.6929658004557" lon="-114.35732326620641">
    <ele>1807.8537968163519</ele>
   </trkpt>
   <trkpt lat="43.692789999999995" lon="-114.35731000000001">
    <ele>1807.8537968163519</ele>
   </trkpt>
   <trkpt lat="43.692310000000006" lon="-114.35725000000001">
    <ele>1807.2857722119288</ele>
   </trkpt>
   <trkpt lat="43.691770000065105" lon="-114.35706499830549">
    <ele>1805.200029586177</ele>
   </trkpt>
   <trkpt lat="43.691230000000004" lon="-114.35688">
    <ele>1803.123589271295</ele>
   </trkpt>
   <trkpt lat="43.69066500001775" lon="-114.35673999866438">
    <ele>1801.1189000325</ele>
   </trkpt>
   <trkpt lat="43.6901" lon="-114.35660000000001">
    <ele>1799.8922630617672</ele>
   </trkpt>
   <trkpt lat="43.68932" lon="-114.35673000000001">
    <ele>1798.7422937320996</ele>
   </trkpt>
   <trkpt lat="43.688570000000006" lon="-114.35706">
    <ele>1797.5828791529184</ele>
   </trkpt>
   <trkpt lat="43.68791000132054" lon="-114.35745334200604">
    <ele>1796.371655799084</ele>
   </trkpt>
   <trkpt lat="43.68725000129235" lon="-114.35784667535603">
    <ele>1794.7417035816288</ele>
   </trkpt>
   <trkpt lat="43.686611425169396" lon="-114.3582246371097">
    <ele>1793.4872817511662</ele>
   </trkpt>
   <trkpt lat="43.686634599257644" lon="-114.35843689373621">
    <ele>1793.147700269111</ele>
   </trkpt>
   <trkpt lat="43.68665519655287" lon="-114.35864940868714">
    <ele>1792.7033617691945</ele>
   </trkpt>
   <trkpt lat="43.68665664534002" lon="-114.35894944083707">
    <ele>1792.447740689588</ele>
   </trkpt>
   <trkpt lat="43.68663482407805" lon="-114.35925222149619">
    <ele>1792.447740689588</ele>
   </trkpt>
   <trkpt lat="43.68656572195633" lon="-114.35947077416">
    <ele>1792.2548037627184</ele>
   </trkpt>
   <trkpt lat="43.68647228358329" lon="-114.35956466757372">
    <ele>1792.2548037627184</ele>
   </trkpt>
   <trkpt lat="43.68637543023566" lon="-114.35964876066247">
    <ele>1792.1089814315692</ele>
   </trkpt>
   <trkpt lat="43.68626283272333" lon="-114.35972425008993">
    <ele>1792.005128959867</ele>
   </trkpt>
   <trkpt lat="43.6861483978928" lon="-114.35979488482204">
    <ele>1792.005128959867</ele>
   </trkpt>
  </trkseg>
 </trk>
</gpx>