<?xml version="1.0" encoding="UTF-8"?>
<gpx 
 xmlns="http://www.topografix.com/GPX/1/1" 
 xmlns:xsi="http://www.w3.org/2001/XMLSchema-instance" 
 xsi:schemaLocation="http://www.topografix.com/GPX/1/1 http://www.topografix.com/GPX/1/1/gpx.xsd" 
 version="1.1" 
 creator="BRouter-Web 0.18.1">
 <trk>
  <name>Verrogne (5.7km, trimmed to true climb span)</name>
  <trkseg>
   <trkpt lat="45.731455" lon="7.256969"><ele>1197.75</ele></trkpt>
   <trkpt lat="45.731446" lon="7.256817"><ele>1198.75</ele></trkpt>
   <trkpt lat="45.731456" lon="7.256649"><ele>1200.5</ele></trkpt>
   <trkpt lat="45.73137" lon="7.256397"><ele>1199.25</ele></trkpt>
   <trkpt lat="45.730846" lon="7.255134"><ele>1205</ele></trkpt>
   <trkpt lat="45.730584" lon="7.254606"><ele>1208.5</ele></trkpt>
   <trkpt lat="45.730468" lon="7.254301"><ele>1208.25</ele></trkpt>
   <trkpt lat="45.730431" lon="7.254081"><ele>1210</ele></trkpt>
   <trkpt lat="45.730442" lon="7.253902"><ele>1212.5</ele></trkpt>
   <trkpt lat="45.730684" lon="7.252703"><ele>1221.5</ele></trkpt>
   <trkpt lat="45.730757" lon="7.252259"><ele>1226</ele></trkpt>
   <trkpt lat="45.73077" lon="7.251754"><ele>1227</ele></trkpt>
   <trkpt lat="45.730946" lon="7.251458"><ele>1231.5</ele></trkpt>
   <trkpt lat="45.731265" lon="7.250977"><ele>1235.5</ele></trkpt>
   <trkpt lat="45.731553" lon="7.250644"><ele>1241.25</ele></trkpt>
   <trkpt lat="45.731683" lon="7.250354"><ele>1243.75</ele></trkpt>
   <trkpt lat="45.731695" lon="7.250082"><ele>1244.75</ele></trkpt>
   <trkpt lat="45.731695" lon="7.249848"><ele>1245.5</ele></trkpt>
   <trkpt lat="45.731782" lon="7.249657"><ele>1248.25</ele></trkpt>
   <trkpt lat="45.73198" lon="7.249164"><ele>1252.75</ele></trkpt>
   <trkpt lat="45.732117" lon="7.248868"><ele>1254.25</ele></trkpt>
   <trkpt lat="45.732487" lon="7.24843"><ele>1259.75</ele></trkpt>
   <trkpt lat="45.732694" lon="7.24822"><ele>1263</ele></trkpt>
   <trkpt lat="45.732797" lon="7.24805"><ele>1264</ele></trkpt>
   <trkpt lat="45.732784" lon="7.247924"><ele>1264.5</ele></trkpt>
   <trkpt lat="45.732642" lon="7.247782"><ele>1265.25</ele></trkpt>
   <trkpt lat="45.7325" lon="7.247659"><ele>1266.5</ele></trkpt>
   <trkpt lat="45.732436" lon="7.247505"><ele>1266.75</ele></trkpt>
   <trkpt lat="45.732436" lon="7.247307"><ele>1268.25</ele></trkpt>
   <trkpt lat="45.732509" lon="7.247048"><ele>1270.5</ele></trkpt>
   <trkpt lat="45.732677" lon="7.246771"><ele>1273</ele></trkpt>
   <trkpt lat="45.732888" lon="7.246499"><ele>1275.75</ele></trkpt>
   <trkpt lat="45.733211" lon="7.246193"><ele>1279</ele></trkpt>
   <trkpt lat="45.733495" lon="7.245936"><ele>1282</ele></trkpt>
   <trkpt lat="45.733821" lon="7.245571"><ele>1286.5</ele></trkpt>
   <trkpt lat="45.733955" lon="7.245367"><ele>1288.25</ele></trkpt>
   <trkpt lat="45.734272" lon="7.24496"><ele>1292.25</ele></trkpt>
   <trkpt lat="45.734516" lon="7.244661"><ele>1295</ele></trkpt>
   <trkpt lat="45.734728" lon="7.244314"><ele>1298</ele></trkpt>
   <trkpt lat="45.735013" lon="7.243909"><ele>1303.5</ele></trkpt>
   <trkpt lat="45.735051" lon="7.243796"><ele>1305.25</ele></trkpt>
   <trkpt lat="45.735049" lon="7.243684"><ele>1305.5</ele></trkpt>
   <trkpt lat="45.735014" lon="7.243607"><ele>1305.25</ele></trkpt>
   <trkpt lat="45.734885" lon="7.243424"><ele>1305.75</ele></trkpt>
   <trkpt lat="45.734782" lon="7.243351"><ele>1307.25</ele></trkpt>
   <trkpt lat="45.734602" lon="7.243318"><ele>1309.25</ele></trkpt>
   <trkpt lat="45.734341" lon="7.243331"><ele>1310.75</ele></trkpt>
   <trkpt lat="45.734186" lon="7.243314"><ele>1312</ele></trkpt>
   <trkpt lat="45.733688" lon="7.24316"><ele>1316.5</ele></trkpt>
   <trkpt lat="45.733607" lon="7.243056"><ele>1317.75</ele></trkpt>
   <trkpt lat="45.733579" lon="7.242899"><ele>1318.75</ele></trkpt>
   <trkpt lat="45.733605" lon="7.242834"><ele>1319.5</ele></trkpt>
   <trkpt lat="45.733692" lon="7.242626"><ele>1320</ele></trkpt>
   <trkpt lat="45.733818" lon="7.24226"><ele>1322.5</ele></trkpt>
   <trkpt lat="45.733935" lon="7.242015"><ele>1324.5</ele></trkpt>
   <trkpt lat="45.734511" lon="7.241306"><ele>1330.5</ele></trkpt>
   <trkpt lat="45.734617" lon="7.241091"><ele>1332</ele></trkpt>
   <trkpt lat="45.734714" lon="7.240935"><ele>1333</ele></trkpt>
   <trkpt lat="45.734718" lon="7.240783"><ele>1332.75</ele></trkpt>
   <trkpt lat="45.734633" lon="7.24072"><ele>1335</ele></trkpt>
   <trkpt lat="45.734426" lon="7.240807"><ele>1335</ele></trkpt>
   <trkpt lat="45.734106" lon="7.240969"><ele>1335.75</ele></trkpt>
   <trkpt lat="45.733915" lon="7.24101"><ele>1338.5</ele></trkpt>
   <trkpt lat="45.733566" lon="7.240847"><ele>1342.75</ele></trkpt>
   <trkpt lat="45.733315" lon="7.240871"><ele>1344.25</ele></trkpt>
   <trkpt lat="45.733065" lon="7.240816"><ele>1346.5</ele></trkpt>
   <trkpt lat="45.732927" lon="7.240929"><ele>1348</ele></trkpt>
   <trkpt lat="45.732774" lon="7.241149"><ele>1348.25</ele></trkpt>
   <trkpt lat="45.732518" lon="7.241662"><ele>1351</ele></trkpt>
   <trkpt lat="45.732376" lon="7.241781"><ele>1352</ele></trkpt>
   <trkpt lat="45.732195" lon="7.24182"><ele>1355.75</ele></trkpt>
   <trkpt lat="45.73197" lon="7.241758"><ele>1356.75</ele></trkpt>
   <trkpt lat="45.731285" lon="7.241414"><ele>1364</ele></trkpt>
   <trkpt lat="45.731033" lon="7.241211"><ele>1366.25</ele></trkpt>
   <trkpt lat="45.730832" lon="7.241284"><ele>1366.25</ele></trkpt>
   <trkpt lat="45.730702" lon="7.241284"><ele>1365.75</ele></trkpt>
   <trkpt lat="45.73045" lon="7.241104"><ele>1369.5</ele></trkpt>
   <trkpt lat="45.730179" lon="7.240974"><ele>1372.25</ele></trkpt>
   <trkpt lat="45.729572" lon="7.241036"><ele>1376.25</ele></trkpt>
   <trkpt lat="45.729324" lon="7.240991"><ele>1378.75</ele></trkpt>
   <trkpt lat="45.728977" lon="7.241034"><ele>1380.75</ele></trkpt>
   <trkpt lat="45.728816" lon="7.241026"><ele>1381.75</ele></trkpt>
   <trkpt lat="45.728679" lon="7.24093"><ele>1382.75</ele></trkpt>
   <trkpt lat="45.728613" lon="7.240805"><ele>1384</ele></trkpt>
   <trkpt lat="45.728548" lon="7.240682"><ele>1382.25</ele></trkpt>
   <trkpt lat="45.728517" lon="7.240335"><ele>1383.5</ele></trkpt>
   <trkpt lat="45.728604" lon="7.239867"><ele>1389</ele></trkpt>
   <trkpt lat="45.728636" lon="7.239387"><ele>1392.75</ele></trkpt>
   <trkpt lat="45.728619" lon="7.238992"><ele>1394.75</ele></trkpt>
   <trkpt lat="45.728603" lon="7.238736"><ele>1396.5</ele></trkpt>
   <trkpt lat="45.728527" lon="7.238148"><ele>1401.25</ele></trkpt>
   <trkpt lat="45.728541" lon="7.237262"><ele>1405.75</ele></trkpt>
   <trkpt lat="45.728589" lon="7.236684"><ele>1410.5</ele></trkpt>
   <trkpt lat="45.72852" lon="7.236266"><ele>1413</ele></trkpt>
   <trkpt lat="45.728339" lon="7.235728"><ele>1415.75</ele></trkpt>
   <trkpt lat="45.728269" lon="7.23534"><ele>1415.5</ele></trkpt>
   <trkpt lat="45.728255" lon="7.234852"><ele>1417.25</ele></trkpt>
   <trkpt lat="45.728211" lon="7.23413"><ele>1422.75</ele></trkpt>
   <trkpt lat="45.728197" lon="7.233716"><ele>1427.75</ele></trkpt>
   <trkpt lat="45.728172" lon="7.233541"><ele>1429.25</ele></trkpt>
   <trkpt lat="45.728123" lon="7.233402"><ele>1428</ele></trkpt>
   <trkpt lat="45.727991" lon="7.233111"><ele>1426.5</ele></trkpt>
   <trkpt lat="45.727948" lon="7.233"><ele>1427.5</ele></trkpt>
   <trkpt lat="45.727896" lon="7.232822"><ele>1431</ele></trkpt>
   <trkpt lat="45.727877" lon="7.23274"><ele>1431.75</ele></trkpt>
   <trkpt lat="45.727789" lon="7.232217"><ele>1432.75</ele></trkpt>
   <trkpt lat="45.727766" lon="7.23212"><ele>1434</ele></trkpt>
   <trkpt lat="45.727707" lon="7.231973"><ele>1434</ele></trkpt>
   <trkpt lat="45.727697" lon="7.231908"><ele>1434.25</ele></trkpt>
   <trkpt lat="45.727696" lon="7.231828"><ele>1434.5</ele></trkpt>
   <trkpt lat="45.727698" lon="7.231498"><ele>1435.25</ele></trkpt>
   <trkpt lat="45.727704" lon="7.23141"><ele>1435.75</ele></trkpt>
   <trkpt lat="45.727889" lon="7.230599"><ele>1441.25</ele></trkpt>
   <trkpt lat="45.727982" lon="7.230242"><ele>1440.5</ele></trkpt>
   <trkpt lat="45.72801" lon="7.230107"><ele>1441</ele></trkpt>
   <trkpt lat="45.728041" lon="7.229885"><ele>1442.75</ele></trkpt>
   <trkpt lat="45.728046" lon="7.229784"><ele>1443.75</ele></trkpt>
   <trkpt lat="45.728041" lon="7.229695"><ele>1444.25</ele></trkpt>
   <trkpt lat="45.728022" lon="7.229576"><ele>1445</ele></trkpt>
   <trkpt lat="45.727961" lon="7.229388"><ele>1444.75</ele></trkpt>
   <trkpt lat="45.727931" lon="7.229244"><ele>1445.75</ele></trkpt>
   <trkpt lat="45.727921" lon="7.229165"><ele>1446.5</ele></trkpt>
   <trkpt lat="45.727912" lon="7.228915"><ele>1447.5</ele></trkpt>
   <trkpt lat="45.727914" lon="7.228628"><ele>1448.25</ele></trkpt>
   <trkpt lat="45.727935" lon="7.228502"><ele>1448.25</ele></trkpt>
   <trkpt lat="45.727955" lon="7.228422"><ele>1448.25</ele></trkpt>
   <trkpt lat="45.728146" lon="7.227976"><ele>1451</ele></trkpt>
   <trkpt lat="45.728183" lon="7.227784"><ele>1451.5</ele></trkpt>
   <trkpt lat="45.728188" lon="7.2277"><ele>1452</ele></trkpt>
   <trkpt lat="45.728178" lon="7.227616"><ele>1452.25</ele></trkpt>
   <trkpt lat="45.72815" lon="7.227547"><ele>1452</ele></trkpt>
   <trkpt lat="45.728082" lon="7.227426"><ele>1451.75</ele></trkpt>
   <trkpt lat="45.728045" lon="7.227315"><ele>1452</ele></trkpt>
   <trkpt lat="45.728035" lon="7.227237"><ele>1452.5</ele></trkpt>
   <trkpt lat="45.728031" lon="7.2271"><ele>1452.5</ele></trkpt>
   <trkpt lat="45.728067" lon="7.226923"><ele>1454.25</ele></trkpt>
   <trkpt lat="45.728327" lon="7.225885"><ele>1460.75</ele></trkpt>
   <trkpt lat="45.728434" lon="7.225444"><ele>1464.5</ele></trkpt>
   <trkpt lat="45.728566" lon="7.224815"><ele>1466.25</ele></trkpt>
   <trkpt lat="45.7286" lon="7.224697"><ele>1468.25</ele></trkpt>
   <trkpt lat="45.728704" lon="7.224414"><ele>1470.5</ele></trkpt>
   <trkpt lat="45.72873" lon="7.22432"><ele>1471.75</ele></trkpt>
   <trkpt lat="45.72878" lon="7.22398"><ele>1474.25</ele></trkpt>
   <trkpt lat="45.728807" lon="7.223837"><ele>1474.75</ele></trkpt>
   <trkpt lat="45.728826" lon="7.223774"><ele>1475</ele></trkpt>
   <trkpt lat="45.728855" lon="7.223719"><ele>1475.5</ele></trkpt>
   <trkpt lat="45.728976" lon="7.223544"><ele>1477.5</ele></trkpt>
   <trkpt lat="45.729051" lon="7.223401"><ele>1478.25</ele></trkpt>
   <trkpt lat="45.729112" lon="7.223231"><ele>1480</ele></trkpt>
   <trkpt lat="45.729152" lon="7.223068"><ele>1481.25</ele></trkpt>
   <trkpt lat="45.72917" lon="7.222981"><ele>1482</ele></trkpt>
   <trkpt lat="45.729299" lon="7.222172"><ele>1486.5</ele></trkpt>
   <trkpt lat="45.729347" lon="7.22193"><ele>1486.75</ele></trkpt>
   <trkpt lat="45.729437" lon="7.221582"><ele>1489.75</ele></trkpt>
   <trkpt lat="45.729498" lon="7.221401"><ele>1493.5</ele></trkpt>
   <trkpt lat="45.729552" lon="7.221241"><ele>1493.75</ele></trkpt>
   <trkpt lat="45.729616" lon="7.220962"><ele>1493.5</ele></trkpt>
   <trkpt lat="45.72974" lon="7.22052"><ele>1497.5</ele></trkpt>
   <trkpt lat="45.729785" lon="7.220292"><ele>1497.75</ele></trkpt>
   <trkpt lat="45.729842" lon="7.219913"><ele>1499.5</ele></trkpt>
   <trkpt lat="45.729869" lon="7.219787"><ele>1499.75</ele></trkpt>
   <trkpt lat="45.729935" lon="7.219598"><ele>1500.75</ele></trkpt>
   <trkpt lat="45.729979" lon="7.219511"><ele>1501.75</ele></trkpt>
   <trkpt lat="45.730044" lon="7.21942"><ele>1502.75</ele></trkpt>
   <trkpt lat="45.730234" lon="7.219217"><ele>1504.25</ele></trkpt>
   <trkpt lat="45.730276" lon="7.219155"><ele>1504.5</ele></trkpt>
   <trkpt lat="45.730314" lon="7.21909"><ele>1505.75</ele></trkpt>
   <trkpt lat="45.730372" lon="7.218926"><ele>1506.5</ele></trkpt>
   <trkpt lat="45.730459" lon="7.218727"><ele>1506.75</ele></trkpt>
   <trkpt lat="45.730495" lon="7.218665"><ele>1506.75</ele></trkpt>
   <trkpt lat="45.730538" lon="7.218609"><ele>1507</ele></trkpt>
   <trkpt lat="45.73069" lon="7.218458"><ele>1509.25</ele></trkpt>
   <trkpt lat="45.73074" lon="7.218398"><ele>1510</ele></trkpt>
   <trkpt lat="45.730769" lon="7.218343"><ele>1510</ele></trkpt>
   <trkpt lat="45.730943" lon="7.217867"><ele>1512.75</ele></trkpt>
   <trkpt lat="45.731054" lon="7.217544"><ele>1512.75</ele></trkpt>
   <trkpt lat="45.731115" lon="7.217347"><ele>1515</ele></trkpt>
   <trkpt lat="45.731185" lon="7.217182"><ele>1516.25</ele></trkpt>
   <trkpt lat="45.731222" lon="7.217126"><ele>1516.25</ele></trkpt>
   <trkpt lat="45.731275" lon="7.217057"><ele>1516.5</ele></trkpt>
   <trkpt lat="45.731347" lon="7.216981"><ele>1517.75</ele></trkpt>
   <trkpt lat="45.731647" lon="7.216688"><ele>1521.75</ele></trkpt>
   <trkpt lat="45.732295" lon="7.216007"><ele>1528.75</ele></trkpt>
   <trkpt lat="45.732461" lon="7.215845"><ele>1530.75</ele></trkpt>
   <trkpt lat="45.732584" lon="7.2157"><ele>1534.25</ele></trkpt>
   <trkpt lat="45.732809" lon="7.215327"><ele>1536.75</ele></trkpt>
   <trkpt lat="45.73284" lon="7.215261"><ele>1537</ele></trkpt>
   <trkpt lat="45.732858" lon="7.215182"><ele>1537.5</ele></trkpt>
   <trkpt lat="45.732869" lon="7.215072"><ele>1537.25</ele></trkpt>
   <trkpt lat="45.732879" lon="7.21495"><ele>1537.5</ele></trkpt>
   <trkpt lat="45.732893" lon="7.214563"><ele>1539.25</ele></trkpt>
   <trkpt lat="45.732924" lon="7.214156"><ele>1539.25</ele></trkpt>
   <trkpt lat="45.732949" lon="7.214051"><ele>1540</ele></trkpt>
   <trkpt lat="45.732976" lon="7.213969"><ele>1540.75</ele></trkpt>
   <trkpt lat="45.732996" lon="7.213925"><ele>1541.5</ele></trkpt>
   <trkpt lat="45.733035" lon="7.213867"><ele>1543</ele></trkpt>
   <trkpt lat="45.733145" lon="7.213761"><ele>1543.75</ele></trkpt>
   <trkpt lat="45.733321" lon="7.21363"><ele>1546</ele></trkpt>
   <trkpt lat="45.733422" lon="7.213533"><ele>1547.75</ele></trkpt>
   <trkpt lat="45.733464" lon="7.213469"><ele>1547.75</ele></trkpt>
   <trkpt lat="45.733528" lon="7.213335"><ele>1546.75</ele></trkpt>
   <trkpt lat="45.733572" lon="7.213278"><ele>1547</ele></trkpt>
   <trkpt lat="45.73362" lon="7.213236"><ele>1547.5</ele></trkpt>
   <trkpt lat="45.733679" lon="7.213211"><ele>1546.5</ele></trkpt>
   <trkpt lat="45.733791" lon="7.213224"><ele>1547</ele></trkpt>
   <trkpt lat="45.733885" lon="7.213274"><ele>1549.25</ele></trkpt>
   <trkpt lat="45.73393" lon="7.213315"><ele>1551.5</ele></trkpt>
   <trkpt lat="45.733973" lon="7.21334"><ele>1553</ele></trkpt>
   <trkpt lat="45.734014" lon="7.213345"><ele>1553.75</ele></trkpt>
   <trkpt lat="45.734067" lon="7.21333"><ele>1553.75</ele></trkpt>
   <trkpt lat="45.734153" lon="7.213264"><ele>1553</ele></trkpt>
   <trkpt lat="45.734341" lon="7.213031"><ele>1555.5</ele></trkpt>
   <trkpt lat="45.734421" lon="7.212868"><ele>1556</ele></trkpt>
   <trkpt lat="45.734543" lon="7.212562"><ele>1557.5</ele></trkpt>
   <trkpt lat="45.734598" lon="7.212477"><ele>1557.75</ele></trkpt>
   <trkpt lat="45.734622" lon="7.212455"><ele>1557.75</ele></trkpt>
   <trkpt lat="45.734702" lon="7.212431"><ele>1559.25</ele></trkpt>
   <trkpt lat="45.734778" lon="7.212429"><ele>1560</ele></trkpt>
   <trkpt lat="45.734821" lon="7.212435"><ele>1560.5</ele></trkpt>
   <trkpt lat="45.734883" lon="7.212457"><ele>1562</ele></trkpt>
   <trkpt lat="45.734976" lon="7.212503"><ele>1564.75</ele></trkpt>
   <trkpt lat="45.735031" lon="7.212519"><ele>1566</ele></trkpt>
   <trkpt lat="45.735222" lon="7.212532"><ele>1568.25</ele></trkpt>
   <trkpt lat="45.735342" lon="7.21251"><ele>1568.25</ele></trkpt>
   <trkpt lat="45.735406" lon="7.212456"><ele>1568.5</ele></trkpt>
   <trkpt lat="45.735428" lon="7.212421"><ele>1568.5</ele></trkpt>
   <trkpt lat="45.735467" lon="7.212314"><ele>1568.75</ele></trkpt>
   <trkpt lat="45.735475" lon="7.212273"><ele>1568.75</ele></trkpt>
   <trkpt lat="45.735474" lon="7.212206"><ele>1569</ele></trkpt>
   <trkpt lat="45.73546" lon="7.212128"><ele>1569</ele></trkpt>
   <trkpt lat="45.735378" lon="7.211831"><ele>1570</ele></trkpt>
   <trkpt lat="45.735308" lon="7.211526"><ele>1570.25</ele></trkpt>
   <trkpt lat="45.735293" lon="7.211434"><ele>1570.25</ele></trkpt>
   <trkpt lat="45.735275" lon="7.211231"><ele>1571.5</ele></trkpt>
   <trkpt lat="45.73528" lon="7.211134"><ele>1572.75</ele></trkpt>
   <trkpt lat="45.735291" lon="7.211082"><ele>1573.25</ele></trkpt>
   <trkpt lat="45.735373" lon="7.21084"><ele>1575</ele></trkpt>
   <trkpt lat="45.735401" lon="7.210709"><ele>1575.75</ele></trkpt>
   <trkpt lat="45.735407" lon="7.21058"><ele>1575.75</ele></trkpt>
   <trkpt lat="45.735402" lon="7.210049"><ele>1576.25</ele></trkpt>
   <trkpt lat="45.735409" lon="7.209509"><ele>1578.25</ele></trkpt>
   <trkpt lat="45.735404" lon="7.209422"><ele>1578.75</ele></trkpt>
   <trkpt lat="45.735389" lon="7.209321"><ele>1578.75</ele></trkpt>
   <trkpt lat="45.735319" lon="7.209071"><ele>1579</ele></trkpt>
   <trkpt lat="45.735203" lon="7.20876"><ele>1578.5</ele></trkpt>
   <trkpt lat="45.735134" lon="7.208616"><ele>1577.75</ele></trkpt>
   <trkpt lat="45.73503" lon="7.208357"><ele>1579</ele></trkpt>
   <trkpt lat="45.735006" lon="7.208283"><ele>1579.25</ele></trkpt>
   <trkpt lat="45.734995" lon="7.208221"><ele>1579</ele></trkpt>
   <trkpt lat="45.734984" lon="7.208153"><ele>1579</ele></trkpt>
   <trkpt lat="45.734991" lon="7.208006"><ele>1579.25</ele></trkpt>
   <trkpt lat="45.735002" lon="7.20791"><ele>1579.5</ele></trkpt>
   <trkpt lat="45.735042" lon="7.207679"><ele>1580.25</ele></trkpt>
   <trkpt lat="45.735193" lon="7.206896"><ele>1584.25</ele></trkpt>
   <trkpt lat="45.735267" lon="7.20665"><ele>1585.25</ele></trkpt>
   <trkpt lat="45.735491" lon="7.206166"><ele>1586.75</ele></trkpt>
   <trkpt lat="45.735542" lon="7.206036"><ele>1587.25</ele></trkpt>
   <trkpt lat="45.735583" lon="7.205883"><ele>1586.75</ele></trkpt>
   <trkpt lat="45.735649" lon="7.205585"><ele>1587.25</ele></trkpt>
   <trkpt lat="45.735676" lon="7.205314"><ele>1587</ele></trkpt>
   <trkpt lat="45.73568" lon="7.205214"><ele>1587</ele></trkpt>
   <trkpt lat="45.735677" lon="7.205023"><ele>1586.75</ele></trkpt>
   <trkpt lat="45.735667" lon="7.20493"><ele>1586.5</ele></trkpt>
   <trkpt lat="45.735624" lon="7.204767"><ele>1586</ele></trkpt>
   <trkpt lat="45.735594" lon="7.204716"><ele>1585.5</ele></trkpt>
   <trkpt lat="45.735554" lon="7.204668"><ele>1580.5</ele></trkpt>
   <trkpt lat="45.735475" lon="7.204616"><ele>1572.25</ele></trkpt>
   <trkpt lat="45.73544" lon="7.204605"><ele>1569</ele></trkpt>
   <trkpt lat="45.735433" lon="7.204603"><ele>1588.25</ele></trkpt>
   <trkpt lat="45.735394" lon="7.204605"><ele>1589.25</ele></trkpt>
  </trkseg>
 </trk>
</gpx>
