<?xml version='1.0' encoding='UTF-8'?>
<gpx version="1.1" creator="polkadotbike-trim" xmlns="http://www.topografix.com/GPX/1/1">
  <trk>
    <name>Côte De Rhigos</name>
    <trkseg>
      <trkpt lat="51.740813" lon="-3.536854">
        <ele>217.25</ele>
      </trkpt>
      <trkpt lat="51.738888" lon="-3.538193">
        <ele>228.00</ele>
      </trkpt>
      <trkpt lat="51.738549" lon="-3.538441">
        <ele>229.25</ele>
      </trkpt>
      <trkpt lat="51.738178" lon="-3.538837">
        <ele>231.75</ele>
      </trkpt>
      <trkpt lat="51.737927" lon="-3.539205">
        <ele>233.75</ele>
      </trkpt>
      <trkpt lat="51.737685" lon="-3.539635">
        <ele>235.50</ele>
      </trkpt>
      <trkpt lat="51.736405" lon="-3.542432">
        <ele>245.50</ele>
      </trkpt>
      <trkpt lat="51.733835" lon="-3.547851">
        <ele>272.25</ele>
      </trkpt>
      <trkpt lat="51.732451" lon="-3.550860">
        <ele>287.25</ele>
      </trkpt>
      <trkpt lat="51.732055" lon="-3.551681">
        <ele>292.75</ele>
      </trkpt>
      <trkpt lat="51.731802" lon="-3.552121">
        <ele>296.25</ele>
      </trkpt>
      <trkpt lat="51.731598" lon="-3.552387">
        <ele>297.50</ele>
      </trkpt>
      <trkpt lat="51.731400" lon="-3.552605">
        <ele>298.50</ele>
      </trkpt>
      <trkpt lat="51.731091" lon="-3.552851">
        <ele>301.75</ele>
      </trkpt>
      <trkpt lat="51.730808" lon="-3.552975">
        <ele>303.50</ele>
      </trkpt>
      <trkpt lat="51.730523" lon="-3.553037">
        <ele>305.25</ele>
      </trkpt>
      <trkpt lat="51.730279" lon="-3.553053">
        <ele>307.00</ele>
      </trkpt>
      <trkpt lat="51.730041" lon="-3.553023">
        <ele>309.00</ele>
      </trkpt>
      <trkpt lat="51.728505" lon="-3.552504">
        <ele>318.50</ele>
      </trkpt>
      <trkpt lat="51.727894" lon="-3.552324">
        <ele>322.75</ele>
      </trkpt>
      <trkpt lat="51.726479" lon="-3.551855">
        <ele>333.50</ele>
      </trkpt>
      <trkpt lat="51.726296" lon="-3.551802">
        <ele>335.00</ele>
      </trkpt>
      <trkpt lat="51.724306" lon="-3.551488">
        <ele>349.50</ele>
      </trkpt>
      <trkpt lat="51.724178" lon="-3.551457">
        <ele>350.25</ele>
      </trkpt>
      <trkpt lat="51.723455" lon="-3.551164">
        <ele>355.25</ele>
      </trkpt>
      <trkpt lat="51.723280" lon="-3.551110">
        <ele>356.25</ele>
      </trkpt>
      <trkpt lat="51.723147" lon="-3.551100">
        <ele>357.50</ele>
      </trkpt>
      <trkpt lat="51.723050" lon="-3.551117">
        <ele>357.75</ele>
      </trkpt>
      <trkpt lat="51.722956" lon="-3.551153">
        <ele>358.50</ele>
      </trkpt>
      <trkpt lat="51.722833" lon="-3.551236">
        <ele>359.50</ele>
      </trkpt>
      <trkpt lat="51.722510" lon="-3.551579">
        <ele>364.00</ele>
      </trkpt>
      <trkpt lat="51.722087" lon="-3.552068">
        <ele>368.00</ele>
      </trkpt>
      <trkpt lat="51.721781" lon="-3.552483">
        <ele>371.25</ele>
      </trkpt>
      <trkpt lat="51.721256" lon="-3.553469">
        <ele>376.50</ele>
      </trkpt>
      <trkpt lat="51.721093" lon="-3.553760">
        <ele>378.25</ele>
      </trkpt>
      <trkpt lat="51.720915" lon="-3.554008">
        <ele>380.25</ele>
      </trkpt>
      <trkpt lat="51.720148" lon="-3.554829">
        <ele>386.00</ele>
      </trkpt>
      <trkpt lat="51.718942" lon="-3.556024">
        <ele>396.00</ele>
      </trkpt>
      <trkpt lat="51.718650" lon="-3.556431">
        <ele>398.00</ele>
      </trkpt>
      <trkpt lat="51.718514" lon="-3.556645">
        <ele>400.00</ele>
      </trkpt>
      <trkpt lat="51.718392" lon="-3.556876">
        <ele>399.50</ele>
      </trkpt>
      <trkpt lat="51.718299" lon="-3.557132">
        <ele>400.25</ele>
      </trkpt>
      <trkpt lat="51.718218" lon="-3.557413">
        <ele>400.75</ele>
      </trkpt>
      <trkpt lat="51.718151" lon="-3.557735">
        <ele>400.50</ele>
      </trkpt>
      <trkpt lat="51.718120" lon="-3.558018">
        <ele>400.25</ele>
      </trkpt>
      <trkpt lat="51.718108" lon="-3.558313">
        <ele>399.50</ele>
      </trkpt>
      <trkpt lat="51.718111" lon="-3.558611">
        <ele>399.25</ele>
      </trkpt>
      <trkpt lat="51.718131" lon="-3.558911">
        <ele>400.00</ele>
      </trkpt>
      <trkpt lat="51.718193" lon="-3.559561">
        <ele>399.50</ele>
      </trkpt>
      <trkpt lat="51.718226" lon="-3.559883">
        <ele>400.25</ele>
      </trkpt>
      <trkpt lat="51.718221" lon="-3.560038">
        <ele>401.00</ele>
      </trkpt>
      <trkpt lat="51.718206" lon="-3.560172">
        <ele>401.00</ele>
      </trkpt>
      <trkpt lat="51.718171" lon="-3.560282">
        <ele>401.75</ele>
      </trkpt>
      <trkpt lat="51.718126" lon="-3.560365">
        <ele>403.00</ele>
      </trkpt>
      <trkpt lat="51.718011" lon="-3.560501">
        <ele>405.75</ele>
      </trkpt>
      <trkpt lat="51.717933" lon="-3.560559">
        <ele>406.75</ele>
      </trkpt>
      <trkpt lat="51.717859" lon="-3.560578">
        <ele>406.75</ele>
      </trkpt>
      <trkpt lat="51.717782" lon="-3.560575">
        <ele>407.50</ele>
      </trkpt>
      <trkpt lat="51.717712" lon="-3.560554">
        <ele>407.75</ele>
      </trkpt>
      <trkpt lat="51.717582" lon="-3.560469">
        <ele>408.00</ele>
      </trkpt>
      <trkpt lat="51.717528" lon="-3.560398">
        <ele>408.75</ele>
      </trkpt>
      <trkpt lat="51.717480" lon="-3.560290">
        <ele>410.00</ele>
      </trkpt>
      <trkpt lat="51.717448" lon="-3.560194">
        <ele>410.25</ele>
      </trkpt>
      <trkpt lat="51.717425" lon="-3.560052">
        <ele>410.75</ele>
      </trkpt>
      <trkpt lat="51.717420" lon="-3.559894">
        <ele>411.50</ele>
      </trkpt>
      <trkpt lat="51.717459" lon="-3.558895">
        <ele>415.75</ele>
      </trkpt>
      <trkpt lat="51.717503" lon="-3.557874">
        <ele>419.50</ele>
      </trkpt>
      <trkpt lat="51.717525" lon="-3.557507">
        <ele>420.00</ele>
      </trkpt>
      <trkpt lat="51.717570" lon="-3.557091">
        <ele>422.25</ele>
      </trkpt>
      <trkpt lat="51.717631" lon="-3.556689">
        <ele>425.75</ele>
      </trkpt>
      <trkpt lat="51.717742" lon="-3.556184">
        <ele>428.50</ele>
      </trkpt>
      <trkpt lat="51.718246" lon="-3.554459">
        <ele>439.25</ele>
      </trkpt>
      <trkpt lat="51.718384" lon="-3.554065">
        <ele>440.00</ele>
      </trkpt>
      <trkpt lat="51.718505" lon="-3.553851">
        <ele>442.50</ele>
      </trkpt>
      <trkpt lat="51.718638" lon="-3.553708">
        <ele>443.50</ele>
      </trkpt>
      <trkpt lat="51.718868" lon="-3.553520">
        <ele>445.50</ele>
      </trkpt>
      <trkpt lat="51.719434" lon="-3.553033">
        <ele>449.00</ele>
      </trkpt>
      <trkpt lat="51.719682" lon="-3.552737">
        <ele>452.00</ele>
      </trkpt>
      <trkpt lat="51.719906" lon="-3.552390">
        <ele>456.00</ele>
      </trkpt>
      <trkpt lat="51.720092" lon="-3.552036">
        <ele>457.50</ele>
      </trkpt>
      <trkpt lat="51.720272" lon="-3.551671">
        <ele>457.25</ele>
      </trkpt>
      <trkpt lat="51.720387" lon="-3.551360">
        <ele>458.75</ele>
      </trkpt>
      <trkpt lat="51.720471" lon="-3.551087">
        <ele>463.75</ele>
      </trkpt>
      <trkpt lat="51.720557" lon="-3.550705">
        <ele>461.25</ele>
      </trkpt>
      <trkpt lat="51.720593" lon="-3.550455">
        <ele>460.75</ele>
      </trkpt>
      <trkpt lat="51.720610" lon="-3.550196">
        <ele>461.75</ele>
      </trkpt>
      <trkpt lat="51.720611" lon="-3.549902">
        <ele>463.75</ele>
      </trkpt>
      <trkpt lat="51.720582" lon="-3.549620">
        <ele>466.50</ele>
      </trkpt>
      <trkpt lat="51.720524" lon="-3.549364">
        <ele>469.75</ele>
      </trkpt>
      <trkpt lat="51.720428" lon="-3.549057">
        <ele>473.50</ele>
      </trkpt>
      <trkpt lat="51.720305" lon="-3.548827">
        <ele>472.50</ele>
      </trkpt>
      <trkpt lat="51.720219" lon="-3.548699">
        <ele>473.50</ele>
      </trkpt>
      <trkpt lat="51.720090" lon="-3.548549">
        <ele>474.00</ele>
      </trkpt>
      <trkpt lat="51.719944" lon="-3.548432">
        <ele>474.25</ele>
      </trkpt>
      <trkpt lat="51.719808" lon="-3.548361">
        <ele>474.75</ele>
      </trkpt>
      <trkpt lat="51.719663" lon="-3.548321">
        <ele>475.50</ele>
      </trkpt>
      <trkpt lat="51.719512" lon="-3.548317">
        <ele>477.25</ele>
      </trkpt>
      <trkpt lat="51.719316" lon="-3.548351">
        <ele>478.25</ele>
      </trkpt>
      <trkpt lat="51.719128" lon="-3.548443">
        <ele>479.25</ele>
      </trkpt>
      <trkpt lat="51.718969" lon="-3.548574">
        <ele>481.00</ele>
      </trkpt>
      <trkpt lat="51.718800" lon="-3.548769">
        <ele>482.75</ele>
      </trkpt>
    </trkseg>
  </trk>
</gpx>