<?xml version='1.0' encoding='UTF-8'?>
<gpx version="1.1" creator="polkadotbike-trim" xmlns="http://www.topografix.com/GPX/1/1">
  <trk>
    <name>Côte De Trough Of Bowland</name>
    <trkseg>
      <trkpt lat="53.978676" lon="-2.606448">
        <ele>190.00</ele>
      </trkpt>
      <trkpt lat="53.978927" lon="-2.605932">
        <ele>190.00</ele>
      </trkpt>
      <trkpt lat="53.979092" lon="-2.605673">
        <ele>191.50</ele>
      </trkpt>
      <trkpt lat="53.979194" lon="-2.605478">
        <ele>191.50</ele>
      </trkpt>
      <trkpt lat="53.979325" lon="-2.605158">
        <ele>192.50</ele>
      </trkpt>
      <trkpt lat="53.979381" lon="-2.604913">
        <ele>193.50</ele>
      </trkpt>
      <trkpt lat="53.979390" lon="-2.604192">
        <ele>194.75</ele>
      </trkpt>
      <trkpt lat="53.979347" lon="-2.603812">
        <ele>196.25</ele>
      </trkpt>
      <trkpt lat="53.979293" lon="-2.601148">
        <ele>201.00</ele>
      </trkpt>
      <trkpt lat="53.979347" lon="-2.598280">
        <ele>205.25</ele>
      </trkpt>
      <trkpt lat="53.979345" lon="-2.597947">
        <ele>205.00</ele>
      </trkpt>
      <trkpt lat="53.979296" lon="-2.596356">
        <ele>208.75</ele>
      </trkpt>
      <trkpt lat="53.979222" lon="-2.594789">
        <ele>211.50</ele>
      </trkpt>
      <trkpt lat="53.979183" lon="-2.594273">
        <ele>212.25</ele>
      </trkpt>
      <trkpt lat="53.979196" lon="-2.594057">
        <ele>212.50</ele>
      </trkpt>
      <trkpt lat="53.979233" lon="-2.593850">
        <ele>213.25</ele>
      </trkpt>
      <trkpt lat="53.979454" lon="-2.592886">
        <ele>215.00</ele>
      </trkpt>
      <trkpt lat="53.979480" lon="-2.592776">
        <ele>215.50</ele>
      </trkpt>
      <trkpt lat="53.979484" lon="-2.592346">
        <ele>216.75</ele>
      </trkpt>
      <trkpt lat="53.979465" lon="-2.592108">
        <ele>217.75</ele>
      </trkpt>
      <trkpt lat="53.979221" lon="-2.591470">
        <ele>220.25</ele>
      </trkpt>
      <trkpt lat="53.979087" lon="-2.591073">
        <ele>222.50</ele>
      </trkpt>
      <trkpt lat="53.978752" lon="-2.589917">
        <ele>228.00</ele>
      </trkpt>
      <trkpt lat="53.978555" lon="-2.589273">
        <ele>231.75</ele>
      </trkpt>
      <trkpt lat="53.978400" lon="-2.588848">
        <ele>234.00</ele>
      </trkpt>
      <trkpt lat="53.978059" lon="-2.588079">
        <ele>239.75</ele>
      </trkpt>
      <trkpt lat="53.977875" lon="-2.587755">
        <ele>242.25</ele>
      </trkpt>
      <trkpt lat="53.977662" lon="-2.587527">
        <ele>244.00</ele>
      </trkpt>
      <trkpt lat="53.977590" lon="-2.587397">
        <ele>244.25</ele>
      </trkpt>
      <trkpt lat="53.977535" lon="-2.587237">
        <ele>244.25</ele>
      </trkpt>
      <trkpt lat="53.977451" lon="-2.587089">
        <ele>245.75</ele>
      </trkpt>
      <trkpt lat="53.977282" lon="-2.586876">
        <ele>246.50</ele>
      </trkpt>
      <trkpt lat="53.977221" lon="-2.586738">
        <ele>246.75</ele>
      </trkpt>
      <trkpt lat="53.977105" lon="-2.586310">
        <ele>251.50</ele>
      </trkpt>
      <trkpt lat="53.977050" lon="-2.586143">
        <ele>252.25</ele>
      </trkpt>
      <trkpt lat="53.976964" lon="-2.585950">
        <ele>251.50</ele>
      </trkpt>
      <trkpt lat="53.976905" lon="-2.585751">
        <ele>253.00</ele>
      </trkpt>
      <trkpt lat="53.976823" lon="-2.585392">
        <ele>255.75</ele>
      </trkpt>
      <trkpt lat="53.976749" lon="-2.584695">
        <ele>258.75</ele>
      </trkpt>
      <trkpt lat="53.976704" lon="-2.584399">
        <ele>260.00</ele>
      </trkpt>
      <trkpt lat="53.976618" lon="-2.584051">
        <ele>263.25</ele>
      </trkpt>
      <trkpt lat="53.976363" lon="-2.583241">
        <ele>266.50</ele>
      </trkpt>
      <trkpt lat="53.976090" lon="-2.582823">
        <ele>270.00</ele>
      </trkpt>
      <trkpt lat="53.976044" lon="-2.582709">
        <ele>271.75</ele>
      </trkpt>
      <trkpt lat="53.975844" lon="-2.582104">
        <ele>275.00</ele>
      </trkpt>
      <trkpt lat="53.975584" lon="-2.581548">
        <ele>281.00</ele>
      </trkpt>
      <trkpt lat="53.975407" lon="-2.581262">
        <ele>283.00</ele>
      </trkpt>
      <trkpt lat="53.975201" lon="-2.581004">
        <ele>283.75</ele>
      </trkpt>
      <trkpt lat="53.974874" lon="-2.580730">
        <ele>288.00</ele>
      </trkpt>
    </trkseg>
  </trk>
</gpx>