<?xml version="1.0" encoding="UTF-8"?>
<!-- track-length = 14610 filtered ascend = 1157 plain-ascend = 1137 cost=18626 energy=0.3kwh time=3h 6m 27s -->
<gpx 
 xmlns="http://www.topografix.com/GPX/1/1" 
 xmlns:xsi="http://www.w3.org/2001/XMLSchema-instance" 
 xsi:schemaLocation="http://www.topografix.com/GPX/1/1 http://www.topografix.com/GPX/1/1/gpx.xsd" 
 version="1.1" 
 creator="BRouter-Web 0.18.1">
 <trk>
  <name>alpe d'huez (14.6km)</name>
  <trkseg>
      <trkpt lat="45.06537" lon="6.040079"><ele>727.75</ele></trkpt>
   <trkpt lat="45.065774" lon="6.039921"><ele>732.25</ele></trkpt>
   <trkpt lat="45.066496" lon="6.03963"><ele>740</ele></trkpt>
   <trkpt lat="45.066655" lon="6.039586"><ele>742.25</ele></trkpt>
   <trkpt lat="45.067357" lon="6.039482"><ele>751</ele></trkpt>
   <trkpt lat="45.067808" lon="6.03941"><ele>754.5</ele></trkpt>
   <trkpt lat="45.067966" lon="6.039349"><ele>757</ele></trkpt>
   <trkpt lat="45.068169" lon="6.039246"><ele>759.5</ele></trkpt>
   <trkpt lat="45.06824" lon="6.039236"><ele>760.75</ele></trkpt>
   <trkpt lat="45.068312" lon="6.039239"><ele>762.5</ele></trkpt>
   <trkpt lat="45.068621" lon="6.0393"><ele>766.75</ele></trkpt>
   <trkpt lat="45.068724" lon="6.039297"><ele>767.75</ele></trkpt>
   <trkpt lat="45.069149" lon="6.03919"><ele>772.25</ele></trkpt>
   <trkpt lat="45.069272" lon="6.039146"><ele>774</ele></trkpt>
   <trkpt lat="45.069368" lon="6.039098"><ele>775</ele></trkpt>
   <trkpt lat="45.069599" lon="6.038956"><ele>778.5</ele></trkpt>
   <trkpt lat="45.069763" lon="6.038869"><ele>780.25</ele></trkpt>
   <trkpt lat="45.069957" lon="6.038782"><ele>782.5</ele></trkpt>
   <trkpt lat="45.070121" lon="6.038723"><ele>784.75</ele></trkpt>
   <trkpt lat="45.070248" lon="6.038697"><ele>786.75</ele></trkpt>
   <trkpt lat="45.070373" lon="6.038691"><ele>788</ele></trkpt>
   <trkpt lat="45.070526" lon="6.038701"><ele>790</ele></trkpt>
   <trkpt lat="45.070913" lon="6.038797"><ele>795.25</ele></trkpt>
   <trkpt lat="45.071424" lon="6.038956"><ele>801.75</ele></trkpt>
   <trkpt lat="45.071537" lon="6.038976"><ele>802.5</ele></trkpt>
   <trkpt lat="45.071736" lon="6.038985"><ele>802</ele></trkpt>
   <trkpt lat="45.071784" lon="6.038999"><ele>801.5</ele></trkpt>
   <trkpt lat="45.07182" lon="6.039019"><ele>801.75</ele></trkpt>
   <trkpt lat="45.071848" lon="6.039052"><ele>802.5</ele></trkpt>
   <trkpt lat="45.071866" lon="6.039096"><ele>803.75</ele></trkpt>
   <trkpt lat="45.071872" lon="6.039155"><ele>805.75</ele></trkpt>
   <trkpt lat="45.071859" lon="6.039226"><ele>809</ele></trkpt>
   <trkpt lat="45.07184" lon="6.039256"><ele>810.75</ele></trkpt>
   <trkpt lat="45.071786" lon="6.039294"><ele>812.5</ele></trkpt>
   <trkpt lat="45.071729" lon="6.039289"><ele>812.5</ele></trkpt>
   <trkpt lat="45.071461" lon="6.039207"><ele>811</ele></trkpt>
   <trkpt lat="45.07117" lon="6.039138"><ele>812</ele></trkpt>
   <trkpt lat="45.071053" lon="6.039123"><ele>812.75</ele></trkpt>
   <trkpt lat="45.070994" lon="6.039125"><ele>813.5</ele></trkpt>
   <trkpt lat="45.070935" lon="6.039137"><ele>814.75</ele></trkpt>
   <trkpt lat="45.070797" lon="6.039188"><ele>818.5</ele></trkpt>
   <trkpt lat="45.070616" lon="6.039264"><ele>820</ele></trkpt>
   <trkpt lat="45.070474" lon="6.039343"><ele>821.5</ele></trkpt>
   <trkpt lat="45.070361" lon="6.039418"><ele>823</ele></trkpt>
   <trkpt lat="45.070294" lon="6.039475"><ele>824.5</ele></trkpt>
   <trkpt lat="45.070136" lon="6.039637"><ele>827.75</ele></trkpt>
   <trkpt lat="45.069861" lon="6.040006"><ele>832.75</ele></trkpt>
   <trkpt lat="45.069797" lon="6.040076"><ele>833.25</ele></trkpt>
   <trkpt lat="45.069637" lon="6.040229"><ele>833.5</ele></trkpt>
   <trkpt lat="45.069571" lon="6.040313"><ele>835.25</ele></trkpt>
   <trkpt lat="45.069409" lon="6.040565"><ele>839.75</ele></trkpt>
   <trkpt lat="45.069314" lon="6.040745"><ele>847.25</ele></trkpt>
   <trkpt lat="45.069288" lon="6.04078"><ele>848</ele></trkpt>
   <trkpt lat="45.069225" lon="6.040836"><ele>847.25</ele></trkpt>
   <trkpt lat="45.069172" lon="6.040862"><ele>845</ele></trkpt>
   <trkpt lat="45.069132" lon="6.040878"><ele>845.25</ele></trkpt>
   <trkpt lat="45.068845" lon="6.040939"><ele>848.25</ele></trkpt>
   <trkpt lat="45.068269" lon="6.041067"><ele>854.25</ele></trkpt>
   <trkpt lat="45.068192" lon="6.041088"><ele>855</ele></trkpt>
   <trkpt lat="45.068079" lon="6.041133"><ele>857.25</ele></trkpt>
   <trkpt lat="45.067649" lon="6.04135"><ele>862.5</ele></trkpt>
   <trkpt lat="45.067462" lon="6.041458"><ele>868.5</ele></trkpt>
   <trkpt lat="45.066844" lon="6.041846"><ele>874.75</ele></trkpt>
   <trkpt lat="45.066641" lon="6.041958"><ele>876</ele></trkpt>
   <trkpt lat="45.06644" lon="6.042055"><ele>876.5</ele></trkpt>
   <trkpt lat="45.066404" lon="6.042106"><ele>877.5</ele></trkpt>
   <trkpt lat="45.066396" lon="6.042167"><ele>878.75</ele></trkpt>
   <trkpt lat="45.066401" lon="6.042196"><ele>879.25</ele></trkpt>
   <trkpt lat="45.066411" lon="6.042221"><ele>880</ele></trkpt>
   <trkpt lat="45.066444" lon="6.042258"><ele>882.75</ele></trkpt>
   <trkpt lat="45.066487" lon="6.042263"><ele>883.5</ele></trkpt>
   <trkpt lat="45.066525" lon="6.042249"><ele>882.5</ele></trkpt>
   <trkpt lat="45.06676" lon="6.042117"><ele>882.75</ele></trkpt>
   <trkpt lat="45.067406" lon="6.041799"><ele>889.25</ele></trkpt>
   <trkpt lat="45.06754" lon="6.041752"><ele>890.25</ele></trkpt>
   <trkpt lat="45.067613" lon="6.041743"><ele>889.5</ele></trkpt>
   <trkpt lat="45.067653" lon="6.041748"><ele>889.5</ele></trkpt>
   <trkpt lat="45.067755" lon="6.041781"><ele>890.25</ele></trkpt>
   <trkpt lat="45.067961" lon="6.041867"><ele>893.5</ele></trkpt>
   <trkpt lat="45.067983" lon="6.04188"><ele>894</ele></trkpt>
   <trkpt lat="45.068003" lon="6.041904"><ele>895</ele></trkpt>
   <trkpt lat="45.068016" lon="6.04198"><ele>899.5</ele></trkpt>
   <trkpt lat="45.068016" lon="6.042014"><ele>902.25</ele></trkpt>
   <trkpt lat="45.068002" lon="6.042048"><ele>904.75</ele></trkpt>
   <trkpt lat="45.067986" lon="6.042066"><ele>906</ele></trkpt>
   <trkpt lat="45.067967" lon="6.04208"><ele>906.75</ele></trkpt>
   <trkpt lat="45.067917" lon="6.04209"><ele>906.5</ele></trkpt>
   <trkpt lat="45.067881" lon="6.042078"><ele>905.25</ele></trkpt>
   <trkpt lat="45.067827" lon="6.042042"><ele>902</ele></trkpt>
   <trkpt lat="45.067684" lon="6.041934"><ele>897</ele></trkpt>
   <trkpt lat="45.067613" lon="6.041913"><ele>897.25</ele></trkpt>
   <trkpt lat="45.067539" lon="6.041919"><ele>898.75</ele></trkpt>
   <trkpt lat="45.06741" lon="6.041986"><ele>900</ele></trkpt>
   <trkpt lat="45.067309" lon="6.04207"><ele>901.5</ele></trkpt>
   <trkpt lat="45.067241" lon="6.042143"><ele>903.75</ele></trkpt>
   <trkpt lat="45.06696" lon="6.042493"><ele>909.5</ele></trkpt>
   <trkpt lat="45.066792" lon="6.042644"><ele>912.75</ele></trkpt>
   <trkpt lat="45.066703" lon="6.042705"><ele>912.5</ele></trkpt>
   <trkpt lat="45.066607" lon="6.042759"><ele>913.25</ele></trkpt>
   <trkpt lat="45.065998" lon="6.043075"><ele>918.5</ele></trkpt>
   <trkpt lat="45.065962" lon="6.043106"><ele>917.75</ele></trkpt>
   <trkpt lat="45.06595" lon="6.043126"><ele>917.5</ele></trkpt>
   <trkpt lat="45.065935" lon="6.043185"><ele>916.25</ele></trkpt>
   <trkpt lat="45.065937" lon="6.04322"><ele>916</ele></trkpt>
   <trkpt lat="45.065956" lon="6.043278"><ele>916</ele></trkpt>
   <trkpt lat="45.065973" lon="6.043303"><ele>916.75</ele></trkpt>
   <trkpt lat="45.066015" lon="6.043329"><ele>918.75</ele></trkpt>
   <trkpt lat="45.066065" lon="6.04333"><ele>921.25</ele></trkpt>
   <trkpt lat="45.066225" lon="6.04324"><ele>925.5</ele></trkpt>
   <trkpt lat="45.066299" lon="6.043214"><ele>926.75</ele></trkpt>
   <trkpt lat="45.066792" lon="6.043095"><ele>934.75</ele></trkpt>
   <trkpt lat="45.06686" lon="6.043055"><ele>935.5</ele></trkpt>
   <trkpt lat="45.067075" lon="6.04287"><ele>935.25</ele></trkpt>
   <trkpt lat="45.067174" lon="6.042824"><ele>937.5</ele></trkpt>
   <trkpt lat="45.067248" lon="6.042813"><ele>939.5</ele></trkpt>
   <trkpt lat="45.067496" lon="6.042824"><ele>942.75</ele></trkpt>
   <trkpt lat="45.067586" lon="6.042819"><ele>944.25</ele></trkpt>
   <trkpt lat="45.067647" lon="6.042803"><ele>944.25</ele></trkpt>
   <trkpt lat="45.067948" lon="6.042663"><ele>947.5</ele></trkpt>
   <trkpt lat="45.068036" lon="6.042632"><ele>949.25</ele></trkpt>
   <trkpt lat="45.068103" lon="6.042618"><ele>949.75</ele></trkpt>
   <trkpt lat="45.06818" lon="6.042613"><ele>950.5</ele></trkpt>
   <trkpt lat="45.068321" lon="6.042613"><ele>952.5</ele></trkpt>
   <trkpt lat="45.068838" lon="6.042663"><ele>954.5</ele></trkpt>
   <trkpt lat="45.068866" lon="6.042676"><ele>955.25</ele></trkpt>
   <trkpt lat="45.068885" lon="6.042697"><ele>956.5</ele></trkpt>
   <trkpt lat="45.068898" lon="6.042725"><ele>958.5</ele></trkpt>
   <trkpt lat="45.068903" lon="6.042763"><ele>960.75</ele></trkpt>
   <trkpt lat="45.068903" lon="6.042799"><ele>963</ele></trkpt>
   <trkpt lat="45.068873" lon="6.042869"><ele>967</ele></trkpt>
   <trkpt lat="45.068852" lon="6.042888"><ele>968</ele></trkpt>
   <trkpt lat="45.068817" lon="6.042895"><ele>968</ele></trkpt>
   <trkpt lat="45.068787" lon="6.042898"><ele>968</ele></trkpt>
   <trkpt lat="45.068735" lon="6.042889"><ele>966.75</ele></trkpt>
   <trkpt lat="45.068541" lon="6.042814"><ele>961.25</ele></trkpt>
   <trkpt lat="45.068484" lon="6.042803"><ele>961</ele></trkpt>
   <trkpt lat="45.068402" lon="6.042799"><ele>961.75</ele></trkpt>
   <trkpt lat="45.068321" lon="6.042808"><ele>962.75</ele></trkpt>
   <trkpt lat="45.068225" lon="6.042851"><ele>964</ele></trkpt>
   <trkpt lat="45.068146" lon="6.042906"><ele>965.25</ele></trkpt>
   <trkpt lat="45.067801" lon="6.043206"><ele>971</ele></trkpt>
   <trkpt lat="45.06726" lon="6.043646"><ele>976.5</ele></trkpt>
   <trkpt lat="45.067226" lon="6.043684"><ele>976.25</ele></trkpt>
   <trkpt lat="45.067201" lon="6.043727"><ele>976.5</ele></trkpt>
   <trkpt lat="45.067183" lon="6.043778"><ele>977</ele></trkpt>
   <trkpt lat="45.067178" lon="6.043816"><ele>977.5</ele></trkpt>
   <trkpt lat="45.06718" lon="6.043873"><ele>978.75</ele></trkpt>
   <trkpt lat="45.067191" lon="6.043919"><ele>979.25</ele></trkpt>
   <trkpt lat="45.06722" lon="6.043982"><ele>980.25</ele></trkpt>
   <trkpt lat="45.067344" lon="6.044125"><ele>983.75</ele></trkpt>
   <trkpt lat="45.067679" lon="6.044467"><ele>986</ele></trkpt>
   <trkpt lat="45.06775" lon="6.044518"><ele>986.25</ele></trkpt>
   <trkpt lat="45.067905" lon="6.04461"><ele>986.5</ele></trkpt>
   <trkpt lat="45.068078" lon="6.04468"><ele>987.75</ele></trkpt>
   <trkpt lat="45.068255" lon="6.044737"><ele>989.75</ele></trkpt>
   <trkpt lat="45.068694" lon="6.044836"><ele>994.5</ele></trkpt>
   <trkpt lat="45.068755" lon="6.044858"><ele>995</ele></trkpt>
   <trkpt lat="45.068824" lon="6.044905"><ele>995</ele></trkpt>
   <trkpt lat="45.068894" lon="6.04497"><ele>994.75</ele></trkpt>
   <trkpt lat="45.06896" lon="6.045053"><ele>994</ele></trkpt>
   <trkpt lat="45.069116" lon="6.045297"><ele>991.5</ele></trkpt>
   <trkpt lat="45.069161" lon="6.045356"><ele>991</ele></trkpt>
   <trkpt lat="45.069194" lon="6.045387"><ele>991.25</ele></trkpt>
   <trkpt lat="45.069257" lon="6.045445"><ele>991.25</ele></trkpt>
   <trkpt lat="45.069508" lon="6.045631"><ele>992.5</ele></trkpt>
   <trkpt lat="45.069648" lon="6.045709"><ele>994.25</ele></trkpt>
   <trkpt lat="45.069898" lon="6.045802"><ele>1000</ele></trkpt>
   <trkpt lat="45.070012" lon="6.045871"><ele>1002.5</ele></trkpt>
   <trkpt lat="45.070114" lon="6.045985"><ele>1004</ele></trkpt>
   <trkpt lat="45.07018" lon="6.046095"><ele>1004.25</ele></trkpt>
   <trkpt lat="45.070512" lon="6.046715"><ele>1008</ele></trkpt>
   <trkpt lat="45.070566" lon="6.046807"><ele>1008.75</ele></trkpt>
   <trkpt lat="45.070671" lon="6.046944"><ele>1010.75</ele></trkpt>
   <trkpt lat="45.071409" lon="6.047627"><ele>1020.5</ele></trkpt>
   <trkpt lat="45.071627" lon="6.047864"><ele>1021.5</ele></trkpt>
   <trkpt lat="45.07171" lon="6.047966"><ele>1021.5</ele></trkpt>
   <trkpt lat="45.071798" lon="6.048093"><ele>1021.25</ele></trkpt>
   <trkpt lat="45.071855" lon="6.048159"><ele>1021.75</ele></trkpt>
   <trkpt lat="45.071879" lon="6.048167"><ele>1022.5</ele></trkpt>
   <trkpt lat="45.071923" lon="6.048157"><ele>1024.5</ele></trkpt>
   <trkpt lat="45.071968" lon="6.048111"><ele>1027.5</ele></trkpt>
   <trkpt lat="45.07198" lon="6.04807"><ele>1029</ele></trkpt>
   <trkpt lat="45.071984" lon="6.047997"><ele>1031.25</ele></trkpt>
   <trkpt lat="45.071977" lon="6.047961"><ele>1032.25</ele></trkpt>
   <trkpt lat="45.071961" lon="6.047929"><ele>1032.75</ele></trkpt>
   <trkpt lat="45.071935" lon="6.047894"><ele>1032.75</ele></trkpt>
   <trkpt lat="45.071739" lon="6.047743"><ele>1030</ele></trkpt>
   <trkpt lat="45.071646" lon="6.047645"><ele>1029.75</ele></trkpt>
   <trkpt lat="45.071413" lon="6.047338"><ele>1030.25</ele></trkpt>
   <trkpt lat="45.071339" lon="6.047222"><ele>1030.75</ele></trkpt>
   <trkpt lat="45.071147" lon="6.046885"><ele>1033</ele></trkpt>
   <trkpt lat="45.071114" lon="6.046809"><ele>1033.5</ele></trkpt>
   <trkpt lat="45.071091" lon="6.046736"><ele>1034.25</ele></trkpt>
   <trkpt lat="45.071073" lon="6.046668"><ele>1035</ele></trkpt>
   <trkpt lat="45.07106" lon="6.046587"><ele>1036.25</ele></trkpt>
   <trkpt lat="45.071043" lon="6.046379"><ele>1039.5</ele></trkpt>
   <trkpt lat="45.071043" lon="6.046264"><ele>1040.75</ele></trkpt>
   <trkpt lat="45.071093" lon="6.045241"><ele>1048.25</ele></trkpt>
   <trkpt lat="45.071095" lon="6.045059"><ele>1049.75</ele></trkpt>
   <trkpt lat="45.071089" lon="6.044977"><ele>1050.25</ele></trkpt>
   <trkpt lat="45.071057" lon="6.044835"><ele>1050.75</ele></trkpt>
   <trkpt lat="45.07099" lon="6.044661"><ele>1052</ele></trkpt>
   <trkpt lat="45.070898" lon="6.044454"><ele>1055.25</ele></trkpt>
   <trkpt lat="45.070884" lon="6.044406"><ele>1056.75</ele></trkpt>
   <trkpt lat="45.070877" lon="6.044345"><ele>1058.75</ele></trkpt>
   <trkpt lat="45.070886" lon="6.044306"><ele>1060.5</ele></trkpt>
   <trkpt lat="45.070932" lon="6.044249"><ele>1063.75</ele></trkpt>
   <trkpt lat="45.070954" lon="6.044243"><ele>1064.5</ele></trkpt>
   <trkpt lat="45.071" lon="6.044248"><ele>1065.5</ele></trkpt>
   <trkpt lat="45.071027" lon="6.044266"><ele>1065.25</ele></trkpt>
   <trkpt lat="45.071051" lon="6.0443"><ele>1064.75</ele></trkpt>
   <trkpt lat="45.071266" lon="6.044772"><ele>1059</ele></trkpt>
   <trkpt lat="45.071309" lon="6.044893"><ele>1059.5</ele></trkpt>
   <trkpt lat="45.071344" lon="6.045053"><ele>1060</ele></trkpt>
   <trkpt lat="45.071518" lon="6.046083"><ele>1065</ele></trkpt>
   <trkpt lat="45.071541" lon="6.046177"><ele>1065.5</ele></trkpt>
   <trkpt lat="45.071605" lon="6.046352"><ele>1067</ele></trkpt>
   <trkpt lat="45.071702" lon="6.04653"><ele>1069</ele></trkpt>
   <trkpt lat="45.07186" lon="6.046749"><ele>1072.25</ele></trkpt>
   <trkpt lat="45.072052" lon="6.046952"><ele>1076</ele></trkpt>
   <trkpt lat="45.072851" lon="6.047609"><ele>1077</ele></trkpt>
   <trkpt lat="45.072912" lon="6.047648"><ele>1077.5</ele></trkpt>
   <trkpt lat="45.072975" lon="6.047675"><ele>1078.75</ele></trkpt>
   <trkpt lat="45.073055" lon="6.047693"><ele>1081.25</ele></trkpt>
   <trkpt lat="45.073319" lon="6.047705"><ele>1092.25</ele></trkpt>
   <trkpt lat="45.073358" lon="6.047717"><ele>1093.5</ele></trkpt>
   <trkpt lat="45.073412" lon="6.047751"><ele>1094.75</ele></trkpt>
   <trkpt lat="45.073488" lon="6.047834"><ele>1096</ele></trkpt>
   <trkpt lat="45.073547" lon="6.047939"><ele>1097</ele></trkpt>
   <trkpt lat="45.073578" lon="6.048041"><ele>1096.75</ele></trkpt>
   <trkpt lat="45.073677" lon="6.048507"><ele>1099.5</ele></trkpt>
   <trkpt lat="45.073686" lon="6.04861"><ele>1100.25</ele></trkpt>
   <trkpt lat="45.07368" lon="6.048705"><ele>1101.75</ele></trkpt>
   <trkpt lat="45.073664" lon="6.048781"><ele>1102.75</ele></trkpt>
   <trkpt lat="45.073642" lon="6.048844"><ele>1103</ele></trkpt>
   <trkpt lat="45.073576" lon="6.048945"><ele>1102.75</ele></trkpt>
   <trkpt lat="45.073456" lon="6.049096"><ele>1100.5</ele></trkpt>
   <trkpt lat="45.073391" lon="6.0492"><ele>1099.5</ele></trkpt>
   <trkpt lat="45.073359" lon="6.049277"><ele>1100</ele></trkpt>
   <trkpt lat="45.073328" lon="6.049393"><ele>1101.25</ele></trkpt>
   <trkpt lat="45.073303" lon="6.049543"><ele>1104</ele></trkpt>
   <trkpt lat="45.073264" lon="6.049704"><ele>1106.5</ele></trkpt>
   <trkpt lat="45.073222" lon="6.049807"><ele>1107.25</ele></trkpt>
   <trkpt lat="45.073159" lon="6.049928"><ele>1108</ele></trkpt>
   <trkpt lat="45.072496" lon="6.050982"><ele>1113.5</ele></trkpt>
   <trkpt lat="45.072442" lon="6.051079"><ele>1113.25</ele></trkpt>
   <trkpt lat="45.072434" lon="6.051133"><ele>1114.25</ele></trkpt>
   <trkpt lat="45.072439" lon="6.051184"><ele>1115.75</ele></trkpt>
   <trkpt lat="45.072454" lon="6.051224"><ele>1118</ele></trkpt>
   <trkpt lat="45.072478" lon="6.051251"><ele>1120.25</ele></trkpt>
   <trkpt lat="45.072508" lon="6.051268"><ele>1123</ele></trkpt>
   <trkpt lat="45.072544" lon="6.051264"><ele>1125</ele></trkpt>
   <trkpt lat="45.072573" lon="6.051245"><ele>1126.25</ele></trkpt>
   <trkpt lat="45.072608" lon="6.0512"><ele>1127</ele></trkpt>
   <trkpt lat="45.072693" lon="6.051004"><ele>1125.25</ele></trkpt>
   <trkpt lat="45.072727" lon="6.050942"><ele>1125</ele></trkpt>
   <trkpt lat="45.072782" lon="6.050865"><ele>1125.25</ele></trkpt>
   <trkpt lat="45.072879" lon="6.050761"><ele>1125.75</ele></trkpt>
   <trkpt lat="45.073596" lon="6.050187"><ele>1135.25</ele></trkpt>
   <trkpt lat="45.073676" lon="6.050105"><ele>1136.25</ele></trkpt>
   <trkpt lat="45.073743" lon="6.050019"><ele>1136.75</ele></trkpt>
   <trkpt lat="45.07391" lon="6.049747"><ele>1136.25</ele></trkpt>
   <trkpt lat="45.073961" lon="6.049688"><ele>1136.5</ele></trkpt>
   <trkpt lat="45.074011" lon="6.049647"><ele>1136.75</ele></trkpt>
   <trkpt lat="45.074069" lon="6.049612"><ele>1137.75</ele></trkpt>
   <trkpt lat="45.074199" lon="6.049584"><ele>1140.75</ele></trkpt>
   <trkpt lat="45.07448" lon="6.049569"><ele>1147.5</ele></trkpt>
   <trkpt lat="45.074555" lon="6.049552"><ele>1149</ele></trkpt>
   <trkpt lat="45.074635" lon="6.049507"><ele>1149.5</ele></trkpt>
   <trkpt lat="45.074702" lon="6.049446"><ele>1149.25</ele></trkpt>
   <trkpt lat="45.074763" lon="6.049369"><ele>1149.75</ele></trkpt>
   <trkpt lat="45.074799" lon="6.0493"><ele>1149.75</ele></trkpt>
   <trkpt lat="45.07487" lon="6.049118"><ele>1150</ele></trkpt>
   <trkpt lat="45.074992" lon="6.048759"><ele>1155</ele></trkpt>
   <trkpt lat="45.075013" lon="6.048662"><ele>1156.5</ele></trkpt>
   <trkpt lat="45.075021" lon="6.048593"><ele>1157.25</ele></trkpt>
   <trkpt lat="45.075019" lon="6.04851"><ele>1157.75</ele></trkpt>
   <trkpt lat="45.074994" lon="6.048373"><ele>1157.25</ele></trkpt>
   <trkpt lat="45.074908" lon="6.048124"><ele>1154.5</ele></trkpt>
   <trkpt lat="45.074815" lon="6.047908"><ele>1152.25</ele></trkpt>
   <trkpt lat="45.074765" lon="6.047788"><ele>1151</ele></trkpt>
   <trkpt lat="45.074757" lon="6.047734"><ele>1151</ele></trkpt>
   <trkpt lat="45.074759" lon="6.047689"><ele>1151.5</ele></trkpt>
   <trkpt lat="45.074769" lon="6.047653"><ele>1152.25</ele></trkpt>
   <trkpt lat="45.07479" lon="6.047617"><ele>1153.5</ele></trkpt>
   <trkpt lat="45.074817" lon="6.047598"><ele>1155</ele></trkpt>
   <trkpt lat="45.074849" lon="6.047593"><ele>1156.25</ele></trkpt>
   <trkpt lat="45.074879" lon="6.047601"><ele>1157.5</ele></trkpt>
   <trkpt lat="45.074904" lon="6.047628"><ele>1158.5</ele></trkpt>
   <trkpt lat="45.074921" lon="6.047665"><ele>1159.25</ele></trkpt>
   <trkpt lat="45.074947" lon="6.047802"><ele>1160</ele></trkpt>
   <trkpt lat="45.07497" lon="6.047961"><ele>1159.5</ele></trkpt>
   <trkpt lat="45.074987" lon="6.048025"><ele>1159.5</ele></trkpt>
   <trkpt lat="45.075035" lon="6.048151"><ele>1161</ele></trkpt>
   <trkpt lat="45.075209" lon="6.048592"><ele>1168</ele></trkpt>
   <trkpt lat="45.075235" lon="6.048714"><ele>1169</ele></trkpt>
   <trkpt lat="45.075252" lon="6.048899"><ele>1169.5</ele></trkpt>
   <trkpt lat="45.075239" lon="6.049486"><ele>1174.75</ele></trkpt>
   <trkpt lat="45.075224" lon="6.049632"><ele>1177.25</ele></trkpt>
   <trkpt lat="45.075203" lon="6.049734"><ele>1178.75</ele></trkpt>
   <trkpt lat="45.075173" lon="6.049824"><ele>1180.25</ele></trkpt>
   <trkpt lat="45.075144" lon="6.049884"><ele>1181</ele></trkpt>
   <trkpt lat="45.075092" lon="6.049961"><ele>1181.75</ele></trkpt>
   <trkpt lat="45.075048" lon="6.050007"><ele>1182</ele></trkpt>
   <trkpt lat="45.074982" lon="6.050048"><ele>1181.5</ele></trkpt>
   <trkpt lat="45.074879" lon="6.0501"><ele>1180.5</ele></trkpt>
   <trkpt lat="45.074593" lon="6.050196"><ele>1176</ele></trkpt>
   <trkpt lat="45.074513" lon="6.050241"><ele>1175.5</ele></trkpt>
   <trkpt lat="45.074458" lon="6.050291"><ele>1176</ele></trkpt>
   <trkpt lat="45.074416" lon="6.05035"><ele>1176.75</ele></trkpt>
   <trkpt lat="45.074366" lon="6.050455"><ele>1179.25</ele></trkpt>
   <trkpt lat="45.074282" lon="6.050676"><ele>1184.75</ele></trkpt>
   <trkpt lat="45.074226" lon="6.050774"><ele>1186</ele></trkpt>
   <trkpt lat="45.074177" lon="6.050845"><ele>1186.75</ele></trkpt>
   <trkpt lat="45.073574" lon="6.051666"><ele>1194.75</ele></trkpt>
   <trkpt lat="45.073395" lon="6.051848"><ele>1194</ele></trkpt>
   <trkpt lat="45.073225" lon="6.051982"><ele>1189.5</ele></trkpt>
   <trkpt lat="45.073206" lon="6.052018"><ele>1190</ele></trkpt>
   <trkpt lat="45.0732" lon="6.052048"><ele>1191</ele></trkpt>
   <trkpt lat="45.0732" lon="6.052088"><ele>1192.75</ele></trkpt>
   <trkpt lat="45.073208" lon="6.052126"><ele>1195</ele></trkpt>
   <trkpt lat="45.07323" lon="6.052161"><ele>1198.5</ele></trkpt>
   <trkpt lat="45.073255" lon="6.052177"><ele>1201.25</ele></trkpt>
   <trkpt lat="45.073302" lon="6.052169"><ele>1204.5</ele></trkpt>
   <trkpt lat="45.073343" lon="6.052134"><ele>1205.75</ele></trkpt>
   <trkpt lat="45.073511" lon="6.051933"><ele>1205.25</ele></trkpt>
   <trkpt lat="45.07382" lon="6.051589"><ele>1203.5</ele></trkpt>
   <trkpt lat="45.074388" lon="6.051059"><ele>1204.25</ele></trkpt>
   <trkpt lat="45.074509" lon="6.050961"><ele>1205.25</ele></trkpt>
   <trkpt lat="45.074702" lon="6.050854"><ele>1208</ele></trkpt>
   <trkpt lat="45.074817" lon="6.050806"><ele>1209.5</ele></trkpt>
   <trkpt lat="45.074918" lon="6.050772"><ele>1210.75</ele></trkpt>
   <trkpt lat="45.07522" lon="6.050702"><ele>1216.5</ele></trkpt>
   <trkpt lat="45.075307" lon="6.050676"><ele>1218</ele></trkpt>
   <trkpt lat="45.075385" lon="6.050639"><ele>1219</ele></trkpt>
   <trkpt lat="45.075456" lon="6.050593"><ele>1219.25</ele></trkpt>
   <trkpt lat="45.075764" lon="6.050346"><ele>1223</ele></trkpt>
   <trkpt lat="45.07584" lon="6.050271"><ele>1224</ele></trkpt>
   <trkpt lat="45.075891" lon="6.050199"><ele>1225.5</ele></trkpt>
   <trkpt lat="45.075928" lon="6.05011"><ele>1225.5</ele></trkpt>
   <trkpt lat="45.076026" lon="6.04976"><ele>1223.75</ele></trkpt>
   <trkpt lat="45.076109" lon="6.049516"><ele>1224.75</ele></trkpt>
   <trkpt lat="45.076195" lon="6.0493"><ele>1227</ele></trkpt>
   <trkpt lat="45.0763" lon="6.049084"><ele>1230.75</ele></trkpt>
   <trkpt lat="45.076346" lon="6.048975"><ele>1232.75</ele></trkpt>
   <trkpt lat="45.076372" lon="6.048882"><ele>1233.75</ele></trkpt>
   <trkpt lat="45.076382" lon="6.048801"><ele>1234.5</ele></trkpt>
   <trkpt lat="45.076382" lon="6.048695"><ele>1234.5</ele></trkpt>
   <trkpt lat="45.076374" lon="6.048606"><ele>1234</ele></trkpt>
   <trkpt lat="45.076329" lon="6.048365"><ele>1232.75</ele></trkpt>
   <trkpt lat="45.076292" lon="6.048166"><ele>1231.25</ele></trkpt>
   <trkpt lat="45.076284" lon="6.048076"><ele>1231</ele></trkpt>
   <trkpt lat="45.076297" lon="6.047954"><ele>1231.25</ele></trkpt>
   <trkpt lat="45.076403" lon="6.047654"><ele>1235</ele></trkpt>
   <trkpt lat="45.076495" lon="6.04735"><ele>1237.75</ele></trkpt>
   <trkpt lat="45.076545" lon="6.04729"><ele>1240.25</ele></trkpt>
   <trkpt lat="45.076574" lon="6.047279"><ele>1242</ele></trkpt>
   <trkpt lat="45.076603" lon="6.047279"><ele>1243.75</ele></trkpt>
   <trkpt lat="45.076629" lon="6.0473"><ele>1245.5</ele></trkpt>
   <trkpt lat="45.076651" lon="6.04733"><ele>1247.5</ele></trkpt>
   <trkpt lat="45.076668" lon="6.047378"><ele>1249.25</ele></trkpt>
   <trkpt lat="45.076669" lon="6.047432"><ele>1250</ele></trkpt>
   <trkpt lat="45.076654" lon="6.047492"><ele>1250</ele></trkpt>
   <trkpt lat="45.076559" lon="6.0477"><ele>1246.5</ele></trkpt>
   <trkpt lat="45.076507" lon="6.047832"><ele>1244.25</ele></trkpt>
   <trkpt lat="45.076492" lon="6.047892"><ele>1243.75</ele></trkpt>
   <trkpt lat="45.076486" lon="6.047952"><ele>1243.75</ele></trkpt>
   <trkpt lat="45.076488" lon="6.048035"><ele>1244.5</ele></trkpt>
   <trkpt lat="45.076502" lon="6.048125"><ele>1245.25</ele></trkpt>
   <trkpt lat="45.076564" lon="6.048322"><ele>1248.25</ele></trkpt>
   <trkpt lat="45.076674" lon="6.048563"><ele>1253.75</ele></trkpt>
   <trkpt lat="45.076701" lon="6.048659"><ele>1255</ele></trkpt>
   <trkpt lat="45.07672" lon="6.048774"><ele>1255.75</ele></trkpt>
   <trkpt lat="45.076727" lon="6.048906"><ele>1256</ele></trkpt>
   <trkpt lat="45.076717" lon="6.049353"><ele>1260.25</ele></trkpt>
   <trkpt lat="45.076711" lon="6.04947"><ele>1262.25</ele></trkpt>
   <trkpt lat="45.076699" lon="6.049553"><ele>1263.5</ele></trkpt>
   <trkpt lat="45.076677" lon="6.049641"><ele>1264.5</ele></trkpt>
   <trkpt lat="45.076573" lon="6.049917"><ele>1264.25</ele></trkpt>
   <trkpt lat="45.07654" lon="6.050024"><ele>1264.25</ele></trkpt>
   <trkpt lat="45.07652" lon="6.050166"><ele>1265.5</ele></trkpt>
   <trkpt lat="45.076494" lon="6.050613"><ele>1273.5</ele></trkpt>
   <trkpt lat="45.076472" lon="6.050706"><ele>1274.5</ele></trkpt>
   <trkpt lat="45.076438" lon="6.050813"><ele>1275</ele></trkpt>
   <trkpt lat="45.076385" lon="6.050938"><ele>1275.75</ele></trkpt>
   <trkpt lat="45.076328" lon="6.051049"><ele>1276.25</ele></trkpt>
   <trkpt lat="45.076214" lon="6.051233"><ele>1277.25</ele></trkpt>
   <trkpt lat="45.07607" lon="6.051444"><ele>1279.5</ele></trkpt>
   <trkpt lat="45.075984" lon="6.05155"><ele>1280.75</ele></trkpt>
   <trkpt lat="45.075917" lon="6.051611"><ele>1281</ele></trkpt>
   <trkpt lat="45.075682" lon="6.051783"><ele>1281.75</ele></trkpt>
   <trkpt lat="45.075191" lon="6.052104"><ele>1284.5</ele></trkpt>
   <trkpt lat="45.075071" lon="6.052169"><ele>1284.75</ele></trkpt>
   <trkpt lat="45.07503" lon="6.052183"><ele>1284.5</ele></trkpt>
   <trkpt lat="45.074857" lon="6.052213"><ele>1281.75</ele></trkpt>
   <trkpt lat="45.074815" lon="6.052233"><ele>1281.75</ele></trkpt>
   <trkpt lat="45.074779" lon="6.052296"><ele>1284.5</ele></trkpt>
   <trkpt lat="45.074766" lon="6.052343"><ele>1287</ele></trkpt>
   <trkpt lat="45.074764" lon="6.052388"><ele>1289.5</ele></trkpt>
   <trkpt lat="45.074776" lon="6.052444"><ele>1293.25</ele></trkpt>
   <trkpt lat="45.074794" lon="6.052478"><ele>1295.75</ele></trkpt>
   <trkpt lat="45.074817" lon="6.052498"><ele>1297.5</ele></trkpt>
   <trkpt lat="45.074855" lon="6.052513"><ele>1299.5</ele></trkpt>
   <trkpt lat="45.074889" lon="6.052506"><ele>1300</ele></trkpt>
   <trkpt lat="45.074933" lon="6.052482"><ele>1299.75</ele></trkpt>
   <trkpt lat="45.074995" lon="6.052427"><ele>1298.25</ele></trkpt>
   <trkpt lat="45.075062" lon="6.052342"><ele>1295</ele></trkpt>
   <trkpt lat="45.075156" lon="6.052261"><ele>1292.75</ele></trkpt>
   <trkpt lat="45.075234" lon="6.052224"><ele>1292.75</ele></trkpt>
   <trkpt lat="45.075543" lon="6.052096"><ele>1293.75</ele></trkpt>
   <trkpt lat="45.075759" lon="6.051988"><ele>1294</ele></trkpt>
   <trkpt lat="45.075859" lon="6.051956"><ele>1295.25</ele></trkpt>
   <trkpt lat="45.07613" lon="6.051913"><ele>1301.25</ele></trkpt>
   <trkpt lat="45.07626" lon="6.05188"><ele>1304</ele></trkpt>
   <trkpt lat="45.076621" lon="6.051758"><ele>1312.25</ele></trkpt>
   <trkpt lat="45.076695" lon="6.051721"><ele>1314</ele></trkpt>
   <trkpt lat="45.076787" lon="6.051652"><ele>1315.75</ele></trkpt>
   <trkpt lat="45.076819" lon="6.051626"><ele>1316.25</ele></trkpt>
   <trkpt lat="45.076883" lon="6.051552"><ele>1317.25</ele></trkpt>
   <trkpt lat="45.076971" lon="6.051425"><ele>1318.25</ele></trkpt>
   <trkpt lat="45.07711" lon="6.051197"><ele>1320.75</ele></trkpt>
   <trkpt lat="45.07725" lon="6.050866"><ele>1322</ele></trkpt>
   <trkpt lat="45.07733" lon="6.050731"><ele>1323.75</ele></trkpt>
   <trkpt lat="45.077598" lon="6.050333"><ele>1330.75</ele></trkpt>
   <trkpt lat="45.077728" lon="6.050112"><ele>1333.5</ele></trkpt>
   <trkpt lat="45.077988" lon="6.049626"><ele>1340.25</ele></trkpt>
   <trkpt lat="45.078048" lon="6.049477"><ele>1342</ele></trkpt>
   <trkpt lat="45.078063" lon="6.049415"><ele>1342.25</ele></trkpt>
   <trkpt lat="45.078067" lon="6.049362"><ele>1342.5</ele></trkpt>
   <trkpt lat="45.078063" lon="6.0493"><ele>1342.25</ele></trkpt>
   <trkpt lat="45.078021" lon="6.049154"><ele>1339.75</ele></trkpt>
   <trkpt lat="45.077953" lon="6.048983"><ele>1337</ele></trkpt>
   <trkpt lat="45.077939" lon="6.048911"><ele>1336.75</ele></trkpt>
   <trkpt lat="45.077935" lon="6.048751"><ele>1338.5</ele></trkpt>
   <trkpt lat="45.077947" lon="6.048537"><ele>1342.75</ele></trkpt>
   <trkpt lat="45.077943" lon="6.048443"><ele>1344.25</ele></trkpt>
   <trkpt lat="45.077927" lon="6.048339"><ele>1345</ele></trkpt>
   <trkpt lat="45.077898" lon="6.048216"><ele>1344.75</ele></trkpt>
   <trkpt lat="45.077811" lon="6.047968"><ele>1341</ele></trkpt>
   <trkpt lat="45.077805" lon="6.047899"><ele>1341</ele></trkpt>
   <trkpt lat="45.077813" lon="6.047852"><ele>1342</ele></trkpt>
   <trkpt lat="45.07785" lon="6.047807"><ele>1345.25</ele></trkpt>
   <trkpt lat="45.077875" lon="6.047797"><ele>1347.5</ele></trkpt>
   <trkpt lat="45.077902" lon="6.0478"><ele>1349.5</ele></trkpt>
   <trkpt lat="45.077929" lon="6.047814"><ele>1351.5</ele></trkpt>
   <trkpt lat="45.077971" lon="6.047868"><ele>1354.25</ele></trkpt>
   <trkpt lat="45.077987" lon="6.047921"><ele>1355</ele></trkpt>
   <trkpt lat="45.078023" lon="6.048178"><ele>1354.75</ele></trkpt>
   <trkpt lat="45.078047" lon="6.048301"><ele>1354.75</ele></trkpt>
   <trkpt lat="45.078109" lon="6.048508"><ele>1355</ele></trkpt>
   <trkpt lat="45.078167" lon="6.048677"><ele>1355.75</ele></trkpt>
   <trkpt lat="45.078238" lon="6.048837"><ele>1357.75</ele></trkpt>
   <trkpt lat="45.078379" lon="6.049118"><ele>1363.5</ele></trkpt>
   <trkpt lat="45.078415" lon="6.049198"><ele>1365.5</ele></trkpt>
   <trkpt lat="45.07843" lon="6.04926"><ele>1366.5</ele></trkpt>
   <trkpt lat="45.078439" lon="6.049434"><ele>1367</ele></trkpt>
   <trkpt lat="45.078436" lon="6.049654"><ele>1369</ele></trkpt>
   <trkpt lat="45.078427" lon="6.049809"><ele>1370</ele></trkpt>
   <trkpt lat="45.078404" lon="6.050043"><ele>1372</ele></trkpt>
   <trkpt lat="45.078385" lon="6.050142"><ele>1372.5</ele></trkpt>
   <trkpt lat="45.07832" lon="6.050369"><ele>1373</ele></trkpt>
   <trkpt lat="45.077833" lon="6.051706"><ele>1377.75</ele></trkpt>
   <trkpt lat="45.077801" lon="6.051817"><ele>1379</ele></trkpt>
   <trkpt lat="45.077739" lon="6.052124"><ele>1383.25</ele></trkpt>
   <trkpt lat="45.077708" lon="6.052236"><ele>1384.75</ele></trkpt>
   <trkpt lat="45.07766" lon="6.052357"><ele>1385</ele></trkpt>
   <trkpt lat="45.077581" lon="6.052518"><ele>1385</ele></trkpt>
   <trkpt lat="45.077466" lon="6.05273"><ele>1385.5</ele></trkpt>
   <trkpt lat="45.077379" lon="6.052852"><ele>1385.5</ele></trkpt>
   <trkpt lat="45.077115" lon="6.053123"><ele>1384.25</ele></trkpt>
   <trkpt lat="45.077082" lon="6.053171"><ele>1384.5</ele></trkpt>
   <trkpt lat="45.077063" lon="6.053219"><ele>1385.25</ele></trkpt>
   <trkpt lat="45.077058" lon="6.053271"><ele>1386.5</ele></trkpt>
   <trkpt lat="45.077061" lon="6.053327"><ele>1387.75</ele></trkpt>
   <trkpt lat="45.077072" lon="6.053381"><ele>1387.5</ele></trkpt>
   <trkpt lat="45.077088" lon="6.053428"><ele>1387.25</ele></trkpt>
   <trkpt lat="45.077113" lon="6.053468"><ele>1387.25</ele></trkpt>
   <trkpt lat="45.077166" lon="6.05352"><ele>1387.25</ele></trkpt>
   <trkpt lat="45.077232" lon="6.053546"><ele>1388</ele></trkpt>
   <trkpt lat="45.07751" lon="6.053593"><ele>1392.25</ele></trkpt>
   <trkpt lat="45.077604" lon="6.053621"><ele>1394.25</ele></trkpt>
   <trkpt lat="45.077669" lon="6.053654"><ele>1395</ele></trkpt>
   <trkpt lat="45.077745" lon="6.053708"><ele>1395.5</ele></trkpt>
   <trkpt lat="45.077891" lon="6.053836"><ele>1397.25</ele></trkpt>
   <trkpt lat="45.07818" lon="6.054085"><ele>1398.5</ele></trkpt>
   <trkpt lat="45.079173" lon="6.054663"><ele>1411.75</ele></trkpt>
   <trkpt lat="45.079301" lon="6.054698"><ele>1411.5</ele></trkpt>
   <trkpt lat="45.079362" lon="6.054699"><ele>1412</ele></trkpt>
   <trkpt lat="45.079427" lon="6.054689"><ele>1412.75</ele></trkpt>
   <trkpt lat="45.079592" lon="6.054633"><ele>1415.25</ele></trkpt>
   <trkpt lat="45.079653" lon="6.054622"><ele>1416</ele></trkpt>
   <trkpt lat="45.07974" lon="6.054628"><ele>1416.5</ele></trkpt>
   <trkpt lat="45.080026" lon="6.054692"><ele>1419</ele></trkpt>
   <trkpt lat="45.080401" lon="6.054793"><ele>1425.75</ele></trkpt>
   <trkpt lat="45.080541" lon="6.054838"><ele>1429</ele></trkpt>
   <trkpt lat="45.080619" lon="6.054878"><ele>1431</ele></trkpt>
   <trkpt lat="45.080683" lon="6.054936"><ele>1432.75</ele></trkpt>
   <trkpt lat="45.080735" lon="6.055013"><ele>1434</ele></trkpt>
   <trkpt lat="45.080773" lon="6.05509"><ele>1435.25</ele></trkpt>
   <trkpt lat="45.080805" lon="6.055177"><ele>1436.25</ele></trkpt>
   <trkpt lat="45.080819" lon="6.055243"><ele>1436.5</ele></trkpt>
   <trkpt lat="45.080822" lon="6.055316"><ele>1437.25</ele></trkpt>
   <trkpt lat="45.080814" lon="6.055378"><ele>1438.25</ele></trkpt>
   <trkpt lat="45.080794" lon="6.05544"><ele>1439</ele></trkpt>
   <trkpt lat="45.080762" lon="6.055503"><ele>1439.5</ele></trkpt>
   <trkpt lat="45.080727" lon="6.055542"><ele>1439.25</ele></trkpt>
   <trkpt lat="45.080682" lon="6.055572"><ele>1439</ele></trkpt>
   <trkpt lat="45.080561" lon="6.055628"><ele>1437.75</ele></trkpt>
   <trkpt lat="45.080398" lon="6.055687"><ele>1435.5</ele></trkpt>
   <trkpt lat="45.08031" lon="6.055742"><ele>1434.75</ele></trkpt>
   <trkpt lat="45.080242" lon="6.05581"><ele>1434.25</ele></trkpt>
   <trkpt lat="45.080197" lon="6.05588"><ele>1434</ele></trkpt>
   <trkpt lat="45.080162" lon="6.055971"><ele>1434.5</ele></trkpt>
   <trkpt lat="45.080136" lon="6.056069"><ele>1435</ele></trkpt>
   <trkpt lat="45.0801" lon="6.056262"><ele>1435.5</ele></trkpt>
   <trkpt lat="45.080065" lon="6.056498"><ele>1434.75</ele></trkpt>
   <trkpt lat="45.080057" lon="6.05661"><ele>1434.5</ele></trkpt>
   <trkpt lat="45.080056" lon="6.056709"><ele>1434</ele></trkpt>
   <trkpt lat="45.080066" lon="6.056801"><ele>1433.75</ele></trkpt>
   <trkpt lat="45.080088" lon="6.056911"><ele>1433.75</ele></trkpt>
   <trkpt lat="45.08012" lon="6.056995"><ele>1434.5</ele></trkpt>
   <trkpt lat="45.080363" lon="6.057549"><ele>1439.25</ele></trkpt>
   <trkpt lat="45.080628" lon="6.058267"><ele>1443.75</ele></trkpt>
   <trkpt lat="45.080744" lon="6.058561"><ele>1445</ele></trkpt>
   <trkpt lat="45.080831" lon="6.058729"><ele>1446.5</ele></trkpt>
   <trkpt lat="45.080875" lon="6.058785"><ele>1447.75</ele></trkpt>
   <trkpt lat="45.080899" lon="6.058815"><ele>1448.25</ele></trkpt>
   <trkpt lat="45.081029" lon="6.058995"><ele>1451.75</ele></trkpt>
   <trkpt lat="45.08108" lon="6.059087"><ele>1453.25</ele></trkpt>
   <trkpt lat="45.08113" lon="6.059213"><ele>1454</ele></trkpt>
   <trkpt lat="45.081221" lon="6.059506"><ele>1455</ele></trkpt>
   <trkpt lat="45.081268" lon="6.059649"><ele>1456.25</ele></trkpt>
   <trkpt lat="45.0813" lon="6.059741"><ele>1457.25</ele></trkpt>
   <trkpt lat="45.081398" lon="6.059903"><ele>1460</ele></trkpt>
   <trkpt lat="45.081496" lon="6.060054"><ele>1463.25</ele></trkpt>
   <trkpt lat="45.081526" lon="6.060128"><ele>1464</ele></trkpt>
   <trkpt lat="45.081625" lon="6.060451"><ele>1466.5</ele></trkpt>
   <trkpt lat="45.081718" lon="6.060754"><ele>1469</ele></trkpt>
   <trkpt lat="45.0818" lon="6.06105"><ele>1470.75</ele></trkpt>
   <trkpt lat="45.08188" lon="6.06134"><ele>1471.5</ele></trkpt>
   <trkpt lat="45.081989" lon="6.061789"><ele>1472.5</ele></trkpt>
   <trkpt lat="45.082123" lon="6.062189"><ele>1474.5</ele></trkpt>
   <trkpt lat="45.082165" lon="6.062269"><ele>1476.25</ele></trkpt>
   <trkpt lat="45.082213" lon="6.062317"><ele>1478.75</ele></trkpt>
   <trkpt lat="45.082241" lon="6.062325"><ele>1480.5</ele></trkpt>
   <trkpt lat="45.082268" lon="6.062321"><ele>1482.25</ele></trkpt>
   <trkpt lat="45.082299" lon="6.062303"><ele>1484.25</ele></trkpt>
   <trkpt lat="45.082324" lon="6.062276"><ele>1486</ele></trkpt>
   <trkpt lat="45.082341" lon="6.062242"><ele>1487.5</ele></trkpt>
   <trkpt lat="45.082348" lon="6.062171"><ele>1488.75</ele></trkpt>
   <trkpt lat="45.082337" lon="6.062123"><ele>1489</ele></trkpt>
   <trkpt lat="45.082305" lon="6.062054"><ele>1488</ele></trkpt>
   <trkpt lat="45.082168" lon="6.061821"><ele>1482.75</ele></trkpt>
   <trkpt lat="45.082128" lon="6.061738"><ele>1481.5</ele></trkpt>
   <trkpt lat="45.082097" lon="6.061623"><ele>1481.25</ele></trkpt>
   <trkpt lat="45.082087" lon="6.061424"><ele>1482.75</ele></trkpt>
   <trkpt lat="45.082157" lon="6.060474"><ele>1491</ele></trkpt>
   <trkpt lat="45.082186" lon="6.059946"><ele>1494.25</ele></trkpt>
   <trkpt lat="45.082194" lon="6.059822"><ele>1495.25</ele></trkpt>
   <trkpt lat="45.0822" lon="6.059714"><ele>1495.75</ele></trkpt>
   <trkpt lat="45.082206" lon="6.0596"><ele>1496.5</ele></trkpt>
   <trkpt lat="45.082215" lon="6.058985"><ele>1498.5</ele></trkpt>
   <trkpt lat="45.082227" lon="6.058715"><ele>1499.75</ele></trkpt>
   <trkpt lat="45.082227" lon="6.058675"><ele>1499.75</ele></trkpt>
   <trkpt lat="45.082232" lon="6.058327"><ele>1500.25</ele></trkpt>
   <trkpt lat="45.082239" lon="6.058173"><ele>1499.75</ele></trkpt>
   <trkpt lat="45.082274" lon="6.058001"><ele>1500</ele></trkpt>
   <trkpt lat="45.082294" lon="6.057933"><ele>1500.25</ele></trkpt>
   <trkpt lat="45.0823" lon="6.057914"><ele>1500.25</ele></trkpt>
   <trkpt lat="45.082339" lon="6.057834"><ele>1500.75</ele></trkpt>
   <trkpt lat="45.082395" lon="6.057758"><ele>1501.5</ele></trkpt>
   <trkpt lat="45.082452" lon="6.0577"><ele>1502.25</ele></trkpt>
   <trkpt lat="45.08251" lon="6.057658"><ele>1503.25</ele></trkpt>
   <trkpt lat="45.08259" lon="6.057619"><ele>1504.25</ele></trkpt>
   <trkpt lat="45.082737" lon="6.057596"><ele>1506.25</ele></trkpt>
   <trkpt lat="45.082977" lon="6.057594"><ele>1509.25</ele></trkpt>
   <trkpt lat="45.083079" lon="6.057593"><ele>1510.5</ele></trkpt>
   <trkpt lat="45.083188" lon="6.05758"><ele>1511.5</ele></trkpt>
   <trkpt lat="45.083536" lon="6.057485"><ele>1513</ele></trkpt>
   <trkpt lat="45.083581" lon="6.057473"><ele>1513.25</ele></trkpt>
   <trkpt lat="45.083632" lon="6.057481"><ele>1513.75</ele></trkpt>
   <trkpt lat="45.083659" lon="6.057504"><ele>1514.5</ele></trkpt>
   <trkpt lat="45.083686" lon="6.057561"><ele>1515.75</ele></trkpt>
   <trkpt lat="45.083688" lon="6.057609"><ele>1516.75</ele></trkpt>
   <trkpt lat="45.08368" lon="6.057652"><ele>1517.25</ele></trkpt>
   <trkpt lat="45.083668" lon="6.057684"><ele>1517.75</ele></trkpt>
   <trkpt lat="45.08364" lon="6.057719"><ele>1518.25</ele></trkpt>
   <trkpt lat="45.083424" lon="6.057874"><ele>1518.5</ele></trkpt>
   <trkpt lat="45.083356" lon="6.057938"><ele>1519</ele></trkpt>
   <trkpt lat="45.083276" lon="6.05806"><ele>1520</ele></trkpt>
   <trkpt lat="45.083214" lon="6.058182"><ele>1521.25</ele></trkpt>
   <trkpt lat="45.083158" lon="6.058299"><ele>1522.5</ele></trkpt>
   <trkpt lat="45.08306" lon="6.058613"><ele>1525</ele></trkpt>
   <trkpt lat="45.083019" lon="6.058833"><ele>1526.5</ele></trkpt>
   <trkpt lat="45.083013" lon="6.058883"><ele>1526.75</ele></trkpt>
   <trkpt lat="45.083008" lon="6.059008"><ele>1527.5</ele></trkpt>
   <trkpt lat="45.08301" lon="6.059319"><ele>1529.5</ele></trkpt>
   <trkpt lat="45.083025" lon="6.059694"><ele>1531.75</ele></trkpt>
   <trkpt lat="45.083044" lon="6.059893"><ele>1533</ele></trkpt>
   <trkpt lat="45.08307" lon="6.060066"><ele>1534.5</ele></trkpt>
   <trkpt lat="45.083195" lon="6.06073"><ele>1541</ele></trkpt>
   <trkpt lat="45.083457" lon="6.061933"><ele>1554</ele></trkpt>
   <trkpt lat="45.083484" lon="6.06215"><ele>1554.75</ele></trkpt>
   <trkpt lat="45.083488" lon="6.062395"><ele>1554</ele></trkpt>
   <trkpt lat="45.08349" lon="6.062525"><ele>1553.75</ele></trkpt>
   <trkpt lat="45.083502" lon="6.062563"><ele>1554.25</ele></trkpt>
   <trkpt lat="45.083525" lon="6.062606"><ele>1555.5</ele></trkpt>
   <trkpt lat="45.08357" lon="6.062636"><ele>1558</ele></trkpt>
   <trkpt lat="45.083621" lon="6.062621"><ele>1561</ele></trkpt>
   <trkpt lat="45.083642" lon="6.0626"><ele>1562.25</ele></trkpt>
   <trkpt lat="45.083654" lon="6.062572"><ele>1562.75</ele></trkpt>
   <trkpt lat="45.083662" lon="6.062508"><ele>1563.5</ele></trkpt>
   <trkpt lat="45.083614" lon="6.062229"><ele>1561</ele></trkpt>
   <trkpt lat="45.0836" lon="6.0621"><ele>1560.75</ele></trkpt>
   <trkpt lat="45.083586" lon="6.061656"><ele>1560.5</ele></trkpt>
   <trkpt lat="45.083608" lon="6.06146"><ele>1561.75</ele></trkpt>
   <trkpt lat="45.083644" lon="6.061334"><ele>1563</ele></trkpt>
   <trkpt lat="45.08377" lon="6.061013"><ele>1566.25</ele></trkpt>
   <trkpt lat="45.083909" lon="6.060698"><ele>1569</ele></trkpt>
   <trkpt lat="45.083964" lon="6.060586"><ele>1569.5</ele></trkpt>
   <trkpt lat="45.084027" lon="6.060489"><ele>1569.75</ele></trkpt>
   <trkpt lat="45.084142" lon="6.060367"><ele>1570.75</ele></trkpt>
   <trkpt lat="45.084245" lon="6.060297"><ele>1571.75</ele></trkpt>
   <trkpt lat="45.084354" lon="6.060243"><ele>1572.5</ele></trkpt>
   <trkpt lat="45.084559" lon="6.060184"><ele>1575</ele></trkpt>
   <trkpt lat="45.084766" lon="6.06012"><ele>1577.25</ele></trkpt>
   <trkpt lat="45.084927" lon="6.060095"><ele>1579.5</ele></trkpt>
   <trkpt lat="45.08515" lon="6.06003"><ele>1583.25</ele></trkpt>
   <trkpt lat="45.085283" lon="6.059977"><ele>1585.5</ele></trkpt>
   <trkpt lat="45.085359" lon="6.059937"><ele>1587</ele></trkpt>
   <trkpt lat="45.08554" lon="6.059821"><ele>1589.5</ele></trkpt>
   <trkpt lat="45.085651" lon="6.059737"><ele>1591</ele></trkpt>
   <trkpt lat="45.085779" lon="6.059627"><ele>1592.25</ele></trkpt>
   <trkpt lat="45.085957" lon="6.059444"><ele>1593.5</ele></trkpt>
   <trkpt lat="45.086211" lon="6.059159"><ele>1594</ele></trkpt>
   <trkpt lat="45.086439" lon="6.05892"><ele>1594.75</ele></trkpt>
   <trkpt lat="45.086623" lon="6.058746"><ele>1597.5</ele></trkpt>
   <trkpt lat="45.086854" lon="6.058554"><ele>1601</ele></trkpt>
   <trkpt lat="45.086919" lon="6.058506"><ele>1602</ele></trkpt>
   <trkpt lat="45.087088" lon="6.058383"><ele>1604.5</ele></trkpt>
   <trkpt lat="45.087282" lon="6.058258"><ele>1607.75</ele></trkpt>
   <trkpt lat="45.087452" lon="6.058137"><ele>1610.75</ele></trkpt>
   <trkpt lat="45.087506" lon="6.058082"><ele>1611.25</ele></trkpt>
   <trkpt lat="45.087598" lon="6.057974"><ele>1612.75</ele></trkpt>
   <trkpt lat="45.087687" lon="6.057829"><ele>1613.5</ele></trkpt>
   <trkpt lat="45.08774" lon="6.057761"><ele>1614</ele></trkpt>
   <trkpt lat="45.087976" lon="6.057383"><ele>1616.75</ele></trkpt>
   <trkpt lat="45.088178" lon="6.057039"><ele>1620.5</ele></trkpt>
   <trkpt lat="45.088267" lon="6.056868"><ele>1622.5</ele></trkpt>
   <trkpt lat="45.088324" lon="6.056719"><ele>1623.75</ele></trkpt>
   <trkpt lat="45.088338" lon="6.056653"><ele>1624</ele></trkpt>
   <trkpt lat="45.08835" lon="6.056542"><ele>1625</ele></trkpt>
   <trkpt lat="45.088351" lon="6.056496"><ele>1625.5</ele></trkpt>
   <trkpt lat="45.088336" lon="6.056388"><ele>1626</ele></trkpt>
   <trkpt lat="45.088319" lon="6.056323"><ele>1626.25</ele></trkpt>
   <trkpt lat="45.088289" lon="6.056249"><ele>1626.75</ele></trkpt>
   <trkpt lat="45.088225" lon="6.056129"><ele>1627</ele></trkpt>
   <trkpt lat="45.088125" lon="6.055982"><ele>1627.75</ele></trkpt>
   <trkpt lat="45.088113" lon="6.055953"><ele>1628</ele></trkpt>
   <trkpt lat="45.088108" lon="6.055925"><ele>1628.5</ele></trkpt>
   <trkpt lat="45.088116" lon="6.055872"><ele>1629.5</ele></trkpt>
   <trkpt lat="45.088138" lon="6.055832"><ele>1630.5</ele></trkpt>
   <trkpt lat="45.088157" lon="6.05582"><ele>1631</ele></trkpt>
   <trkpt lat="45.088183" lon="6.05582"><ele>1631.5</ele></trkpt>
   <trkpt lat="45.088201" lon="6.055829"><ele>1631.5</ele></trkpt>
   <trkpt lat="45.088361" lon="6.055987"><ele>1631.75</ele></trkpt>
   <trkpt lat="45.088605" lon="6.056156"><ele>1634</ele></trkpt>
   <trkpt lat="45.088825" lon="6.056291"><ele>1637.75</ele></trkpt>
   <trkpt lat="45.088899" lon="6.056345"><ele>1638.75</ele></trkpt>
   <trkpt lat="45.088964" lon="6.056426"><ele>1639.25</ele></trkpt>
   <trkpt lat="45.088993" lon="6.056479"><ele>1639.75</ele></trkpt>
   <trkpt lat="45.089018" lon="6.056542"><ele>1640</ele></trkpt>
   <trkpt lat="45.089048" lon="6.05665"><ele>1640.25</ele></trkpt>
   <trkpt lat="45.089103" lon="6.056916"><ele>1642.25</ele></trkpt>
   <trkpt lat="45.089128" lon="6.057091"><ele>1643.25</ele></trkpt>
   <trkpt lat="45.089155" lon="6.057555"><ele>1646.75</ele></trkpt>
   <trkpt lat="45.089166" lon="6.057911"><ele>1649.25</ele></trkpt>
   <trkpt lat="45.08916" lon="6.058077"><ele>1651</ele></trkpt>
   <trkpt lat="45.089146" lon="6.058258"><ele>1652.5</ele></trkpt>
   <trkpt lat="45.089114" lon="6.058471"><ele>1654</ele></trkpt>
   <trkpt lat="45.088853" lon="6.059875"><ele>1663.75</ele></trkpt>
   <trkpt lat="45.088818" lon="6.060006"><ele>1664.5</ele></trkpt>
   <trkpt lat="45.088681" lon="6.060339"><ele>1666.25</ele></trkpt>
   <trkpt lat="45.088673" lon="6.060388"><ele>1667</ele></trkpt>
   <trkpt lat="45.088674" lon="6.060429"><ele>1667.5</ele></trkpt>
   <trkpt lat="45.088685" lon="6.060457"><ele>1668.25</ele></trkpt>
   <trkpt lat="45.088695" lon="6.060465"><ele>1668.5</ele></trkpt>
   <trkpt lat="45.088731" lon="6.060481"><ele>1669.75</ele></trkpt>
   <trkpt lat="45.088754" lon="6.060477"><ele>1670.25</ele></trkpt>
   <trkpt lat="45.088781" lon="6.060458"><ele>1670.5</ele></trkpt>
   <trkpt lat="45.088926" lon="6.060241"><ele>1670.25</ele></trkpt>
   <trkpt lat="45.089285" lon="6.05992"><ele>1674.75</ele></trkpt>
   <trkpt lat="45.089485" lon="6.059739"><ele>1677.25</ele></trkpt>
   <trkpt lat="45.089667" lon="6.059543"><ele>1679.75</ele></trkpt>
   <trkpt lat="45.089724" lon="6.059482"><ele>1680.5</ele></trkpt>
   <trkpt lat="45.089986" lon="6.059129"><ele>1684</ele></trkpt>
   <trkpt lat="45.090522" lon="6.058346"><ele>1693</ele></trkpt>
   <trkpt lat="45.0906" lon="6.058228"><ele>1694.25</ele></trkpt>
   <trkpt lat="45.090681" lon="6.058101"><ele>1695.75</ele></trkpt>
   <trkpt lat="45.090769" lon="6.057942"><ele>1697.25</ele></trkpt>
   <trkpt lat="45.091165" lon="6.057173"><ele>1705.5</ele></trkpt>
   <trkpt lat="45.091222" lon="6.057042"><ele>1706.25</ele></trkpt>
   <trkpt lat="45.091351" lon="6.056611"><ele>1708.75</ele></trkpt>
   <trkpt lat="45.091354" lon="6.056599"><ele>1708.75</ele></trkpt>
   <trkpt lat="45.091385" lon="6.056484"><ele>1710.5</ele></trkpt>
   <trkpt lat="45.0914" lon="6.056404"><ele>1711.25</ele></trkpt>
   <trkpt lat="45.091407" lon="6.056304"><ele>1712</ele></trkpt>
   <trkpt lat="45.091408" lon="6.05604"><ele>1713</ele></trkpt>
   <trkpt lat="45.09139" lon="6.055763"><ele>1713.25</ele></trkpt>
   <trkpt lat="45.091353" lon="6.055493"><ele>1713.25</ele></trkpt>
   <trkpt lat="45.091357" lon="6.055432"><ele>1713.75</ele></trkpt>
   <trkpt lat="45.09137" lon="6.05538"><ele>1714.5</ele></trkpt>
   <trkpt lat="45.091392" lon="6.055356"><ele>1715.5</ele></trkpt>
   <trkpt lat="45.091428" lon="6.055342"><ele>1717</ele></trkpt>
   <trkpt lat="45.091474" lon="6.05535"><ele>1718.75</ele></trkpt>
   <trkpt lat="45.091518" lon="6.055387"><ele>1720.25</ele></trkpt>
   <trkpt lat="45.091551" lon="6.055444"><ele>1721</ele></trkpt>
   <trkpt lat="45.09157" lon="6.055533"><ele>1721.25</ele></trkpt>
   <trkpt lat="45.091576" lon="6.055815"><ele>1721</ele></trkpt>
   <trkpt lat="45.091593" lon="6.055968"><ele>1721.25</ele></trkpt>
   <trkpt lat="45.09163" lon="6.056152"><ele>1722.25</ele></trkpt>
   <trkpt lat="45.091801" lon="6.056855"><ele>1727.5</ele></trkpt>
   <trkpt lat="45.091832" lon="6.057088"><ele>1728.75</ele></trkpt>
   <trkpt lat="45.09184" lon="6.057213"><ele>1729</ele></trkpt>
   <trkpt lat="45.091835" lon="6.057384"><ele>1730.25</ele></trkpt>
   <trkpt lat="45.091742" lon="6.058874"><ele>1740.5</ele></trkpt>
   <trkpt lat="45.091685" lon="6.059205"><ele>1742</ele></trkpt>
   <trkpt lat="45.091636" lon="6.059441"><ele>1743.75</ele></trkpt>
   <trkpt lat="45.091438" lon="6.060416"><ele>1748.75</ele></trkpt>
   <trkpt lat="45.091302" lon="6.061033"><ele>1755</ele></trkpt>
   <trkpt lat="45.091285" lon="6.061108"><ele>1755.75</ele></trkpt>
   <trkpt lat="45.091251" lon="6.061209"><ele>1756.25</ele></trkpt>
   <trkpt lat="45.091209" lon="6.061302"><ele>1756.5</ele></trkpt>
   <trkpt lat="45.09122" lon="6.061344"><ele>1757.25</ele></trkpt>
   <trkpt lat="45.091226" lon="6.061377"><ele>1758</ele></trkpt>
   <trkpt lat="45.091215" lon="6.061427"><ele>1758.25</ele></trkpt>
   <trkpt lat="45.091159" lon="6.061569"><ele>1760</ele></trkpt>
   <trkpt lat="45.091054" lon="6.061842"><ele>1760</ele></trkpt>
   <trkpt lat="45.091012" lon="6.061976"><ele>1760.75</ele></trkpt>
   <trkpt lat="45.090929" lon="6.062325"><ele>1763.75</ele></trkpt>
   <trkpt lat="45.090862" lon="6.062603"><ele>1766</ele></trkpt>
   <trkpt lat="45.090801" lon="6.062868"><ele>1768.5</ele></trkpt>
   <trkpt lat="45.090754" lon="6.063124"><ele>1770.75</ele></trkpt>
   <trkpt lat="45.090736" lon="6.063358"><ele>1772.25</ele></trkpt>
   <trkpt lat="45.090725" lon="6.063619"><ele>1774</ele></trkpt>
   <trkpt lat="45.090713" lon="6.063728"><ele>1774.5</ele></trkpt>
   <trkpt lat="45.090693" lon="6.06382"><ele>1774.75</ele></trkpt>
   <trkpt lat="45.090642" lon="6.063959"><ele>1774.5</ele></trkpt>
   <trkpt lat="45.090604" lon="6.064057"><ele>1773.75</ele></trkpt>
   <trkpt lat="45.090564" lon="6.064167"><ele>1773</ele></trkpt>
   <trkpt lat="45.090519" lon="6.064332"><ele>1773</ele></trkpt>
   <trkpt lat="45.090491" lon="6.06453"><ele>1773.25</ele></trkpt>
   <trkpt lat="45.090458" lon="6.064809"><ele>1774</ele></trkpt>
   <trkpt lat="45.09045" lon="6.064875"><ele>1774</ele></trkpt>
   <trkpt lat="45.090427" lon="6.065119"><ele>1775.25</ele></trkpt>
   <trkpt lat="45.090435" lon="6.06521"><ele>1776</ele></trkpt>
   <trkpt lat="45.090454" lon="6.065306"><ele>1777.25</ele></trkpt>
   <trkpt lat="45.09048" lon="6.065365"><ele>1778.25</ele></trkpt>
   <trkpt lat="45.090503" lon="6.065395"><ele>1778.5</ele></trkpt>
   <trkpt lat="45.090548" lon="6.065432"><ele>1779.25</ele></trkpt>
   <trkpt lat="45.090623" lon="6.06547"><ele>1780.25</ele></trkpt>
   <trkpt lat="45.090693" lon="6.065491"><ele>1781</ele></trkpt>
   <trkpt lat="45.090786" lon="6.065502"><ele>1782.25</ele></trkpt>
   <trkpt lat="45.09084" lon="6.065497"><ele>1783</ele></trkpt>
   <trkpt lat="45.090923" lon="6.065443"><ele>1784</ele></trkpt>
   <trkpt lat="45.090956" lon="6.065396"><ele>1784.25</ele></trkpt>
   <trkpt lat="45.090977" lon="6.065343"><ele>1783.75</ele></trkpt>
   <trkpt lat="45.091008" lon="6.065155"><ele>1783</ele></trkpt>
   <trkpt lat="45.09101" lon="6.06507"><ele>1782.75</ele></trkpt>
   <trkpt lat="45.091002" lon="6.064898"><ele>1782.25</ele></trkpt>
   <trkpt lat="45.09101" lon="6.064752"><ele>1782</ele></trkpt>
   <trkpt lat="45.091056" lon="6.064493"><ele>1783</ele></trkpt>
   <trkpt lat="45.091073" lon="6.064429"><ele>1783.25</ele></trkpt>
   <trkpt lat="45.091094" lon="6.06435"><ele>1783.25</ele></trkpt>
   <trkpt lat="45.091188" lon="6.064079"><ele>1784.5</ele></trkpt>
   <trkpt lat="45.091258" lon="6.063924"><ele>1785.5</ele></trkpt>
   <trkpt lat="45.09148" lon="6.063619"><ele>1788.75</ele></trkpt>
   <trkpt lat="45.091572" lon="6.063496"><ele>1790.25</ele></trkpt>
   <trkpt lat="45.091649" lon="6.063365"><ele>1790.75</ele></trkpt>
   <trkpt lat="45.091809" lon="6.063039"><ele>1790.75</ele></trkpt>
   <trkpt lat="45.09194" lon="6.062768"><ele>1790.75</ele></trkpt>
   <trkpt lat="45.09205" lon="6.062558"><ele>1792</ele></trkpt>
   <trkpt lat="45.092113" lon="6.062448"><ele>1792.75</ele></trkpt>
   <trkpt lat="45.092203" lon="6.062327"><ele>1794</ele></trkpt>
   <trkpt lat="45.092265" lon="6.062248"><ele>1795.25</ele></trkpt>
   <trkpt lat="45.092487" lon="6.061954"><ele>1798.5</ele></trkpt>
   <trkpt lat="45.092542" lon="6.061869"><ele>1799.5</ele></trkpt>
   <trkpt lat="45.092606" lon="6.061724"><ele>1800</ele></trkpt>
   <trkpt lat="45.092651" lon="6.061534"><ele>1799.5</ele></trkpt>
   <trkpt lat="45.09269" lon="6.061318"><ele>1799</ele></trkpt>
   <trkpt lat="45.092708" lon="6.061257"><ele>1799</ele></trkpt>
   <trkpt lat="45.092732" lon="6.061212"><ele>1799.5</ele></trkpt>
   <trkpt lat="45.092753" lon="6.0612"><ele>1800</ele></trkpt>
   <trkpt lat="45.092783" lon="6.061203"><ele>1801</ele></trkpt>
   <trkpt lat="45.092808" lon="6.061224"><ele>1802.25</ele></trkpt>
   <trkpt lat="45.092824" lon="6.061255"><ele>1803.25</ele></trkpt>
   <trkpt lat="45.092833" lon="6.061302"><ele>1804</ele></trkpt>
   <trkpt lat="45.092831" lon="6.061339"><ele>1804.5</ele></trkpt>
   <trkpt lat="45.092769" lon="6.061538"><ele>1803.75</ele></trkpt>
   <trkpt lat="45.092745" lon="6.061653"><ele>1803.75</ele></trkpt>
   <trkpt lat="45.092728" lon="6.061777"><ele>1804.5</ele></trkpt>
   <trkpt lat="45.092669" lon="6.062418"><ele>1809</ele></trkpt>
   <trkpt lat="45.092615" lon="6.063003"><ele>1812.25</ele></trkpt>
   <trkpt lat="45.092593" lon="6.063486"><ele>1814</ele></trkpt>
   <trkpt lat="45.092596" lon="6.063654"><ele>1814.75</ele></trkpt>
   <trkpt lat="45.09265" lon="6.06428"><ele>1818</ele></trkpt>
   <trkpt lat="45.092663" lon="6.064406"><ele>1818.5</ele></trkpt>
   <trkpt lat="45.092701" lon="6.06478"><ele>1819.5</ele></trkpt>
   <trkpt lat="45.092723" lon="6.064944"><ele>1819.75</ele></trkpt>
   <trkpt lat="45.092797" lon="6.06532"><ele>1821.25</ele></trkpt>
   <trkpt lat="45.092907" lon="6.065835"><ele>1824.25</ele></trkpt>
   <trkpt lat="45.092923" lon="6.06594"><ele>1824.75</ele></trkpt>
   <trkpt lat="45.092945" lon="6.066189"><ele>1825.5</ele></trkpt>
   <trkpt lat="45.092965" lon="6.066642"><ele>1826.25</ele></trkpt>
   <trkpt lat="45.092983" lon="6.066765"><ele>1826.25</ele></trkpt>
   <trkpt lat="45.093008" lon="6.066856"><ele>1826.5</ele></trkpt>
   <trkpt lat="45.093063" lon="6.067034"><ele>1826.75</ele></trkpt>
   <trkpt lat="45.093202" lon="6.067308"><ele>1827.75</ele></trkpt>
   <trkpt lat="45.093237" lon="6.067371"><ele>1828</ele></trkpt>
   <trkpt lat="45.093324" lon="6.067502"><ele>1828.75</ele></trkpt>
   <trkpt lat="45.093406" lon="6.067615"><ele>1829.5</ele></trkpt>
   <trkpt lat="45.093556" lon="6.067802"><ele>1831</ele></trkpt>
   <trkpt lat="45.093587" lon="6.067833"><ele>1831.25</ele></trkpt>
   <trkpt lat="45.093707" lon="6.06794"><ele>1832.75</ele></trkpt>
   <trkpt lat="45.093878" lon="6.068079"><ele>1834.75</ele></trkpt>
   <trkpt lat="45.09388" lon="6.068081"><ele>1834.75</ele></trkpt>
   <trkpt lat="45.094039" lon="6.068212"><ele>1836.75</ele></trkpt>
   <trkpt lat="45.094086" lon="6.068259"><ele>1837.25</ele></trkpt>
   <trkpt lat="45.094149" lon="6.068343"><ele>1837.5</ele></trkpt>
   <trkpt lat="45.09433" lon="6.068655"><ele>1839.25</ele></trkpt>
   <trkpt lat="45.094354" lon="6.068694"><ele>1839.5</ele></trkpt>
   <trkpt lat="45.094547" lon="6.068896"><ele>1842</ele></trkpt>
   <trkpt lat="45.094783" lon="6.069118"><ele>1844.5</ele></trkpt>
   <trkpt lat="45.09482" lon="6.069153"><ele>1845</ele></trkpt>
   <trkpt lat="45.094916" lon="6.069241"><ele>1845.75</ele></trkpt>
   <trkpt lat="45.095011" lon="6.069298"><ele>1846.5</ele></trkpt>
   <trkpt lat="45.095171" lon="6.069321"><ele>1847.5</ele></trkpt>
   <trkpt lat="45.095241" lon="6.069318"><ele>1848</ele></trkpt>
   <trkpt lat="45.09534" lon="6.069328"><ele>1848.5</ele></trkpt>
   <trkpt lat="45.095493" lon="6.069383"><ele>1849</ele></trkpt>
   <trkpt lat="45.095632" lon="6.069426"><ele>1849.5</ele></trkpt>
   <trkpt lat="45.095725" lon="6.069437"><ele>1850.25</ele></trkpt>
   <trkpt lat="45.095753" lon="6.069451"><ele>1850.25</ele></trkpt>
   <trkpt lat="45.095767" lon="6.069467"><ele>1850.25</ele></trkpt>
   <trkpt lat="45.095792" lon="6.069525"><ele>1850.25</ele></trkpt>
   <trkpt lat="45.09579" lon="6.069635"><ele>1850</ele></trkpt>
   <trkpt lat="45.095785" lon="6.069817"><ele>1849.25</ele></trkpt>
   <trkpt lat="45.095791" lon="6.069897"><ele>1849</ele></trkpt>
   <trkpt lat="45.095807" lon="6.069972"><ele>1848.75</ele></trkpt>
   <trkpt lat="45.095818" lon="6.070034"><ele>1848.75</ele></trkpt>
   <trkpt lat="45.09585" lon="6.0702"><ele>1849</ele></trkpt>
   <trkpt lat="45.095878" lon="6.070325"><ele>1849</ele></trkpt>
   <trkpt lat="45.0958" lon="6.070353"><ele>1848.25</ele></trkpt>
   <trkpt lat="45.095878" lon="6.070325"><ele>1849</ele></trkpt>
   <trkpt lat="45.096017" lon="6.070267"><ele>1849.5</ele></trkpt>
   <trkpt lat="45.096906" lon="6.06988"><ele>1855</ele></trkpt>
   <trkpt lat="45.096919" lon="6.069875"><ele>1855.25</ele></trkpt>
   <trkpt lat="45.096931" lon="6.069912"><ele>1855.25</ele></trkpt>
   <trkpt lat="45.096951" lon="6.069933"><ele>1855.25</ele></trkpt>
   <trkpt lat="45.096989" lon="6.069945"><ele>1855.25</ele></trkpt>
   <trkpt lat="45.097039" lon="6.069935"><ele>1855.75</ele></trkpt>
   <trkpt lat="45.097074" lon="6.069887"><ele>1856</ele></trkpt>
   <trkpt lat="45.097083" lon="6.069848"><ele>1856.25</ele></trkpt>

  </trkseg>
 </trk>
</gpx>