<?xml version="1.0" encoding="UTF-8"?>
<!-- track-length = 8544 filtered ascend = 411 plain-ascend = 396 cost=10392 energy=0.1kwh time=1h 11m 47s -->
<gpx 
 xmlns="http://www.topografix.com/GPX/1/1" 
 xmlns:xsi="http://www.w3.org/2001/XMLSchema-instance" 
 xsi:schemaLocation="http://www.topografix.com/GPX/1/1 http://www.topografix.com/GPX/1/1/gpx.xsd" 
 version="1.1" 
 creator="BRouter-Web 0.18.1">
 <trk>
  <name>Benicàssim (8.5km)</name>
  <trkseg>
   <trkpt lat="40.054324" lon="0.058101"><ele>26</ele></trkpt>
   <trkpt lat="40.054348" lon="0.058073"><ele>26</ele></trkpt>
   <trkpt lat="40.054401" lon="0.058052"><ele>25.25</ele></trkpt>
   <trkpt lat="40.054456" lon="0.058066"><ele>25</ele></trkpt>
   <trkpt lat="40.054511" lon="0.058119"><ele>25.5</ele></trkpt>
   <trkpt lat="40.054534" lon="0.058094"><ele>25.5</ele></trkpt>
   <trkpt lat="40.054583" lon="0.058042"><ele>25.5</ele></trkpt>
   <trkpt lat="40.054464" lon="0.057778"><ele>26.75</ele></trkpt>
   <trkpt lat="40.054455" lon="0.057758"><ele>27</ele></trkpt>
   <trkpt lat="40.054418" lon="0.05771"><ele>27</ele></trkpt>
   <trkpt lat="40.054405" lon="0.057702"><ele>27</ele></trkpt>
   <trkpt lat="40.054371" lon="0.057683"><ele>27</ele></trkpt>
   <trkpt lat="40.054382" lon="0.057507"><ele>27.75</ele></trkpt>
   <trkpt lat="40.054396" lon="0.057199"><ele>29</ele></trkpt>
   <trkpt lat="40.054408" lon="0.056879"><ele>29.25</ele></trkpt>
   <trkpt lat="40.054464" lon="0.055486"><ele>32.25</ele></trkpt>
   <trkpt lat="40.054482" lon="0.055012"><ele>33</ele></trkpt>
   <trkpt lat="40.054515" lon="0.054119"><ele>35</ele></trkpt>
   <trkpt lat="40.054518" lon="0.053842"><ele>36</ele></trkpt>
   <trkpt lat="40.054526" lon="0.052971"><ele>39.25</ele></trkpt>
   <trkpt lat="40.054538" lon="0.052484"><ele>40.75</ele></trkpt>
   <trkpt lat="40.054563" lon="0.051937"><ele>39.25</ele></trkpt>
   <trkpt lat="40.054596" lon="0.05112"><ele>43</ele></trkpt>
   <trkpt lat="40.054624" lon="0.050969"><ele>43.75</ele></trkpt>
   <trkpt lat="40.054659" lon="0.050955"><ele>44</ele></trkpt>
   <trkpt lat="40.054693" lon="0.050905"><ele>44.5</ele></trkpt>
   <trkpt lat="40.054698" lon="0.050845"><ele>44.75</ele></trkpt>
   <trkpt lat="40.054669" lon="0.050782"><ele>44.75</ele></trkpt>
   <trkpt lat="40.054656" lon="0.050655"><ele>45</ele></trkpt>
   <trkpt lat="40.05466" lon="0.050506"><ele>45.5</ele></trkpt>
   <trkpt lat="40.05468" lon="0.050247"><ele>46.75</ele></trkpt>
   <trkpt lat="40.054714" lon="0.049419"><ele>49</ele></trkpt>
   <trkpt lat="40.054715" lon="0.049398"><ele>49</ele></trkpt>
   <trkpt lat="40.054764" lon="0.04822"><ele>53.75</ele></trkpt>
   <trkpt lat="40.054785" lon="0.04777"><ele>58.5</ele></trkpt>
   <trkpt lat="40.054804" lon="0.047367"><ele>58.5</ele></trkpt>
   <trkpt lat="40.054836" lon="0.047183"><ele>60</ele></trkpt>
   <trkpt lat="40.054885" lon="0.047039"><ele>61</ele></trkpt>
   <trkpt lat="40.054964" lon="0.046885"><ele>62</ele></trkpt>
   <trkpt lat="40.055451" lon="0.045996"><ele>67.25</ele></trkpt>
   <trkpt lat="40.055505" lon="0.045909"><ele>67.5</ele></trkpt>
   <trkpt lat="40.055569" lon="0.045822"><ele>68</ele></trkpt>
   <trkpt lat="40.055628" lon="0.045767"><ele>68</ele></trkpt>
   <trkpt lat="40.055729" lon="0.045691"><ele>68.25</ele></trkpt>
   <trkpt lat="40.055863" lon="0.04561"><ele>68.75</ele></trkpt>
   <trkpt lat="40.056413" lon="0.045324"><ele>72</ele></trkpt>
   <trkpt lat="40.056542" lon="0.045264"><ele>71.75</ele></trkpt>
   <trkpt lat="40.056753" lon="0.045204"><ele>71.5</ele></trkpt>
   <trkpt lat="40.056842" lon="0.045189"><ele>71.5</ele></trkpt>
   <trkpt lat="40.056934" lon="0.045184"><ele>71.75</ele></trkpt>
   <trkpt lat="40.057027" lon="0.045195"><ele>71.75</ele></trkpt>
   <trkpt lat="40.057133" lon="0.045229"><ele>72.75</ele></trkpt>
   <trkpt lat="40.057641" lon="0.045435"><ele>76</ele></trkpt>
   <trkpt lat="40.057782" lon="0.045513"><ele>75</ele></trkpt>
   <trkpt lat="40.058537" lon="0.045976"><ele>80.5</ele></trkpt>
   <trkpt lat="40.058636" lon="0.046031"><ele>80.25</ele></trkpt>
   <trkpt lat="40.058735" lon="0.046064"><ele>80.75</ele></trkpt>
   <trkpt lat="40.058834" lon="0.04607"><ele>81</ele></trkpt>
   <trkpt lat="40.058931" lon="0.04606"><ele>80.75</ele></trkpt>
   <trkpt lat="40.059022" lon="0.046025"><ele>80.75</ele></trkpt>
   <trkpt lat="40.059114" lon="0.045979"><ele>81.25</ele></trkpt>
   <trkpt lat="40.059631" lon="0.045636"><ele>84.75</ele></trkpt>
   <trkpt lat="40.060256" lon="0.045216"><ele>90.25</ele></trkpt>
   <trkpt lat="40.060904" lon="0.044791"><ele>96.5</ele></trkpt>
   <trkpt lat="40.06116" lon="0.044661"><ele>98</ele></trkpt>
   <trkpt lat="40.061469" lon="0.044542"><ele>100.75</ele></trkpt>
   <trkpt lat="40.061905" lon="0.044396"><ele>102.25</ele></trkpt>
   <trkpt lat="40.062022" lon="0.044334"><ele>102</ele></trkpt>
   <trkpt lat="40.062281" lon="0.044146"><ele>106</ele></trkpt>
   <trkpt lat="40.062393" lon="0.044053"><ele>106</ele></trkpt>
   <trkpt lat="40.062485" lon="0.043969"><ele>107.5</ele></trkpt>
   <trkpt lat="40.062569" lon="0.043873"><ele>108.5</ele></trkpt>
   <trkpt lat="40.062632" lon="0.043759"><ele>108.75</ele></trkpt>
   <trkpt lat="40.062699" lon="0.043608"><ele>109.75</ele></trkpt>
   <trkpt lat="40.062814" lon="0.043267"><ele>111</ele></trkpt>
   <trkpt lat="40.06286" lon="0.043158"><ele>111.25</ele></trkpt>
   <trkpt lat="40.062983" lon="0.042955"><ele>113.5</ele></trkpt>
   <trkpt lat="40.063081" lon="0.042834"><ele>114.25</ele></trkpt>
   <trkpt lat="40.063166" lon="0.042745"><ele>115</ele></trkpt>
   <trkpt lat="40.063275" lon="0.042655"><ele>115.75</ele></trkpt>
   <trkpt lat="40.06391" lon="0.042236"><ele>120.25</ele></trkpt>
   <trkpt lat="40.064057" lon="0.042162"><ele>121.25</ele></trkpt>
   <trkpt lat="40.064383" lon="0.042087"><ele>126</ele></trkpt>
   <trkpt lat="40.064471" lon="0.042056"><ele>127</ele></trkpt>
   <trkpt lat="40.06456" lon="0.042003"><ele>127</ele></trkpt>
   <trkpt lat="40.064934" lon="0.041743"><ele>130</ele></trkpt>
   <trkpt lat="40.065285" lon="0.041529"><ele>131</ele></trkpt>
   <trkpt lat="40.065587" lon="0.04135"><ele>133.25</ele></trkpt>
   <trkpt lat="40.065691" lon="0.041296"><ele>133.75</ele></trkpt>
   <trkpt lat="40.065808" lon="0.04128"><ele>135.5</ele></trkpt>
   <trkpt lat="40.066086" lon="0.041278"><ele>138.5</ele></trkpt>
   <trkpt lat="40.066171" lon="0.041267"><ele>140.25</ele></trkpt>
   <trkpt lat="40.066246" lon="0.041238"><ele>141.25</ele></trkpt>
   <trkpt lat="40.066318" lon="0.041182"><ele>141.75</ele></trkpt>
   <trkpt lat="40.066732" lon="0.040782"><ele>145.75</ele></trkpt>
   <trkpt lat="40.066803" lon="0.040724"><ele>146.25</ele></trkpt>
   <trkpt lat="40.066883" lon="0.040678"><ele>147.5</ele></trkpt>
   <trkpt lat="40.066985" lon="0.040635"><ele>148.75</ele></trkpt>
   <trkpt lat="40.067146" lon="0.040588"><ele>149.25</ele></trkpt>
   <trkpt lat="40.06816" lon="0.040357"><ele>159.25</ele></trkpt>
   <trkpt lat="40.068385" lon="0.040308"><ele>161.25</ele></trkpt>
   <trkpt lat="40.068536" lon="0.040292"><ele>162.5</ele></trkpt>
   <trkpt lat="40.068665" lon="0.0403"><ele>164</ele></trkpt>
   <trkpt lat="40.068792" lon="0.04032"><ele>165.25</ele></trkpt>
   <trkpt lat="40.069182" lon="0.040445"><ele>168.25</ele></trkpt>
   <trkpt lat="40.06928" lon="0.040467"><ele>168.5</ele></trkpt>
   <trkpt lat="40.069391" lon="0.04048"><ele>171</ele></trkpt>
   <trkpt lat="40.069507" lon="0.040476"><ele>173.75</ele></trkpt>
   <trkpt lat="40.069631" lon="0.040461"><ele>176.75</ele></trkpt>
   <trkpt lat="40.070031" lon="0.040375"><ele>176.75</ele></trkpt>
   <trkpt lat="40.070227" lon="0.040359"><ele>179</ele></trkpt>
   <trkpt lat="40.070405" lon="0.040357"><ele>180</ele></trkpt>
   <trkpt lat="40.070599" lon="0.040368"><ele>181.5</ele></trkpt>
   <trkpt lat="40.071115" lon="0.040438"><ele>187.75</ele></trkpt>
   <trkpt lat="40.071226" lon="0.040422"><ele>189.75</ele></trkpt>
   <trkpt lat="40.071285" lon="0.040398"><ele>190.25</ele></trkpt>
   <trkpt lat="40.071341" lon="0.040359"><ele>190</ele></trkpt>
   <trkpt lat="40.071457" lon="0.040244"><ele>190.75</ele></trkpt>
   <trkpt lat="40.071612" lon="0.040043"><ele>192</ele></trkpt>
   <trkpt lat="40.071669" lon="0.039986"><ele>192.5</ele></trkpt>
   <trkpt lat="40.071727" lon="0.03994"><ele>193</ele></trkpt>
   <trkpt lat="40.071826" lon="0.039881"><ele>194.5</ele></trkpt>
   <trkpt lat="40.072351" lon="0.039652"><ele>197.25</ele></trkpt>
   <trkpt lat="40.07244" lon="0.039637"><ele>197.5</ele></trkpt>
   <trkpt lat="40.072514" lon="0.039661"><ele>198.75</ele></trkpt>
   <trkpt lat="40.072547" lon="0.039691"><ele>199.5</ele></trkpt>
   <trkpt lat="40.072575" lon="0.039732"><ele>200.5</ele></trkpt>
   <trkpt lat="40.072598" lon="0.039784"><ele>201</ele></trkpt>
   <trkpt lat="40.072613" lon="0.039834"><ele>201.5</ele></trkpt>
   <trkpt lat="40.072622" lon="0.039903"><ele>202.25</ele></trkpt>
   <trkpt lat="40.072617" lon="0.039999"><ele>203.5</ele></trkpt>
   <trkpt lat="40.072603" lon="0.040047"><ele>204.25</ele></trkpt>
   <trkpt lat="40.072577" lon="0.040098"><ele>205</ele></trkpt>
   <trkpt lat="40.072544" lon="0.040134"><ele>205.75</ele></trkpt>
   <trkpt lat="40.072486" lon="0.040177"><ele>206.5</ele></trkpt>
   <trkpt lat="40.072426" lon="0.040197"><ele>207</ele></trkpt>
   <trkpt lat="40.072367" lon="0.040203"><ele>207.5</ele></trkpt>
   <trkpt lat="40.072104" lon="0.040176"><ele>207.25</ele></trkpt>
   <trkpt lat="40.072043" lon="0.040189"><ele>207.25</ele></trkpt>
   <trkpt lat="40.071971" lon="0.04024"><ele>208</ele></trkpt>
   <trkpt lat="40.071943" lon="0.040281"><ele>209</ele></trkpt>
   <trkpt lat="40.07192" lon="0.040332"><ele>209</ele></trkpt>
   <trkpt lat="40.071908" lon="0.040386"><ele>209.75</ele></trkpt>
   <trkpt lat="40.071909" lon="0.040453"><ele>210.5</ele></trkpt>
   <trkpt lat="40.071918" lon="0.040504"><ele>211.25</ele></trkpt>
   <trkpt lat="40.071941" lon="0.040573"><ele>212.75</ele></trkpt>
   <trkpt lat="40.071978" lon="0.04062"><ele>215</ele></trkpt>
   <trkpt lat="40.072016" lon="0.040657"><ele>216.75</ele></trkpt>
   <trkpt lat="40.07206" lon="0.040682"><ele>217.75</ele></trkpt>
   <trkpt lat="40.072105" lon="0.040692"><ele>218</ele></trkpt>
   <trkpt lat="40.072153" lon="0.040691"><ele>218</ele></trkpt>
   <trkpt lat="40.072204" lon="0.040679"><ele>217.5</ele></trkpt>
   <trkpt lat="40.072254" lon="0.040653"><ele>217</ele></trkpt>
   <trkpt lat="40.072464" lon="0.040503"><ele>214.25</ele></trkpt>
   <trkpt lat="40.072504" lon="0.040483"><ele>213.75</ele></trkpt>
   <trkpt lat="40.072544" lon="0.040473"><ele>213.5</ele></trkpt>
   <trkpt lat="40.072595" lon="0.040484"><ele>214</ele></trkpt>
   <trkpt lat="40.072634" lon="0.040502"><ele>214.75</ele></trkpt>
   <trkpt lat="40.07268" lon="0.040537"><ele>216</ele></trkpt>
   <trkpt lat="40.072727" lon="0.040603"><ele>217.25</ele></trkpt>
   <trkpt lat="40.072754" lon="0.040657"><ele>217.75</ele></trkpt>
   <trkpt lat="40.072772" lon="0.040718"><ele>218.5</ele></trkpt>
   <trkpt lat="40.072776" lon="0.040796"><ele>219.5</ele></trkpt>
   <trkpt lat="40.072765" lon="0.040868"><ele>220.5</ele></trkpt>
   <trkpt lat="40.072743" lon="0.04093"><ele>221.75</ele></trkpt>
   <trkpt lat="40.072702" lon="0.040987"><ele>222.75</ele></trkpt>
   <trkpt lat="40.072646" lon="0.041035"><ele>223.25</ele></trkpt>
   <trkpt lat="40.072583" lon="0.041057"><ele>223.25</ele></trkpt>
   <trkpt lat="40.072509" lon="0.041065"><ele>223</ele></trkpt>
   <trkpt lat="40.072432" lon="0.04105"><ele>223.5</ele></trkpt>
   <trkpt lat="40.072121" lon="0.040958"><ele>225.75</ele></trkpt>
   <trkpt lat="40.072022" lon="0.040938"><ele>226.75</ele></trkpt>
   <trkpt lat="40.071941" lon="0.04093"><ele>227.75</ele></trkpt>
   <trkpt lat="40.071864" lon="0.040941"><ele>227.25</ele></trkpt>
   <trkpt lat="40.07178" lon="0.040977"><ele>227.5</ele></trkpt>
   <trkpt lat="40.071312" lon="0.041228"><ele>230.25</ele></trkpt>
   <trkpt lat="40.071272" lon="0.041255"><ele>230.25</ele></trkpt>
   <trkpt lat="40.071246" lon="0.041282"><ele>230.75</ele></trkpt>
   <trkpt lat="40.071207" lon="0.041341"><ele>232</ele></trkpt>
   <trkpt lat="40.071183" lon="0.041403"><ele>232.75</ele></trkpt>
   <trkpt lat="40.071175" lon="0.041453"><ele>232.5</ele></trkpt>
   <trkpt lat="40.071169" lon="0.041519"><ele>232.25</ele></trkpt>
   <trkpt lat="40.071175" lon="0.041581"><ele>232</ele></trkpt>
   <trkpt lat="40.071195" lon="0.041662"><ele>232.25</ele></trkpt>
   <trkpt lat="40.071302" lon="0.041932"><ele>228.75</ele></trkpt>
   <trkpt lat="40.071326" lon="0.042029"><ele>230</ele></trkpt>
   <trkpt lat="40.071336" lon="0.042124"><ele>231.5</ele></trkpt>
   <trkpt lat="40.07134" lon="0.042411"><ele>234.75</ele></trkpt>
   <trkpt lat="40.071362" lon="0.042486"><ele>236</ele></trkpt>
   <trkpt lat="40.071387" lon="0.042542"><ele>237.25</ele></trkpt>
   <trkpt lat="40.071415" lon="0.042585"><ele>238.25</ele></trkpt>
   <trkpt lat="40.071466" lon="0.04263"><ele>239.5</ele></trkpt>
   <trkpt lat="40.071528" lon="0.042667"><ele>240.5</ele></trkpt>
   <trkpt lat="40.071593" lon="0.042689"><ele>241.25</ele></trkpt>
   <trkpt lat="40.071646" lon="0.042691"><ele>242</ele></trkpt>
   <trkpt lat="40.071696" lon="0.04268"><ele>242.75</ele></trkpt>
   <trkpt lat="40.071746" lon="0.042651"><ele>243.5</ele></trkpt>
   <trkpt lat="40.071793" lon="0.042612"><ele>243.75</ele></trkpt>
   <trkpt lat="40.071843" lon="0.042558"><ele>243.5</ele></trkpt>
   <trkpt lat="40.07188" lon="0.042502"><ele>243</ele></trkpt>
   <trkpt lat="40.07191" lon="0.04244"><ele>242.25</ele></trkpt>
   <trkpt lat="40.071926" lon="0.042369"><ele>241.75</ele></trkpt>
   <trkpt lat="40.071926" lon="0.042288"><ele>241.25</ele></trkpt>
   <trkpt lat="40.071915" lon="0.042197"><ele>241</ele></trkpt>
   <trkpt lat="40.071895" lon="0.042106"><ele>242</ele></trkpt>
   <trkpt lat="40.071818" lon="0.041864"><ele>242.5</ele></trkpt>
   <trkpt lat="40.071794" lon="0.041765"><ele>243.75</ele></trkpt>
   <trkpt lat="40.071785" lon="0.041699"><ele>245</ele></trkpt>
   <trkpt lat="40.071786" lon="0.041637"><ele>245.75</ele></trkpt>
   <trkpt lat="40.071794" lon="0.041585"><ele>245.5</ele></trkpt>
   <trkpt lat="40.071818" lon="0.041525"><ele>245.25</ele></trkpt>
   <trkpt lat="40.071846" lon="0.04148"><ele>245.25</ele></trkpt>
   <trkpt lat="40.071876" lon="0.041449"><ele>245.25</ele></trkpt>
   <trkpt lat="40.071912" lon="0.041427"><ele>245.25</ele></trkpt>
   <trkpt lat="40.071958" lon="0.041414"><ele>245.25</ele></trkpt>
   <trkpt lat="40.072016" lon="0.041415"><ele>245</ele></trkpt>
   <trkpt lat="40.072078" lon="0.04143"><ele>245</ele></trkpt>
   <trkpt lat="40.072142" lon="0.041456"><ele>245.5</ele></trkpt>
   <trkpt lat="40.072212" lon="0.041503"><ele>247</ele></trkpt>
   <trkpt lat="40.07229" lon="0.041569"><ele>247.75</ele></trkpt>
   <trkpt lat="40.072444" lon="0.041726"><ele>249.5</ele></trkpt>
   <trkpt lat="40.072505" lon="0.041779"><ele>250</ele></trkpt>
   <trkpt lat="40.07257" lon="0.041821"><ele>250.75</ele></trkpt>
   <trkpt lat="40.072642" lon="0.04185"><ele>251</ele></trkpt>
   <trkpt lat="40.072723" lon="0.041865"><ele>251</ele></trkpt>
   <trkpt lat="40.072797" lon="0.041866"><ele>251.25</ele></trkpt>
   <trkpt lat="40.072874" lon="0.04185"><ele>252.5</ele></trkpt>
   <trkpt lat="40.073102" lon="0.041782"><ele>255.75</ele></trkpt>
   <trkpt lat="40.073178" lon="0.04177"><ele>256.25</ele></trkpt>
   <trkpt lat="40.073245" lon="0.041774"><ele>257</ele></trkpt>
   <trkpt lat="40.07331" lon="0.041796"><ele>258</ele></trkpt>
   <trkpt lat="40.073385" lon="0.041846"><ele>258.5</ele></trkpt>
   <trkpt lat="40.07344" lon="0.041906"><ele>259.25</ele></trkpt>
   <trkpt lat="40.073491" lon="0.041982"><ele>260.5</ele></trkpt>
   <trkpt lat="40.073566" lon="0.042125"><ele>261.25</ele></trkpt>
   <trkpt lat="40.073614" lon="0.042202"><ele>260.75</ele></trkpt>
   <trkpt lat="40.073691" lon="0.042298"><ele>261.75</ele></trkpt>
   <trkpt lat="40.073764" lon="0.042358"><ele>262.25</ele></trkpt>
   <trkpt lat="40.073832" lon="0.042389"><ele>262</ele></trkpt>
   <trkpt lat="40.073909" lon="0.042401"><ele>261.75</ele></trkpt>
   <trkpt lat="40.074003" lon="0.042403"><ele>263.25</ele></trkpt>
   <trkpt lat="40.074147" lon="0.04239"><ele>265</ele></trkpt>
   <trkpt lat="40.075444" lon="0.042227"><ele>273</ele></trkpt>
   <trkpt lat="40.075514" lon="0.042239"><ele>273.5</ele></trkpt>
   <trkpt lat="40.075582" lon="0.042272"><ele>273.5</ele></trkpt>
   <trkpt lat="40.075628" lon="0.042319"><ele>273</ele></trkpt>
   <trkpt lat="40.075677" lon="0.042407"><ele>273.5</ele></trkpt>
   <trkpt lat="40.075696" lon="0.042475"><ele>274.5</ele></trkpt>
   <trkpt lat="40.075702" lon="0.042539"><ele>275.75</ele></trkpt>
   <trkpt lat="40.075699" lon="0.042623"><ele>277.25</ele></trkpt>
   <trkpt lat="40.075686" lon="0.042689"><ele>278.5</ele></trkpt>
   <trkpt lat="40.07566" lon="0.042763"><ele>279.5</ele></trkpt>
   <trkpt lat="40.075628" lon="0.042823"><ele>280.75</ele></trkpt>
   <trkpt lat="40.075591" lon="0.042866"><ele>281.5</ele></trkpt>
   <trkpt lat="40.075544" lon="0.042904"><ele>281.75</ele></trkpt>
   <trkpt lat="40.075495" lon="0.042927"><ele>282.25</ele></trkpt>
   <trkpt lat="40.075433" lon="0.042941"><ele>282</ele></trkpt>
   <trkpt lat="40.075341" lon="0.04295"><ele>281.25</ele></trkpt>
   <trkpt lat="40.074752" lon="0.042933"><ele>284.75</ele></trkpt>
   <trkpt lat="40.074677" lon="0.042944"><ele>284.75</ele></trkpt>
   <trkpt lat="40.074601" lon="0.042967"><ele>285</ele></trkpt>
   <trkpt lat="40.074501" lon="0.043019"><ele>286</ele></trkpt>
   <trkpt lat="40.074442" lon="0.04307"><ele>287</ele></trkpt>
   <trkpt lat="40.074368" lon="0.043168"><ele>287</ele></trkpt>
   <trkpt lat="40.074234" lon="0.043489"><ele>289.5</ele></trkpt>
   <trkpt lat="40.074205" lon="0.043541"><ele>289.75</ele></trkpt>
   <trkpt lat="40.074166" lon="0.043587"><ele>289.5</ele></trkpt>
   <trkpt lat="40.074114" lon="0.043629"><ele>290.75</ele></trkpt>
   <trkpt lat="40.074068" lon="0.043647"><ele>291.5</ele></trkpt>
   <trkpt lat="40.074011" lon="0.043651"><ele>292.25</ele></trkpt>
   <trkpt lat="40.073957" lon="0.043645"><ele>292.5</ele></trkpt>
   <trkpt lat="40.073885" lon="0.043623"><ele>292.25</ele></trkpt>
   <trkpt lat="40.073823" lon="0.043591"><ele>292.75</ele></trkpt>
   <trkpt lat="40.073757" lon="0.043545"><ele>292.75</ele></trkpt>
   <trkpt lat="40.073629" lon="0.043438"><ele>293</ele></trkpt>
   <trkpt lat="40.07357" lon="0.043406"><ele>293.25</ele></trkpt>
   <trkpt lat="40.073524" lon="0.043385"><ele>293</ele></trkpt>
   <trkpt lat="40.073479" lon="0.043375"><ele>293.25</ele></trkpt>
   <trkpt lat="40.073412" lon="0.043373"><ele>294</ele></trkpt>
   <trkpt lat="40.073375" lon="0.04338"><ele>294.5</ele></trkpt>
   <trkpt lat="40.073304" lon="0.043406"><ele>295</ele></trkpt>
   <trkpt lat="40.073195" lon="0.043477"><ele>294.75</ele></trkpt>
   <trkpt lat="40.072873" lon="0.04378"><ele>297.25</ele></trkpt>
   <trkpt lat="40.072789" lon="0.04384"><ele>297.5</ele></trkpt>
   <trkpt lat="40.072706" lon="0.043887"><ele>298.5</ele></trkpt>
   <trkpt lat="40.072604" lon="0.04393"><ele>300.5</ele></trkpt>
   <trkpt lat="40.072517" lon="0.043956"><ele>301.25</ele></trkpt>
   <trkpt lat="40.07242" lon="0.043972"><ele>302</ele></trkpt>
   <trkpt lat="40.072149" lon="0.043989"><ele>302</ele></trkpt>
   <trkpt lat="40.071995" lon="0.044026"><ele>302.5</ele></trkpt>
   <trkpt lat="40.071615" lon="0.044182"><ele>304.75</ele></trkpt>
   <trkpt lat="40.071519" lon="0.044231"><ele>304.75</ele></trkpt>
   <trkpt lat="40.071477" lon="0.044263"><ele>305</ele></trkpt>
   <trkpt lat="40.071437" lon="0.044307"><ele>305.5</ele></trkpt>
   <trkpt lat="40.071413" lon="0.04436"><ele>306.25</ele></trkpt>
   <trkpt lat="40.071398" lon="0.044418"><ele>307.5</ele></trkpt>
   <trkpt lat="40.071401" lon="0.044531"><ele>307</ele></trkpt>
   <trkpt lat="40.07142" lon="0.044596"><ele>306.75</ele></trkpt>
   <trkpt lat="40.071457" lon="0.044658"><ele>306.5</ele></trkpt>
   <trkpt lat="40.071497" lon="0.044697"><ele>306.75</ele></trkpt>
   <trkpt lat="40.071544" lon="0.044722"><ele>307</ele></trkpt>
   <trkpt lat="40.071594" lon="0.044728"><ele>307.5</ele></trkpt>
   <trkpt lat="40.071645" lon="0.044716"><ele>308.5</ele></trkpt>
   <trkpt lat="40.071711" lon="0.044675"><ele>309</ele></trkpt>
   <trkpt lat="40.072031" lon="0.044417"><ele>312</ele></trkpt>
   <trkpt lat="40.07211" lon="0.044366"><ele>311.75</ele></trkpt>
   <trkpt lat="40.072197" lon="0.044326"><ele>312</ele></trkpt>
   <trkpt lat="40.072309" lon="0.044301"><ele>312.5</ele></trkpt>
   <trkpt lat="40.072404" lon="0.044293"><ele>313.25</ele></trkpt>
   <trkpt lat="40.073011" lon="0.044245"><ele>319</ele></trkpt>
   <trkpt lat="40.073115" lon="0.044259"><ele>320.25</ele></trkpt>
   <trkpt lat="40.073197" lon="0.044281"><ele>321</ele></trkpt>
   <trkpt lat="40.073285" lon="0.044316"><ele>322.25</ele></trkpt>
   <trkpt lat="40.073385" lon="0.044372"><ele>323.5</ele></trkpt>
   <trkpt lat="40.073902" lon="0.044755"><ele>326.75</ele></trkpt>
   <trkpt lat="40.074044" lon="0.044848"><ele>326.5</ele></trkpt>
   <trkpt lat="40.07418" lon="0.044915"><ele>327.75</ele></trkpt>
   <trkpt lat="40.074314" lon="0.044955"><ele>329.5</ele></trkpt>
   <trkpt lat="40.074513" lon="0.044992"><ele>332</ele></trkpt>
   <trkpt lat="40.074775" lon="0.044993"><ele>333.75</ele></trkpt>
   <trkpt lat="40.075468" lon="0.044992"><ele>336.5</ele></trkpt>
   <trkpt lat="40.075696" lon="0.044979"><ele>337.5</ele></trkpt>
   <trkpt lat="40.075816" lon="0.044958"><ele>338.25</ele></trkpt>
   <trkpt lat="40.075914" lon="0.04493"><ele>338.75</ele></trkpt>
   <trkpt lat="40.076001" lon="0.044889"><ele>339.5</ele></trkpt>
   <trkpt lat="40.076088" lon="0.04483"><ele>339.75</ele></trkpt>
   <trkpt lat="40.076332" lon="0.044627"><ele>342</ele></trkpt>
   <trkpt lat="40.076759" lon="0.044203"><ele>346.75</ele></trkpt>
   <trkpt lat="40.076869" lon="0.044119"><ele>347.5</ele></trkpt>
   <trkpt lat="40.077018" lon="0.044036"><ele>348.75</ele></trkpt>
   <trkpt lat="40.077304" lon="0.043918"><ele>351.5</ele></trkpt>
   <trkpt lat="40.077578" lon="0.043807"><ele>353</ele></trkpt>
   <trkpt lat="40.077722" lon="0.043731"><ele>354.25</ele></trkpt>
   <trkpt lat="40.077872" lon="0.043641"><ele>356</ele></trkpt>
   <trkpt lat="40.077981" lon="0.043561"><ele>357</ele></trkpt>
   <trkpt lat="40.07807" lon="0.043482"><ele>358</ele></trkpt>
   <trkpt lat="40.078156" lon="0.043375"><ele>358.5</ele></trkpt>
   <trkpt lat="40.07831" lon="0.043101"><ele>360.25</ele></trkpt>
   <trkpt lat="40.078366" lon="0.042972"><ele>361</ele></trkpt>
   <trkpt lat="40.078449" lon="0.042739"><ele>362.25</ele></trkpt>
   <trkpt lat="40.07849" lon="0.042649"><ele>362.25</ele></trkpt>
   <trkpt lat="40.078538" lon="0.042582"><ele>363.25</ele></trkpt>
   <trkpt lat="40.078604" lon="0.042515"><ele>364.75</ele></trkpt>
   <trkpt lat="40.078681" lon="0.04245"><ele>364.5</ele></trkpt>
   <trkpt lat="40.078761" lon="0.042396"><ele>364.5</ele></trkpt>
   <trkpt lat="40.078842" lon="0.042359"><ele>365</ele></trkpt>
   <trkpt lat="40.078912" lon="0.042338"><ele>366</ele></trkpt>
   <trkpt lat="40.079113" lon="0.042316"><ele>368.75</ele></trkpt>
   <trkpt lat="40.079188" lon="0.042294"><ele>369.75</ele></trkpt>
   <trkpt lat="40.079249" lon="0.042253"><ele>371</ele></trkpt>
   <trkpt lat="40.079293" lon="0.042201"><ele>371.25</ele></trkpt>
   <trkpt lat="40.079327" lon="0.042132"><ele>371</ele></trkpt>
   <trkpt lat="40.079506" lon="0.041629"><ele>373.75</ele></trkpt>
   <trkpt lat="40.079581" lon="0.041507"><ele>374</ele></trkpt>
   <trkpt lat="40.079638" lon="0.041455"><ele>375.25</ele></trkpt>
   <trkpt lat="40.079885" lon="0.041305"><ele>379.75</ele></trkpt>
   <trkpt lat="40.079973" lon="0.041242"><ele>381.25</ele></trkpt>
   <trkpt lat="40.080021" lon="0.041193"><ele>382</ele></trkpt>
   <trkpt lat="40.080059" lon="0.041131"><ele>382.25</ele></trkpt>
   <trkpt lat="40.080081" lon="0.041057"><ele>383.5</ele></trkpt>
   <trkpt lat="40.080082" lon="0.041006"><ele>384.25</ele></trkpt>
   <trkpt lat="40.080045" lon="0.040914"><ele>384.5</ele></trkpt>
   <trkpt lat="40.080008" lon="0.040879"><ele>384.25</ele></trkpt>
   <trkpt lat="40.079964" lon="0.040854"><ele>384.25</ele></trkpt>
   <trkpt lat="40.079679" lon="0.040739"><ele>385</ele></trkpt>
   <trkpt lat="40.079614" lon="0.040704"><ele>385</ele></trkpt>
   <trkpt lat="40.079558" lon="0.04065"><ele>385.25</ele></trkpt>
   <trkpt lat="40.079509" lon="0.04056"><ele>386.25</ele></trkpt>
   <trkpt lat="40.079482" lon="0.040486"><ele>385.75</ele></trkpt>
   <trkpt lat="40.079473" lon="0.040424"><ele>385.75</ele></trkpt>
   <trkpt lat="40.079473" lon="0.040345"><ele>386</ele></trkpt>
   <trkpt lat="40.079482" lon="0.040215"><ele>386.25</ele></trkpt>
   <trkpt lat="40.079535" lon="0.03984"><ele>387.5</ele></trkpt>
   <trkpt lat="40.079547" lon="0.039702"><ele>387.75</ele></trkpt>
   <trkpt lat="40.07954" lon="0.039587"><ele>388.5</ele></trkpt>
   <trkpt lat="40.079518" lon="0.039492"><ele>388.25</ele></trkpt>
   <trkpt lat="40.079481" lon="0.039415"><ele>387.75</ele></trkpt>
   <trkpt lat="40.079429" lon="0.039358"><ele>387.25</ele></trkpt>
   <trkpt lat="40.079375" lon="0.039322"><ele>388.25</ele></trkpt>
   <trkpt lat="40.079315" lon="0.039309"><ele>389</ele></trkpt>
   <trkpt lat="40.079247" lon="0.03931"><ele>389.5</ele></trkpt>
   <trkpt lat="40.079017" lon="0.039383"><ele>387.5</ele></trkpt>
   <trkpt lat="40.078954" lon="0.039393"><ele>387.5</ele></trkpt>
   <trkpt lat="40.078889" lon="0.039382"><ele>388.25</ele></trkpt>
   <trkpt lat="40.078797" lon="0.039345"><ele>387.75</ele></trkpt>
   <trkpt lat="40.078649" lon="0.039259"><ele>386.5</ele></trkpt>
   <trkpt lat="40.078525" lon="0.039168"><ele>385.25</ele></trkpt>
   <trkpt lat="40.078468" lon="0.039108"><ele>385.5</ele></trkpt>
   <trkpt lat="40.07841" lon="0.039023"><ele>385.75</ele></trkpt>
   <trkpt lat="40.078233" lon="0.038678"><ele>386</ele></trkpt>
   <trkpt lat="40.078179" lon="0.038567"><ele>386.75</ele></trkpt>
   <trkpt lat="40.077993" lon="0.038175"><ele>384</ele></trkpt>
   <trkpt lat="40.077975" lon="0.038129"><ele>383.75</ele></trkpt>
   <trkpt lat="40.077939" lon="0.038032"><ele>383</ele></trkpt>
   <trkpt lat="40.077911" lon="0.037925"><ele>383</ele></trkpt>
   <trkpt lat="40.077896" lon="0.037775"><ele>383</ele></trkpt>
   <trkpt lat="40.0779" lon="0.037699"><ele>382.75</ele></trkpt>
   <trkpt lat="40.07793" lon="0.037542"><ele>383.25</ele></trkpt>
   <trkpt lat="40.078044" lon="0.037163"><ele>381.5</ele></trkpt>
   <trkpt lat="40.078083" lon="0.037015"><ele>382.5</ele></trkpt>
   <trkpt lat="40.078107" lon="0.036869"><ele>383</ele></trkpt>
   <trkpt lat="40.078119" lon="0.036736"><ele>382.75</ele></trkpt>
   <trkpt lat="40.078124" lon="0.036278"><ele>384</ele></trkpt>
   <trkpt lat="40.078162" lon="0.035239"><ele>383</ele></trkpt>
   <trkpt lat="40.07816" lon="0.03507"><ele>382.75</ele></trkpt>
   <trkpt lat="40.078144" lon="0.034899"><ele>382.25</ele></trkpt>
   <trkpt lat="40.078108" lon="0.034672"><ele>382.25</ele></trkpt>
   <trkpt lat="40.078101" lon="0.034569"><ele>382</ele></trkpt>
   <trkpt lat="40.078103" lon="0.034482"><ele>382.25</ele></trkpt>
   <trkpt lat="40.078118" lon="0.034412"><ele>381.75</ele></trkpt>
   <trkpt lat="40.078149" lon="0.03433"><ele>380.25</ele></trkpt>
   <trkpt lat="40.078722" lon="0.03342"><ele>380.5</ele></trkpt>
   <trkpt lat="40.078977" lon="0.033032"><ele>380.75</ele></trkpt>
   <trkpt lat="40.07902" lon="0.032948"><ele>380.5</ele></trkpt>
   <trkpt lat="40.079049" lon="0.032852"><ele>379</ele></trkpt>
   <trkpt lat="40.079058" lon="0.03275"><ele>377.25</ele></trkpt>
   <trkpt lat="40.079052" lon="0.032625"><ele>377</ele></trkpt>
   <trkpt lat="40.079025" lon="0.032486"><ele>376.5</ele></trkpt>
   <trkpt lat="40.078987" lon="0.032355"><ele>377.75</ele></trkpt>
   <trkpt lat="40.07895" lon="0.032248"><ele>378.75</ele></trkpt>
   <trkpt lat="40.078903" lon="0.032146"><ele>379.25</ele></trkpt>
   <trkpt lat="40.078855" lon="0.032075"><ele>379</ele></trkpt>
   <trkpt lat="40.078732" lon="0.03197"><ele>379.25</ele></trkpt>
   <trkpt lat="40.078471" lon="0.031788"><ele>380</ele></trkpt>
   <trkpt lat="40.078413" lon="0.03173"><ele>380.5</ele></trkpt>
   <trkpt lat="40.078368" lon="0.031672"><ele>381.5</ele></trkpt>
   <trkpt lat="40.078325" lon="0.0316"><ele>381.5</ele></trkpt>
   <trkpt lat="40.078291" lon="0.031525"><ele>382</ele></trkpt>
   <trkpt lat="40.078261" lon="0.031434"><ele>383</ele></trkpt>
   <trkpt lat="40.078239" lon="0.031355"><ele>384</ele></trkpt>
   <trkpt lat="40.078164" lon="0.031089"><ele>386.25</ele></trkpt>
   <trkpt lat="40.078127" lon="0.031"><ele>386.5</ele></trkpt>
   <trkpt lat="40.078088" lon="0.030929"><ele>386</ele></trkpt>
   <trkpt lat="40.078033" lon="0.03085"><ele>384.75</ele></trkpt>
   <trkpt lat="40.077371" lon="0.03002"><ele>387.25</ele></trkpt>
   <trkpt lat="40.077309" lon="0.02995"><ele>387.5</ele></trkpt>
   <trkpt lat="40.077251" lon="0.029903"><ele>387.5</ele></trkpt>
   <trkpt lat="40.077176" lon="0.029866"><ele>388</ele></trkpt>
   <trkpt lat="40.077117" lon="0.02985"><ele>389</ele></trkpt>
   <trkpt lat="40.076981" lon="0.02985"><ele>390</ele></trkpt>
   <trkpt lat="40.076644" lon="0.029908"><ele>393.5</ele></trkpt>
   <trkpt lat="40.076582" lon="0.029908"><ele>392.75</ele></trkpt>
   <trkpt lat="40.076534" lon="0.029892"><ele>392.5</ele></trkpt>
   <trkpt lat="40.076495" lon="0.029856"><ele>393</ele></trkpt>
   <trkpt lat="40.076448" lon="0.029773"><ele>393.75</ele></trkpt>
   <trkpt lat="40.076407" lon="0.029642"><ele>394.25</ele></trkpt>
   <trkpt lat="40.076382" lon="0.029509"><ele>394.25</ele></trkpt>
   <trkpt lat="40.076369" lon="0.029339"><ele>394.75</ele></trkpt>
   <trkpt lat="40.076347" lon="0.028862"><ele>397.75</ele></trkpt>
   <trkpt lat="40.076327" lon="0.028733"><ele>399</ele></trkpt>
   <trkpt lat="40.0763" lon="0.028635"><ele>399.5</ele></trkpt>
   <trkpt lat="40.07626" lon="0.028541"><ele>400.5</ele></trkpt>
   <trkpt lat="40.076133" lon="0.02829"><ele>403</ele></trkpt>
   <trkpt lat="40.076105" lon="0.028187"><ele>403.75</ele></trkpt>
   <trkpt lat="40.076099" lon="0.028076"><ele>405</ele></trkpt>
   <trkpt lat="40.076105" lon="0.027973"><ele>405.25</ele></trkpt>
   <trkpt lat="40.076169" lon="0.027735"><ele>406.75</ele></trkpt>
   <trkpt lat="40.076258" lon="0.027472"><ele>408.25</ele></trkpt>
   <trkpt lat="40.076278" lon="0.027378"><ele>408.75</ele></trkpt>
   <trkpt lat="40.076284" lon="0.027289"><ele>408.5</ele></trkpt>
   <trkpt lat="40.076277" lon="0.027198"><ele>408.25</ele></trkpt>
   <trkpt lat="40.076222" lon="0.027046"><ele>409.25</ele></trkpt>
   <trkpt lat="40.076177" lon="0.026982"><ele>410.25</ele></trkpt>
   <trkpt lat="40.076106" lon="0.026913"><ele>411.75</ele></trkpt>
   <trkpt lat="40.075987" lon="0.026809"><ele>413.25</ele></trkpt>
   <trkpt lat="40.075893" lon="0.026741"><ele>413.25</ele></trkpt>
   <trkpt lat="40.075815" lon="0.026706"><ele>412.75</ele></trkpt>
   <trkpt lat="40.075741" lon="0.026691"><ele>413.75</ele></trkpt>
   <trkpt lat="40.075652" lon="0.026687"><ele>414.5</ele></trkpt>
   <trkpt lat="40.075509" lon="0.026697"><ele>415.75</ele></trkpt>
   <trkpt lat="40.075336" lon="0.026726"><ele>417</ele></trkpt>
   <trkpt lat="40.074996" lon="0.026798"><ele>418.5</ele></trkpt>
   <trkpt lat="40.074757" lon="0.026851"><ele>420.5</ele></trkpt>
   <trkpt lat="40.074478" lon="0.026897"><ele>419.5</ele></trkpt>
   <trkpt lat="40.074415" lon="0.026903"><ele>419.5</ele></trkpt>
   <trkpt lat="40.07425" lon="0.026928"><ele>419.75</ele></trkpt>
   <trkpt lat="40.074184" lon="0.026942"><ele>419.75</ele></trkpt>
   <trkpt lat="40.074117" lon="0.026962"><ele>420.5</ele></trkpt>
  </trkseg>
 </trk>
</gpx>