<?xml version="1.0" encoding="UTF-8"?>
<!-- track-length = 9974 filtered ascend = 623 plain-ascend = 589 cost=14770 energy=0.2kwh time=1h 47m 19s -->
<gpx 
 xmlns="http://www.topografix.com/GPX/1/1" 
 xmlns:xsi="http://www.w3.org/2001/XMLSchema-instance" 
 xsi:schemaLocation="http://www.topografix.com/GPX/1/1 http://www.topografix.com/GPX/1/1/gpx.xsd" 
 version="1.1" 
 creator="BRouter-Web 0.18.1">
 <trk>
  <name>ballon d'alsace (10km)</name>
  <trkseg>
      <trkpt lat="47.855311" lon="6.81951"><ele>551</ele></trkpt>
   <trkpt lat="47.855369" lon="6.819582"><ele>551.25</ele></trkpt>
   <trkpt lat="47.855346" lon="6.819619"><ele>551.5</ele></trkpt>
   <trkpt lat="47.855298" lon="6.819738"><ele>552</ele></trkpt>
   <trkpt lat="47.855266" lon="6.819931"><ele>552</ele></trkpt>
   <trkpt lat="47.855255" lon="6.820124"><ele>552.5</ele></trkpt>
   <trkpt lat="47.855253" lon="6.820309"><ele>553</ele></trkpt>
   <trkpt lat="47.855247" lon="6.820922"><ele>554.5</ele></trkpt>
   <trkpt lat="47.855269" lon="6.821133"><ele>555</ele></trkpt>
   <trkpt lat="47.855301" lon="6.821332"><ele>555.5</ele></trkpt>
   <trkpt lat="47.855326" lon="6.821438"><ele>555.75</ele></trkpt>
   <trkpt lat="47.855376" lon="6.821717"><ele>556.75</ele></trkpt>
   <trkpt lat="47.855383" lon="6.821818"><ele>556.75</ele></trkpt>
   <trkpt lat="47.855379" lon="6.821904"><ele>557.25</ele></trkpt>
   <trkpt lat="47.855322" lon="6.822247"><ele>559</ele></trkpt>
   <trkpt lat="47.855311" lon="6.822377"><ele>559.75</ele></trkpt>
   <trkpt lat="47.855321" lon="6.822475"><ele>560</ele></trkpt>
   <trkpt lat="47.855344" lon="6.822553"><ele>561</ele></trkpt>
   <trkpt lat="47.855384" lon="6.822637"><ele>562</ele></trkpt>
   <trkpt lat="47.855542" lon="6.822795"><ele>563.5</ele></trkpt>
   <trkpt lat="47.856155" lon="6.823412"><ele>569.25</ele></trkpt>
   <trkpt lat="47.856561" lon="6.823812"><ele>572.25</ele></trkpt>
   <trkpt lat="47.856643" lon="6.823929"><ele>572.75</ele></trkpt>
   <trkpt lat="47.856701" lon="6.824045"><ele>572.75</ele></trkpt>
   <trkpt lat="47.856755" lon="6.824229"><ele>574</ele></trkpt>
   <trkpt lat="47.856821" lon="6.824588"><ele>576.75</ele></trkpt>
   <trkpt lat="47.856876" lon="6.824918"><ele>578.25</ele></trkpt>
   <trkpt lat="47.856871" lon="6.825041"><ele>579</ele></trkpt>
   <trkpt lat="47.856857" lon="6.825127"><ele>579.25</ele></trkpt>
   <trkpt lat="47.856829" lon="6.825192"><ele>579.75</ele></trkpt>
   <trkpt lat="47.856784" lon="6.825236"><ele>580.75</ele></trkpt>
   <trkpt lat="47.856745" lon="6.825241"><ele>581.25</ele></trkpt>
   <trkpt lat="47.856668" lon="6.825165"><ele>582.5</ele></trkpt>
   <trkpt lat="47.856539" lon="6.824896"><ele>583.75</ele></trkpt>
   <trkpt lat="47.856473" lon="6.824779"><ele>584.5</ele></trkpt>
   <trkpt lat="47.856365" lon="6.824637"><ele>585.25</ele></trkpt>
   <trkpt lat="47.856283" lon="6.824559"><ele>585.75</ele></trkpt>
   <trkpt lat="47.856091" lon="6.824435"><ele>588</ele></trkpt>
   <trkpt lat="47.856006" lon="6.824381"><ele>588.75</ele></trkpt>
   <trkpt lat="47.855729" lon="6.82422"><ele>590.5</ele></trkpt>
   <trkpt lat="47.855569" lon="6.824146"><ele>591.25</ele></trkpt>
   <trkpt lat="47.855418" lon="6.824094"><ele>591.75</ele></trkpt>
   <trkpt lat="47.855321" lon="6.824086"><ele>592.75</ele></trkpt>
   <trkpt lat="47.855257" lon="6.824104"><ele>593.75</ele></trkpt>
   <trkpt lat="47.855217" lon="6.824152"><ele>594.75</ele></trkpt>
   <trkpt lat="47.8552" lon="6.824206"><ele>595.75</ele></trkpt>
   <trkpt lat="47.855198" lon="6.824264"><ele>596.5</ele></trkpt>
   <trkpt lat="47.855221" lon="6.824338"><ele>597.25</ele></trkpt>
   <trkpt lat="47.855246" lon="6.824378"><ele>597.5</ele></trkpt>
   <trkpt lat="47.855385" lon="6.824547"><ele>598.5</ele></trkpt>
   <trkpt lat="47.855447" lon="6.824642"><ele>599.25</ele></trkpt>
   <trkpt lat="47.855552" lon="6.824861"><ele>600.5</ele></trkpt>
   <trkpt lat="47.855619" lon="6.825051"><ele>601.75</ele></trkpt>
   <trkpt lat="47.855684" lon="6.825259"><ele>602.75</ele></trkpt>
   <trkpt lat="47.855741" lon="6.825488"><ele>604</ele></trkpt>
   <trkpt lat="47.855763" lon="6.825603"><ele>604.25</ele></trkpt>
   <trkpt lat="47.855765" lon="6.825686"><ele>604.5</ele></trkpt>
   <trkpt lat="47.855753" lon="6.825749"><ele>605</ele></trkpt>
   <trkpt lat="47.855725" lon="6.825803"><ele>605.75</ele></trkpt>
   <trkpt lat="47.855705" lon="6.825816"><ele>606</ele></trkpt>
   <trkpt lat="47.855679" lon="6.825821"><ele>606.5</ele></trkpt>
   <trkpt lat="47.855655" lon="6.825822"><ele>607</ele></trkpt>
   <trkpt lat="47.855622" lon="6.825796"><ele>607.5</ele></trkpt>
   <trkpt lat="47.855593" lon="6.825759"><ele>608</ele></trkpt>
   <trkpt lat="47.855339" lon="6.825211"><ele>609</ele></trkpt>
   <trkpt lat="47.855207" lon="6.824971"><ele>609.75</ele></trkpt>
   <trkpt lat="47.855153" lon="6.824896"><ele>609.5</ele></trkpt>
   <trkpt lat="47.855105" lon="6.824855"><ele>609.75</ele></trkpt>
   <trkpt lat="47.855068" lon="6.824839"><ele>610.25</ele></trkpt>
   <trkpt lat="47.854996" lon="6.824863"><ele>612</ele></trkpt>
   <trkpt lat="47.854965" lon="6.824898"><ele>613</ele></trkpt>
   <trkpt lat="47.854951" lon="6.824928"><ele>613.75</ele></trkpt>
   <trkpt lat="47.854939" lon="6.825004"><ele>615</ele></trkpt>
   <trkpt lat="47.854954" lon="6.825109"><ele>615.25</ele></trkpt>
   <trkpt lat="47.85501" lon="6.825368"><ele>615.5</ele></trkpt>
   <trkpt lat="47.855054" lon="6.82563"><ele>616.5</ele></trkpt>
   <trkpt lat="47.855078" lon="6.825924"><ele>618</ele></trkpt>
   <trkpt lat="47.855086" lon="6.826221"><ele>619.75</ele></trkpt>
   <trkpt lat="47.85508" lon="6.826422"><ele>620.75</ele></trkpt>
   <trkpt lat="47.855047" lon="6.826674"><ele>622.25</ele></trkpt>
   <trkpt lat="47.85501" lon="6.826817"><ele>623.25</ele></trkpt>
   <trkpt lat="47.854961" lon="6.826959"><ele>624.25</ele></trkpt>
   <trkpt lat="47.854704" lon="6.827597"><ele>627.75</ele></trkpt>
   <trkpt lat="47.854609" lon="6.827803"><ele>628.75</ele></trkpt>
   <trkpt lat="47.854544" lon="6.82791"><ele>629.5</ele></trkpt>
   <trkpt lat="47.854437" lon="6.828054"><ele>631</ele></trkpt>
   <trkpt lat="47.854324" lon="6.828184"><ele>632.25</ele></trkpt>
   <trkpt lat="47.853758" lon="6.828891"><ele>637.25</ele></trkpt>
   <trkpt lat="47.853592" lon="6.829121"><ele>640.5</ele></trkpt>
   <trkpt lat="47.853398" lon="6.829437"><ele>641.25</ele></trkpt>
   <trkpt lat="47.853012" lon="6.830113"><ele>645.75</ele></trkpt>
   <trkpt lat="47.852957" lon="6.830189"><ele>646.25</ele></trkpt>
   <trkpt lat="47.852927" lon="6.830212"><ele>646.5</ele></trkpt>
   <trkpt lat="47.852894" lon="6.830223"><ele>647</ele></trkpt>
   <trkpt lat="47.852868" lon="6.830219"><ele>647.5</ele></trkpt>
   <trkpt lat="47.852844" lon="6.830204"><ele>648</ele></trkpt>
   <trkpt lat="47.852815" lon="6.830164"><ele>648.75</ele></trkpt>
   <trkpt lat="47.852796" lon="6.830107"><ele>649.25</ele></trkpt>
   <trkpt lat="47.852787" lon="6.830029"><ele>649.75</ele></trkpt>
   <trkpt lat="47.852799" lon="6.829571"><ele>652.5</ele></trkpt>
   <trkpt lat="47.852796" lon="6.829436"><ele>653.5</ele></trkpt>
   <trkpt lat="47.852778" lon="6.829262"><ele>654.5</ele></trkpt>
   <trkpt lat="47.852715" lon="6.829007"><ele>655.5</ele></trkpt>
   <trkpt lat="47.852626" lon="6.828761"><ele>656.5</ele></trkpt>
   <trkpt lat="47.852545" lon="6.828546"><ele>657.5</ele></trkpt>
   <trkpt lat="47.852457" lon="6.828225"><ele>659</ele></trkpt>
   <trkpt lat="47.8524" lon="6.827943"><ele>660.5</ele></trkpt>
   <trkpt lat="47.852368" lon="6.827869"><ele>661</ele></trkpt>
   <trkpt lat="47.852331" lon="6.827808"><ele>661.25</ele></trkpt>
   <trkpt lat="47.852292" lon="6.827774"><ele>662</ele></trkpt>
   <trkpt lat="47.852202" lon="6.827734"><ele>663.25</ele></trkpt>
   <trkpt lat="47.852061" lon="6.827743"><ele>664</ele></trkpt>
   <trkpt lat="47.851936" lon="6.827778"><ele>665</ele></trkpt>
   <trkpt lat="47.851884" lon="6.827798"><ele>665</ele></trkpt>
   <trkpt lat="47.85144" lon="6.827932"><ele>667.25</ele></trkpt>
   <trkpt lat="47.851173" lon="6.828037"><ele>669.5</ele></trkpt>
   <trkpt lat="47.851024" lon="6.828124"><ele>670.5</ele></trkpt>
   <trkpt lat="47.850897" lon="6.828215"><ele>671.5</ele></trkpt>
   <trkpt lat="47.850718" lon="6.828378"><ele>673.5</ele></trkpt>
   <trkpt lat="47.850641" lon="6.828438"><ele>674.25</ele></trkpt>
   <trkpt lat="47.850568" lon="6.828472"><ele>674.5</ele></trkpt>
   <trkpt lat="47.850491" lon="6.828496"><ele>675</ele></trkpt>
   <trkpt lat="47.850232" lon="6.82854"><ele>677</ele></trkpt>
   <trkpt lat="47.850171" lon="6.828572"><ele>677.5</ele></trkpt>
   <trkpt lat="47.850119" lon="6.828617"><ele>678</ele></trkpt>
   <trkpt lat="47.850068" lon="6.828682"><ele>678.75</ele></trkpt>
   <trkpt lat="47.850032" lon="6.828757"><ele>679.5</ele></trkpt>
   <trkpt lat="47.849809" lon="6.829405"><ele>683.75</ele></trkpt>
   <trkpt lat="47.84975" lon="6.829557"><ele>684.25</ele></trkpt>
   <trkpt lat="47.849531" lon="6.830055"><ele>688</ele></trkpt>
   <trkpt lat="47.849362" lon="6.830513"><ele>689.75</ele></trkpt>
   <trkpt lat="47.849292" lon="6.830656"><ele>691</ele></trkpt>
   <trkpt lat="47.848969" lon="6.831158"><ele>695.5</ele></trkpt>
   <trkpt lat="47.848812" lon="6.831448"><ele>697.25</ele></trkpt>
   <trkpt lat="47.848696" lon="6.831637"><ele>699</ele></trkpt>
   <trkpt lat="47.848552" lon="6.831792"><ele>700.75</ele></trkpt>
   <trkpt lat="47.848077" lon="6.832092"><ele>703.75</ele></trkpt>
   <trkpt lat="47.847514" lon="6.832315"><ele>709.75</ele></trkpt>
   <trkpt lat="47.84732" lon="6.832363"><ele>710.5</ele></trkpt>
   <trkpt lat="47.847039" lon="6.83237"><ele>713</ele></trkpt>
   <trkpt lat="47.846911" lon="6.832384"><ele>714.25</ele></trkpt>
   <trkpt lat="47.846475" lon="6.832497"><ele>717.25</ele></trkpt>
   <trkpt lat="47.846169" lon="6.832533"><ele>720.25</ele></trkpt>
   <trkpt lat="47.845935" lon="6.832596"><ele>721.5</ele></trkpt>
   <trkpt lat="47.845707" lon="6.832738"><ele>723.5</ele></trkpt>
   <trkpt lat="47.845411" lon="6.832947"><ele>726</ele></trkpt>
   <trkpt lat="47.844929" lon="6.833214"><ele>729.75</ele></trkpt>
   <trkpt lat="47.844337" lon="6.833826"><ele>735.75</ele></trkpt>
   <trkpt lat="47.844065" lon="6.834046"><ele>737.5</ele></trkpt>
   <trkpt lat="47.843284" lon="6.834352"><ele>742.75</ele></trkpt>
   <trkpt lat="47.84318" lon="6.834426"><ele>743.75</ele></trkpt>
   <trkpt lat="47.843024" lon="6.834584"><ele>744.25</ele></trkpt>
   <trkpt lat="47.842833" lon="6.83481"><ele>746.75</ele></trkpt>
   <trkpt lat="47.842628" lon="6.835094"><ele>749.25</ele></trkpt>
   <trkpt lat="47.842361" lon="6.8355"><ele>754.25</ele></trkpt>
   <trkpt lat="47.842273" lon="6.835603"><ele>755</ele></trkpt>
   <trkpt lat="47.841865" lon="6.836032"><ele>759</ele></trkpt>
   <trkpt lat="47.841756" lon="6.836123"><ele>760.25</ele></trkpt>
   <trkpt lat="47.841701" lon="6.836152"><ele>760.5</ele></trkpt>
   <trkpt lat="47.841666" lon="6.836156"><ele>760.5</ele></trkpt>
   <trkpt lat="47.841618" lon="6.836133"><ele>761</ele></trkpt>
   <trkpt lat="47.841581" lon="6.836093"><ele>761</ele></trkpt>
   <trkpt lat="47.841534" lon="6.835991"><ele>761</ele></trkpt>
   <trkpt lat="47.841515" lon="6.835899"><ele>761</ele></trkpt>
   <trkpt lat="47.841517" lon="6.83572"><ele>762</ele></trkpt>
   <trkpt lat="47.841568" lon="6.835311"><ele>764.75</ele></trkpt>
   <trkpt lat="47.84182" lon="6.833856"><ele>771</ele></trkpt>
   <trkpt lat="47.841848" lon="6.833553"><ele>772.75</ele></trkpt>
   <trkpt lat="47.84186" lon="6.833277"><ele>774</ele></trkpt>
   <trkpt lat="47.841835" lon="6.833108"><ele>774.25</ele></trkpt>
   <trkpt lat="47.841808" lon="6.83301"><ele>774.5</ele></trkpt>
   <trkpt lat="47.84174" lon="6.832897"><ele>775.5</ele></trkpt>
   <trkpt lat="47.841646" lon="6.832822"><ele>777.5</ele></trkpt>
   <trkpt lat="47.841331" lon="6.832677"><ele>779.25</ele></trkpt>
   <trkpt lat="47.841164" lon="6.832557"><ele>781.5</ele></trkpt>
   <trkpt lat="47.840836" lon="6.832198"><ele>784.25</ele></trkpt>
   <trkpt lat="47.840547" lon="6.831931"><ele>787</ele></trkpt>
   <trkpt lat="47.84042" lon="6.831778"><ele>788</ele></trkpt>
   <trkpt lat="47.84024" lon="6.831478"><ele>790.75</ele></trkpt>
   <trkpt lat="47.840031" lon="6.831147"><ele>792.5</ele></trkpt>
   <trkpt lat="47.839751" lon="6.830618"><ele>795.5</ele></trkpt>
   <trkpt lat="47.839137" lon="6.829201"><ele>805</ele></trkpt>
   <trkpt lat="47.839004" lon="6.828947"><ele>806.25</ele></trkpt>
   <trkpt lat="47.838307" lon="6.827866"><ele>814.75</ele></trkpt>
   <trkpt lat="47.837962" lon="6.82733"><ele>818.25</ele></trkpt>
   <trkpt lat="47.837582" lon="6.826805"><ele>822</ele></trkpt>
   <trkpt lat="47.837466" lon="6.826667"><ele>823.5</ele></trkpt>
   <trkpt lat="47.83728" lon="6.826512"><ele>825.25</ele></trkpt>
   <trkpt lat="47.83695" lon="6.826326"><ele>827.25</ele></trkpt>
   <trkpt lat="47.836838" lon="6.826297"><ele>827.75</ele></trkpt>
   <trkpt lat="47.83676" lon="6.826289"><ele>828</ele></trkpt>
   <trkpt lat="47.836656" lon="6.826293"><ele>829</ele></trkpt>
   <trkpt lat="47.836534" lon="6.826327"><ele>829.75</ele></trkpt>
   <trkpt lat="47.83633" lon="6.826404"><ele>832</ele></trkpt>
   <trkpt lat="47.836077" lon="6.826516"><ele>832.25</ele></trkpt>
   <trkpt lat="47.835997" lon="6.826566"><ele>832</ele></trkpt>
   <trkpt lat="47.835958" lon="6.826622"><ele>832.75</ele></trkpt>
   <trkpt lat="47.835936" lon="6.82668"><ele>833.75</ele></trkpt>
   <trkpt lat="47.83593" lon="6.826764"><ele>834.75</ele></trkpt>
   <trkpt lat="47.835957" lon="6.826824"><ele>835.75</ele></trkpt>
   <trkpt lat="47.836" lon="6.826865"><ele>836.75</ele></trkpt>
   <trkpt lat="47.836066" lon="6.826869"><ele>837.25</ele></trkpt>
   <trkpt lat="47.836324" lon="6.826655"><ele>837</ele></trkpt>
   <trkpt lat="47.836446" lon="6.826626"><ele>837</ele></trkpt>
   <trkpt lat="47.836546" lon="6.826644"><ele>837.25</ele></trkpt>
   <trkpt lat="47.836678" lon="6.82673"><ele>838.75</ele></trkpt>
   <trkpt lat="47.836767" lon="6.826855"><ele>839.5</ele></trkpt>
   <trkpt lat="47.836962" lon="6.827182"><ele>841</ele></trkpt>
   <trkpt lat="47.837226" lon="6.827771"><ele>844.75</ele></trkpt>
   <trkpt lat="47.837358" lon="6.828129"><ele>847.5</ele></trkpt>
   <trkpt lat="47.83782" lon="6.829576"><ele>855.5</ele></trkpt>
   <trkpt lat="47.837916" lon="6.829956"><ele>858.25</ele></trkpt>
   <trkpt lat="47.838431" lon="6.833268"><ele>874.75</ele></trkpt>
   <trkpt lat="47.838451" lon="6.833516"><ele>876.25</ele></trkpt>
   <trkpt lat="47.838455" lon="6.833731"><ele>878</ele></trkpt>
   <trkpt lat="47.838443" lon="6.834043"><ele>879.5</ele></trkpt>
   <trkpt lat="47.838444" lon="6.834236"><ele>880.25</ele></trkpt>
   <trkpt lat="47.838461" lon="6.834385"><ele>882.25</ele></trkpt>
   <trkpt lat="47.838501" lon="6.834592"><ele>883.75</ele></trkpt>
   <trkpt lat="47.838546" lon="6.834757"><ele>884.25</ele></trkpt>
   <trkpt lat="47.838556" lon="6.834867"><ele>884.25</ele></trkpt>
   <trkpt lat="47.838545" lon="6.834932"><ele>884.75</ele></trkpt>
   <trkpt lat="47.838516" lon="6.835006"><ele>885.25</ele></trkpt>
   <trkpt lat="47.838475" lon="6.835044"><ele>885.25</ele></trkpt>
   <trkpt lat="47.838437" lon="6.83505"><ele>886</ele></trkpt>
   <trkpt lat="47.838383" lon="6.835032"><ele>887</ele></trkpt>
   <trkpt lat="47.838344" lon="6.834979"><ele>887.75</ele></trkpt>
   <trkpt lat="47.838313" lon="6.834904"><ele>888.5</ele></trkpt>
   <trkpt lat="47.83818" lon="6.834463"><ele>890.5</ele></trkpt>
   <trkpt lat="47.838017" lon="6.833964"><ele>894.5</ele></trkpt>
   <trkpt lat="47.837945" lon="6.833773"><ele>895.5</ele></trkpt>
   <trkpt lat="47.837863" lon="6.833626"><ele>895.5</ele></trkpt>
   <trkpt lat="47.83755" lon="6.83318"><ele>899.5</ele></trkpt>
   <trkpt lat="47.837457" lon="6.833015"><ele>900.75</ele></trkpt>
   <trkpt lat="47.837392" lon="6.832848"><ele>901.75</ele></trkpt>
   <trkpt lat="47.837346" lon="6.832674"><ele>902.75</ele></trkpt>
   <trkpt lat="47.837265" lon="6.832199"><ele>904.5</ele></trkpt>
   <trkpt lat="47.837204" lon="6.831942"><ele>906.5</ele></trkpt>
   <trkpt lat="47.837141" lon="6.831755"><ele>907.25</ele></trkpt>
   <trkpt lat="47.837053" lon="6.83157"><ele>908.25</ele></trkpt>
   <trkpt lat="47.836955" lon="6.83143"><ele>909.75</ele></trkpt>
   <trkpt lat="47.836836" lon="6.831316"><ele>911</ele></trkpt>
   <trkpt lat="47.836739" lon="6.83125"><ele>912</ele></trkpt>
   <trkpt lat="47.836636" lon="6.831211"><ele>913</ele></trkpt>
   <trkpt lat="47.836545" lon="6.831212"><ele>913.5</ele></trkpt>
   <trkpt lat="47.836434" lon="6.83123"><ele>914</ele></trkpt>
   <trkpt lat="47.836246" lon="6.831319"><ele>915.5</ele></trkpt>
   <trkpt lat="47.836096" lon="6.831421"><ele>917.25</ele></trkpt>
   <trkpt lat="47.835996" lon="6.831509"><ele>917.5</ele></trkpt>
   <trkpt lat="47.835937" lon="6.831578"><ele>918.5</ele></trkpt>
   <trkpt lat="47.835888" lon="6.831671"><ele>920.25</ele></trkpt>
   <trkpt lat="47.83588" lon="6.831739"><ele>921</ele></trkpt>
   <trkpt lat="47.835891" lon="6.831804"><ele>922</ele></trkpt>
   <trkpt lat="47.835921" lon="6.831855"><ele>922.75</ele></trkpt>
   <trkpt lat="47.835955" lon="6.831877"><ele>923.25</ele></trkpt>
   <trkpt lat="47.836188" lon="6.831839"><ele>924.25</ele></trkpt>
   <trkpt lat="47.836255" lon="6.831849"><ele>924.5</ele></trkpt>
   <trkpt lat="47.836328" lon="6.831886"><ele>925</ele></trkpt>
   <trkpt lat="47.836385" lon="6.831943"><ele>925.75</ele></trkpt>
   <trkpt lat="47.836439" lon="6.832021"><ele>925.75</ele></trkpt>
   <trkpt lat="47.836491" lon="6.832128"><ele>926</ele></trkpt>
   <trkpt lat="47.836536" lon="6.832283"><ele>927</ele></trkpt>
   <trkpt lat="47.836555" lon="6.832477"><ele>929</ele></trkpt>
   <trkpt lat="47.836561" lon="6.832661"><ele>930</ele></trkpt>
   <trkpt lat="47.836552" lon="6.833064"><ele>931.75</ele></trkpt>
   <trkpt lat="47.836638" lon="6.834147"><ele>938.5</ele></trkpt>
   <trkpt lat="47.836644" lon="6.834365"><ele>939.75</ele></trkpt>
   <trkpt lat="47.836638" lon="6.834458"><ele>940.5</ele></trkpt>
   <trkpt lat="47.836623" lon="6.834527"><ele>941</ele></trkpt>
   <trkpt lat="47.836576" lon="6.83459"><ele>942.5</ele></trkpt>
   <trkpt lat="47.836533" lon="6.834596"><ele>943.5</ele></trkpt>
   <trkpt lat="47.836497" lon="6.834564"><ele>944.25</ele></trkpt>
   <trkpt lat="47.836458" lon="6.834511"><ele>944.5</ele></trkpt>
   <trkpt lat="47.836438" lon="6.834417"><ele>944</ele></trkpt>
   <trkpt lat="47.836401" lon="6.834177"><ele>944.5</ele></trkpt>
   <trkpt lat="47.836346" lon="6.833961"><ele>945.5</ele></trkpt>
   <trkpt lat="47.836282" lon="6.83377"><ele>946.25</ele></trkpt>
   <trkpt lat="47.836182" lon="6.833552"><ele>947.5</ele></trkpt>
   <trkpt lat="47.836094" lon="6.833381"><ele>948.5</ele></trkpt>
   <trkpt lat="47.836019" lon="6.833291"><ele>949.25</ele></trkpt>
   <trkpt lat="47.835929" lon="6.833203"><ele>950</ele></trkpt>
   <trkpt lat="47.835832" lon="6.833152"><ele>951.25</ele></trkpt>
   <trkpt lat="47.835418" lon="6.833035"><ele>954.25</ele></trkpt>
   <trkpt lat="47.835044" lon="6.832856"><ele>957</ele></trkpt>
   <trkpt lat="47.834535" lon="6.832749"><ele>960</ele></trkpt>
   <trkpt lat="47.834104" lon="6.832704"><ele>964.5</ele></trkpt>
   <trkpt lat="47.833926" lon="6.832614"><ele>967.25</ele></trkpt>
   <trkpt lat="47.833573" lon="6.832341"><ele>970</ele></trkpt>
   <trkpt lat="47.833458" lon="6.832269"><ele>971</ele></trkpt>
   <trkpt lat="47.833302" lon="6.832201"><ele>972.5</ele></trkpt>
   <trkpt lat="47.833067" lon="6.832122"><ele>973.5</ele></trkpt>
   <trkpt lat="47.832941" lon="6.832103"><ele>974.75</ele></trkpt>
   <trkpt lat="47.83281" lon="6.832096"><ele>976.25</ele></trkpt>
   <trkpt lat="47.832736" lon="6.832116"><ele>977</ele></trkpt>
   <trkpt lat="47.832619" lon="6.832172"><ele>977.75</ele></trkpt>
   <trkpt lat="47.832245" lon="6.832409"><ele>981</ele></trkpt>
   <trkpt lat="47.831989" lon="6.832512"><ele>984</ele></trkpt>
   <trkpt lat="47.831654" lon="6.832599"><ele>986.5</ele></trkpt>
   <trkpt lat="47.831581" lon="6.832628"><ele>986.75</ele></trkpt>
   <trkpt lat="47.831523" lon="6.832666"><ele>987</ele></trkpt>
   <trkpt lat="47.83147" lon="6.832726"><ele>987.75</ele></trkpt>
   <trkpt lat="47.831452" lon="6.832775"><ele>988.25</ele></trkpt>
   <trkpt lat="47.831442" lon="6.832828"><ele>988.75</ele></trkpt>
   <trkpt lat="47.831445" lon="6.832894"><ele>989.25</ele></trkpt>
   <trkpt lat="47.831461" lon="6.832933"><ele>989.75</ele></trkpt>
   <trkpt lat="47.831484" lon="6.832966"><ele>990.25</ele></trkpt>
   <trkpt lat="47.831516" lon="6.832993"><ele>990.75</ele></trkpt>
   <trkpt lat="47.831585" lon="6.833001"><ele>991.5</ele></trkpt>
   <trkpt lat="47.831794" lon="6.83298"><ele>992.75</ele></trkpt>
   <trkpt lat="47.831977" lon="6.832997"><ele>994.25</ele></trkpt>
   <trkpt lat="47.832169" lon="6.833039"><ele>996.25</ele></trkpt>
   <trkpt lat="47.832334" lon="6.833086"><ele>998.25</ele></trkpt>
   <trkpt lat="47.832527" lon="6.833163"><ele>1000.25</ele></trkpt>
   <trkpt lat="47.833128" lon="6.83352"><ele>1004.5</ele></trkpt>
   <trkpt lat="47.833352" lon="6.833683"><ele>1007.25</ele></trkpt>
   <trkpt lat="47.833547" lon="6.833841"><ele>1008.25</ele></trkpt>
   <trkpt lat="47.83379" lon="6.834074"><ele>1010</ele></trkpt>
   <trkpt lat="47.833948" lon="6.834256"><ele>1012.25</ele></trkpt>
   <trkpt lat="47.834067" lon="6.834419"><ele>1013.75</ele></trkpt>
   <trkpt lat="47.834166" lon="6.834588"><ele>1015</ele></trkpt>
   <trkpt lat="47.834224" lon="6.834724"><ele>1015.5</ele></trkpt>
   <trkpt lat="47.8343" lon="6.83498"><ele>1017.25</ele></trkpt>
   <trkpt lat="47.834374" lon="6.835366"><ele>1019.75</ele></trkpt>
   <trkpt lat="47.834441" lon="6.83583"><ele>1023</ele></trkpt>
   <trkpt lat="47.834466" lon="6.836153"><ele>1024.25</ele></trkpt>
   <trkpt lat="47.834486" lon="6.836562"><ele>1025.5</ele></trkpt>
   <trkpt lat="47.834543" lon="6.837143"><ele>1029</ele></trkpt>
   <trkpt lat="47.834564" lon="6.837442"><ele>1030.5</ele></trkpt>
   <trkpt lat="47.834574" lon="6.83784"><ele>1032.5</ele></trkpt>
   <trkpt lat="47.834562" lon="6.838307"><ele>1034.75</ele></trkpt>
   <trkpt lat="47.834576" lon="6.838642"><ele>1037</ele></trkpt>
   <trkpt lat="47.834632" lon="6.839262"><ele>1040</ele></trkpt>
   <trkpt lat="47.834648" lon="6.839521"><ele>1042</ele></trkpt>
   <trkpt lat="47.834648" lon="6.839732"><ele>1043</ele></trkpt>
   <trkpt lat="47.834667" lon="6.840082"><ele>1044.5</ele></trkpt>
   <trkpt lat="47.83472" lon="6.840442"><ele>1045</ele></trkpt>
   <trkpt lat="47.834725" lon="6.840532"><ele>1045.5</ele></trkpt>
   <trkpt lat="47.834712" lon="6.840613"><ele>1046</ele></trkpt>
   <trkpt lat="47.834679" lon="6.840678"><ele>1046.5</ele></trkpt>
   <trkpt lat="47.834635" lon="6.840712"><ele>1047</ele></trkpt>
   <trkpt lat="47.834588" lon="6.840723"><ele>1047.5</ele></trkpt>
   <trkpt lat="47.834552" lon="6.840711"><ele>1048</ele></trkpt>
   <trkpt lat="47.834522" lon="6.840683"><ele>1048.25</ele></trkpt>
   <trkpt lat="47.834493" lon="6.840622"><ele>1048.5</ele></trkpt>
   <trkpt lat="47.834469" lon="6.840519"><ele>1048.5</ele></trkpt>
   <trkpt lat="47.834427" lon="6.840226"><ele>1049.5</ele></trkpt>
   <trkpt lat="47.834384" lon="6.840045"><ele>1051</ele></trkpt>
   <trkpt lat="47.834318" lon="6.839819"><ele>1052</ele></trkpt>
   <trkpt lat="47.834229" lon="6.839573"><ele>1052.75</ele></trkpt>
   <trkpt lat="47.83412" lon="6.839296"><ele>1054.25</ele></trkpt>
   <trkpt lat="47.833945" lon="6.838936"><ele>1056.75</ele></trkpt>
   <trkpt lat="47.833848" lon="6.838758"><ele>1058</ele></trkpt>
   <trkpt lat="47.833776" lon="6.838665"><ele>1058.75</ele></trkpt>
   <trkpt lat="47.833705" lon="6.838607"><ele>1059.5</ele></trkpt>
   <trkpt lat="47.833639" lon="6.838588"><ele>1060.5</ele></trkpt>
   <trkpt lat="47.83358" lon="6.83859"><ele>1061</ele></trkpt>
   <trkpt lat="47.833527" lon="6.838625"><ele>1061.5</ele></trkpt>
   <trkpt lat="47.833484" lon="6.838694"><ele>1062</ele></trkpt>
   <trkpt lat="47.833446" lon="6.838809"><ele>1062.75</ele></trkpt>
   <trkpt lat="47.83342" lon="6.838991"><ele>1063.5</ele></trkpt>
   <trkpt lat="47.833375" lon="6.839669"><ele>1066.5</ele></trkpt>
   <trkpt lat="47.833343" lon="6.839829"><ele>1067.25</ele></trkpt>
   <trkpt lat="47.833281" lon="6.839974"><ele>1068.25</ele></trkpt>
   <trkpt lat="47.833244" lon="6.840043"><ele>1068.5</ele></trkpt>
   <trkpt lat="47.833163" lon="6.840137"><ele>1069</ele></trkpt>
   <trkpt lat="47.833067" lon="6.840202"><ele>1069.75</ele></trkpt>
   <trkpt lat="47.833" lon="6.840234"><ele>1070.25</ele></trkpt>
   <trkpt lat="47.832935" lon="6.84025"><ele>1070.75</ele></trkpt>
   <trkpt lat="47.832771" lon="6.840253"><ele>1071.75</ele></trkpt>
   <trkpt lat="47.832527" lon="6.84021"><ele>1073.25</ele></trkpt>
   <trkpt lat="47.832365" lon="6.840136"><ele>1075</ele></trkpt>
   <trkpt lat="47.832019" lon="6.839903"><ele>1077.25</ele></trkpt>
   <trkpt lat="47.83178" lon="6.839754"><ele>1079</ele></trkpt>
   <trkpt lat="47.831474" lon="6.839608"><ele>1081</ele></trkpt>
   <trkpt lat="47.831094" lon="6.839465"><ele>1085</ele></trkpt>
   <trkpt lat="47.830777" lon="6.839347"><ele>1086</ele></trkpt>
   <trkpt lat="47.830554" lon="6.839215"><ele>1089</ele></trkpt>
   <trkpt lat="47.830325" lon="6.839035"><ele>1090.25</ele></trkpt>
   <trkpt lat="47.830145" lon="6.838855"><ele>1092.75</ele></trkpt>
   <trkpt lat="47.829846" lon="6.838519"><ele>1095.75</ele></trkpt>
   <trkpt lat="47.829459" lon="6.83811"><ele>1100</ele></trkpt>
   <trkpt lat="47.829119" lon="6.83782"><ele>1103.25</ele></trkpt>
   <trkpt lat="47.82889" lon="6.837642"><ele>1104.5</ele></trkpt>
   <trkpt lat="47.828593" lon="6.837444"><ele>1106.75</ele></trkpt>
   <trkpt lat="47.828042" lon="6.837142"><ele>1111.25</ele></trkpt>
   <trkpt lat="47.827833" lon="6.836994"><ele>1113.5</ele></trkpt>
   <trkpt lat="47.827606" lon="6.836798"><ele>1116</ele></trkpt>
   <trkpt lat="47.826858" lon="6.83604"><ele>1122.75</ele></trkpt>
   <trkpt lat="47.826673" lon="6.835872"><ele>1124.5</ele></trkpt>
   <trkpt lat="47.826266" lon="6.835547"><ele>1129</ele></trkpt>
   <trkpt lat="47.826056" lon="6.835368"><ele>1130</ele></trkpt>
   <trkpt lat="47.825856" lon="6.83522"><ele>1131.25</ele></trkpt>
   <trkpt lat="47.825662" lon="6.83509"><ele>1133.75</ele></trkpt>
   <trkpt lat="47.825497" lon="6.835009"><ele>1135.75</ele></trkpt>
   <trkpt lat="47.825302" lon="6.834935"><ele>1136</ele></trkpt>
   <trkpt lat="47.82498" lon="6.834849"><ele>1138.75</ele></trkpt>
   <trkpt lat="47.824363" lon="6.834869"><ele>1144.5</ele></trkpt>
   <trkpt lat="47.823834" lon="6.834809"><ele>1149</ele></trkpt>
   <trkpt lat="47.823659" lon="6.834782"><ele>1151.5</ele></trkpt>
   <trkpt lat="47.823187" lon="6.834681"><ele>1153.75</ele></trkpt>
   <trkpt lat="47.822585" lon="6.834514"><ele>1159.25</ele></trkpt>
   <trkpt lat="47.822366" lon="6.834478"><ele>1161</ele></trkpt>
   <trkpt lat="47.821987" lon="6.834451"><ele>1163.75</ele></trkpt>
   <trkpt lat="47.821855" lon="6.834416"><ele>1164.5</ele></trkpt>
   <trkpt lat="47.821569" lon="6.83429"><ele>1166.75</ele></trkpt>
   <trkpt lat="47.821432" lon="6.834252"><ele>1168.5</ele></trkpt>
   <trkpt lat="47.821338" lon="6.834253"><ele>1169.5</ele></trkpt>
   <trkpt lat="47.821273" lon="6.834266"><ele>1170</ele></trkpt>
   <trkpt lat="47.821177" lon="6.834305"><ele>1171</ele></trkpt>
   <trkpt lat="47.82072" lon="6.834569"><ele>1173.25</ele></trkpt>
   <trkpt lat="47.820536" lon="6.834689"><ele>1172.75</ele></trkpt>
   <trkpt lat="47.820414" lon="6.834806"><ele>1173</ele></trkpt>
   <trkpt lat="47.820377" lon="6.834861"><ele>1173</ele></trkpt>
   <trkpt lat="47.820369" lon="6.834905"><ele>1173</ele></trkpt>
   <trkpt lat="47.82036" lon="6.834953"><ele>1173</ele></trkpt>
   <trkpt lat="47.820366" lon="6.83506"><ele>1173</ele></trkpt>
   <trkpt lat="47.820404" lon="6.835202"><ele>1173</ele></trkpt>
   <trkpt lat="47.820673" lon="6.835994"><ele>1172.25</ele></trkpt>
   <trkpt lat="47.820756" lon="6.83629"><ele>1172.25</ele></trkpt>
   <trkpt lat="47.820834" lon="6.836661"><ele>1173</ele></trkpt>
   <trkpt lat="47.820867" lon="6.836911"><ele>1174</ele></trkpt>
   <trkpt lat="47.82087" lon="6.837168"><ele>1174.25</ele></trkpt>

  </trkseg>
 </trk>
</gpx>