<?xml version="1.0" encoding="UTF-8"?>
<gpx 
 xmlns="http://www.topografix.com/GPX/1/1" 
 xmlns:xsi="http://www.w3.org/2001/XMLSchema-instance" 
 xsi:schemaLocation="http://www.topografix.com/GPX/1/1 http://www.topografix.com/GPX/1/1/gpx.xsd" 
 version="1.1" 
 creator="BRouter-Web 0.18.1">
 <trk>
  <name>Raduil -&gt; Borovets Pass (9.3km, trimmed to summit)</name>
  <trkseg>
   <trkpt lat="42.286779" lon="23.689132"><ele>844</ele></trkpt>
   <trkpt lat="42.286407" lon="23.688974"><ele>843.25</ele></trkpt>
   <trkpt lat="42.286328" lon="23.688804"><ele>841</ele></trkpt>
   <trkpt lat="42.286537" lon="23.688689"><ele>841</ele></trkpt>
   <trkpt lat="42.286604" lon="23.688583"><ele>841</ele></trkpt>
   <trkpt lat="42.286491" lon="23.688418"><ele>841</ele></trkpt>
   <trkpt lat="42.286452" lon="23.68832"><ele>841</ele></trkpt>
   <trkpt lat="42.286415" lon="23.688025"><ele>843</ele></trkpt>
   <trkpt lat="42.28641" lon="23.687871"><ele>843</ele></trkpt>
   <trkpt lat="42.286458" lon="23.68769"><ele>843</ele></trkpt>
   <trkpt lat="42.286537" lon="23.687537"><ele>843</ele></trkpt>
   <trkpt lat="42.286608" lon="23.687429"><ele>845.5</ele></trkpt>
   <trkpt lat="42.286694" lon="23.687342"><ele>848.25</ele></trkpt>
   <trkpt lat="42.286771" lon="23.687287"><ele>849.75</ele></trkpt>
   <trkpt lat="42.286848" lon="23.687258"><ele>850.25</ele></trkpt>
   <trkpt lat="42.287355" lon="23.68715"><ele>851</ele></trkpt>
   <trkpt lat="42.287439" lon="23.687126"><ele>851</ele></trkpt>
   <trkpt lat="42.287517" lon="23.687092"><ele>850.5</ele></trkpt>
   <trkpt lat="42.287595" lon="23.687029"><ele>849.25</ele></trkpt>
   <trkpt lat="42.287642" lon="23.686967"><ele>848.25</ele></trkpt>
   <trkpt lat="42.287684" lon="23.686884"><ele>847.5</ele></trkpt>
   <trkpt lat="42.287704" lon="23.686799"><ele>847.25</ele></trkpt>
   <trkpt lat="42.287694" lon="23.686486"><ele>849</ele></trkpt>
   <trkpt lat="42.287687" lon="23.686275"><ele>849.75</ele></trkpt>
   <trkpt lat="42.287663" lon="23.685562"><ele>848.75</ele></trkpt>
   <trkpt lat="42.287641" lon="23.685357"><ele>849.25</ele></trkpt>
   <trkpt lat="42.287573" lon="23.685156"><ele>851</ele></trkpt>
   <trkpt lat="42.287486" lon="23.684971"><ele>852.25</ele></trkpt>
   <trkpt lat="42.287022" lon="23.684231"><ele>845.75</ele></trkpt>
   <trkpt lat="42.286715" lon="23.683765"><ele>848.75</ele></trkpt>
   <trkpt lat="42.283826" lon="23.679232"><ele>872</ele></trkpt>
   <trkpt lat="42.283618" lon="23.678887"><ele>868.75</ele></trkpt>
   <trkpt lat="42.283454" lon="23.678514"><ele>873.5</ele></trkpt>
   <trkpt lat="42.283301" lon="23.678025"><ele>873</ele></trkpt>
   <trkpt lat="42.28244" lon="23.673569"><ele>892</ele></trkpt>
   <trkpt lat="42.282161" lon="23.672196"><ele>897</ele></trkpt>
   <trkpt lat="42.282043" lon="23.671795"><ele>897</ele></trkpt>
   <trkpt lat="42.281948" lon="23.67154"><ele>899.25</ele></trkpt>
   <trkpt lat="42.281851" lon="23.67135"><ele>900.5</ele></trkpt>
   <trkpt lat="42.281746" lon="23.67117"><ele>899</ele></trkpt>
   <trkpt lat="42.279367" lon="23.667917"><ele>921.5</ele></trkpt>
   <trkpt lat="42.279133" lon="23.667479"><ele>918</ele></trkpt>
   <trkpt lat="42.279057" lon="23.667292"><ele>918</ele></trkpt>
   <trkpt lat="42.278983" lon="23.667046"><ele>918</ele></trkpt>
   <trkpt lat="42.278912" lon="23.666639"><ele>918.25</ele></trkpt>
   <trkpt lat="42.27886" lon="23.664866"><ele>932.25</ele></trkpt>
   <trkpt lat="42.278803" lon="23.662925"><ele>945</ele></trkpt>
   <trkpt lat="42.278809" lon="23.662651"><ele>945</ele></trkpt>
   <trkpt lat="42.278834" lon="23.662379"><ele>945.75</ele></trkpt>
   <trkpt lat="42.279108" lon="23.660678"><ele>950</ele></trkpt>
   <trkpt lat="42.279128" lon="23.660461"><ele>951</ele></trkpt>
   <trkpt lat="42.279164" lon="23.659128"><ele>951.5</ele></trkpt>
   <trkpt lat="42.279177" lon="23.65883"><ele>956.75</ele></trkpt>
   <trkpt lat="42.279228" lon="23.658444"><ele>961.25</ele></trkpt>
   <trkpt lat="42.279315" lon="23.658143"><ele>969.25</ele></trkpt>
   <trkpt lat="42.279365" lon="23.658028"><ele>972.75</ele></trkpt>
   <trkpt lat="42.279956" lon="23.657138"><ele>974.75</ele></trkpt>
   <trkpt lat="42.280028" lon="23.65697"><ele>979.5</ele></trkpt>
   <trkpt lat="42.280081" lon="23.656815"><ele>988.25</ele></trkpt>
   <trkpt lat="42.28013" lon="23.656613"><ele>996.25</ele></trkpt>
   <trkpt lat="42.28017" lon="23.656374"><ele>1001.75</ele></trkpt>
   <trkpt lat="42.280184" lon="23.65617"><ele>1003.75</ele></trkpt>
   <trkpt lat="42.28018" lon="23.655943"><ele>1003.25</ele></trkpt>
   <trkpt lat="42.280155" lon="23.655706"><ele>1007.5</ele></trkpt>
   <trkpt lat="42.280114" lon="23.655506"><ele>1010.75</ele></trkpt>
   <trkpt lat="42.28001" lon="23.655169"><ele>995.25</ele></trkpt>
   <trkpt lat="42.279931" lon="23.654993"><ele>994.5</ele></trkpt>
   <trkpt lat="42.279838" lon="23.65484"><ele>1009.5</ele></trkpt>
   <trkpt lat="42.279237" lon="23.654192"><ele>997.75</ele></trkpt>
   <trkpt lat="42.279045" lon="23.653954"><ele>1002</ele></trkpt>
   <trkpt lat="42.278919" lon="23.653718"><ele>1006</ele></trkpt>
   <trkpt lat="42.278771" lon="23.653407"><ele>1006</ele></trkpt>
   <trkpt lat="42.278641" lon="23.652974"><ele>1012.75</ele></trkpt>
   <trkpt lat="42.278594" lon="23.65268"><ele>1011.75</ele></trkpt>
   <trkpt lat="42.27858" lon="23.652444"><ele>1011.75</ele></trkpt>
   <trkpt lat="42.278613" lon="23.651753"><ele>1018</ele></trkpt>
   <trkpt lat="42.278595" lon="23.651579"><ele>1017.5</ele></trkpt>
   <trkpt lat="42.278548" lon="23.651436"><ele>1017.25</ele></trkpt>
   <trkpt lat="42.278488" lon="23.651336"><ele>1016.75</ele></trkpt>
   <trkpt lat="42.278397" lon="23.651244"><ele>1015</ele></trkpt>
   <trkpt lat="42.277803" lon="23.651061"><ele>1014</ele></trkpt>
   <trkpt lat="42.277588" lon="23.650944"><ele>1009.75</ele></trkpt>
   <trkpt lat="42.277398" lon="23.65078"><ele>1010.25</ele></trkpt>
   <trkpt lat="42.277117" lon="23.6504"><ele>1021</ele></trkpt>
   <trkpt lat="42.277069" lon="23.650326"><ele>1021</ele></trkpt>
   <trkpt lat="42.276691" lon="23.649749"><ele>1015</ele></trkpt>
   <trkpt lat="42.276585" lon="23.649532"><ele>1014</ele></trkpt>
   <trkpt lat="42.276556" lon="23.649407"><ele>1014</ele></trkpt>
   <trkpt lat="42.276542" lon="23.649282"><ele>1014</ele></trkpt>
   <trkpt lat="42.276537" lon="23.649087"><ele>1017.5</ele></trkpt>
   <trkpt lat="42.276561" lon="23.64891"><ele>1026</ele></trkpt>
   <trkpt lat="42.2766" lon="23.648795"><ele>1027</ele></trkpt>
   <trkpt lat="42.276662" lon="23.648686"><ele>1027</ele></trkpt>
   <trkpt lat="42.276743" lon="23.648583"><ele>1031.75</ele></trkpt>
   <trkpt lat="42.276843" lon="23.648522"><ele>1038.25</ele></trkpt>
   <trkpt lat="42.276991" lon="23.648487"><ele>1045</ele></trkpt>
   <trkpt lat="42.277092" lon="23.648503"><ele>1045</ele></trkpt>
   <trkpt lat="42.27717" lon="23.648543"><ele>1045</ele></trkpt>
   <trkpt lat="42.277251" lon="23.648628"><ele>1045</ele></trkpt>
   <trkpt lat="42.277318" lon="23.648737"><ele>1045</ele></trkpt>
   <trkpt lat="42.277487" lon="23.649155"><ele>1034.25</ele></trkpt>
   <trkpt lat="42.277668" lon="23.64951"><ele>1043.5</ele></trkpt>
   <trkpt lat="42.277818" lon="23.649656"><ele>1050</ele></trkpt>
   <trkpt lat="42.27803" lon="23.649751"><ele>1047.75</ele></trkpt>
   <trkpt lat="42.278183" lon="23.649755"><ele>1047.5</ele></trkpt>
   <trkpt lat="42.278272" lon="23.649738"><ele>1048.75</ele></trkpt>
   <trkpt lat="42.278369" lon="23.649689"><ele>1048.25</ele></trkpt>
   <trkpt lat="42.278531" lon="23.649515"><ele>1040.5</ele></trkpt>
   <trkpt lat="42.27928" lon="23.648444"><ele>1052.75</ele></trkpt>
   <trkpt lat="42.279637" lon="23.648031"><ele>1066</ele></trkpt>
   <trkpt lat="42.280439" lon="23.647505"><ele>1063</ele></trkpt>
   <trkpt lat="42.280562" lon="23.647438"><ele>1069.25</ele></trkpt>
   <trkpt lat="42.280702" lon="23.647413"><ele>1072</ele></trkpt>
   <trkpt lat="42.280816" lon="23.647436"><ele>1069.5</ele></trkpt>
   <trkpt lat="42.28093" lon="23.647522"><ele>1069.5</ele></trkpt>
   <trkpt lat="42.281091" lon="23.647733"><ele>1080.5</ele></trkpt>
   <trkpt lat="42.28116" lon="23.647868"><ele>1081.75</ele></trkpt>
   <trkpt lat="42.281182" lon="23.647975"><ele>1082</ele></trkpt>
   <trkpt lat="42.281187" lon="23.64819"><ele>1087.75</ele></trkpt>
   <trkpt lat="42.28116" lon="23.648351"><ele>1094</ele></trkpt>
   <trkpt lat="42.281129" lon="23.648444"><ele>1094</ele></trkpt>
   <trkpt lat="42.281044" lon="23.648638"><ele>1085.5</ele></trkpt>
   <trkpt lat="42.280808" lon="23.649114"><ele>1067.75</ele></trkpt>
   <trkpt lat="42.280705" lon="23.649387"><ele>1070</ele></trkpt>
   <trkpt lat="42.28055" lon="23.649886"><ele>1081</ele></trkpt>
   <trkpt lat="42.280482" lon="23.650158"><ele>1089</ele></trkpt>
   <trkpt lat="42.280435" lon="23.650419"><ele>1089</ele></trkpt>
   <trkpt lat="42.280429" lon="23.650818"><ele>1096.5</ele></trkpt>
   <trkpt lat="42.28046" lon="23.65116"><ele>1097</ele></trkpt>
   <trkpt lat="42.280494" lon="23.651281"><ele>1097</ele></trkpt>
   <trkpt lat="42.280547" lon="23.651369"><ele>1097</ele></trkpt>
   <trkpt lat="42.28061" lon="23.651439"><ele>1094.25</ele></trkpt>
   <trkpt lat="42.280706" lon="23.651503"><ele>1091</ele></trkpt>
   <trkpt lat="42.280813" lon="23.651552"><ele>1088.75</ele></trkpt>
   <trkpt lat="42.281104" lon="23.651662"><ele>1110.5</ele></trkpt>
   <trkpt lat="42.281182" lon="23.651725"><ele>1111</ele></trkpt>
   <trkpt lat="42.281326" lon="23.651919"><ele>1111</ele></trkpt>
   <trkpt lat="42.28139" lon="23.65206"><ele>1111</ele></trkpt>
   <trkpt lat="42.28148" lon="23.652309"><ele>1106.75</ele></trkpt>
   <trkpt lat="42.281557" lon="23.652624"><ele>1098</ele></trkpt>
   <trkpt lat="42.281874" lon="23.654164"><ele>1111.5</ele></trkpt>
   <trkpt lat="42.281932" lon="23.654281"><ele>1117.5</ele></trkpt>
   <trkpt lat="42.281988" lon="23.654356"><ele>1119</ele></trkpt>
   <trkpt lat="42.282045" lon="23.654402"><ele>1119</ele></trkpt>
   <trkpt lat="42.282188" lon="23.654458"><ele>1119</ele></trkpt>
   <trkpt lat="42.282587" lon="23.654591"><ele>1125.5</ele></trkpt>
   <trkpt lat="42.282657" lon="23.654633"><ele>1130.75</ele></trkpt>
   <trkpt lat="42.28272" lon="23.654696"><ele>1135.5</ele></trkpt>
   <trkpt lat="42.282771" lon="23.654782"><ele>1137.75</ele></trkpt>
   <trkpt lat="42.282795" lon="23.654867"><ele>1136.25</ele></trkpt>
   <trkpt lat="42.282798" lon="23.655083"><ele>1132.75</ele></trkpt>
   <trkpt lat="42.282673" lon="23.655746"><ele>1123.5</ele></trkpt>
   <trkpt lat="42.28263" lon="23.656113"><ele>1119.5</ele></trkpt>
   <trkpt lat="42.282592" lon="23.656604"><ele>1117.5</ele></trkpt>
   <trkpt lat="42.282561" lon="23.657242"><ele>1115</ele></trkpt>
   <trkpt lat="42.282572" lon="23.6575"><ele>1116</ele></trkpt>
   <trkpt lat="42.282595" lon="23.657607"><ele>1117.75</ele></trkpt>
   <trkpt lat="42.28262" lon="23.657679"><ele>1119.5</ele></trkpt>
   <trkpt lat="42.282756" lon="23.657825"><ele>1129.25</ele></trkpt>
   <trkpt lat="42.282914" lon="23.657948"><ele>1131</ele></trkpt>
   <trkpt lat="42.283021" lon="23.657961"><ele>1131</ele></trkpt>
   <trkpt lat="42.283121" lon="23.65796"><ele>1130.75</ele></trkpt>
   <trkpt lat="42.283218" lon="23.657921"><ele>1131</ele></trkpt>
   <trkpt lat="42.283279" lon="23.657879"><ele>1131</ele></trkpt>
   <trkpt lat="42.283325" lon="23.657837"><ele>1131</ele></trkpt>
   <trkpt lat="42.283411" lon="23.657715"><ele>1131.25</ele></trkpt>
   <trkpt lat="42.283464" lon="23.657589"><ele>1131.25</ele></trkpt>
   <trkpt lat="42.283483" lon="23.657499"><ele>1131.5</ele></trkpt>
   <trkpt lat="42.28349" lon="23.657405"><ele>1135.5</ele></trkpt>
   <trkpt lat="42.283483" lon="23.657321"><ele>1139</ele></trkpt>
   <trkpt lat="42.283468" lon="23.657235"><ele>1142.25</ele></trkpt>
   <trkpt lat="42.283445" lon="23.657153"><ele>1141.75</ele></trkpt>
   <trkpt lat="42.283214" lon="23.656597"><ele>1136.5</ele></trkpt>
   <trkpt lat="42.283154" lon="23.656416"><ele>1136</ele></trkpt>
   <trkpt lat="42.283117" lon="23.656243"><ele>1136</ele></trkpt>
   <trkpt lat="42.283105" lon="23.656084"><ele>1136</ele></trkpt>
   <trkpt lat="42.283108" lon="23.655983"><ele>1136</ele></trkpt>
   <trkpt lat="42.283181" lon="23.655637"><ele>1133.75</ele></trkpt>
   <trkpt lat="42.283316" lon="23.655166"><ele>1133</ele></trkpt>
   <trkpt lat="42.283354" lon="23.655001"><ele>1134.75</ele></trkpt>
   <trkpt lat="42.283371" lon="23.654846"><ele>1139.75</ele></trkpt>
   <trkpt lat="42.283376" lon="23.654694"><ele>1143</ele></trkpt>
   <trkpt lat="42.283366" lon="23.65454"><ele>1142.25</ele></trkpt>
   <trkpt lat="42.283347" lon="23.654404"><ele>1140.75</ele></trkpt>
   <trkpt lat="42.283305" lon="23.654234"><ele>1140</ele></trkpt>
   <trkpt lat="42.283227" lon="23.654004"><ele>1146.25</ele></trkpt>
   <trkpt lat="42.28277" lon="23.653128"><ele>1166.25</ele></trkpt>
   <trkpt lat="42.282693" lon="23.65297"><ele>1162</ele></trkpt>
   <trkpt lat="42.282619" lon="23.652763"><ele>1152.25</ele></trkpt>
   <trkpt lat="42.282539" lon="23.652259"><ele>1158</ele></trkpt>
   <trkpt lat="42.282484" lon="23.652008"><ele>1155</ele></trkpt>
   <trkpt lat="42.282376" lon="23.651618"><ele>1156</ele></trkpt>
   <trkpt lat="42.282211" lon="23.651086"><ele>1162</ele></trkpt>
   <trkpt lat="42.28214" lon="23.650817"><ele>1162</ele></trkpt>
   <trkpt lat="42.282117" lon="23.650665"><ele>1163.75</ele></trkpt>
   <trkpt lat="42.28211" lon="23.650548"><ele>1165</ele></trkpt>
   <trkpt lat="42.282119" lon="23.650437"><ele>1165</ele></trkpt>
   <trkpt lat="42.282142" lon="23.65033"><ele>1165</ele></trkpt>
   <trkpt lat="42.282175" lon="23.650234"><ele>1165</ele></trkpt>
   <trkpt lat="42.282246" lon="23.650098"><ele>1165</ele></trkpt>
   <trkpt lat="42.282921" lon="23.649048"><ele>1172.5</ele></trkpt>
   <trkpt lat="42.283132" lon="23.64875"><ele>1159</ele></trkpt>
   <trkpt lat="42.283196" lon="23.648685"><ele>1159</ele></trkpt>
   <trkpt lat="42.283259" lon="23.64864"><ele>1159</ele></trkpt>
   <trkpt lat="42.283338" lon="23.648608"><ele>1159.25</ele></trkpt>
   <trkpt lat="42.283407" lon="23.64859"><ele>1164.5</ele></trkpt>
   <trkpt lat="42.283814" lon="23.648509"><ele>1180</ele></trkpt>
   <trkpt lat="42.283895" lon="23.648464"><ele>1180</ele></trkpt>
   <trkpt lat="42.283962" lon="23.648411"><ele>1180</ele></trkpt>
   <trkpt lat="42.28409" lon="23.648236"><ele>1174.25</ele></trkpt>
   <trkpt lat="42.284808" lon="23.647136"><ele>1185</ele></trkpt>
   <trkpt lat="42.284977" lon="23.646808"><ele>1185</ele></trkpt>
   <trkpt lat="42.285125" lon="23.646455"><ele>1199</ele></trkpt>
   <trkpt lat="42.285396" lon="23.645688"><ele>1219.75</ele></trkpt>
   <trkpt lat="42.285467" lon="23.645449"><ele>1219</ele></trkpt>
   <trkpt lat="42.285498" lon="23.645311"><ele>1219</ele></trkpt>
   <trkpt lat="42.285504" lon="23.645204"><ele>1219</ele></trkpt>
   <trkpt lat="42.285494" lon="23.64509"><ele>1219</ele></trkpt>
   <trkpt lat="42.285468" lon="23.64501"><ele>1219</ele></trkpt>
   <trkpt lat="42.285426" lon="23.644916"><ele>1225</ele></trkpt>
   <trkpt lat="42.285315" lon="23.644773"><ele>1235.25</ele></trkpt>
   <trkpt lat="42.284637" lon="23.644393"><ele>1215</ele></trkpt>
   <trkpt lat="42.284553" lon="23.64434"><ele>1215</ele></trkpt>
   <trkpt lat="42.284481" lon="23.644273"><ele>1215</ele></trkpt>
   <trkpt lat="42.284377" lon="23.644123"><ele>1213.75</ele></trkpt>
   <trkpt lat="42.284191" lon="23.643708"><ele>1219.5</ele></trkpt>
   <trkpt lat="42.284095" lon="23.643516"><ele>1218</ele></trkpt>
   <trkpt lat="42.28361" lon="23.642826"><ele>1237.75</ele></trkpt>
   <trkpt lat="42.283363" lon="23.642408"><ele>1227.25</ele></trkpt>
   <trkpt lat="42.283067" lon="23.64204"><ele>1243</ele></trkpt>
   <trkpt lat="42.282797" lon="23.641829"><ele>1243</ele></trkpt>
   <trkpt lat="42.282608" lon="23.641753"><ele>1233</ele></trkpt>
   <trkpt lat="42.282505" lon="23.641739"><ele>1227.25</ele></trkpt>
   <trkpt lat="42.282375" lon="23.641778"><ele>1227</ele></trkpt>
   <trkpt lat="42.282252" lon="23.641868"><ele>1227</ele></trkpt>
   <trkpt lat="42.282012" lon="23.642272"><ele>1223.75</ele></trkpt>
   <trkpt lat="42.281924" lon="23.642361"><ele>1218.75</ele></trkpt>
   <trkpt lat="42.281823" lon="23.642435"><ele>1218.5</ele></trkpt>
   <trkpt lat="42.281699" lon="23.642459"><ele>1222.25</ele></trkpt>
   <trkpt lat="42.281564" lon="23.642435"><ele>1225.25</ele></trkpt>
   <trkpt lat="42.281454" lon="23.64238"><ele>1229</ele></trkpt>
   <trkpt lat="42.280607" lon="23.641896"><ele>1236.75</ele></trkpt>
   <trkpt lat="42.280477" lon="23.641713"><ele>1237</ele></trkpt>
   <trkpt lat="42.280335" lon="23.641396"><ele>1253.5</ele></trkpt>
   <trkpt lat="42.279811" lon="23.6399"><ele>1251</ele></trkpt>
   <trkpt lat="42.279729" lon="23.639573"><ele>1260</ele></trkpt>
   <trkpt lat="42.279705" lon="23.639333"><ele>1260</ele></trkpt>
   <trkpt lat="42.279746" lon="23.639107"><ele>1260</ele></trkpt>
   <trkpt lat="42.279882" lon="23.638574"><ele>1260</ele></trkpt>
   <trkpt lat="42.279922" lon="23.638395"><ele>1260</ele></trkpt>
   <trkpt lat="42.279929" lon="23.638277"><ele>1262.25</ele></trkpt>
   <trkpt lat="42.279914" lon="23.638153"><ele>1267.75</ele></trkpt>
   <trkpt lat="42.279879" lon="23.638032"><ele>1272</ele></trkpt>
   <trkpt lat="42.279857" lon="23.637989"><ele>1272</ele></trkpt>
   <trkpt lat="42.27981" lon="23.637899"><ele>1272</ele></trkpt>
   <trkpt lat="42.279652" lon="23.637583"><ele>1272</ele></trkpt>
   <trkpt lat="42.279594" lon="23.63742"><ele>1277.75</ele></trkpt>
   <trkpt lat="42.279518" lon="23.637091"><ele>1292</ele></trkpt>
   <trkpt lat="42.279475" lon="23.636936"><ele>1292</ele></trkpt>
   <trkpt lat="42.279413" lon="23.636812"><ele>1289.25</ele></trkpt>
   <trkpt lat="42.279348" lon="23.636739"><ele>1284</ele></trkpt>
   <trkpt lat="42.27926" lon="23.63666"><ele>1277.25</ele></trkpt>
   <trkpt lat="42.279181" lon="23.636615"><ele>1275.25</ele></trkpt>
   <trkpt lat="42.278995" lon="23.636575"><ele>1278.5</ele></trkpt>
   <trkpt lat="42.277975" lon="23.636409"><ele>1293.75</ele></trkpt>
   <trkpt lat="42.277863" lon="23.636345"><ele>1296</ele></trkpt>
   <trkpt lat="42.277765" lon="23.636238"><ele>1295</ele></trkpt>
   <trkpt lat="42.277686" lon="23.636094"><ele>1289.25</ele></trkpt>
   <trkpt lat="42.277439" lon="23.635596"><ele>1282.75</ele></trkpt>
   <trkpt lat="42.277358" lon="23.635417"><ele>1284</ele></trkpt>
   <trkpt lat="42.277334" lon="23.63527"><ele>1284</ele></trkpt>
   <trkpt lat="42.277334" lon="23.635124"><ele>1284</ele></trkpt>
   <trkpt lat="42.277353" lon="23.634975"><ele>1282.75</ele></trkpt>
   <trkpt lat="42.277432" lon="23.634805"><ele>1275.5</ele></trkpt>
   <trkpt lat="42.277947" lon="23.634205"><ele>1310</ele></trkpt>
   <trkpt lat="42.278137" lon="23.63391"><ele>1298.75</ele></trkpt>
   <trkpt lat="42.278212" lon="23.633719"><ele>1298</ele></trkpt>
   <trkpt lat="42.278254" lon="23.633591"><ele>1298</ele></trkpt>
   <trkpt lat="42.278263" lon="23.633445"><ele>1298</ele></trkpt>
   <trkpt lat="42.278252" lon="23.633326"><ele>1298.25</ele></trkpt>
   <trkpt lat="42.278224" lon="23.633225"><ele>1303.25</ele></trkpt>
   <trkpt lat="42.278185" lon="23.633129"><ele>1308.25</ele></trkpt>
   <trkpt lat="42.277998" lon="23.632872"><ele>1312</ele></trkpt>
   <trkpt lat="42.277755" lon="23.632576"><ele>1309</ele></trkpt>
   <trkpt lat="42.277716" lon="23.632498"><ele>1304.25</ele></trkpt>
   <trkpt lat="42.277694" lon="23.632402"><ele>1301.75</ele></trkpt>
   <trkpt lat="42.277681" lon="23.632263"><ele>1300.25</ele></trkpt>
   <trkpt lat="42.277695" lon="23.632135"><ele>1302.5</ele></trkpt>
   <trkpt lat="42.277722" lon="23.63202"><ele>1306.75</ele></trkpt>
   <trkpt lat="42.277765" lon="23.631916"><ele>1313.75</ele></trkpt>
   <trkpt lat="42.277841" lon="23.631792"><ele>1316</ele></trkpt>
   <trkpt lat="42.278509" lon="23.630957"><ele>1323</ele></trkpt>
   <trkpt lat="42.278619" lon="23.63079"><ele>1336.5</ele></trkpt>
   <trkpt lat="42.27867" lon="23.630661"><ele>1338.25</ele></trkpt>
   <trkpt lat="42.278707" lon="23.63049"><ele>1340</ele></trkpt>
   <trkpt lat="42.278703" lon="23.630351"><ele>1340</ele></trkpt>
   <trkpt lat="42.278665" lon="23.630153"><ele>1340</ele></trkpt>
   <trkpt lat="42.278612" lon="23.629988"><ele>1340.5</ele></trkpt>
   <trkpt lat="42.278546" lon="23.629875"><ele>1340.75</ele></trkpt>
   <trkpt lat="42.278453" lon="23.629784"><ele>1339.75</ele></trkpt>
   <trkpt lat="42.27814" lon="23.629617"><ele>1337</ele></trkpt>
   <trkpt lat="42.277786" lon="23.629468"><ele>1337</ele></trkpt>
   <trkpt lat="42.277497" lon="23.629311"><ele>1324</ele></trkpt>
   <trkpt lat="42.277408" lon="23.629186"><ele>1324</ele></trkpt>
   <trkpt lat="42.277349" lon="23.629078"><ele>1325.25</ele></trkpt>
   <trkpt lat="42.27732" lon="23.628962"><ele>1326.75</ele></trkpt>
   <trkpt lat="42.277303" lon="23.628842"><ele>1328</ele></trkpt>
   <trkpt lat="42.277305" lon="23.628695"><ele>1328</ele></trkpt>
   <trkpt lat="42.277328" lon="23.628554"><ele>1328</ele></trkpt>
   <trkpt lat="42.277648" lon="23.627455"><ele>1342</ele></trkpt>
   <trkpt lat="42.277665" lon="23.627348"><ele>1343.5</ele></trkpt>
  </trkseg>
 </trk>
</gpx>
