<?xml version="1.0" encoding="UTF-8"?>
<!-- track-length = 24148 filtered ascend = 1036 plain-ascend = 640 cost=42363 energy=0.3kwh time=3h 4m 21s -->
<gpx 
 xmlns="http://www.topografix.com/GPX/1/1" 
 xmlns:xsi="http://www.w3.org/2001/XMLSchema-instance" 
 xsi:schemaLocation="http://www.topografix.com/GPX/1/1 http://www.topografix.com/GPX/1/1/gpx.xsd" 
 version="1.1" 
 creator="BRouter-Web 0.18.1">
 <trk>
  <name>calar alto(24.1km)</name>
  <trkseg>
   <trkpt lat="37.261846" lon="-2.451804"><ele>1179.5</ele></trkpt>
   <trkpt lat="37.261978" lon="-2.45216"><ele>1179.75</ele></trkpt>
   <trkpt lat="37.262033" lon="-2.45231"><ele>1180.25</ele></trkpt>
   <trkpt lat="37.262072" lon="-2.452426"><ele>1181.25</ele></trkpt>
   <trkpt lat="37.262353" lon="-2.453273"><ele>1190.5</ele></trkpt>
   <trkpt lat="37.262432" lon="-2.453493"><ele>1190.5</ele></trkpt>
   <trkpt lat="37.262439" lon="-2.453584"><ele>1191.75</ele></trkpt>
   <trkpt lat="37.262413" lon="-2.453686"><ele>1192.5</ele></trkpt>
   <trkpt lat="37.262353" lon="-2.453764"><ele>1193</ele></trkpt>
   <trkpt lat="37.262274" lon="-2.453812"><ele>1194</ele></trkpt>
   <trkpt lat="37.262074" lon="-2.453844"><ele>1194.75</ele></trkpt>
   <trkpt lat="37.261773" lon="-2.453909"><ele>1195.25</ele></trkpt>
   <trkpt lat="37.26157" lon="-2.453973"><ele>1196.5</ele></trkpt>
   <trkpt lat="37.261446" lon="-2.454048"><ele>1197.5</ele></trkpt>
   <trkpt lat="37.261192" lon="-2.454284"><ele>1200.5</ele></trkpt>
   <trkpt lat="37.260724" lon="-2.454766"><ele>1205.5</ele></trkpt>
   <trkpt lat="37.260584" lon="-2.455334"><ele>1200</ele></trkpt>
   <trkpt lat="37.260548" lon="-2.455451"><ele>1199.5</ele></trkpt>
   <trkpt lat="37.260511" lon="-2.455534"><ele>1199</ele></trkpt>
   <trkpt lat="37.260465" lon="-2.455605"><ele>1198.25</ele></trkpt>
   <trkpt lat="37.2604" lon="-2.455687"><ele>1197.5</ele></trkpt>
   <trkpt lat="37.260319" lon="-2.455751"><ele>1197.75</ele></trkpt>
   <trkpt lat="37.259656" lon="-2.456241"><ele>1194</ele></trkpt>
   <trkpt lat="37.259315" lon="-2.457016"><ele>1188.75</ele></trkpt>
   <trkpt lat="37.259031" lon="-2.457547"><ele>1185.75</ele></trkpt>
   <trkpt lat="37.259012" lon="-2.457685"><ele>1183</ele></trkpt>
   <trkpt lat="37.259019" lon="-2.457829"><ele>1180.5</ele></trkpt>
   <trkpt lat="37.259044" lon="-2.457946"><ele>1180.5</ele></trkpt>
   <trkpt lat="37.259095" lon="-2.458061"><ele>1180.5</ele></trkpt>
   <trkpt lat="37.259189" lon="-2.458192"><ele>1179.75</ele></trkpt>
   <trkpt lat="37.259309" lon="-2.458283"><ele>1180</ele></trkpt>
   <trkpt lat="37.25952" lon="-2.458373"><ele>1181.5</ele></trkpt>
   <trkpt lat="37.259603" lon="-2.458395"><ele>1182.5</ele></trkpt>
   <trkpt lat="37.259686" lon="-2.458397"><ele>1183.5</ele></trkpt>
   <trkpt lat="37.259758" lon="-2.458369"><ele>1184.5</ele></trkpt>
   <trkpt lat="37.259861" lon="-2.458274"><ele>1185.75</ele></trkpt>
   <trkpt lat="37.260038" lon="-2.458001"><ele>1186.5</ele></trkpt>
   <trkpt lat="37.260147" lon="-2.45785"><ele>1187.25</ele></trkpt>
   <trkpt lat="37.260255" lon="-2.457772"><ele>1188.25</ele></trkpt>
   <trkpt lat="37.260361" lon="-2.457719"><ele>1189.25</ele></trkpt>
   <trkpt lat="37.260635" lon="-2.457631"><ele>1194</ele></trkpt>
   <trkpt lat="37.2608" lon="-2.457559"><ele>1195.5</ele></trkpt>
   <trkpt lat="37.260934" lon="-2.457473"><ele>1196.75</ele></trkpt>
   <trkpt lat="37.261262" lon="-2.457147"><ele>1200</ele></trkpt>
   <trkpt lat="37.261453" lon="-2.456975"><ele>1202</ele></trkpt>
   <trkpt lat="37.261533" lon="-2.456916"><ele>1202.25</ele></trkpt>
   <trkpt lat="37.261617" lon="-2.456879"><ele>1203</ele></trkpt>
   <trkpt lat="37.261904" lon="-2.456775"><ele>1206.5</ele></trkpt>
   <trkpt lat="37.261987" lon="-2.456728"><ele>1208.25</ele></trkpt>
   <trkpt lat="37.26207" lon="-2.456657"><ele>1209.25</ele></trkpt>
   <trkpt lat="37.262375" lon="-2.456276"><ele>1211.25</ele></trkpt>
   <trkpt lat="37.262447" lon="-2.456229"><ele>1212.25</ele></trkpt>
   <trkpt lat="37.262525" lon="-2.456214"><ele>1213.75</ele></trkpt>
   <trkpt lat="37.262629" lon="-2.456222"><ele>1214.75</ele></trkpt>
   <trkpt lat="37.263102" lon="-2.456319"><ele>1218</ele></trkpt>
   <trkpt lat="37.263386" lon="-2.456378"><ele>1220</ele></trkpt>
   <trkpt lat="37.263639" lon="-2.45642"><ele>1223.75</ele></trkpt>
   <trkpt lat="37.263716" lon="-2.456432"><ele>1225</ele></trkpt>
   <trkpt lat="37.263778" lon="-2.456429"><ele>1225.75</ele></trkpt>
   <trkpt lat="37.263842" lon="-2.456417"><ele>1225.75</ele></trkpt>
   <trkpt lat="37.263906" lon="-2.456387"><ele>1225.5</ele></trkpt>
   <trkpt lat="37.263987" lon="-2.45633"><ele>1227.25</ele></trkpt>
   <trkpt lat="37.264086" lon="-2.45624"><ele>1228.5</ele></trkpt>
   <trkpt lat="37.264224" lon="-2.456086"><ele>1228.75</ele></trkpt>
   <trkpt lat="37.264298" lon="-2.456032"><ele>1229.5</ele></trkpt>
   <trkpt lat="37.264396" lon="-2.455991"><ele>1231.25</ele></trkpt>
   <trkpt lat="37.264499" lon="-2.455978"><ele>1232.5</ele></trkpt>
   <trkpt lat="37.264692" lon="-2.45601"><ele>1233</ele></trkpt>
   <trkpt lat="37.264802" lon="-2.456059"><ele>1232.75</ele></trkpt>
   <trkpt lat="37.264893" lon="-2.456125"><ele>1233.5</ele></trkpt>
   <trkpt lat="37.264985" lon="-2.456209"><ele>1234.25</ele></trkpt>
   <trkpt lat="37.26503" lon="-2.456298"><ele>1234.75</ele></trkpt>
   <trkpt lat="37.26505" lon="-2.456385"><ele>1235.5</ele></trkpt>
   <trkpt lat="37.265045" lon="-2.456467"><ele>1236.75</ele></trkpt>
   <trkpt lat="37.265018" lon="-2.456539"><ele>1238</ele></trkpt>
   <trkpt lat="37.26499" lon="-2.45658"><ele>1239</ele></trkpt>
   <trkpt lat="37.264947" lon="-2.456619"><ele>1239.75</ele></trkpt>
   <trkpt lat="37.264867" lon="-2.456656"><ele>1240.75</ele></trkpt>
   <trkpt lat="37.26477" lon="-2.456688"><ele>1241.75</ele></trkpt>
   <trkpt lat="37.264559" lon="-2.456731"><ele>1243.75</ele></trkpt>
   <trkpt lat="37.264447" lon="-2.456786"><ele>1245.25</ele></trkpt>
   <trkpt lat="37.264384" lon="-2.456846"><ele>1246</ele></trkpt>
   <trkpt lat="37.264351" lon="-2.45688"><ele>1246.5</ele></trkpt>
   <trkpt lat="37.264329" lon="-2.456936"><ele>1247.5</ele></trkpt>
   <trkpt lat="37.264291" lon="-2.456965"><ele>1248.5</ele></trkpt>
   <trkpt lat="37.264253" lon="-2.457002"><ele>1249.5</ele></trkpt>
   <trkpt lat="37.264218" lon="-2.457009"><ele>1250</ele></trkpt>
   <trkpt lat="37.264132" lon="-2.456982"><ele>1250</ele></trkpt>
   <trkpt lat="37.2641" lon="-2.456975"><ele>1249.75</ele></trkpt>
   <trkpt lat="37.264005" lon="-2.456989"><ele>1250.5</ele></trkpt>
   <trkpt lat="37.263936" lon="-2.457047"><ele>1251.75</ele></trkpt>
   <trkpt lat="37.263748" lon="-2.457257"><ele>1254.5</ele></trkpt>
   <trkpt lat="37.263688" lon="-2.457313"><ele>1255.5</ele></trkpt>
   <trkpt lat="37.263612" lon="-2.457375"><ele>1256.25</ele></trkpt>
   <trkpt lat="37.263391" lon="-2.457515"><ele>1259.5</ele></trkpt>
   <trkpt lat="37.263303" lon="-2.457607"><ele>1261.5</ele></trkpt>
   <trkpt lat="37.26317" lon="-2.457776"><ele>1264</ele></trkpt>
   <trkpt lat="37.263099" lon="-2.457921"><ele>1264.75</ele></trkpt>
   <trkpt lat="37.26296" lon="-2.458302"><ele>1268</ele></trkpt>
   <trkpt lat="37.262903" lon="-2.458397"><ele>1269.25</ele></trkpt>
   <trkpt lat="37.262844" lon="-2.458479"><ele>1270.25</ele></trkpt>
   <trkpt lat="37.262785" lon="-2.458535"><ele>1270.25</ele></trkpt>
   <trkpt lat="37.26272" lon="-2.458576"><ele>1271.5</ele></trkpt>
   <trkpt lat="37.262511" lon="-2.458662"><ele>1275</ele></trkpt>
   <trkpt lat="37.262416" lon="-2.458745"><ele>1277</ele></trkpt>
   <trkpt lat="37.262371" lon="-2.458814"><ele>1278.25</ele></trkpt>
   <trkpt lat="37.262339" lon="-2.458902"><ele>1279.5</ele></trkpt>
   <trkpt lat="37.262314" lon="-2.459042"><ele>1280</ele></trkpt>
   <trkpt lat="37.262286" lon="-2.459453"><ele>1282.75</ele></trkpt>
   <trkpt lat="37.262249" lon="-2.459601"><ele>1283.5</ele></trkpt>
   <trkpt lat="37.262144" lon="-2.459792"><ele>1283.75</ele></trkpt>
   <trkpt lat="37.26208" lon="-2.459929"><ele>1284.75</ele></trkpt>
   <trkpt lat="37.262047" lon="-2.460065"><ele>1285.5</ele></trkpt>
   <trkpt lat="37.261987" lon="-2.460429"><ele>1288.5</ele></trkpt>
   <trkpt lat="37.261931" lon="-2.460845"><ele>1291.5</ele></trkpt>
   <trkpt lat="37.261928" lon="-2.460972"><ele>1292.25</ele></trkpt>
   <trkpt lat="37.261938" lon="-2.461161"><ele>1293.75</ele></trkpt>
   <trkpt lat="37.262035" lon="-2.461827"><ele>1299</ele></trkpt>
   <trkpt lat="37.262052" lon="-2.461999"><ele>1300</ele></trkpt>
   <trkpt lat="37.26204" lon="-2.462257"><ele>1301.75</ele></trkpt>
   <trkpt lat="37.26202" lon="-2.462656"><ele>1303.25</ele></trkpt>
   <trkpt lat="37.262007" lon="-2.462763"><ele>1304</ele></trkpt>
   <trkpt lat="37.261958" lon="-2.462888"><ele>1304.5</ele></trkpt>
   <trkpt lat="37.261892" lon="-2.462997"><ele>1306</ele></trkpt>
   <trkpt lat="37.261706" lon="-2.463217"><ele>1310</ele></trkpt>
   <trkpt lat="37.261635" lon="-2.463331"><ele>1311</ele></trkpt>
   <trkpt lat="37.261609" lon="-2.463405"><ele>1311</ele></trkpt>
   <trkpt lat="37.261605" lon="-2.463485"><ele>1311.5</ele></trkpt>
   <trkpt lat="37.261638" lon="-2.463621"><ele>1314.5</ele></trkpt>
   <trkpt lat="37.261727" lon="-2.463832"><ele>1316</ele></trkpt>
   <trkpt lat="37.261812" lon="-2.463964"><ele>1317.75</ele></trkpt>
   <trkpt lat="37.261886" lon="-2.464047"><ele>1319.25</ele></trkpt>
   <trkpt lat="37.261943" lon="-2.464093"><ele>1320.5</ele></trkpt>
   <trkpt lat="37.262007" lon="-2.464114"><ele>1321.25</ele></trkpt>
   <trkpt lat="37.262216" lon="-2.464148"><ele>1328.25</ele></trkpt>
   <trkpt lat="37.262655" lon="-2.464218"><ele>1328.25</ele></trkpt>
   <trkpt lat="37.262723" lon="-2.464226"><ele>1328.75</ele></trkpt>
   <trkpt lat="37.262805" lon="-2.464223"><ele>1329.5</ele></trkpt>
   <trkpt lat="37.262877" lon="-2.464204"><ele>1330.5</ele></trkpt>
   <trkpt lat="37.262939" lon="-2.464171"><ele>1331.5</ele></trkpt>
   <trkpt lat="37.263094" lon="-2.464049"><ele>1333.5</ele></trkpt>
   <trkpt lat="37.263133" lon="-2.464009"><ele>1333.75</ele></trkpt>
   <trkpt lat="37.263388" lon="-2.463751"><ele>1338.75</ele></trkpt>
   <trkpt lat="37.263488" lon="-2.46366"><ele>1340.5</ele></trkpt>
   <trkpt lat="37.263539" lon="-2.463629"><ele>1341.25</ele></trkpt>
   <trkpt lat="37.263601" lon="-2.463606"><ele>1342</ele></trkpt>
   <trkpt lat="37.263663" lon="-2.463596"><ele>1343</ele></trkpt>
   <trkpt lat="37.263733" lon="-2.4636"><ele>1343.75</ele></trkpt>
   <trkpt lat="37.26388" lon="-2.463649"><ele>1345.25</ele></trkpt>
   <trkpt lat="37.264304" lon="-2.463858"><ele>1348.75</ele></trkpt>
   <trkpt lat="37.264362" lon="-2.463872"><ele>1349.5</ele></trkpt>
   <trkpt lat="37.264429" lon="-2.463874"><ele>1350.75</ele></trkpt>
   <trkpt lat="37.264481" lon="-2.463853"><ele>1351.75</ele></trkpt>
   <trkpt lat="37.264526" lon="-2.463821"><ele>1353</ele></trkpt>
   <trkpt lat="37.264571" lon="-2.463767"><ele>1354</ele></trkpt>
   <trkpt lat="37.264602" lon="-2.46371"><ele>1354.5</ele></trkpt>
   <trkpt lat="37.264623" lon="-2.463609"><ele>1354.75</ele></trkpt>
   <trkpt lat="37.264625" lon="-2.463492"><ele>1355.5</ele></trkpt>
   <trkpt lat="37.264574" lon="-2.463137"><ele>1356.5</ele></trkpt>
   <trkpt lat="37.264569" lon="-2.463013"><ele>1357</ele></trkpt>
   <trkpt lat="37.26458" lon="-2.462933"><ele>1357.25</ele></trkpt>
   <trkpt lat="37.264604" lon="-2.462863"><ele>1357.5</ele></trkpt>
   <trkpt lat="37.264642" lon="-2.462807"><ele>1357.75</ele></trkpt>
   <trkpt lat="37.264699" lon="-2.462751"><ele>1358</ele></trkpt>
   <trkpt lat="37.264764" lon="-2.46271"><ele>1358.25</ele></trkpt>
   <trkpt lat="37.264788" lon="-2.462702"><ele>1358.5</ele></trkpt>
   <trkpt lat="37.264827" lon="-2.462693"><ele>1358.5</ele></trkpt>
   <trkpt lat="37.264888" lon="-2.462692"><ele>1358.75</ele></trkpt>
   <trkpt lat="37.265002" lon="-2.46271"><ele>1359.5</ele></trkpt>
   <trkpt lat="37.265505" lon="-2.462851"><ele>1365.25</ele></trkpt>
   <trkpt lat="37.265566" lon="-2.462883"><ele>1366</ele></trkpt>
   <trkpt lat="37.265628" lon="-2.462934"><ele>1367.5</ele></trkpt>
   <trkpt lat="37.265674" lon="-2.462996"><ele>1368.75</ele></trkpt>
   <trkpt lat="37.265703" lon="-2.463071"><ele>1370.25</ele></trkpt>
   <trkpt lat="37.265717" lon="-2.463169"><ele>1372</ele></trkpt>
   <trkpt lat="37.265709" lon="-2.46328"><ele>1373.5</ele></trkpt>
   <trkpt lat="37.265659" lon="-2.463412"><ele>1375</ele></trkpt>
   <trkpt lat="37.265431" lon="-2.463834"><ele>1380.25</ele></trkpt>
   <trkpt lat="37.265365" lon="-2.463988"><ele>1383</ele></trkpt>
   <trkpt lat="37.265335" lon="-2.464104"><ele>1385.5</ele></trkpt>
   <trkpt lat="37.265332" lon="-2.464174"><ele>1387.25</ele></trkpt>
   <trkpt lat="37.26536" lon="-2.46427"><ele>1389.25</ele></trkpt>
   <trkpt lat="37.265436" lon="-2.464393"><ele>1391.5</ele></trkpt>
   <trkpt lat="37.265532" lon="-2.464498"><ele>1391.25</ele></trkpt>
   <trkpt lat="37.265686" lon="-2.464611"><ele>1392.75</ele></trkpt>
   <trkpt lat="37.265769" lon="-2.464693"><ele>1394.5</ele></trkpt>
   <trkpt lat="37.265839" lon="-2.464782"><ele>1397</ele></trkpt>
   <trkpt lat="37.26591" lon="-2.464895"><ele>1399.75</ele></trkpt>
   <trkpt lat="37.266145" lon="-2.465339"><ele>1406.25</ele></trkpt>
   <trkpt lat="37.266259" lon="-2.465588"><ele>1410.5</ele></trkpt>
   <trkpt lat="37.266387" lon="-2.465893"><ele>1413.75</ele></trkpt>
   <trkpt lat="37.266438" lon="-2.466055"><ele>1416.25</ele></trkpt>
   <trkpt lat="37.266466" lon="-2.466172"><ele>1418</ele></trkpt>
   <trkpt lat="37.266482" lon="-2.466326"><ele>1419.75</ele></trkpt>
   <trkpt lat="37.266478" lon="-2.466495"><ele>1422</ele></trkpt>
   <trkpt lat="37.266443" lon="-2.466697"><ele>1423.75</ele></trkpt>
   <trkpt lat="37.266426" lon="-2.467103"><ele>1428</ele></trkpt>
   <trkpt lat="37.266396" lon="-2.467265"><ele>1429</ele></trkpt>
   <trkpt lat="37.266343" lon="-2.46747"><ele>1431.5</ele></trkpt>
   <trkpt lat="37.266198" lon="-2.467904"><ele>1437.25</ele></trkpt>
   <trkpt lat="37.26616" lon="-2.468048"><ele>1438.25</ele></trkpt>
   <trkpt lat="37.266132" lon="-2.468226"><ele>1439.5</ele></trkpt>
   <trkpt lat="37.266128" lon="-2.468371"><ele>1441.5</ele></trkpt>
   <trkpt lat="37.266115" lon="-2.468465"><ele>1442.5</ele></trkpt>
   <trkpt lat="37.266088" lon="-2.468554"><ele>1442.75</ele></trkpt>
   <trkpt lat="37.265985" lon="-2.468821"><ele>1448.25</ele></trkpt>
   <trkpt lat="37.26595" lon="-2.468944"><ele>1450.25</ele></trkpt>
   <trkpt lat="37.265918" lon="-2.469089"><ele>1451</ele></trkpt>
   <trkpt lat="37.265904" lon="-2.469292"><ele>1453</ele></trkpt>
   <trkpt lat="37.265905" lon="-2.469486"><ele>1456</ele></trkpt>
   <trkpt lat="37.265893" lon="-2.469554"><ele>1456.75</ele></trkpt>
   <trkpt lat="37.265869" lon="-2.469612"><ele>1456.5</ele></trkpt>
   <trkpt lat="37.265842" lon="-2.469649"><ele>1455.5</ele></trkpt>
   <trkpt lat="37.265784" lon="-2.469707"><ele>1455.25</ele></trkpt>
   <trkpt lat="37.265684" lon="-2.469793"><ele>1456.75</ele></trkpt>
   <trkpt lat="37.265605" lon="-2.469875"><ele>1457.75</ele></trkpt>
   <trkpt lat="37.265236" lon="-2.470335"><ele>1464</ele></trkpt>
   <trkpt lat="37.265148" lon="-2.470466"><ele>1466.5</ele></trkpt>
   <trkpt lat="37.265083" lon="-2.470584"><ele>1468.25</ele></trkpt>
   <trkpt lat="37.265057" lon="-2.470691"><ele>1468.75</ele></trkpt>
   <trkpt lat="37.26504" lon="-2.470805"><ele>1469.5</ele></trkpt>
   <trkpt lat="37.265024" lon="-2.471048"><ele>1470.75</ele></trkpt>
   <trkpt lat="37.265009" lon="-2.471512"><ele>1474.25</ele></trkpt>
   <trkpt lat="37.265056" lon="-2.472307"><ele>1481.25</ele></trkpt>
   <trkpt lat="37.265084" lon="-2.473477"><ele>1489.25</ele></trkpt>
   <trkpt lat="37.265103" lon="-2.473642"><ele>1489.5</ele></trkpt>
   <trkpt lat="37.26529" lon="-2.474147"><ele>1494.25</ele></trkpt>
   <trkpt lat="37.265324" lon="-2.474292"><ele>1496.75</ele></trkpt>
   <trkpt lat="37.265337" lon="-2.47441"><ele>1498.25</ele></trkpt>
   <trkpt lat="37.265331" lon="-2.474531"><ele>1499</ele></trkpt>
   <trkpt lat="37.265316" lon="-2.474639"><ele>1499.25</ele></trkpt>
   <trkpt lat="37.265194" lon="-2.474957"><ele>1500</ele></trkpt>
   <trkpt lat="37.265152" lon="-2.475095"><ele>1500.5</ele></trkpt>
   <trkpt lat="37.265153" lon="-2.4752"><ele>1501.5</ele></trkpt>
   <trkpt lat="37.265168" lon="-2.475309"><ele>1502.5</ele></trkpt>
   <trkpt lat="37.265214" lon="-2.475431"><ele>1503</ele></trkpt>
   <trkpt lat="37.265269" lon="-2.475541"><ele>1504.5</ele></trkpt>
   <trkpt lat="37.265343" lon="-2.475659"><ele>1505</ele></trkpt>
   <trkpt lat="37.265435" lon="-2.475762"><ele>1505.75</ele></trkpt>
   <trkpt lat="37.265527" lon="-2.475834"><ele>1507</ele></trkpt>
   <trkpt lat="37.265816" lon="-2.475954"><ele>1507</ele></trkpt>
   <trkpt lat="37.265993" lon="-2.476046"><ele>1508.25</ele></trkpt>
   <trkpt lat="37.266142" lon="-2.476174"><ele>1510.25</ele></trkpt>
   <trkpt lat="37.266185" lon="-2.47625"><ele>1510.75</ele></trkpt>
   <trkpt lat="37.266211" lon="-2.476324"><ele>1511</ele></trkpt>
   <trkpt lat="37.266226" lon="-2.476435"><ele>1511</ele></trkpt>
   <trkpt lat="37.266249" lon="-2.476897"><ele>1510.75</ele></trkpt>
   <trkpt lat="37.266252" lon="-2.477218"><ele>1509.5</ele></trkpt>
   <trkpt lat="37.266245" lon="-2.477332"><ele>1509.75</ele></trkpt>
   <trkpt lat="37.266225" lon="-2.477436"><ele>1510</ele></trkpt>
   <trkpt lat="37.26619" lon="-2.477539"><ele>1510.5</ele></trkpt>
   <trkpt lat="37.266126" lon="-2.477682"><ele>1511.25</ele></trkpt>
   <trkpt lat="37.266037" lon="-2.477876"><ele>1512.75</ele></trkpt>
   <trkpt lat="37.265981" lon="-2.478032"><ele>1513.5</ele></trkpt>
   <trkpt lat="37.265918" lon="-2.478268"><ele>1514.5</ele></trkpt>
   <trkpt lat="37.265797" lon="-2.478803"><ele>1516.5</ele></trkpt>
   <trkpt lat="37.265735" lon="-2.479109"><ele>1520.25</ele></trkpt>
   <trkpt lat="37.265716" lon="-2.47923"><ele>1521.25</ele></trkpt>
   <trkpt lat="37.265702" lon="-2.479351"><ele>1522</ele></trkpt>
   <trkpt lat="37.265631" lon="-2.480247"><ele>1533</ele></trkpt>
   <trkpt lat="37.265595" lon="-2.480444"><ele>1535.25</ele></trkpt>
   <trkpt lat="37.265525" lon="-2.480724"><ele>1538.25</ele></trkpt>
   <trkpt lat="37.265363" lon="-2.481292"><ele>1545.75</ele></trkpt>
   <trkpt lat="37.265317" lon="-2.481498"><ele>1548</ele></trkpt>
   <trkpt lat="37.265318" lon="-2.481646"><ele>1550.75</ele></trkpt>
   <trkpt lat="37.26534" lon="-2.48173"><ele>1552.25</ele></trkpt>
   <trkpt lat="37.26539" lon="-2.481805"><ele>1553.5</ele></trkpt>
   <trkpt lat="37.265445" lon="-2.481863"><ele>1554.5</ele></trkpt>
   <trkpt lat="37.265542" lon="-2.481916"><ele>1555.5</ele></trkpt>
   <trkpt lat="37.265831" lon="-2.48202"><ele>1557.25</ele></trkpt>
   <trkpt lat="37.265927" lon="-2.482079"><ele>1558.75</ele></trkpt>
   <trkpt lat="37.266013" lon="-2.482158"><ele>1559.5</ele></trkpt>
   <trkpt lat="37.266112" lon="-2.48227"><ele>1560.5</ele></trkpt>
   <trkpt lat="37.266407" lon="-2.482734"><ele>1567.25</ele></trkpt>
   <trkpt lat="37.266621" lon="-2.48305"><ele>1570.75</ele></trkpt>
   <trkpt lat="37.266655" lon="-2.483134"><ele>1572.75</ele></trkpt>
   <trkpt lat="37.266669" lon="-2.483219"><ele>1573.5</ele></trkpt>
   <trkpt lat="37.266673" lon="-2.483301"><ele>1574</ele></trkpt>
   <trkpt lat="37.266654" lon="-2.483393"><ele>1574.5</ele></trkpt>
   <trkpt lat="37.266616" lon="-2.483487"><ele>1575.25</ele></trkpt>
   <trkpt lat="37.266515" lon="-2.483645"><ele>1578</ele></trkpt>
   <trkpt lat="37.26646" lon="-2.483699"><ele>1579.5</ele></trkpt>
   <trkpt lat="37.266249" lon="-2.483849"><ele>1582</ele></trkpt>
   <trkpt lat="37.266178" lon="-2.483914"><ele>1583.25</ele></trkpt>
   <trkpt lat="37.266121" lon="-2.48398"><ele>1583.75</ele></trkpt>
   <trkpt lat="37.266085" lon="-2.484055"><ele>1583.5</ele></trkpt>
   <trkpt lat="37.266058" lon="-2.484161"><ele>1584.25</ele></trkpt>
   <trkpt lat="37.266044" lon="-2.48426"><ele>1584.25</ele></trkpt>
   <trkpt lat="37.266042" lon="-2.484372"><ele>1585</ele></trkpt>
   <trkpt lat="37.266099" lon="-2.484769"><ele>1587</ele></trkpt>
   <trkpt lat="37.266335" lon="-2.485966"><ele>1595.75</ele></trkpt>
   <trkpt lat="37.266441" lon="-2.48641"><ele>1600.75</ele></trkpt>
   <trkpt lat="37.266539" lon="-2.486718"><ele>1603.5</ele></trkpt>
   <trkpt lat="37.266592" lon="-2.486831"><ele>1609.5</ele></trkpt>
   <trkpt lat="37.266853" lon="-2.487378"><ele>1609.5</ele></trkpt>
   <trkpt lat="37.267001" lon="-2.487702"><ele>1615.25</ele></trkpt>
   <trkpt lat="37.267116" lon="-2.488005"><ele>1619</ele></trkpt>
   <trkpt lat="37.26717" lon="-2.48823"><ele>1618.5</ele></trkpt>
   <trkpt lat="37.26733" lon="-2.489266"><ele>1629.25</ele></trkpt>
   <trkpt lat="37.267526" lon="-2.490482"><ele>1635.25</ele></trkpt>
   <trkpt lat="37.267656" lon="-2.491216"><ele>1642.25</ele></trkpt>
   <trkpt lat="37.267703" lon="-2.491435"><ele>1644</ele></trkpt>
   <trkpt lat="37.267753" lon="-2.49158"><ele>1644.75</ele></trkpt>
   <trkpt lat="37.267802" lon="-2.491688"><ele>1645.75</ele></trkpt>
   <trkpt lat="37.267878" lon="-2.491827"><ele>1647.25</ele></trkpt>
   <trkpt lat="37.268007" lon="-2.492016"><ele>1650.25</ele></trkpt>
   <trkpt lat="37.268201" lon="-2.492244"><ele>1654.25</ele></trkpt>
   <trkpt lat="37.268454" lon="-2.49252"><ele>1657</ele></trkpt>
   <trkpt lat="37.26855" lon="-2.492636"><ele>1659.25</ele></trkpt>
   <trkpt lat="37.268617" lon="-2.492742"><ele>1661.75</ele></trkpt>
   <trkpt lat="37.268669" lon="-2.492869"><ele>1663.5</ele></trkpt>
   <trkpt lat="37.268733" lon="-2.493052"><ele>1665.25</ele></trkpt>
   <trkpt lat="37.268819" lon="-2.493419"><ele>1669.5</ele></trkpt>
   <trkpt lat="37.26897" lon="-2.494264"><ele>1678.25</ele></trkpt>
   <trkpt lat="37.269155" lon="-2.495254"><ele>1685.75</ele></trkpt>
   <trkpt lat="37.269161" lon="-2.495396"><ele>1686.75</ele></trkpt>
   <trkpt lat="37.269159" lon="-2.495482"><ele>1687.25</ele></trkpt>
   <trkpt lat="37.269073" lon="-2.496318"><ele>1693.75</ele></trkpt>
   <trkpt lat="37.26908" lon="-2.49647"><ele>1695</ele></trkpt>
   <trkpt lat="37.269082" lon="-2.496678"><ele>1695.75</ele></trkpt>
   <trkpt lat="37.269058" lon="-2.496733"><ele>1695.5</ele></trkpt>
   <trkpt lat="37.269" lon="-2.496812"><ele>1695.5</ele></trkpt>
   <trkpt lat="37.268973" lon="-2.496823"><ele>1695.5</ele></trkpt>
   <trkpt lat="37.268943" lon="-2.496835"><ele>1695.75</ele></trkpt>
   <trkpt lat="37.268884" lon="-2.496797"><ele>1696</ele></trkpt>
   <trkpt lat="37.268825" lon="-2.496784"><ele>1696.75</ele></trkpt>
   <trkpt lat="37.268719" lon="-2.496709"><ele>1698.25</ele></trkpt>
   <trkpt lat="37.268622" lon="-2.496619"><ele>1699.5</ele></trkpt>
   <trkpt lat="37.268543" lon="-2.496565"><ele>1700.25</ele></trkpt>
   <trkpt lat="37.268427" lon="-2.496433"><ele>1701.5</ele></trkpt>
   <trkpt lat="37.268338" lon="-2.496301"><ele>1702.5</ele></trkpt>
   <trkpt lat="37.26813" lon="-2.495873"><ele>1706</ele></trkpt>
   <trkpt lat="37.268055" lon="-2.495757"><ele>1707.5</ele></trkpt>
   <trkpt lat="37.267984" lon="-2.495689"><ele>1708.75</ele></trkpt>
   <trkpt lat="37.267898" lon="-2.49566"><ele>1710</ele></trkpt>
   <trkpt lat="37.267841" lon="-2.49567"><ele>1711</ele></trkpt>
   <trkpt lat="37.267784" lon="-2.495692"><ele>1712.25</ele></trkpt>
   <trkpt lat="37.267714" lon="-2.495755"><ele>1711.75</ele></trkpt>
   <trkpt lat="37.26767" lon="-2.495837"><ele>1711.5</ele></trkpt>
   <trkpt lat="37.267641" lon="-2.495915"><ele>1711.75</ele></trkpt>
   <trkpt lat="37.267542" lon="-2.496393"><ele>1716</ele></trkpt>
   <trkpt lat="37.267479" lon="-2.496801"><ele>1719.5</ele></trkpt>
   <trkpt lat="37.267468" lon="-2.497003"><ele>1721.25</ele></trkpt>
   <trkpt lat="37.267483" lon="-2.49707"><ele>1722.25</ele></trkpt>
   <trkpt lat="37.267534" lon="-2.497229"><ele>1723.5</ele></trkpt>
   <trkpt lat="37.2681" lon="-2.498667"><ele>1732</ele></trkpt>
   <trkpt lat="37.268213" lon="-2.498941"><ele>1733.75</ele></trkpt>
   <trkpt lat="37.268265" lon="-2.499104"><ele>1735.25</ele></trkpt>
   <trkpt lat="37.26828" lon="-2.499188"><ele>1736</ele></trkpt>
   <trkpt lat="37.268283" lon="-2.499275"><ele>1736.25</ele></trkpt>
   <trkpt lat="37.268278" lon="-2.499346"><ele>1736.75</ele></trkpt>
   <trkpt lat="37.268263" lon="-2.499408"><ele>1737.25</ele></trkpt>
   <trkpt lat="37.268223" lon="-2.499526"><ele>1737.25</ele></trkpt>
   <trkpt lat="37.268137" lon="-2.499762"><ele>1738</ele></trkpt>
   <trkpt lat="37.268097" lon="-2.499892"><ele>1739.5</ele></trkpt>
   <trkpt lat="37.26807" lon="-2.50003"><ele>1740.5</ele></trkpt>
   <trkpt lat="37.268033" lon="-2.500307"><ele>1742.5</ele></trkpt>
   <trkpt lat="37.26801" lon="-2.500596"><ele>1744.25</ele></trkpt>
   <trkpt lat="37.268008" lon="-2.500703"><ele>1744.5</ele></trkpt>
   <trkpt lat="37.268014" lon="-2.500803"><ele>1744.75</ele></trkpt>
   <trkpt lat="37.268113" lon="-2.501381"><ele>1748.25</ele></trkpt>
   <trkpt lat="37.268121" lon="-2.501496"><ele>1748.5</ele></trkpt>
   <trkpt lat="37.268111" lon="-2.50161"><ele>1749</ele></trkpt>
   <trkpt lat="37.268082" lon="-2.50172"><ele>1750</ele></trkpt>
   <trkpt lat="37.267984" lon="-2.502029"><ele>1751.5</ele></trkpt>
   <trkpt lat="37.267936" lon="-2.502243"><ele>1752.25</ele></trkpt>
   <trkpt lat="37.267906" lon="-2.502483"><ele>1754.25</ele></trkpt>
   <trkpt lat="37.267858" lon="-2.502968"><ele>1757</ele></trkpt>
   <trkpt lat="37.267823" lon="-2.503207"><ele>1758.25</ele></trkpt>
   <trkpt lat="37.267712" lon="-2.50352"><ele>1761</ele></trkpt>
   <trkpt lat="37.267588" lon="-2.503809"><ele>1762</ele></trkpt>
   <trkpt lat="37.267444" lon="-2.504091"><ele>1763</ele></trkpt>
   <trkpt lat="37.26725" lon="-2.504567"><ele>1768</ele></trkpt>
   <trkpt lat="37.267207" lon="-2.504648"><ele>1769.25</ele></trkpt>
   <trkpt lat="37.267105" lon="-2.504769"><ele>1770.25</ele></trkpt>
   <trkpt lat="37.266927" lon="-2.504904"><ele>1771.75</ele></trkpt>
   <trkpt lat="37.266175" lon="-2.505363"><ele>1780</ele></trkpt>
   <trkpt lat="37.266062" lon="-2.505442"><ele>1781</ele></trkpt>
   <trkpt lat="37.265952" lon="-2.505541"><ele>1781.5</ele></trkpt>
   <trkpt lat="37.265819" lon="-2.505707"><ele>1783.75</ele></trkpt>
   <trkpt lat="37.265702" lon="-2.505897"><ele>1786.25</ele></trkpt>
   <trkpt lat="37.265587" lon="-2.506101"><ele>1788.25</ele></trkpt>
   <trkpt lat="37.265465" lon="-2.50629"><ele>1790</ele></trkpt>
   <trkpt lat="37.265364" lon="-2.506413"><ele>1791.25</ele></trkpt>
   <trkpt lat="37.265259" lon="-2.506504"><ele>1792.75</ele></trkpt>
   <trkpt lat="37.265173" lon="-2.506552"><ele>1794</ele></trkpt>
   <trkpt lat="37.264566" lon="-2.506732"><ele>1797</ele></trkpt>
   <trkpt lat="37.263914" lon="-2.506943"><ele>1803.5</ele></trkpt>
   <trkpt lat="37.26378" lon="-2.506958"><ele>1804.5</ele></trkpt>
   <trkpt lat="37.263509" lon="-2.506947"><ele>1806.5</ele></trkpt>
   <trkpt lat="37.263386" lon="-2.506955"><ele>1807.25</ele></trkpt>
   <trkpt lat="37.263329" lon="-2.506967"><ele>1807.5</ele></trkpt>
   <trkpt lat="37.263227" lon="-2.507015"><ele>1809</ele></trkpt>
   <trkpt lat="37.263088" lon="-2.507126"><ele>1810.25</ele></trkpt>
   <trkpt lat="37.262032" lon="-2.508245"><ele>1818</ele></trkpt>
   <trkpt lat="37.261323" lon="-2.508996"><ele>1817.5</ele></trkpt>
   <trkpt lat="37.261253" lon="-2.509078"><ele>1817.5</ele></trkpt>
   <trkpt lat="37.261185" lon="-2.509168"><ele>1817.75</ele></trkpt>
   <trkpt lat="37.260842" lon="-2.509768"><ele>1815.25</ele></trkpt>
   <trkpt lat="37.260611" lon="-2.510161"><ele>1814.5</ele></trkpt>
   <trkpt lat="37.260376" lon="-2.510532"><ele>1815.5</ele></trkpt>
   <trkpt lat="37.260316" lon="-2.510605"><ele>1816.5</ele></trkpt>
   <trkpt lat="37.260255" lon="-2.510667"><ele>1817</ele></trkpt>
   <trkpt lat="37.260189" lon="-2.510723"><ele>1817.5</ele></trkpt>
   <trkpt lat="37.260122" lon="-2.510766"><ele>1818.5</ele></trkpt>
   <trkpt lat="37.259989" lon="-2.510825"><ele>1820.75</ele></trkpt>
   <trkpt lat="37.259854" lon="-2.510864"><ele>1822.5</ele></trkpt>
   <trkpt lat="37.259581" lon="-2.510924"><ele>1826.75</ele></trkpt>
   <trkpt lat="37.25948" lon="-2.510936"><ele>1828</ele></trkpt>
   <trkpt lat="37.259379" lon="-2.510933"><ele>1829.5</ele></trkpt>
   <trkpt lat="37.259312" lon="-2.510907"><ele>1830.25</ele></trkpt>
   <trkpt lat="37.259247" lon="-2.510865"><ele>1830.75</ele></trkpt>
   <trkpt lat="37.259188" lon="-2.510814"><ele>1831</ele></trkpt>
   <trkpt lat="37.258756" lon="-2.510302"><ele>1835.5</ele></trkpt>
   <trkpt lat="37.258668" lon="-2.510225"><ele>1836.25</ele></trkpt>
   <trkpt lat="37.258622" lon="-2.5102"><ele>1836.75</ele></trkpt>
   <trkpt lat="37.258573" lon="-2.510185"><ele>1837</ele></trkpt>
   <trkpt lat="37.258514" lon="-2.510171"><ele>1837</ele></trkpt>
   <trkpt lat="37.258455" lon="-2.510167"><ele>1837</ele></trkpt>
   <trkpt lat="37.258336" lon="-2.510192"><ele>1837.75</ele></trkpt>
   <trkpt lat="37.258233" lon="-2.510253"><ele>1837.75</ele></trkpt>
   <trkpt lat="37.258025" lon="-2.510412"><ele>1839.5</ele></trkpt>
   <trkpt lat="37.257909" lon="-2.510478"><ele>1840.25</ele></trkpt>
   <trkpt lat="37.257841" lon="-2.510491"><ele>1840</ele></trkpt>
   <trkpt lat="37.257706" lon="-2.510487"><ele>1840.25</ele></trkpt>
   <trkpt lat="37.257639" lon="-2.510473"><ele>1841</ele></trkpt>
   <trkpt lat="37.257567" lon="-2.510444"><ele>1841.25</ele></trkpt>
   <trkpt lat="37.256249" lon="-2.50977"><ele>1850</ele></trkpt>
   <trkpt lat="37.256116" lon="-2.509717"><ele>1850.75</ele></trkpt>
   <trkpt lat="37.255978" lon="-2.509683"><ele>1850.75</ele></trkpt>
   <trkpt lat="37.255424" lon="-2.509606"><ele>1852.5</ele></trkpt>
   <trkpt lat="37.255042" lon="-2.509534"><ele>1856.25</ele></trkpt>
   <trkpt lat="37.254936" lon="-2.509522"><ele>1856.75</ele></trkpt>
   <trkpt lat="37.25483" lon="-2.509523"><ele>1857.25</ele></trkpt>
   <trkpt lat="37.254647" lon="-2.509547"><ele>1858.25</ele></trkpt>
   <trkpt lat="37.254418" lon="-2.509614"><ele>1859.75</ele></trkpt>
   <trkpt lat="37.254262" lon="-2.509675"><ele>1860.5</ele></trkpt>
   <trkpt lat="37.253811" lon="-2.509877"><ele>1862.75</ele></trkpt>
   <trkpt lat="37.253238" lon="-2.510106"><ele>1865.5</ele></trkpt>
   <trkpt lat="37.253105" lon="-2.510183"><ele>1865.5</ele></trkpt>
   <trkpt lat="37.252977" lon="-2.510266"><ele>1864.75</ele></trkpt>
   <trkpt lat="37.252441" lon="-2.510681"><ele>1869.75</ele></trkpt>
   <trkpt lat="37.251911" lon="-2.511111"><ele>1871.5</ele></trkpt>
   <trkpt lat="37.250832" lon="-2.51193"><ele>1882.5</ele></trkpt>
   <trkpt lat="37.250292" lon="-2.51236"><ele>1888.5</ele></trkpt>
   <trkpt lat="37.250201" lon="-2.512421"><ele>1888.75</ele></trkpt>
   <trkpt lat="37.25011" lon="-2.512468"><ele>1888.75</ele></trkpt>
   <trkpt lat="37.250012" lon="-2.512493"><ele>1887.75</ele></trkpt>
   <trkpt lat="37.249965" lon="-2.512497"><ele>1887.75</ele></trkpt>
   <trkpt lat="37.249915" lon="-2.512489"><ele>1887.25</ele></trkpt>
   <trkpt lat="37.249836" lon="-2.512449"><ele>1886.5</ele></trkpt>
   <trkpt lat="37.2498" lon="-2.512422"><ele>1886.25</ele></trkpt>
   <trkpt lat="37.249767" lon="-2.512383"><ele>1886</ele></trkpt>
   <trkpt lat="37.249709" lon="-2.512288"><ele>1886.5</ele></trkpt>
   <trkpt lat="37.249669" lon="-2.512178"><ele>1887.25</ele></trkpt>
   <trkpt lat="37.249644" lon="-2.512049"><ele>1887.5</ele></trkpt>
   <trkpt lat="37.249594" lon="-2.511654"><ele>1887</ele></trkpt>
   <trkpt lat="37.249567" lon="-2.511392"><ele>1887.25</ele></trkpt>
   <trkpt lat="37.249538" lon="-2.511264"><ele>1887</ele></trkpt>
   <trkpt lat="37.249493" lon="-2.511145"><ele>1887</ele></trkpt>
   <trkpt lat="37.249428" lon="-2.511027"><ele>1887.25</ele></trkpt>
   <trkpt lat="37.249205" lon="-2.510721"><ele>1887.5</ele></trkpt>
   <trkpt lat="37.248891" lon="-2.510316"><ele>1886.5</ele></trkpt>
   <trkpt lat="37.248666" lon="-2.510001"><ele>1886.25</ele></trkpt>
   <trkpt lat="37.248591" lon="-2.509894"><ele>1886.25</ele></trkpt>
   <trkpt lat="37.248434" lon="-2.509684"><ele>1887.25</ele></trkpt>
   <trkpt lat="37.248354" lon="-2.509586"><ele>1887.5</ele></trkpt>
   <trkpt lat="37.248272" lon="-2.509505"><ele>1887.5</ele></trkpt>
   <trkpt lat="37.248194" lon="-2.509449"><ele>1887.5</ele></trkpt>
   <trkpt lat="37.248109" lon="-2.509411"><ele>1887.75</ele></trkpt>
   <trkpt lat="37.248029" lon="-2.509391"><ele>1888</ele></trkpt>
   <trkpt lat="37.247942" lon="-2.509391"><ele>1887.75</ele></trkpt>
   <trkpt lat="37.247592" lon="-2.509415"><ele>1888.25</ele></trkpt>
   <trkpt lat="37.247151" lon="-2.509458"><ele>1887.25</ele></trkpt>
   <trkpt lat="37.247098" lon="-2.509482"><ele>1887.25</ele></trkpt>
   <trkpt lat="37.246988" lon="-2.509556"><ele>1886.75</ele></trkpt>
   <trkpt lat="37.246935" lon="-2.509612"><ele>1886.5</ele></trkpt>
   <trkpt lat="37.24689" lon="-2.509686"><ele>1886.25</ele></trkpt>
   <trkpt lat="37.246855" lon="-2.509773"><ele>1886.25</ele></trkpt>
   <trkpt lat="37.246787" lon="-2.510074"><ele>1886</ele></trkpt>
   <trkpt lat="37.24677" lon="-2.510129"><ele>1886</ele></trkpt>
   <trkpt lat="37.246745" lon="-2.510182"><ele>1886</ele></trkpt>
   <trkpt lat="37.246709" lon="-2.510234"><ele>1885.5</ele></trkpt>
   <trkpt lat="37.246668" lon="-2.510279"><ele>1885</ele></trkpt>
   <trkpt lat="37.246574" lon="-2.510357"><ele>1885</ele></trkpt>
   <trkpt lat="37.246395" lon="-2.510479"><ele>1884.75</ele></trkpt>
   <trkpt lat="37.246158" lon="-2.510663"><ele>1883</ele></trkpt>
   <trkpt lat="37.246088" lon="-2.510689"><ele>1882.25</ele></trkpt>
   <trkpt lat="37.246007" lon="-2.510693"><ele>1882.5</ele></trkpt>
   <trkpt lat="37.245847" lon="-2.510675"><ele>1882.5</ele></trkpt>
   <trkpt lat="37.245694" lon="-2.510676"><ele>1882</ele></trkpt>
   <trkpt lat="37.245585" lon="-2.510714"><ele>1881.75</ele></trkpt>
   <trkpt lat="37.245519" lon="-2.510762"><ele>1881</ele></trkpt>
   <trkpt lat="37.245486" lon="-2.510792"><ele>1880.75</ele></trkpt>
   <trkpt lat="37.245447" lon="-2.510864"><ele>1880.5</ele></trkpt>
   <trkpt lat="37.245416" lon="-2.510939"><ele>1880.5</ele></trkpt>
   <trkpt lat="37.245366" lon="-2.511101"><ele>1880.5</ele></trkpt>
   <trkpt lat="37.245055" lon="-2.512224"><ele>1876</ele></trkpt>
   <trkpt lat="37.245027" lon="-2.512372"><ele>1875.5</ele></trkpt>
   <trkpt lat="37.244983" lon="-2.512676"><ele>1874.5</ele></trkpt>
   <trkpt lat="37.244902" lon="-2.513286"><ele>1870.75</ele></trkpt>
   <trkpt lat="37.244875" lon="-2.513414"><ele>1870.75</ele></trkpt>
   <trkpt lat="37.244847" lon="-2.513474"><ele>1870.75</ele></trkpt>
   <trkpt lat="37.244813" lon="-2.513523"><ele>1871</ele></trkpt>
   <trkpt lat="37.24477" lon="-2.513565"><ele>1871.25</ele></trkpt>
   <trkpt lat="37.244723" lon="-2.5136"><ele>1871.5</ele></trkpt>
   <trkpt lat="37.244307" lon="-2.513843"><ele>1870.5</ele></trkpt>
   <trkpt lat="37.243957" lon="-2.514051"><ele>1869</ele></trkpt>
   <trkpt lat="37.243877" lon="-2.514124"><ele>1868.5</ele></trkpt>
   <trkpt lat="37.243807" lon="-2.514204"><ele>1868</ele></trkpt>
   <trkpt lat="37.243337" lon="-2.514856"><ele>1863.5</ele></trkpt>
   <trkpt lat="37.243284" lon="-2.5149"><ele>1863.5</ele></trkpt>
   <trkpt lat="37.243231" lon="-2.514935"><ele>1863.5</ele></trkpt>
   <trkpt lat="37.243209" lon="-2.514941"><ele>1863.5</ele></trkpt>
   <trkpt lat="37.243171" lon="-2.514952"><ele>1863.5</ele></trkpt>
   <trkpt lat="37.24311" lon="-2.514962"><ele>1863.75</ele></trkpt>
   <trkpt lat="37.243039" lon="-2.514955"><ele>1863.75</ele></trkpt>
   <trkpt lat="37.242967" lon="-2.514935"><ele>1864.5</ele></trkpt>
   <trkpt lat="37.242288" lon="-2.514646"><ele>1869</ele></trkpt>
   <trkpt lat="37.242151" lon="-2.514611"><ele>1869.5</ele></trkpt>
   <trkpt lat="37.242049" lon="-2.514617"><ele>1869.5</ele></trkpt>
   <trkpt lat="37.241997" lon="-2.51463"><ele>1869.75</ele></trkpt>
   <trkpt lat="37.241898" lon="-2.514673"><ele>1870.25</ele></trkpt>
   <trkpt lat="37.241697" lon="-2.514773"><ele>1871.25</ele></trkpt>
   <trkpt lat="37.240701" lon="-2.515315"><ele>1874.75</ele></trkpt>
   <trkpt lat="37.240601" lon="-2.515367"><ele>1875</ele></trkpt>
   <trkpt lat="37.240499" lon="-2.515404"><ele>1875.5</ele></trkpt>
   <trkpt lat="37.240314" lon="-2.515445"><ele>1876.5</ele></trkpt>
   <trkpt lat="37.239752" lon="-2.515507"><ele>1878</ele></trkpt>
   <trkpt lat="37.239582" lon="-2.515548"><ele>1878.75</ele></trkpt>
   <trkpt lat="37.239238" lon="-2.515672"><ele>1879.75</ele></trkpt>
   <trkpt lat="37.239153" lon="-2.515694"><ele>1880</ele></trkpt>
   <trkpt lat="37.239067" lon="-2.515709"><ele>1880.25</ele></trkpt>
   <trkpt lat="37.238941" lon="-2.515715"><ele>1880.75</ele></trkpt>
   <trkpt lat="37.238814" lon="-2.515697"><ele>1881.5</ele></trkpt>
   <trkpt lat="37.238328" lon="-2.515528"><ele>1883.5</ele></trkpt>
   <trkpt lat="37.238208" lon="-2.515493"><ele>1883.75</ele></trkpt>
   <trkpt lat="37.238147" lon="-2.515479"><ele>1884</ele></trkpt>
   <trkpt lat="37.237967" lon="-2.515478"><ele>1884.5</ele></trkpt>
   <trkpt lat="37.237849" lon="-2.515508"><ele>1885.25</ele></trkpt>
   <trkpt lat="37.237497" lon="-2.51566"><ele>1887</ele></trkpt>
   <trkpt lat="37.237275" lon="-2.51577"><ele>1887.75</ele></trkpt>
   <trkpt lat="37.237038" lon="-2.515882"><ele>1888.75</ele></trkpt>
   <trkpt lat="37.236931" lon="-2.515918"><ele>1889.25</ele></trkpt>
   <trkpt lat="37.236797" lon="-2.515939"><ele>1890.25</ele></trkpt>
   <trkpt lat="37.23673" lon="-2.515934"><ele>1890.5</ele></trkpt>
   <trkpt lat="37.236662" lon="-2.515918"><ele>1890.5</ele></trkpt>
   <trkpt lat="37.235499" lon="-2.515477"><ele>1893.5</ele></trkpt>
   <trkpt lat="37.235376" lon="-2.515442"><ele>1893.75</ele></trkpt>
   <trkpt lat="37.235245" lon="-2.515425"><ele>1894</ele></trkpt>
   <trkpt lat="37.234849" lon="-2.515419"><ele>1894.5</ele></trkpt>
   <trkpt lat="37.23465" lon="-2.515427"><ele>1894.5</ele></trkpt>
   <trkpt lat="37.23445" lon="-2.515448"><ele>1894.25</ele></trkpt>
   <trkpt lat="37.234375" lon="-2.515468"><ele>1894</ele></trkpt>
   <trkpt lat="37.2343" lon="-2.515496"><ele>1894</ele></trkpt>
   <trkpt lat="37.234012" lon="-2.515658"><ele>1895.25</ele></trkpt>
   <trkpt lat="37.233866" lon="-2.515727"><ele>1895.25</ele></trkpt>
   <trkpt lat="37.233742" lon="-2.515739"><ele>1896.5</ele></trkpt>
   <trkpt lat="37.233706" lon="-2.515729"><ele>1896.75</ele></trkpt>
   <trkpt lat="37.233637" lon="-2.515696"><ele>1896.75</ele></trkpt>
   <trkpt lat="37.233605" lon="-2.515673"><ele>1896.75</ele></trkpt>
   <trkpt lat="37.2333" lon="-2.5153"><ele>1898.75</ele></trkpt>
   <trkpt lat="37.233212" lon="-2.515223"><ele>1898.5</ele></trkpt>
   <trkpt lat="37.233169" lon="-2.515197"><ele>1898.5</ele></trkpt>
   <trkpt lat="37.233119" lon="-2.515172"><ele>1898.5</ele></trkpt>
   <trkpt lat="37.233054" lon="-2.515151"><ele>1898.75</ele></trkpt>
   <trkpt lat="37.232984" lon="-2.515138"><ele>1898.75</ele></trkpt>
   <trkpt lat="37.232539" lon="-2.515105"><ele>1900</ele></trkpt>
   <trkpt lat="37.232438" lon="-2.515063"><ele>1900.5</ele></trkpt>
   <trkpt lat="37.232343" lon="-2.51497"><ele>1901</ele></trkpt>
   <trkpt lat="37.232058" lon="-2.514627"><ele>1903.5</ele></trkpt>
   <trkpt lat="37.231908" lon="-2.514475"><ele>1905</ele></trkpt>
   <trkpt lat="37.231295" lon="-2.513919"><ele>1910</ele></trkpt>
   <trkpt lat="37.230833" lon="-2.513516"><ele>1913.75</ele></trkpt>
   <trkpt lat="37.230375" lon="-2.513098"><ele>1918.5</ele></trkpt>
   <trkpt lat="37.229923" lon="-2.512674"><ele>1923.5</ele></trkpt>
   <trkpt lat="37.229842" lon="-2.512615"><ele>1924.25</ele></trkpt>
   <trkpt lat="37.229758" lon="-2.512563"><ele>1925</ele></trkpt>
   <trkpt lat="37.229671" lon="-2.51253"><ele>1925.5</ele></trkpt>
   <trkpt lat="37.229579" lon="-2.512505"><ele>1926</ele></trkpt>
   <trkpt lat="37.229486" lon="-2.512487"><ele>1926.5</ele></trkpt>
   <trkpt lat="37.229388" lon="-2.512478"><ele>1927.25</ele></trkpt>
   <trkpt lat="37.22919" lon="-2.512483"><ele>1928.5</ele></trkpt>
   <trkpt lat="37.228865" lon="-2.512523"><ele>1930.25</ele></trkpt>
   <trkpt lat="37.228719" lon="-2.512551"><ele>1930.5</ele></trkpt>
   <trkpt lat="37.228425" lon="-2.512625"><ele>1931.75</ele></trkpt>
   <trkpt lat="37.22807" lon="-2.512764"><ele>1933.75</ele></trkpt>
   <trkpt lat="37.227899" lon="-2.512845"><ele>1935</ele></trkpt>
   <trkpt lat="37.227725" lon="-2.512939"><ele>1936</ele></trkpt>
   <trkpt lat="37.22762" lon="-2.513009"><ele>1936.75</ele></trkpt>
   <trkpt lat="37.227574" lon="-2.513049"><ele>1937</ele></trkpt>
   <trkpt lat="37.227528" lon="-2.513095"><ele>1937.5</ele></trkpt>
   <trkpt lat="37.227369" lon="-2.513313"><ele>1937.75</ele></trkpt>
   <trkpt lat="37.226657" lon="-2.514453"><ele>1939.75</ele></trkpt>
   <trkpt lat="37.226205" lon="-2.515196"><ele>1941.25</ele></trkpt>
   <trkpt lat="37.226085" lon="-2.51536"><ele>1941.5</ele></trkpt>
   <trkpt lat="37.226028" lon="-2.515421"><ele>1941.5</ele></trkpt>
   <trkpt lat="37.225963" lon="-2.515462"><ele>1941.5</ele></trkpt>
   <trkpt lat="37.225839" lon="-2.515505"><ele>1941</ele></trkpt>
   <trkpt lat="37.225655" lon="-2.515528"><ele>1942</ele></trkpt>
   <trkpt lat="37.22488" lon="-2.515562"><ele>1945.5</ele></trkpt>
   <trkpt lat="37.224641" lon="-2.515579"><ele>1946.5</ele></trkpt>
   <trkpt lat="37.22454" lon="-2.515603"><ele>1947</ele></trkpt>
   <trkpt lat="37.224443" lon="-2.515636"><ele>1947.25</ele></trkpt>
   <trkpt lat="37.223942" lon="-2.515839"><ele>1944.25</ele></trkpt>
   <trkpt lat="37.223727" lon="-2.515902"><ele>1943</ele></trkpt>
   <trkpt lat="37.22351" lon="-2.515947"><ele>1942.25</ele></trkpt>
   <trkpt lat="37.223423" lon="-2.515945"><ele>1941.75</ele></trkpt>
   <trkpt lat="37.223333" lon="-2.515933"><ele>1941.25</ele></trkpt>
   <trkpt lat="37.222721" lon="-2.515761"><ele>1941.25</ele></trkpt>
   <trkpt lat="37.222677" lon="-2.515757"><ele>1941.25</ele></trkpt>
   <trkpt lat="37.222536" lon="-2.515773"><ele>1941.5</ele></trkpt>
   <trkpt lat="37.222462" lon="-2.515814"><ele>1941.25</ele></trkpt>
   <trkpt lat="37.22239" lon="-2.515868"><ele>1940.5</ele></trkpt>
   <trkpt lat="37.222286" lon="-2.516006"><ele>1940.25</ele></trkpt>
   <trkpt lat="37.221881" lon="-2.516658"><ele>1937.75</ele></trkpt>
   <trkpt lat="37.221581" lon="-2.51718"><ele>1936.25</ele></trkpt>
   <trkpt lat="37.221531" lon="-2.517289"><ele>1935.5</ele></trkpt>
   <trkpt lat="37.22149" lon="-2.517405"><ele>1935</ele></trkpt>
   <trkpt lat="37.221459" lon="-2.517534"><ele>1935</ele></trkpt>
   <trkpt lat="37.221453" lon="-2.517605"><ele>1935</ele></trkpt>
   <trkpt lat="37.221457" lon="-2.517815"><ele>1935</ele></trkpt>
   <trkpt lat="37.221588" lon="-2.518852"><ele>1934.25</ele></trkpt>
   <trkpt lat="37.221589" lon="-2.518939"><ele>1934.25</ele></trkpt>
   <trkpt lat="37.221582" lon="-2.519024"><ele>1934.25</ele></trkpt>
   <trkpt lat="37.221514" lon="-2.519167"><ele>1933.75</ele></trkpt>
   <trkpt lat="37.221241" lon="-2.519499"><ele>1934.25</ele></trkpt>
   <trkpt lat="37.221193" lon="-2.51955"><ele>1934</ele></trkpt>
   <trkpt lat="37.221139" lon="-2.519591"><ele>1933.5</ele></trkpt>
   <trkpt lat="37.221084" lon="-2.519611"><ele>1933.5</ele></trkpt>
   <trkpt lat="37.221025" lon="-2.519616"><ele>1933.75</ele></trkpt>
   <trkpt lat="37.220292" lon="-2.519556"><ele>1935.5</ele></trkpt>
   <trkpt lat="37.220237" lon="-2.519581"><ele>1935.5</ele></trkpt>
   <trkpt lat="37.220166" lon="-2.519664"><ele>1935.5</ele></trkpt>
   <trkpt lat="37.22014" lon="-2.519727"><ele>1936</ele></trkpt>
   <trkpt lat="37.22013" lon="-2.519768"><ele>1936</ele></trkpt>
   <trkpt lat="37.220115" lon="-2.519857"><ele>1936.25</ele></trkpt>
   <trkpt lat="37.220099" lon="-2.520116"><ele>1936.75</ele></trkpt>
   <trkpt lat="37.220075" lon="-2.520252"><ele>1936.75</ele></trkpt>
   <trkpt lat="37.220037" lon="-2.520347"><ele>1936.75</ele></trkpt>
   <trkpt lat="37.220013" lon="-2.520387"><ele>1936.75</ele></trkpt>
   <trkpt lat="37.219981" lon="-2.520432"><ele>1937</ele></trkpt>
   <trkpt lat="37.219913" lon="-2.520498"><ele>1937.5</ele></trkpt>
   <trkpt lat="37.219834" lon="-2.520547"><ele>1938</ele></trkpt>
   <trkpt lat="37.219793" lon="-2.520561"><ele>1938.25</ele></trkpt>
   <trkpt lat="37.219698" lon="-2.520545"><ele>1938.5</ele></trkpt>
   <trkpt lat="37.219653" lon="-2.520514"><ele>1939.25</ele></trkpt>
   <trkpt lat="37.219614" lon="-2.520474"><ele>1939.5</ele></trkpt>
   <trkpt lat="37.219276" lon="-2.519961"><ele>1940</ele></trkpt>
   <trkpt lat="37.219035" lon="-2.519613"><ele>1941.75</ele></trkpt>
   <trkpt lat="37.218965" lon="-2.519524"><ele>1942.25</ele></trkpt>
   <trkpt lat="37.218868" lon="-2.519426"><ele>1943</ele></trkpt>
   <trkpt lat="37.218357" lon="-2.518954"><ele>1945.75</ele></trkpt>
   <trkpt lat="37.218283" lon="-2.518893"><ele>1946</ele></trkpt>
   <trkpt lat="37.218167" lon="-2.518831"><ele>1946.5</ele></trkpt>
   <trkpt lat="37.21809" lon="-2.518807"><ele>1947.25</ele></trkpt>
   <trkpt lat="37.21805" lon="-2.518802"><ele>1947.75</ele></trkpt>
   <trkpt lat="37.217959" lon="-2.518801"><ele>1948.25</ele></trkpt>
   <trkpt lat="37.217867" lon="-2.518812"><ele>1949.25</ele></trkpt>
   <trkpt lat="37.217791" lon="-2.518834"><ele>1950.5</ele></trkpt>
   <trkpt lat="37.217717" lon="-2.518867"><ele>1951</ele></trkpt>
   <trkpt lat="37.217523" lon="-2.519002"><ele>1953.75</ele></trkpt>
   <trkpt lat="37.217264" lon="-2.519204"><ele>1954.5</ele></trkpt>
   <trkpt lat="37.217183" lon="-2.519254"><ele>1955</ele></trkpt>
   <trkpt lat="37.217098" lon="-2.519284"><ele>1956.25</ele></trkpt>
   <trkpt lat="37.217044" lon="-2.519283"><ele>1956.75</ele></trkpt>
   <trkpt lat="37.216996" lon="-2.519273"><ele>1957</ele></trkpt>
   <trkpt lat="37.216895" lon="-2.51921"><ele>1957.25</ele></trkpt>
   <trkpt lat="37.21669" lon="-2.519032"><ele>1957.5</ele></trkpt>
   <trkpt lat="37.215801" lon="-2.518131"><ele>1963.5</ele></trkpt>
   <trkpt lat="37.215365" lon="-2.517711"><ele>1965.75</ele></trkpt>
   <trkpt lat="37.215167" lon="-2.517559"><ele>1966.25</ele></trkpt>
   <trkpt lat="37.215048" lon="-2.517484"><ele>1967</ele></trkpt>
   <trkpt lat="37.214877" lon="-2.517414"><ele>1967.5</ele></trkpt>
   <trkpt lat="37.21424" lon="-2.517269"><ele>1969.25</ele></trkpt>
   <trkpt lat="37.214086" lon="-2.517219"><ele>1969.75</ele></trkpt>
   <trkpt lat="37.214011" lon="-2.517183"><ele>1970</ele></trkpt>
   <trkpt lat="37.213805" lon="-2.517061"><ele>1971</ele></trkpt>
   <trkpt lat="37.2136" lon="-2.516924"><ele>1971.75</ele></trkpt>
   <trkpt lat="37.213366" lon="-2.516755"><ele>1972.25</ele></trkpt>
   <trkpt lat="37.213324" lon="-2.516777"><ele>1972.75</ele></trkpt>
   <trkpt lat="37.213281" lon="-2.516844"><ele>1973.75</ele></trkpt>
   <trkpt lat="37.213307" lon="-2.51692"><ele>1974</ele></trkpt>
   <trkpt lat="37.213512" lon="-2.517263"><ele>1976.5</ele></trkpt>
   <trkpt lat="37.213654" lon="-2.517597"><ele>1978.25</ele></trkpt>
   <trkpt lat="37.213721" lon="-2.517884"><ele>1979.75</ele></trkpt>
   <trkpt lat="37.213771" lon="-2.518202"><ele>1981.25</ele></trkpt>
   <trkpt lat="37.21378" lon="-2.518259"><ele>1981.5</ele></trkpt>
   <trkpt lat="37.213883" lon="-2.518667"><ele>1984.5</ele></trkpt>
   <trkpt lat="37.214709" lon="-2.521559"><ele>2016</ele></trkpt>
   <trkpt lat="37.214762" lon="-2.521864"><ele>2019</ele></trkpt>
   <trkpt lat="37.214998" lon="-2.523355"><ele>2031</ele></trkpt>
   <trkpt lat="37.215029" lon="-2.523642"><ele>2033.25</ele></trkpt>
   <trkpt lat="37.215032" lon="-2.52398"><ele>2036</ele></trkpt>
   <trkpt lat="37.214937" lon="-2.525317"><ele>2048.75</ele></trkpt>
   <trkpt lat="37.214949" lon="-2.525487"><ele>2050</ele></trkpt>
   <trkpt lat="37.214993" lon="-2.525611"><ele>2051.25</ele></trkpt>
   <trkpt lat="37.215079" lon="-2.525711"><ele>2052.75</ele></trkpt>
   <trkpt lat="37.215757" lon="-2.526441"><ele>2064.5</ele></trkpt>
   <trkpt lat="37.216915" lon="-2.527874"><ele>2088</ele></trkpt>
   <trkpt lat="37.217051" lon="-2.528059"><ele>2089.75</ele></trkpt>
   <trkpt lat="37.217168" lon="-2.528264"><ele>2090.25</ele></trkpt>
   <trkpt lat="37.217362" lon="-2.528668"><ele>2090.75</ele></trkpt>
   <trkpt lat="37.217476" lon="-2.528826"><ele>2091.5</ele></trkpt>
   <trkpt lat="37.217672" lon="-2.529024"><ele>2092.5</ele></trkpt>
   <trkpt lat="37.218104" lon="-2.529376"><ele>2095.25</ele></trkpt>
   <trkpt lat="37.218529" lon="-2.529743"><ele>2096.5</ele></trkpt>
   <trkpt lat="37.219403" lon="-2.530467"><ele>2102.75</ele></trkpt>
   <trkpt lat="37.219522" lon="-2.530583"><ele>2103.75</ele></trkpt>
   <trkpt lat="37.219595" lon="-2.53076"><ele>2104.25</ele></trkpt>
   <trkpt lat="37.219615" lon="-2.53091"><ele>2104.25</ele></trkpt>
   <trkpt lat="37.219608" lon="-2.531604"><ele>2107</ele></trkpt>
   <trkpt lat="37.219613" lon="-2.532311"><ele>2111.75</ele></trkpt>
   <trkpt lat="37.219643" lon="-2.532488"><ele>2113</ele></trkpt>
   <trkpt lat="37.219731" lon="-2.532883"><ele>2114.5</ele></trkpt>
   <trkpt lat="37.219776" lon="-2.533184"><ele>2116</ele></trkpt>
   <trkpt lat="37.219842" lon="-2.533839"><ele>2117.5</ele></trkpt>
   <trkpt lat="37.219869" lon="-2.53401"><ele>2118.25</ele></trkpt>
   <trkpt lat="37.219912" lon="-2.534163"><ele>2119</ele></trkpt>
   <trkpt lat="37.220128" lon="-2.5348"><ele>2119.75</ele></trkpt>
   <trkpt lat="37.221273" lon="-2.538514"><ele>2114</ele></trkpt>
   <trkpt lat="37.221425" lon="-2.539032"><ele>2113</ele></trkpt>
   <trkpt lat="37.221445" lon="-2.539237"><ele>2111.75</ele></trkpt>
   <trkpt lat="37.221433" lon="-2.539524"><ele>2110</ele></trkpt>
   <trkpt lat="37.221396" lon="-2.539837"><ele>2109.75</ele></trkpt>
   <trkpt lat="37.221284" lon="-2.540306"><ele>2109.25</ele></trkpt>
   <trkpt lat="37.22128" lon="-2.540556"><ele>2110</ele></trkpt>
   <trkpt lat="37.221313" lon="-2.540726"><ele>2110.5</ele></trkpt>
   <trkpt lat="37.221416" lon="-2.541185"><ele>2111</ele></trkpt>
   <trkpt lat="37.221617" lon="-2.54205"><ele>2112</ele></trkpt>
   <trkpt lat="37.221705" lon="-2.542274"><ele>2113</ele></trkpt>
   <trkpt lat="37.221822" lon="-2.542433"><ele>2114.25</ele></trkpt>
   <trkpt lat="37.221961" lon="-2.542536"><ele>2116</ele></trkpt>
   <trkpt lat="37.222107" lon="-2.542601"><ele>2117</ele></trkpt>
   <trkpt lat="37.22258" lon="-2.542618"><ele>2121</ele></trkpt>
   <trkpt lat="37.222736" lon="-2.542646"><ele>2122.5</ele></trkpt>
   <trkpt lat="37.222883" lon="-2.542733"><ele>2124</ele></trkpt>
   <trkpt lat="37.223011" lon="-2.542869"><ele>2125.25</ele></trkpt>
   <trkpt lat="37.22308" lon="-2.543026"><ele>2126.5</ele></trkpt>
   <trkpt lat="37.223091" lon="-2.543145"><ele>2127.5</ele></trkpt>
   <trkpt lat="37.223078" lon="-2.543256"><ele>2128.25</ele></trkpt>
   <trkpt lat="37.223008" lon="-2.543423"><ele>2129.5</ele></trkpt>
   <trkpt lat="37.222469" lon="-2.544045"><ele>2135.75</ele></trkpt>
   <trkpt lat="37.222352" lon="-2.544206"><ele>2136.75</ele></trkpt>
   <trkpt lat="37.22227" lon="-2.544349"><ele>2137.5</ele></trkpt>
   <trkpt lat="37.22218" lon="-2.544601"><ele>2138.75</ele></trkpt>
   <trkpt lat="37.221953" lon="-2.545421"><ele>2143</ele></trkpt>
   <trkpt lat="37.221821" lon="-2.545756"><ele>2145.5</ele></trkpt>
   <trkpt lat="37.221794" lon="-2.545858"><ele>2146.5</ele></trkpt>
   <trkpt lat="37.221792" lon="-2.546012"><ele>2148</ele></trkpt>
   <trkpt lat="37.221816" lon="-2.546132"><ele>2149</ele></trkpt>
   <trkpt lat="37.221995" lon="-2.54674"><ele>2152.5</ele></trkpt>
   <trkpt lat="37.222016" lon="-2.546808"><ele>2152.75</ele></trkpt>
   <trkpt lat="37.222181" lon="-2.547355"><ele>2154</ele></trkpt>
   