<?xml version="1.0" encoding="UTF-8"?>
<gpx 
 xmlns="http://www.topografix.com/GPX/1/1" 
 xmlns:xsi="http://www.w3.org/2001/XMLSchema-instance" 
 xsi:schemaLocation="http://www.topografix.com/GPX/1/1 http://www.topografix.com/GPX/1/1/gpx.xsd" 
 version="1.1" 
 creator="BRouter-Web 0.18.1">
 <trk>
  <name>Cari (11.6km, trimmed to true climb span)</name>
  <trkseg>
   <trkpt lat="46.478285" lon="8.800861"><ele>710.75</ele></trkpt>
   <trkpt lat="46.478241" lon="8.800935"><ele>711</ele></trkpt>
   <trkpt lat="46.478373" lon="8.80109"><ele>712</ele></trkpt>
   <trkpt lat="46.478395" lon="8.80113"><ele>712.25</ele></trkpt>
   <trkpt lat="46.478444" lon="8.801258"><ele>713</ele></trkpt>
   <trkpt lat="46.478773" lon="8.801864"><ele>718.75</ele></trkpt>
   <trkpt lat="46.478794" lon="8.801914"><ele>719.25</ele></trkpt>
   <trkpt lat="46.478808" lon="8.801976"><ele>719.75</ele></trkpt>
   <trkpt lat="46.478807" lon="8.802056"><ele>720.5</ele></trkpt>
   <trkpt lat="46.478787" lon="8.802142"><ele>721.25</ele></trkpt>
   <trkpt lat="46.478592" lon="8.802506"><ele>723</ele></trkpt>
   <trkpt lat="46.478563" lon="8.802588"><ele>723.75</ele></trkpt>
   <trkpt lat="46.478555" lon="8.802644"><ele>724.25</ele></trkpt>
   <trkpt lat="46.478562" lon="8.802732"><ele>725.25</ele></trkpt>
   <trkpt lat="46.478632" lon="8.802889"><ele>727</ele></trkpt>
   <trkpt lat="46.47866" lon="8.80298"><ele>728</ele></trkpt>
   <trkpt lat="46.478663" lon="8.803017"><ele>728.25</ele></trkpt>
   <trkpt lat="46.478656" lon="8.803112"><ele>729</ele></trkpt>
   <trkpt lat="46.478633" lon="8.803189"><ele>729.25</ele></trkpt>
   <trkpt lat="46.478614" lon="8.803227"><ele>729.25</ele></trkpt>
   <trkpt lat="46.478553" lon="8.80331"><ele>730</ele></trkpt>
   <trkpt lat="46.478482" lon="8.803386"><ele>730.75</ele></trkpt>
   <trkpt lat="46.478185" lon="8.803658"><ele>730.75</ele></trkpt>
   <trkpt lat="46.478089" lon="8.803731"><ele>730.25</ele></trkpt>
   <trkpt lat="46.477897" lon="8.803856"><ele>731.5</ele></trkpt>
   <trkpt lat="46.477832" lon="8.803928"><ele>732</ele></trkpt>
   <trkpt lat="46.477817" lon="8.803954"><ele>732</ele></trkpt>
   <trkpt lat="46.477801" lon="8.804003"><ele>732.25</ele></trkpt>
   <trkpt lat="46.477787" lon="8.804077"><ele>732.75</ele></trkpt>
   <trkpt lat="46.477792" lon="8.804151"><ele>733</ele></trkpt>
   <trkpt lat="46.477804" lon="8.804192"><ele>733.25</ele></trkpt>
   <trkpt lat="46.477822" lon="8.804224"><ele>733.25</ele></trkpt>
   <trkpt lat="46.47786" lon="8.804268"><ele>733.5</ele></trkpt>
   <trkpt lat="46.477888" lon="8.804288"><ele>733.75</ele></trkpt>
   <trkpt lat="46.477937" lon="8.804306"><ele>735.25</ele></trkpt>
   <trkpt lat="46.478004" lon="8.804309"><ele>736.5</ele></trkpt>
   <trkpt lat="46.478044" lon="8.804301"><ele>737</ele></trkpt>
   <trkpt lat="46.478095" lon="8.804279"><ele>737.25</ele></trkpt>
   <trkpt lat="46.478189" lon="8.804222"><ele>737.5</ele></trkpt>
   <trkpt lat="46.478292" lon="8.804152"><ele>737.75</ele></trkpt>
   <trkpt lat="46.478804" lon="8.803767"><ele>742</ele></trkpt>
   <trkpt lat="46.478898" lon="8.803674"><ele>742.75</ele></trkpt>
   <trkpt lat="46.479078" lon="8.803438"><ele>745.5</ele></trkpt>
   <trkpt lat="46.479128" lon="8.803413"><ele>747</ele></trkpt>
   <trkpt lat="46.479144" lon="8.803416"><ele>747.5</ele></trkpt>
   <trkpt lat="46.479148" lon="8.803417"><ele>747.5</ele></trkpt>
   <trkpt lat="46.479165" lon="8.803431"><ele>748.25</ele></trkpt>
   <trkpt lat="46.479189" lon="8.80348"><ele>750</ele></trkpt>
   <trkpt lat="46.479191" lon="8.803512"><ele>750</ele></trkpt>
   <trkpt lat="46.479185" lon="8.803545"><ele>749.75</ele></trkpt>
   <trkpt lat="46.47907" lon="8.803756"><ele>749.75</ele></trkpt>
   <trkpt lat="46.47905" lon="8.803808"><ele>750</ele></trkpt>
   <trkpt lat="46.478994" lon="8.804036"><ele>750.75</ele></trkpt>
   <trkpt lat="46.478681" lon="8.805546"><ele>762</ele></trkpt>
   <trkpt lat="46.478606" lon="8.805806"><ele>762.25</ele></trkpt>
   <trkpt lat="46.478563" lon="8.805926"><ele>763.25</ele></trkpt>
   <trkpt lat="46.478499" lon="8.806069"><ele>763.75</ele></trkpt>
   <trkpt lat="46.478424" lon="8.806215"><ele>764.5</ele></trkpt>
   <trkpt lat="46.478026" lon="8.806902"><ele>769</ele></trkpt>
   <trkpt lat="46.477989" lon="8.806978"><ele>769.25</ele></trkpt>
   <trkpt lat="46.477963" lon="8.807053"><ele>769.75</ele></trkpt>
   <trkpt lat="46.477946" lon="8.807137"><ele>770.5</ele></trkpt>
   <trkpt lat="46.477934" lon="8.807238"><ele>771.25</ele></trkpt>
   <trkpt lat="46.477936" lon="8.807395"><ele>771</ele></trkpt>
   <trkpt lat="46.477963" lon="8.807754"><ele>771.75</ele></trkpt>
   <trkpt lat="46.477963" lon="8.807927"><ele>773.75</ele></trkpt>
   <trkpt lat="46.477934" lon="8.808171"><ele>775.5</ele></trkpt>
   <trkpt lat="46.477771" lon="8.809149"><ele>779.25</ele></trkpt>
   <trkpt lat="46.477703" lon="8.809707"><ele>783.75</ele></trkpt>
   <trkpt lat="46.477684" lon="8.809926"><ele>785.5</ele></trkpt>
   <trkpt lat="46.477681" lon="8.810494"><ele>790.75</ele></trkpt>
   <trkpt lat="46.477676" lon="8.810708"><ele>792.25</ele></trkpt>
   <trkpt lat="46.477654" lon="8.81089"><ele>793</ele></trkpt>
   <trkpt lat="46.477494" lon="8.811522"><ele>796.25</ele></trkpt>
   <trkpt lat="46.477455" lon="8.811695"><ele>797.25</ele></trkpt>
   <trkpt lat="46.477441" lon="8.811808"><ele>798</ele></trkpt>
   <trkpt lat="46.477426" lon="8.812009"><ele>799.5</ele></trkpt>
   <trkpt lat="46.477431" lon="8.812222"><ele>801.5</ele></trkpt>
   <trkpt lat="46.477441" lon="8.812342"><ele>802</ele></trkpt>
   <trkpt lat="46.477475" lon="8.81259"><ele>804</ele></trkpt>
   <trkpt lat="46.477478" lon="8.812658"><ele>804.75</ele></trkpt>
   <trkpt lat="46.477468" lon="8.812798"><ele>805.75</ele></trkpt>
   <trkpt lat="46.477392" lon="8.813159"><ele>808.75</ele></trkpt>
   <trkpt lat="46.477373" lon="8.813274"><ele>809.75</ele></trkpt>
   <trkpt lat="46.477365" lon="8.813352"><ele>810.5</ele></trkpt>
   <trkpt lat="46.477369" lon="8.813517"><ele>811</ele></trkpt>
   <trkpt lat="46.4774" lon="8.813661"><ele>811.75</ele></trkpt>
   <trkpt lat="46.477425" lon="8.813725"><ele>812.25</ele></trkpt>
   <trkpt lat="46.477458" lon="8.813783"><ele>812.75</ele></trkpt>
   <trkpt lat="46.477493" lon="8.813825"><ele>813.5</ele></trkpt>
   <trkpt lat="46.477539" lon="8.813864"><ele>814.25</ele></trkpt>
   <trkpt lat="46.477601" lon="8.813901"><ele>815.25</ele></trkpt>
   <trkpt lat="46.477683" lon="8.813914"><ele>816.25</ele></trkpt>
   <trkpt lat="46.477723" lon="8.813905"><ele>817</ele></trkpt>
   <trkpt lat="46.477781" lon="8.813872"><ele>817.75</ele></trkpt>
   <trkpt lat="46.477808" lon="8.813846"><ele>818.25</ele></trkpt>
   <trkpt lat="46.477883" lon="8.813747"><ele>819.75</ele></trkpt>
   <trkpt lat="46.477911" lon="8.813684"><ele>820.25</ele></trkpt>
   <trkpt lat="46.478026" lon="8.813331"><ele>822.25</ele></trkpt>
   <trkpt lat="46.478125" lon="8.813003"><ele>823.75</ele></trkpt>
   <trkpt lat="46.478188" lon="8.812704"><ele>826</ele></trkpt>
   <trkpt lat="46.478217" lon="8.812488"><ele>827.75</ele></trkpt>
   <trkpt lat="46.47823" lon="8.812351"><ele>829.25</ele></trkpt>
   <trkpt lat="46.47823" lon="8.812241"><ele>830</ele></trkpt>
   <trkpt lat="46.478214" lon="8.811893"><ele>831.25</ele></trkpt>
   <trkpt lat="46.478223" lon="8.811536"><ele>833.75</ele></trkpt>
   <trkpt lat="46.478258" lon="8.811289"><ele>835</ele></trkpt>
   <trkpt lat="46.478329" lon="8.810911"><ele>837.5</ele></trkpt>
   <trkpt lat="46.478553" lon="8.809945"><ele>843.5</ele></trkpt>
   <trkpt lat="46.478694" lon="8.809398"><ele>851.5</ele></trkpt>
   <trkpt lat="46.478835" lon="8.808882"><ele>852.75</ele></trkpt>
   <trkpt lat="46.478871" lon="8.80868"><ele>854</ele></trkpt>
   <trkpt lat="46.478895" lon="8.808468"><ele>854</ele></trkpt>
   <trkpt lat="46.478915" lon="8.808411"><ele>854.5</ele></trkpt>
   <trkpt lat="46.47893" lon="8.808397"><ele>854.75</ele></trkpt>
   <trkpt lat="46.478966" lon="8.808385"><ele>856</ele></trkpt>
   <trkpt lat="46.478997" lon="8.808395"><ele>857.25</ele></trkpt>
   <trkpt lat="46.479012" lon="8.808411"><ele>858</ele></trkpt>
   <trkpt lat="46.479024" lon="8.808441"><ele>858.75</ele></trkpt>
   <trkpt lat="46.479029" lon="8.808479"><ele>859.25</ele></trkpt>
   <trkpt lat="46.479024" lon="8.808586"><ele>860</ele></trkpt>
   <trkpt lat="46.478852" lon="8.809417"><ele>862.25</ele></trkpt>
   <trkpt lat="46.47884" lon="8.809517"><ele>862.5</ele></trkpt>
   <trkpt lat="46.478835" lon="8.809659"><ele>863.5</ele></trkpt>
   <trkpt lat="46.478858" lon="8.809843"><ele>865.5</ele></trkpt>
   <trkpt lat="46.478949" lon="8.810268"><ele>870.75</ele></trkpt>
   <trkpt lat="46.478964" lon="8.810375"><ele>872</ele></trkpt>
   <trkpt lat="46.47897" lon="8.810477"><ele>872.75</ele></trkpt>
   <trkpt lat="46.478967" lon="8.810589"><ele>873.25</ele></trkpt>
   <trkpt lat="46.478961" lon="8.810689"><ele>873.75</ele></trkpt>
   <trkpt lat="46.478937" lon="8.810889"><ele>874</ele></trkpt>
   <trkpt lat="46.478875" lon="8.811312"><ele>876</ele></trkpt>
   <trkpt lat="46.478861" lon="8.811586"><ele>877.25</ele></trkpt>
   <trkpt lat="46.478875" lon="8.811761"><ele>878.5</ele></trkpt>
   <trkpt lat="46.478944" lon="8.812283"><ele>880</ele></trkpt>
   <trkpt lat="46.47897" lon="8.812332"><ele>880.75</ele></trkpt>
   <trkpt lat="46.478995" lon="8.812349"><ele>881.75</ele></trkpt>
   <trkpt lat="46.479016" lon="8.812349"><ele>882.75</ele></trkpt>
   <trkpt lat="46.479053" lon="8.812323"><ele>884.75</ele></trkpt>
   <trkpt lat="46.479065" lon="8.812294"><ele>885.75</ele></trkpt>
   <trkpt lat="46.479068" lon="8.812223"><ele>887</ele></trkpt>
   <trkpt lat="46.479032" lon="8.812094"><ele>886.25</ele></trkpt>
   <trkpt lat="46.479004" lon="8.81195"><ele>885.75</ele></trkpt>
   <trkpt lat="46.478995" lon="8.811842"><ele>886</ele></trkpt>
   <trkpt lat="46.47899" lon="8.811627"><ele>886.5</ele></trkpt>
   <trkpt lat="46.479019" lon="8.811355"><ele>889</ele></trkpt>
   <trkpt lat="46.479045" lon="8.811219"><ele>888.75</ele></trkpt>
   <trkpt lat="46.479088" lon="8.811047"><ele>889.25</ele></trkpt>
   <trkpt lat="46.479109" lon="8.810979"><ele>889.25</ele></trkpt>
   <trkpt lat="46.47913" lon="8.810934"><ele>890</ele></trkpt>
   <trkpt lat="46.479334" lon="8.810679"><ele>895.25</ele></trkpt>
   <trkpt lat="46.479377" lon="8.81058"><ele>895.75</ele></trkpt>
   <trkpt lat="46.479402" lon="8.810488"><ele>896.5</ele></trkpt>
   <trkpt lat="46.479526" lon="8.80978"><ele>900.5</ele></trkpt>
   <trkpt lat="46.47955" lon="8.809682"><ele>901</ele></trkpt>
   <trkpt lat="46.479584" lon="8.809579"><ele>900.75</ele></trkpt>
   <trkpt lat="46.479786" lon="8.809089"><ele>904</ele></trkpt>
   <trkpt lat="46.479916" lon="8.808802"><ele>905.75</ele></trkpt>
   <trkpt lat="46.48001" lon="8.808637"><ele>908</ele></trkpt>
   <trkpt lat="46.480039" lon="8.808617"><ele>907.5</ele></trkpt>
   <trkpt lat="46.480065" lon="8.808617"><ele>907</ele></trkpt>
   <trkpt lat="46.480092" lon="8.808629"><ele>906.75</ele></trkpt>
   <trkpt lat="46.48012" lon="8.80868"><ele>907.5</ele></trkpt>
   <trkpt lat="46.480125" lon="8.808716"><ele>908.25</ele></trkpt>
   <trkpt lat="46.48012" lon="8.808759"><ele>909.25</ele></trkpt>
   <trkpt lat="46.480099" lon="8.80884"><ele>910.75</ele></trkpt>
   <trkpt lat="46.479873" lon="8.809635"><ele>916</ele></trkpt>
   <trkpt lat="46.479838" lon="8.809771"><ele>916.75</ele></trkpt>
   <trkpt lat="46.479821" lon="8.809866"><ele>917.25</ele></trkpt>
   <trkpt lat="46.479809" lon="8.809965"><ele>918</ele></trkpt>
   <trkpt lat="46.479795" lon="8.810179"><ele>919.75</ele></trkpt>
   <trkpt lat="46.479778" lon="8.81094"><ele>925.25</ele></trkpt>
   <trkpt lat="46.47977" lon="8.811099"><ele>926.5</ele></trkpt>
   <trkpt lat="46.479746" lon="8.811348"><ele>927.75</ele></trkpt>
   <trkpt lat="46.47975" lon="8.811376"><ele>928.25</ele></trkpt>
   <trkpt lat="46.479766" lon="8.811409"><ele>929.25</ele></trkpt>
   <trkpt lat="46.47978" lon="8.811419"><ele>930.25</ele></trkpt>
   <trkpt lat="46.479806" lon="8.81142"><ele>931.5</ele></trkpt>
   <trkpt lat="46.479832" lon="8.811392"><ele>932.5</ele></trkpt>
   <trkpt lat="46.479841" lon="8.811364"><ele>932.75</ele></trkpt>
   <trkpt lat="46.479873" lon="8.810926"><ele>931</ele></trkpt>
   <trkpt lat="46.479887" lon="8.810845"><ele>931</ele></trkpt>
   <trkpt lat="46.479922" lon="8.810728"><ele>931.75</ele></trkpt>
   <trkpt lat="46.480409" lon="8.809704"><ele>939.25</ele></trkpt>
   <trkpt lat="46.480477" lon="8.809601"><ele>939</ele></trkpt>
   <trkpt lat="46.480527" lon="8.809563"><ele>939.75</ele></trkpt>
   <trkpt lat="46.480576" lon="8.809551"><ele>940.5</ele></trkpt>
   <trkpt lat="46.480613" lon="8.80955"><ele>940.75</ele></trkpt>
   <trkpt lat="46.48083" lon="8.809586"><ele>943</ele></trkpt>
   <trkpt lat="46.480902" lon="8.809589"><ele>944.75</ele></trkpt>
   <trkpt lat="46.480955" lon="8.809584"><ele>945.5</ele></trkpt>
   <trkpt lat="46.481021" lon="8.809565"><ele>946</ele></trkpt>
   <trkpt lat="46.481148" lon="8.809514"><ele>947</ele></trkpt>
   <trkpt lat="46.481747" lon="8.809231"><ele>953</ele></trkpt>
   <trkpt lat="46.481833" lon="8.809183"><ele>953.25</ele></trkpt>
   <trkpt lat="46.481891" lon="8.80914"><ele>953.75</ele></trkpt>
   <trkpt lat="46.481935" lon="8.809078"><ele>954.5</ele></trkpt>
   <trkpt lat="46.481969" lon="8.808983"><ele>954.75</ele></trkpt>
   <trkpt lat="46.481975" lon="8.808943"><ele>954.75</ele></trkpt>
   <trkpt lat="46.481975" lon="8.808864"><ele>955.5</ele></trkpt>
   <trkpt lat="46.481953" lon="8.808805"><ele>956.5</ele></trkpt>
   <trkpt lat="46.481901" lon="8.808746"><ele>957.25</ele></trkpt>
   <trkpt lat="46.481859" lon="8.808713"><ele>957.25</ele></trkpt>
   <trkpt lat="46.481531" lon="8.808509"><ele>956.5</ele></trkpt>
   <trkpt lat="46.481474" lon="8.808453"><ele>957</ele></trkpt>
   <trkpt lat="46.481446" lon="8.808395"><ele>958.5</ele></trkpt>
   <trkpt lat="46.481424" lon="8.808299"><ele>960.25</ele></trkpt>
   <trkpt lat="46.481422" lon="8.808258"><ele>960</ele></trkpt>
   <trkpt lat="46.481432" lon="8.808172"><ele>960.25</ele></trkpt>
   <trkpt lat="46.481448" lon="8.80812"><ele>961</ele></trkpt>
   <trkpt lat="46.481619" lon="8.807719"><ele>965.25</ele></trkpt>
   <trkpt lat="46.481665" lon="8.807643"><ele>965</ele></trkpt>
   <trkpt lat="46.481702" lon="8.807598"><ele>965.5</ele></trkpt>
   <trkpt lat="46.481806" lon="8.807519"><ele>968</ele></trkpt>
   <trkpt lat="46.482205" lon="8.807302"><ele>971.5</ele></trkpt>
   <trkpt lat="46.482275" lon="8.807236"><ele>971</ele></trkpt>
   <trkpt lat="46.482294" lon="8.807205"><ele>971</ele></trkpt>
   <trkpt lat="46.482308" lon="8.807163"><ele>971.75</ele></trkpt>
   <trkpt lat="46.482312" lon="8.807088"><ele>972.5</ele></trkpt>
   <trkpt lat="46.482274" lon="8.806857"><ele>972</ele></trkpt>
   <trkpt lat="46.48227" lon="8.80671"><ele>972.75</ele></trkpt>
   <trkpt lat="46.482297" lon="8.806565"><ele>973.25</ele></trkpt>
   <trkpt lat="46.482395" lon="8.806263"><ele>974.25</ele></trkpt>
   <trkpt lat="46.482417" lon="8.8062"><ele>974.75</ele></trkpt>
   <trkpt lat="46.482465" lon="8.806034"><ele>975</ele></trkpt>
   <trkpt lat="46.482514" lon="8.805915"><ele>976</ele></trkpt>
   <trkpt lat="46.482627" lon="8.805731"><ele>978.75</ele></trkpt>
   <trkpt lat="46.482655" lon="8.805668"><ele>979.75</ele></trkpt>
   <trkpt lat="46.482681" lon="8.805598"><ele>981</ele></trkpt>
   <trkpt lat="46.48278" lon="8.805226"><ele>984</ele></trkpt>
   <trkpt lat="46.482869" lon="8.804997"><ele>986.5</ele></trkpt>
   <trkpt lat="46.482897" lon="8.804944"><ele>986.5</ele></trkpt>
   <trkpt lat="46.482981" lon="8.804822"><ele>987.25</ele></trkpt>
   <trkpt lat="46.483061" lon="8.804683"><ele>987.75</ele></trkpt>
   <trkpt lat="46.483243" lon="8.804343"><ele>992.5</ele></trkpt>
   <trkpt lat="46.483295" lon="8.804271"><ele>993.25</ele></trkpt>
   <trkpt lat="46.483339" lon="8.80423"><ele>994</ele></trkpt>
   <trkpt lat="46.483556" lon="8.804067"><ele>995.25</ele></trkpt>
   <trkpt lat="46.483682" lon="8.80395"><ele>998</ele></trkpt>
   <trkpt lat="46.483736" lon="8.803885"><ele>999</ele></trkpt>
   <trkpt lat="46.483806" lon="8.803773"><ele>999.5</ele></trkpt>
   <trkpt lat="46.483913" lon="8.803542"><ele>1001.25</ele></trkpt>
   <trkpt lat="46.483947" lon="8.80352"><ele>1002.25</ele></trkpt>
   <trkpt lat="46.483981" lon="8.80353"><ele>1003.25</ele></trkpt>
   <trkpt lat="46.483991" lon="8.803543"><ele>1003.75</ele></trkpt>
   <trkpt lat="46.483997" lon="8.803567"><ele>1004</ele></trkpt>
   <trkpt lat="46.483987" lon="8.803668"><ele>1004.75</ele></trkpt>
   <trkpt lat="46.483882" lon="8.804146"><ele>1005.5</ele></trkpt>
   <trkpt lat="46.483763" lon="8.804634"><ele>1010.5</ele></trkpt>
   <trkpt lat="46.483539" lon="8.805493"><ele>1016.5</ele></trkpt>
   <trkpt lat="46.483523" lon="8.805674"><ele>1017</ele></trkpt>
   <trkpt lat="46.483546" lon="8.80583"><ele>1018.25</ele></trkpt>
   <trkpt lat="46.483561" lon="8.806035"><ele>1019.25</ele></trkpt>
   <trkpt lat="46.483374" lon="8.806706"><ele>1023.25</ele></trkpt>
   <trkpt lat="46.483355" lon="8.806772"><ele>1023</ele></trkpt>
   <trkpt lat="46.483339" lon="8.807017"><ele>1024</ele></trkpt>
   <trkpt lat="46.483413" lon="8.807323"><ele>1026.25</ele></trkpt>
   <trkpt lat="46.483616" lon="8.807674"><ele>1033.25</ele></trkpt>
   <trkpt lat="46.483659" lon="8.807802"><ele>1035.25</ele></trkpt>
   <trkpt lat="46.483677" lon="8.807922"><ele>1036.75</ele></trkpt>
   <trkpt lat="46.483664" lon="8.807994"><ele>1036.5</ele></trkpt>
   <trkpt lat="46.483621" lon="8.808047"><ele>1035.25</ele></trkpt>
   <trkpt lat="46.48347" lon="8.808163"><ele>1035</ele></trkpt>
   <trkpt lat="46.483405" lon="8.808247"><ele>1035</ele></trkpt>
   <trkpt lat="46.4834" lon="8.808324"><ele>1036.5</ele></trkpt>
   <trkpt lat="46.483422" lon="8.808439"><ele>1036.5</ele></trkpt>
   <trkpt lat="46.483505" lon="8.808672"><ele>1039.75</ele></trkpt>
   <trkpt lat="46.483532" lon="8.808859"><ele>1038.5</ele></trkpt>
   <trkpt lat="46.483558" lon="8.808962"><ele>1038.75</ele></trkpt>
   <trkpt lat="46.483594" lon="8.808989"><ele>1041.25</ele></trkpt>
   <trkpt lat="46.483634" lon="8.808988"><ele>1044.25</ele></trkpt>
   <trkpt lat="46.483662" lon="8.808955"><ele>1046.75</ele></trkpt>
   <trkpt lat="46.483666" lon="8.808879"><ele>1048.5</ele></trkpt>
   <trkpt lat="46.483592" lon="8.808611"><ele>1047.5</ele></trkpt>
   <trkpt lat="46.483576" lon="8.808478"><ele>1045.25</ele></trkpt>
   <trkpt lat="46.483602" lon="8.808394"><ele>1046</ele></trkpt>
   <trkpt lat="46.483665" lon="8.808341"><ele>1047.5</ele></trkpt>
   <trkpt lat="46.483949" lon="8.808298"><ele>1055</ele></trkpt>
   <trkpt lat="46.48402" lon="8.80823"><ele>1056.75</ele></trkpt>
   <trkpt lat="46.484038" lon="8.808144"><ele>1056.5</ele></trkpt>
   <trkpt lat="46.484033" lon="8.808054"><ele>1055.25</ele></trkpt>
   <trkpt lat="46.483977" lon="8.807612"><ele>1059.25</ele></trkpt>
   <trkpt lat="46.483975" lon="8.807472"><ele>1060.5</ele></trkpt>
   <trkpt lat="46.484387" lon="8.805728"><ele>1073</ele></trkpt>
   <trkpt lat="46.484408" lon="8.805657"><ele>1073.5</ele></trkpt>
   <trkpt lat="46.484481" lon="8.805484"><ele>1075.25</ele></trkpt>
   <trkpt lat="46.484721" lon="8.805031"><ele>1080</ele></trkpt>
   <trkpt lat="46.484864" lon="8.804682"><ele>1081.5</ele></trkpt>
   <trkpt lat="46.484995" lon="8.804283"><ele>1085.5</ele></trkpt>
   <trkpt lat="46.485078" lon="8.804078"><ele>1083.75</ele></trkpt>
   <trkpt lat="46.485119" lon="8.804068"><ele>1084.5</ele></trkpt>
   <trkpt lat="46.485167" lon="8.804107"><ele>1087.5</ele></trkpt>
   <trkpt lat="46.485185" lon="8.804177"><ele>1091</ele></trkpt>
   <trkpt lat="46.485182" lon="8.804287"><ele>1091.75</ele></trkpt>
   <trkpt lat="46.485155" lon="8.804535"><ele>1092.25</ele></trkpt>
   <trkpt lat="46.485165" lon="8.804733"><ele>1093.75</ele></trkpt>
   <trkpt lat="46.485263" lon="8.805238"><ele>1097.25</ele></trkpt>
   <trkpt lat="46.485301" lon="8.805496"><ele>1099.5</ele></trkpt>
   <trkpt lat="46.485303" lon="8.805756"><ele>1101.25</ele></trkpt>
   <trkpt lat="46.485296" lon="8.805878"><ele>1102</ele></trkpt>
   <trkpt lat="46.485289" lon="8.805988"><ele>1103</ele></trkpt>
   <trkpt lat="46.485257" lon="8.806531"><ele>1107.25</ele></trkpt>
   <trkpt lat="46.485232" lon="8.806699"><ele>1108.75</ele></trkpt>
   <trkpt lat="46.485144" lon="8.807017"><ele>1111.25</ele></trkpt>
   <trkpt lat="46.485076" lon="8.807311"><ele>1112.75</ele></trkpt>
   <trkpt lat="46.485079" lon="8.807395"><ele>1113.75</ele></trkpt>
   <trkpt lat="46.485121" lon="8.807453"><ele>1115.5</ele></trkpt>
   <trkpt lat="46.485175" lon="8.807458"><ele>1116.75</ele></trkpt>
   <trkpt lat="46.485222" lon="8.807405"><ele>1117.5</ele></trkpt>
   <trkpt lat="46.485326" lon="8.807116"><ele>1117.5</ele></trkpt>
   <trkpt lat="46.485424" lon="8.806933"><ele>1118.5</ele></trkpt>
   <trkpt lat="46.485928" lon="8.806312"><ele>1125.25</ele></trkpt>
   <trkpt lat="46.486012" lon="8.806184"><ele>1126.5</ele></trkpt>
   <trkpt lat="46.486085" lon="8.806029"><ele>1128.5</ele></trkpt>
   <trkpt lat="46.486318" lon="8.805252"><ele>1133.75</ele></trkpt>
   <trkpt lat="46.486337" lon="8.80519"><ele>1134</ele></trkpt>
   <trkpt lat="46.486427" lon="8.804995"><ele>1135.5</ele></trkpt>
   <trkpt lat="46.486488" lon="8.804916"><ele>1135.75</ele></trkpt>
   <trkpt lat="46.486533" lon="8.804892"><ele>1136.25</ele></trkpt>
   <trkpt lat="46.486606" lon="8.804925"><ele>1138.25</ele></trkpt>
   <trkpt lat="46.486632" lon="8.80499"><ele>1139.25</ele></trkpt>
   <trkpt lat="46.486577" lon="8.805335"><ele>1140</ele></trkpt>
   <trkpt lat="46.486574" lon="8.805419"><ele>1140.25</ele></trkpt>
   <trkpt lat="46.486623" lon="8.805651"><ele>1142</ele></trkpt>
   <trkpt lat="46.486625" lon="8.805757"><ele>1142.5</ele></trkpt>
   <trkpt lat="46.48662" lon="8.805842"><ele>1142.75</ele></trkpt>
   <trkpt lat="46.486569" lon="8.806623"><ele>1148.75</ele></trkpt>
   <trkpt lat="46.486435" lon="8.807149"><ele>1153.75</ele></trkpt>
   <trkpt lat="46.486407" lon="8.807259"><ele>1154.25</ele></trkpt>
   <trkpt lat="46.486216" lon="8.807854"><ele>1159</ele></trkpt>
   <trkpt lat="46.48594" lon="8.808469"><ele>1162.5</ele></trkpt>
   <trkpt lat="46.485802" lon="8.808729"><ele>1163.25</ele></trkpt>
   <trkpt lat="46.485797" lon="8.80878"><ele>1164.5</ele></trkpt>
   <trkpt lat="46.485812" lon="8.808827"><ele>1166.25</ele></trkpt>
   <trkpt lat="46.485836" lon="8.808853"><ele>1168</ele></trkpt>
   <trkpt lat="46.48587" lon="8.808859"><ele>1169.75</ele></trkpt>
   <trkpt lat="46.485892" lon="8.808839"><ele>1170</ele></trkpt>
   <trkpt lat="46.486065" lon="8.808501"><ele>1170.75</ele></trkpt>
   <trkpt lat="46.486405" lon="8.808042"><ele>1173.75</ele></trkpt>
   <trkpt lat="46.48673" lon="8.807441"><ele>1179.25</ele></trkpt>
   <trkpt lat="46.487081" lon="8.806883"><ele>1183.25</ele></trkpt>
   <trkpt lat="46.487587" lon="8.806218"><ele>1188.75</ele></trkpt>
   <trkpt lat="46.487782" lon="8.80581"><ele>1190.75</ele></trkpt>
   <trkpt lat="46.487903" lon="8.805302"><ele>1191.25</ele></trkpt>
   <trkpt lat="46.487942" lon="8.805188"><ele>1191.25</ele></trkpt>
   <trkpt lat="46.488009" lon="8.80505"><ele>1192.25</ele></trkpt>
   <trkpt lat="46.488037" lon="8.805012"><ele>1193</ele></trkpt>
   <trkpt lat="46.488103" lon="8.804971"><ele>1193.5</ele></trkpt>
   <trkpt lat="46.488156" lon="8.804964"><ele>1194</ele></trkpt>
   <trkpt lat="46.488247" lon="8.804983"><ele>1196</ele></trkpt>
   <trkpt lat="46.488311" lon="8.804987"><ele>1197.25</ele></trkpt>
   <trkpt lat="46.488397" lon="8.804958"><ele>1198.75</ele></trkpt>
   <trkpt lat="46.488495" lon="8.804891"><ele>1200.25</ele></trkpt>
   <trkpt lat="46.488565" lon="8.804829"><ele>1201</ele></trkpt>
   <trkpt lat="46.488607" lon="8.804762"><ele>1200.75</ele></trkpt>
   <trkpt lat="46.488718" lon="8.804448"><ele>1199.5</ele></trkpt>
   <trkpt lat="46.48874" lon="8.804407"><ele>1199.25</ele></trkpt>
   <trkpt lat="46.488767" lon="8.804387"><ele>1199.75</ele></trkpt>
   <trkpt lat="46.488798" lon="8.804401"><ele>1201</ele></trkpt>
   <trkpt lat="46.488816" lon="8.804424"><ele>1202</ele></trkpt>
   <trkpt lat="46.488837" lon="8.804476"><ele>1204</ele></trkpt>
   <trkpt lat="46.488831" lon="8.804531"><ele>1205.25</ele></trkpt>
   <trkpt lat="46.488753" lon="8.804709"><ele>1206.25</ele></trkpt>
   <trkpt lat="46.488673" lon="8.804969"><ele>1208.75</ele></trkpt>
   <trkpt lat="46.488642" lon="8.80504"><ele>1209.75</ele></trkpt>
   <trkpt lat="46.488619" lon="8.805075"><ele>1210</ele></trkpt>
   <trkpt lat="46.488567" lon="8.80513"><ele>1210.5</ele></trkpt>
   <trkpt lat="46.488338" lon="8.805304"><ele>1212.75</ele></trkpt>
   <trkpt lat="46.488292" lon="8.805354"><ele>1212.75</ele></trkpt>
   <trkpt lat="46.48826" lon="8.805404"><ele>1213</ele></trkpt>
   <trkpt lat="46.488214" lon="8.805538"><ele>1214.75</ele></trkpt>
   <trkpt lat="46.488193" lon="8.805675"><ele>1215.25</ele></trkpt>
   <trkpt lat="46.488196" lon="8.806107"><ele>1221</ele></trkpt>
   <trkpt lat="46.488189" lon="8.806203"><ele>1221.75</ele></trkpt>
   <trkpt lat="46.488175" lon="8.806281"><ele>1222</ele></trkpt>
   <trkpt lat="46.488158" lon="8.806336"><ele>1222</ele></trkpt>
   <trkpt lat="46.488134" lon="8.806383"><ele>1221.75</ele></trkpt>
   <trkpt lat="46.487827" lon="8.806864"><ele>1226</ele></trkpt>
   <trkpt lat="46.487658" lon="8.807163"><ele>1229.25</ele></trkpt>
   <trkpt lat="46.487408" lon="8.807645"><ele>1233.25</ele></trkpt>
   <trkpt lat="46.487363" lon="8.807746"><ele>1233.75</ele></trkpt>
   <trkpt lat="46.487318" lon="8.807863"><ele>1234.75</ele></trkpt>
   <trkpt lat="46.487206" lon="8.8082"><ele>1237.25</ele></trkpt>
   <trkpt lat="46.487181" lon="8.808293"><ele>1238</ele></trkpt>
   <trkpt lat="46.48717" lon="8.80835"><ele>1238.75</ele></trkpt>
   <trkpt lat="46.487156" lon="8.808502"><ele>1241.25</ele></trkpt>
   <trkpt lat="46.487135" lon="8.808608"><ele>1242</ele></trkpt>
   <trkpt lat="46.486864" lon="8.809275"><ele>1246.5</ele></trkpt>
   <trkpt lat="46.486388" lon="8.810376"><ele>1256.5</ele></trkpt>
   <trkpt lat="46.48635" lon="8.810487"><ele>1256</ele></trkpt>
   <trkpt lat="46.486173" lon="8.811142"><ele>1261</ele></trkpt>
   <trkpt lat="46.486156" lon="8.811246"><ele>1262</ele></trkpt>
   <trkpt lat="46.486147" lon="8.811345"><ele>1263.25</ele></trkpt>
   <trkpt lat="46.486156" lon="8.811857"><ele>1268.75</ele></trkpt>
   <trkpt lat="46.486148" lon="8.81194"><ele>1269</ele></trkpt>
   <trkpt lat="46.486093" lon="8.812304"><ele>1269</ele></trkpt>
   <trkpt lat="46.486092" lon="8.812568"><ele>1272.25</ele></trkpt>
   <trkpt lat="46.486105" lon="8.813616"><ele>1279.75</ele></trkpt>
   <trkpt lat="46.486119" lon="8.813773"><ele>1281.5</ele></trkpt>
   <trkpt lat="46.486191" lon="8.814229"><ele>1285.25</ele></trkpt>
   <trkpt lat="46.486201" lon="8.814346"><ele>1286</ele></trkpt>
   <trkpt lat="46.486204" lon="8.814474"><ele>1286.75</ele></trkpt>
   <trkpt lat="46.486194" lon="8.814693"><ele>1288</ele></trkpt>
   <trkpt lat="46.486097" lon="8.815302"><ele>1293.25</ele></trkpt>
   <trkpt lat="46.486076" lon="8.815399"><ele>1293.25</ele></trkpt>
   <trkpt lat="46.486001" lon="8.815646"><ele>1292.75</ele></trkpt>
   <trkpt lat="46.486" lon="8.815714"><ele>1294.25</ele></trkpt>
   <trkpt lat="46.486023" lon="8.815751"><ele>1296.5</ele></trkpt>
   <trkpt lat="46.486052" lon="8.81576"><ele>1298.5</ele></trkpt>
   <trkpt lat="46.486072" lon="8.815754"><ele>1299.5</ele></trkpt>
   <trkpt lat="46.486089" lon="8.815736"><ele>1300</ele></trkpt>
   <trkpt lat="46.486372" lon="8.815133"><ele>1303.5</ele></trkpt>
   <trkpt lat="46.486398" lon="8.815063"><ele>1304.25</ele></trkpt>
   <trkpt lat="46.486663" lon="8.813879"><ele>1311.5</ele></trkpt>
   <trkpt lat="46.486849" lon="8.81271"><ele>1316.25</ele></trkpt>
   <trkpt lat="46.486873" lon="8.812606"><ele>1317</ele></trkpt>
   <trkpt lat="46.486949" lon="8.812374"><ele>1319</ele></trkpt>
   <trkpt lat="46.48713" lon="8.81193"><ele>1321.25</ele></trkpt>
   <trkpt lat="46.487249" lon="8.811671"><ele>1325.5</ele></trkpt>
   <trkpt lat="46.487273" lon="8.811635"><ele>1325.5</ele></trkpt>
   <trkpt lat="46.487291" lon="8.811621"><ele>1325.5</ele></trkpt>
   <trkpt lat="46.487336" lon="8.811632"><ele>1327</ele></trkpt>
   <trkpt lat="46.487356" lon="8.811652"><ele>1328</ele></trkpt>
   <trkpt lat="46.487373" lon="8.811705"><ele>1328.75</ele></trkpt>
   <trkpt lat="46.487373" lon="8.811744"><ele>1329</ele></trkpt>
   <trkpt lat="46.487315" lon="8.811954"><ele>1328</ele></trkpt>
   <trkpt lat="46.487273" lon="8.812164"><ele>1328.25</ele></trkpt>
   <trkpt lat="46.487261" lon="8.812285"><ele>1328.5</ele></trkpt>
   <trkpt lat="46.487205" lon="8.81329"><ele>1336.5</ele></trkpt>
   <trkpt lat="46.487183" lon="8.813478"><ele>1338</ele></trkpt>
   <trkpt lat="46.487052" lon="8.814034"><ele>1339.75</ele></trkpt>
   <trkpt lat="46.487022" lon="8.814221"><ele>1340.75</ele></trkpt>
   <trkpt lat="46.487003" lon="8.814442"><ele>1342.75</ele></trkpt>
   <trkpt lat="46.486997" lon="8.81462"><ele>1344</ele></trkpt>
   <trkpt lat="46.486996" lon="8.814999"><ele>1347.75</ele></trkpt>
   <trkpt lat="46.486984" lon="8.815198"><ele>1348</ele></trkpt>
   <trkpt lat="46.486821" lon="8.816871"><ele>1359</ele></trkpt>
   <trkpt lat="46.486773" lon="8.817118"><ele>1359.5</ele></trkpt>
   <trkpt lat="46.486661" lon="8.817584"><ele>1360.25</ele></trkpt>
   <trkpt lat="46.486631" lon="8.817751"><ele>1359.75</ele></trkpt>
   <trkpt lat="46.486609" lon="8.817928"><ele>1358.75</ele></trkpt>
   <trkpt lat="46.486593" lon="8.818105"><ele>1357</ele></trkpt>
   <trkpt lat="46.486594" lon="8.818153"><ele>1356.5</ele></trkpt>
   <trkpt lat="46.486619" lon="8.818362"><ele>1356</ele></trkpt>
   <trkpt lat="46.486619" lon="8.818405"><ele>1355.5</ele></trkpt>
   <trkpt lat="46.48657" lon="8.818808"><ele>1351.5</ele></trkpt>
   <trkpt lat="46.486562" lon="8.818908"><ele>1350.75</ele></trkpt>
   <trkpt lat="46.486561" lon="8.819023"><ele>1349.75</ele></trkpt>
   <trkpt lat="46.486563" lon="8.819066"><ele>1349.5</ele></trkpt>
   <trkpt lat="46.48663" lon="8.819581"><ele>1352.5</ele></trkpt>
   <trkpt lat="46.48666" lon="8.820119"><ele>1354</ele></trkpt>
   <trkpt lat="46.486677" lon="8.820251"><ele>1354.5</ele></trkpt>
   <trkpt lat="46.486702" lon="8.820333"><ele>1354</ele></trkpt>
   <trkpt lat="46.486742" lon="8.820413"><ele>1353.25</ele></trkpt>
   <trkpt lat="46.486814" lon="8.820506"><ele>1353.5</ele></trkpt>
   <trkpt lat="46.486896" lon="8.820593"><ele>1353.75</ele></trkpt>
   <trkpt lat="46.48704" lon="8.820754"><ele>1356.5</ele></trkpt>
   <trkpt lat="46.487236" lon="8.821091"><ele>1355</ele></trkpt>
   <trkpt lat="46.487323" lon="8.821286"><ele>1356.25</ele></trkpt>
   <trkpt lat="46.487448" lon="8.821695"><ele>1354.5</ele></trkpt>
   <trkpt lat="46.487525" lon="8.821876"><ele>1354.75</ele></trkpt>
   <trkpt lat="46.487561" lon="8.821937"><ele>1355.25</ele></trkpt>
   <trkpt lat="46.487702" lon="8.822139"><ele>1356</ele></trkpt>
   <trkpt lat="46.487757" lon="8.822264"><ele>1355</ele></trkpt>
   <trkpt lat="46.487802" lon="8.822348"><ele>1355</ele></trkpt>
   <trkpt lat="46.487894" lon="8.822458"><ele>1357.25</ele></trkpt>
   <trkpt lat="46.487974" lon="8.822571"><ele>1357.5</ele></trkpt>
   <trkpt lat="46.488132" lon="8.822767"><ele>1359.25</ele></trkpt>
   <trkpt lat="46.488168" lon="8.822823"><ele>1359.25</ele></trkpt>
   <trkpt lat="46.488223" lon="8.822943"><ele>1358.25</ele></trkpt>
   <trkpt lat="46.488247" lon="8.82303"><ele>1358.25</ele></trkpt>
   <trkpt lat="46.488262" lon="8.823122"><ele>1358.25</ele></trkpt>
   <trkpt lat="46.488278" lon="8.823294"><ele>1358.5</ele></trkpt>
   <trkpt lat="46.488264" lon="8.823377"><ele>1358.5</ele></trkpt>
   <trkpt lat="46.488248" lon="8.823417"><ele>1359.5</ele></trkpt>
   <trkpt lat="46.488194" lon="8.823488"><ele>1361.25</ele></trkpt>
   <trkpt lat="46.488168" lon="8.823504"><ele>1361.25</ele></trkpt>
   <trkpt lat="46.487985" lon="8.823567"><ele>1361.5</ele></trkpt>
   <trkpt lat="46.487689" lon="8.823585"><ele>1362.5</ele></trkpt>
   <trkpt lat="46.487584" lon="8.823604"><ele>1364</ele></trkpt>
   <trkpt lat="46.487427" lon="8.823666"><ele>1365.5</ele></trkpt>
   <trkpt lat="46.487363" lon="8.8237"><ele>1365.5</ele></trkpt>
   <trkpt lat="46.48732" lon="8.823732"><ele>1365.75</ele></trkpt>
   <trkpt lat="46.487237" lon="8.823825"><ele>1367</ele></trkpt>
   <trkpt lat="46.487201" lon="8.823917"><ele>1367.75</ele></trkpt>
   <trkpt lat="46.487189" lon="8.823977"><ele>1368</ele></trkpt>
   <trkpt lat="46.487171" lon="8.824398"><ele>1371.75</ele></trkpt>
   <trkpt lat="46.48716" lon="8.824496"><ele>1373</ele></trkpt>
   <trkpt lat="46.487109" lon="8.824743"><ele>1376.25</ele></trkpt>
   <trkpt lat="46.487039" lon="8.825036"><ele>1377.75</ele></trkpt>
   <trkpt lat="46.486954" lon="8.825382"><ele>1381</ele></trkpt>
   <trkpt lat="46.486923" lon="8.825478"><ele>1381.75</ele></trkpt>
   <trkpt lat="46.486856" lon="8.825628"><ele>1383</ele></trkpt>
   <trkpt lat="46.486776" lon="8.825778"><ele>1384.5</ele></trkpt>
   <trkpt lat="46.486681" lon="8.825926"><ele>1386</ele></trkpt>
   <trkpt lat="46.486631" lon="8.825984"><ele>1386.5</ele></trkpt>
   <trkpt lat="46.486365" lon="8.826265"><ele>1390</ele></trkpt>
   <trkpt lat="46.486279" lon="8.826338"><ele>1391.5</ele></trkpt>
   <trkpt lat="46.486194" lon="8.826384"><ele>1392.25</ele></trkpt>
   <trkpt lat="46.485709" lon="8.826531"><ele>1396.75</ele></trkpt>
   <trkpt lat="46.48524" lon="8.826713"><ele>1403.25</ele></trkpt>
   <trkpt lat="46.485172" lon="8.826724"><ele>1404.5</ele></trkpt>
   <trkpt lat="46.485074" lon="8.826718"><ele>1405.5</ele></trkpt>
   <trkpt lat="46.484822" lon="8.826664"><ele>1407</ele></trkpt>
   <trkpt lat="46.484784" lon="8.826667"><ele>1407.75</ele></trkpt>
   <trkpt lat="46.484737" lon="8.82669"><ele>1409</ele></trkpt>
   <trkpt lat="46.484688" lon="8.826756"><ele>1409</ele></trkpt>
   <trkpt lat="46.484456" lon="8.827171"><ele>1409.5</ele></trkpt>
   <trkpt lat="46.484442" lon="8.82723"><ele>1409.75</ele></trkpt>
   <trkpt lat="46.484448" lon="8.827275"><ele>1410.25</ele></trkpt>
   <trkpt lat="46.484462" lon="8.827295"><ele>1410.75</ele></trkpt>
   <trkpt lat="46.484481" lon="8.827307"><ele>1411.25</ele></trkpt>
   <trkpt lat="46.484502" lon="8.827307"><ele>1412</ele></trkpt>
   <trkpt lat="46.484533" lon="8.827288"><ele>1412.75</ele></trkpt>
   <trkpt lat="46.484704" lon="8.827015"><ele>1412.75</ele></trkpt>
   <trkpt lat="46.484765" lon="8.826941"><ele>1412.5</ele></trkpt>
   <trkpt lat="46.484835" lon="8.826894"><ele>1412.5</ele></trkpt>
   <trkpt lat="46.484867" lon="8.826887"><ele>1412.75</ele></trkpt>
   <trkpt lat="46.484911" lon="8.826888"><ele>1413.25</ele></trkpt>
   <trkpt lat="46.484951" lon="8.826904"><ele>1414.25</ele></trkpt>
   <trkpt lat="46.485053" lon="8.826964"><ele>1416.5</ele></trkpt>
   <trkpt lat="46.485198" lon="8.827066"><ele>1418.75</ele></trkpt>
   <trkpt lat="46.485267" lon="8.827093"><ele>1419.5</ele></trkpt>
   <trkpt lat="46.485371" lon="8.827102"><ele>1421.25</ele></trkpt>
   <trkpt lat="46.485532" lon="8.827057"><ele>1421.75</ele></trkpt>
   <trkpt lat="46.485578" lon="8.82705"><ele>1421.75</ele></trkpt>
   <trkpt lat="46.485698" lon="8.827053"><ele>1421.5</ele></trkpt>
   <trkpt lat="46.485844" lon="8.827087"><ele>1422.5</ele></trkpt>
   <trkpt lat="46.486253" lon="8.82724"><ele>1426.75</ele></trkpt>
   <trkpt lat="46.486454" lon="8.827264"><ele>1428.5</ele></trkpt>
   <trkpt lat="46.486655" lon="8.827227"><ele>1430</ele></trkpt>
   <trkpt lat="46.486813" lon="8.827159"><ele>1430.25</ele></trkpt>
   <trkpt lat="46.487028" lon="8.827025"><ele>1432.25</ele></trkpt>
   <trkpt lat="46.487424" lon="8.826634"><ele>1434.75</ele></trkpt>
   <trkpt lat="46.487557" lon="8.826485"><ele>1434.5</ele></trkpt>
   <trkpt lat="46.487905" lon="8.825993"><ele>1439</ele></trkpt>
   <trkpt lat="46.488026" lon="8.825864"><ele>1440.5</ele></trkpt>
   <trkpt lat="46.48836" lon="8.82555"><ele>1443</ele></trkpt>
   <trkpt lat="46.488521" lon="8.825433"><ele>1443</ele></trkpt>
   <trkpt lat="46.488644" lon="8.825377"><ele>1444</ele></trkpt>
   <trkpt lat="46.489299" lon="8.825158"><ele>1449.25</ele></trkpt>
   <trkpt lat="46.48936" lon="8.825145"><ele>1450</ele></trkpt>
   <trkpt lat="46.489395" lon="8.825146"><ele>1450.25</ele></trkpt>
   <trkpt lat="46.489459" lon="8.82517"><ele>1451</ele></trkpt>
   <trkpt lat="46.489521" lon="8.825231"><ele>1452</ele></trkpt>
   <trkpt lat="46.489546" lon="8.825269"><ele>1452.25</ele></trkpt>
   <trkpt lat="46.48958" lon="8.825376"><ele>1453.25</ele></trkpt>
   <trkpt lat="46.489589" lon="8.825483"><ele>1454</ele></trkpt>
   <trkpt lat="46.489586" lon="8.825543"><ele>1454.25</ele></trkpt>
   <trkpt lat="46.489575" lon="8.82559"><ele>1454.75</ele></trkpt>
   <trkpt lat="46.48917" lon="8.826643"><ele>1460.5</ele></trkpt>
   <trkpt lat="46.489067" lon="8.826875"><ele>1464.25</ele></trkpt>
   <trkpt lat="46.488995" lon="8.826978"><ele>1465.5</ele></trkpt>
   <trkpt lat="46.488904" lon="8.827063"><ele>1465.75</ele></trkpt>
   <trkpt lat="46.488536" lon="8.827283"><ele>1469.5</ele></trkpt>
   <trkpt lat="46.488399" lon="8.82739"><ele>1471.25</ele></trkpt>
   <trkpt lat="46.488279" lon="8.827519"><ele>1471.75</ele></trkpt>
   <trkpt lat="46.487876" lon="8.827986"><ele>1475</ele></trkpt>
   <trkpt lat="46.487723" lon="8.828164"><ele>1478.25</ele></trkpt>
   <trkpt lat="46.487683" lon="8.828199"><ele>1479.25</ele></trkpt>
   <trkpt lat="46.487642" lon="8.828223"><ele>1479.75</ele></trkpt>
   <trkpt lat="46.487542" lon="8.828251"><ele>1480.25</ele></trkpt>
   <trkpt lat="46.487379" lon="8.828275"><ele>1480.25</ele></trkpt>
   <trkpt lat="46.487172" lon="8.828358"><ele>1482.5</ele></trkpt>
   <trkpt lat="46.48688" lon="8.828506"><ele>1485.75</ele></trkpt>
   <trkpt lat="46.486717" lon="8.828577"><ele>1486.75</ele></trkpt>
   <trkpt lat="46.486658" lon="8.828621"><ele>1487</ele></trkpt>
   <trkpt lat="46.486641" lon="8.828648"><ele>1487.25</ele></trkpt>
   <trkpt lat="46.486597" lon="8.828738"><ele>1488</ele></trkpt>
   <trkpt lat="46.486572" lon="8.828813"><ele>1488.75</ele></trkpt>
   <trkpt lat="46.486556" lon="8.828894"><ele>1489.75</ele></trkpt>
   <trkpt lat="46.486535" lon="8.829071"><ele>1490.75</ele></trkpt>
   <trkpt lat="46.48654" lon="8.82918"><ele>1491.75</ele></trkpt>
   <trkpt lat="46.486557" lon="8.829257"><ele>1492.25</ele></trkpt>
   <trkpt lat="46.486584" lon="8.829313"><ele>1493</ele></trkpt>
   <trkpt lat="46.486626" lon="8.829339"><ele>1493.75</ele></trkpt>
   <trkpt lat="46.486683" lon="8.829339"><ele>1494.75</ele></trkpt>
   <trkpt lat="46.487065" lon="8.829211"><ele>1499.25</ele></trkpt>
   <trkpt lat="46.487134" lon="8.82918"><ele>1499.75</ele></trkpt>
   <trkpt lat="46.487199" lon="8.829137"><ele>1500.25</ele></trkpt>
   <trkpt lat="46.487486" lon="8.828906"><ele>1503.75</ele></trkpt>
   <trkpt lat="46.487581" lon="8.828851"><ele>1503.25</ele></trkpt>
   <trkpt lat="46.487622" lon="8.828845"><ele>1503.25</ele></trkpt>
   <trkpt lat="46.487694" lon="8.82886"><ele>1504.25</ele></trkpt>
   <trkpt lat="46.487778" lon="8.828922"><ele>1506.5</ele></trkpt>
   <trkpt lat="46.487989" lon="8.829117"><ele>1509</ele></trkpt>
   <trkpt lat="46.488047" lon="8.829157"><ele>1510.5</ele></trkpt>
   <trkpt lat="46.488169" lon="8.82922"><ele>1513.25</ele></trkpt>
   <trkpt lat="46.488219" lon="8.829231"><ele>1514</ele></trkpt>
   <trkpt lat="46.488256" lon="8.82923"><ele>1514</ele></trkpt>
   <trkpt lat="46.488399" lon="8.829203"><ele>1514.75</ele></trkpt>
   <trkpt lat="46.488523" lon="8.829156"><ele>1515.5</ele></trkpt>
   <trkpt lat="46.488618" lon="8.82909"><ele>1515.25</ele></trkpt>
   <trkpt lat="46.489004" lon="8.828725"><ele>1520</ele></trkpt>
   <trkpt lat="46.489159" lon="8.828561"><ele>1521.25</ele></trkpt>
   <trkpt lat="46.489394" lon="8.828238"><ele>1522.5</ele></trkpt>
   <trkpt lat="46.48945" lon="8.828175"><ele>1523.75</ele></trkpt>
   <trkpt lat="46.489505" lon="8.828133"><ele>1524.5</ele></trkpt>
   <trkpt lat="46.490072" lon="8.827859"><ele>1532.25</ele></trkpt>
   <trkpt lat="46.490193" lon="8.827774"><ele>1534.5</ele></trkpt>
   <trkpt lat="46.490397" lon="8.827561"><ele>1535</ele></trkpt>
   <trkpt lat="46.490572" lon="8.827396"><ele>1538.5</ele></trkpt>
   <trkpt lat="46.490704" lon="8.827316"><ele>1540.25</ele></trkpt>
   <trkpt lat="46.490843" lon="8.827216"><ele>1541</ele></trkpt>
   <trkpt lat="46.49091" lon="8.827147"><ele>1542</ele></trkpt>
   <trkpt lat="46.491088" lon="8.826939"><ele>1545.5</ele></trkpt>
   <trkpt lat="46.491163" lon="8.826871"><ele>1547</ele></trkpt>
   <trkpt lat="46.491297" lon="8.826795"><ele>1548.75</ele></trkpt>
   <trkpt lat="46.491635" lon="8.82665"><ele>1551.75</ele></trkpt>
   <trkpt lat="46.491675" lon="8.826631"><ele>1552.25</ele></trkpt>
   <trkpt lat="46.49189" lon="8.826421"><ele>1555.75</ele></trkpt>
   <trkpt lat="46.492085" lon="8.826195"><ele>1557.5</ele></trkpt>
   <trkpt lat="46.492228" lon="8.826088"><ele>1558.5</ele></trkpt>
   <trkpt lat="46.492549" lon="8.825923"><ele>1562.25</ele></trkpt>
   <trkpt lat="46.492652" lon="8.825822"><ele>1564.75</ele></trkpt>
   <trkpt lat="46.492897" lon="8.82548"><ele>1566</ele></trkpt>
   <trkpt lat="46.492975" lon="8.825433"><ele>1567.5</ele></trkpt>
   <trkpt lat="46.493231" lon="8.825437"><ele>1574</ele></trkpt>
   <trkpt lat="46.493387" lon="8.82542"><ele>1576</ele></trkpt>
   <trkpt lat="46.493534" lon="8.825382"><ele>1578.5</ele></trkpt>
   <trkpt lat="46.4936" lon="8.825314"><ele>1577.25</ele></trkpt>
   <trkpt lat="46.493616" lon="8.825279"><ele>1576</ele></trkpt>
   <trkpt lat="46.49363" lon="8.825204"><ele>1577.25</ele></trkpt>
   <trkpt lat="46.493627" lon="8.825128"><ele>1578.25</ele></trkpt>
   <trkpt lat="46.493605" lon="8.825062"><ele>1578.75</ele></trkpt>
   <trkpt lat="46.493511" lon="8.824966"><ele>1577.5</ele></trkpt>
   <trkpt lat="46.493454" lon="8.824863"><ele>1578.25</ele></trkpt>
   <trkpt lat="46.493425" lon="8.82474"><ele>1580.25</ele></trkpt>
   <trkpt lat="46.493427" lon="8.824612"><ele>1581.5</ele></trkpt>
   <trkpt lat="46.493458" lon="8.82411"><ele>1584.75</ele></trkpt>
   <trkpt lat="46.493522" lon="8.823696"><ele>1589.75</ele></trkpt>
   <trkpt lat="46.493602" lon="8.823302"><ele>1592.5</ele></trkpt>
   <trkpt lat="46.493651" lon="8.822837"><ele>1596</ele></trkpt>
   <trkpt lat="46.493658" lon="8.822634"><ele>1598</ele></trkpt>
   <trkpt lat="46.493627" lon="8.822479"><ele>1598.75</ele></trkpt>
   <trkpt lat="46.493546" lon="8.822272"><ele>1601</ele></trkpt>
   <trkpt lat="46.493463" lon="8.822107"><ele>1602.25</ele></trkpt>
   <trkpt lat="46.493441" lon="8.822023"><ele>1602.75</ele></trkpt>
   <trkpt lat="46.49344" lon="8.821909"><ele>1603.75</ele></trkpt>
   <trkpt lat="46.493468" lon="8.821719"><ele>1604.25</ele></trkpt>
   <trkpt lat="46.493528" lon="8.821442"><ele>1611.25</ele></trkpt>
   <trkpt lat="46.493598" lon="8.821121"><ele>1611.25</ele></trkpt>
   <trkpt lat="46.493671" lon="8.820798"><ele>1614</ele></trkpt>
   <trkpt lat="46.493698" lon="8.820617"><ele>1615.25</ele></trkpt>
   <trkpt lat="46.493689" lon="8.820376"><ele>1616.5</ele></trkpt>
   <trkpt lat="46.493655" lon="8.820147"><ele>1618</ele></trkpt>
   <trkpt lat="46.493563" lon="8.819753"><ele>1620.75</ele></trkpt>
   <trkpt lat="46.493531" lon="8.819448"><ele>1623</ele></trkpt>
   <trkpt lat="46.493545" lon="8.818752"><ele>1623</ele></trkpt>
   <trkpt lat="46.493558" lon="8.818396"><ele>1623.75</ele></trkpt>
   <trkpt lat="46.493564" lon="8.818239"><ele>1624.75</ele></trkpt>
   <trkpt lat="46.493515" lon="8.817661"><ele>1628</ele></trkpt>
   <trkpt lat="46.493486" lon="8.8174"><ele>1630.75</ele></trkpt>
   <trkpt lat="46.493467" lon="8.817079"><ele>1633.5</ele></trkpt>
   <trkpt lat="46.493476" lon="8.816937"><ele>1635</ele></trkpt>
   <trkpt lat="46.493504" lon="8.816757"><ele>1636.5</ele></trkpt>
   <trkpt lat="46.493536" lon="8.816637"><ele>1637.5</ele></trkpt>
   <trkpt lat="46.493628" lon="8.816372"><ele>1637.5</ele></trkpt>
   <trkpt lat="46.493736" lon="8.816136"><ele>1640.25</ele></trkpt>
   <trkpt lat="46.493813" lon="8.815997"><ele>1641.5</ele></trkpt>
   <trkpt lat="46.493931" lon="8.815836"><ele>1642.75</ele></trkpt>
   <trkpt lat="46.493975" lon="8.815782"><ele>1644.25</ele></trkpt>
   <trkpt lat="46.493982" lon="8.815734"><ele>1644.75</ele></trkpt>
   <trkpt lat="46.493978" lon="8.815688"><ele>1645.25</ele></trkpt>
   <trkpt lat="46.493964" lon="8.815653"><ele>1645.5</ele></trkpt>
   <trkpt lat="46.493936" lon="8.815622"><ele>1645.75</ele></trkpt>
   <trkpt lat="46.493902" lon="8.815608"><ele>1646</ele></trkpt>
  </trkseg>
 </trk>
</gpx>
