<?xml version="1.0" encoding="UTF-8"?>
<gpx 
 xmlns="http://www.topografix.com/GPX/1/1" 
 xmlns:xsi="http://www.w3.org/2001/XMLSchema-instance" 
 xsi:schemaLocation="http://www.topografix.com/GPX/1/1 http://www.topografix.com/GPX/1/1/gpx.xsd" 
 version="1.1" 
 creator="BRouter-Web 0.18.1">
 <trk>
  <name>Coi (5.79km, trimmed from combined file)</name>
  <trkseg>
   <trkpt lat="46.356644" lon="12.144132"><ele>941.25</ele></trkpt>
   <trkpt lat="46.357117" lon="12.144247"><ele>946.5</ele></trkpt>
   <trkpt lat="46.357251" lon="12.144275"><ele>947.5</ele></trkpt>
   <trkpt lat="46.357316" lon="12.144276"><ele>947.5</ele></trkpt>
   <trkpt lat="46.357387" lon="12.144258"><ele>948</ele></trkpt>
   <trkpt lat="46.357446" lon="12.144205"><ele>948.5</ele></trkpt>
   <trkpt lat="46.357579" lon="12.144031"><ele>950.75</ele></trkpt>
   <trkpt lat="46.357617" lon="12.144"><ele>950.75</ele></trkpt>
   <trkpt lat="46.357666" lon="12.143997"><ele>950.25</ele></trkpt>
   <trkpt lat="46.357787" lon="12.144068"><ele>949.5</ele></trkpt>
   <trkpt lat="46.357812" lon="12.144083"><ele>949.25</ele></trkpt>
   <trkpt lat="46.35782" lon="12.143973"><ele>949.25</ele></trkpt>
   <trkpt lat="46.357848" lon="12.143593"><ele>949.75</ele></trkpt>
   <trkpt lat="46.357885" lon="12.143439"><ele>951.75</ele></trkpt>
   <trkpt lat="46.357951" lon="12.143283"><ele>954.25</ele></trkpt>
   <trkpt lat="46.358041" lon="12.143162"><ele>956.25</ele></trkpt>
   <trkpt lat="46.358349" lon="12.142823"><ele>960.5</ele></trkpt>
   <trkpt lat="46.358846" lon="12.142301"><ele>964</ele></trkpt>
   <trkpt lat="46.359014" lon="12.142215"><ele>965</ele></trkpt>
   <trkpt lat="46.359246" lon="12.142129"><ele>968.75</ele></trkpt>
   <trkpt lat="46.359366" lon="12.142072"><ele>971.25</ele></trkpt>
   <trkpt lat="46.359482" lon="12.141989"><ele>973.75</ele></trkpt>
   <trkpt lat="46.359647" lon="12.141774"><ele>976.75</ele></trkpt>
   <trkpt lat="46.360176" lon="12.140987"><ele>980.5</ele></trkpt>
   <trkpt lat="46.360234" lon="12.140925"><ele>980.5</ele></trkpt>
   <trkpt lat="46.360296" lon="12.140891"><ele>981.25</ele></trkpt>
   <trkpt lat="46.360381" lon="12.140876"><ele>982.25</ele></trkpt>
   <trkpt lat="46.36069" lon="12.140872"><ele>987.75</ele></trkpt>
   <trkpt lat="46.360783" lon="12.140838"><ele>988</ele></trkpt>
   <trkpt lat="46.360875" lon="12.140769"><ele>989.5</ele></trkpt>
   <trkpt lat="46.361082" lon="12.140511"><ele>992.25</ele></trkpt>
   <trkpt lat="46.361217" lon="12.140315"><ele>994.5</ele></trkpt>
   <trkpt lat="46.361375" lon="12.139994"><ele>995.25</ele></trkpt>
   <trkpt lat="46.361457" lon="12.139863"><ele>997</ele></trkpt>
   <trkpt lat="46.36153" lon="12.139784"><ele>998.25</ele></trkpt>
   <trkpt lat="46.361579" lon="12.139759"><ele>999.25</ele></trkpt>
   <trkpt lat="46.36178" lon="12.139724"><ele>1003</ele></trkpt>
   <trkpt lat="46.36189" lon="12.139693"><ele>1003.5</ele></trkpt>
   <trkpt lat="46.362036" lon="12.139602"><ele>1002</ele></trkpt>
   <trkpt lat="46.362127" lon="12.139563"><ele>1002.5</ele></trkpt>
   <trkpt lat="46.362214" lon="12.139554"><ele>1004.5</ele></trkpt>
   <trkpt lat="46.362423" lon="12.139613"><ele>1005.75</ele></trkpt>
   <trkpt lat="46.362606" lon="12.13972"><ele>1011.75</ele></trkpt>
   <trkpt lat="46.362801" lon="12.139772"><ele>1014.25</ele></trkpt>
   <trkpt lat="46.363114" lon="12.139803"><ele>1014.25</ele></trkpt>
   <trkpt lat="46.363379" lon="12.139978"><ele>1016.75</ele></trkpt>
   <trkpt lat="46.36369" lon="12.140117"><ele>1020.25</ele></trkpt>
   <trkpt lat="46.364" lon="12.140112"><ele>1023.5</ele></trkpt>
   <trkpt lat="46.36424" lon="12.140082"><ele>1026.25</ele></trkpt>
   <trkpt lat="46.364566" lon="12.140044"><ele>1026.25</ele></trkpt>
   <trkpt lat="46.36471" lon="12.140039"><ele>1029</ele></trkpt>
   <trkpt lat="46.364803" lon="12.140049"><ele>1029.5</ele></trkpt>
   <trkpt lat="46.364897" lon="12.140077"><ele>1030</ele></trkpt>
   <trkpt lat="46.36526" lon="12.140273"><ele>1033.75</ele></trkpt>
   <trkpt lat="46.365306" lon="12.140329"><ele>1034</ele></trkpt>
   <trkpt lat="46.365342" lon="12.140396"><ele>1034.75</ele></trkpt>
   <trkpt lat="46.365345" lon="12.140489"><ele>1035.75</ele></trkpt>
   <trkpt lat="46.365328" lon="12.140557"><ele>1036.25</ele></trkpt>
   <trkpt lat="46.36528" lon="12.140631"><ele>1036.5</ele></trkpt>
   <trkpt lat="46.365223" lon="12.140673"><ele>1037</ele></trkpt>
   <trkpt lat="46.364854" lon="12.14084"><ele>1040</ele></trkpt>
   <trkpt lat="46.364797" lon="12.14088"><ele>1040.25</ele></trkpt>
   <trkpt lat="46.36476" lon="12.140943"><ele>1041</ele></trkpt>
   <trkpt lat="46.364735" lon="12.141024"><ele>1041.75</ele></trkpt>
   <trkpt lat="46.364731" lon="12.141125"><ele>1042.75</ele></trkpt>
   <trkpt lat="46.364748" lon="12.141206"><ele>1043</ele></trkpt>
   <trkpt lat="46.364781" lon="12.141277"><ele>1043.5</ele></trkpt>
   <trkpt lat="46.364812" lon="12.141328"><ele>1044</ele></trkpt>
   <trkpt lat="46.364863" lon="12.141368"><ele>1044.5</ele></trkpt>
   <trkpt lat="46.364926" lon="12.14139"><ele>1045.25</ele></trkpt>
   <trkpt lat="46.365017" lon="12.141391"><ele>1046</ele></trkpt>
   <trkpt lat="46.365263" lon="12.141313"><ele>1045.75</ele></trkpt>
   <trkpt lat="46.365612" lon="12.141178"><ele>1049.25</ele></trkpt>
   <trkpt lat="46.365992" lon="12.141045"><ele>1053.5</ele></trkpt>
   <trkpt lat="46.36627" lon="12.141011"><ele>1055.25</ele></trkpt>
   <trkpt lat="46.366455" lon="12.14103"><ele>1056.5</ele></trkpt>
   <trkpt lat="46.366933" lon="12.141233"><ele>1063.25</ele></trkpt>
   <trkpt lat="46.367162" lon="12.141233"><ele>1064.25</ele></trkpt>
   <trkpt lat="46.367616" lon="12.141092"><ele>1066.5</ele></trkpt>
   <trkpt lat="46.368036" lon="12.141014"><ele>1071</ele></trkpt>
   <trkpt lat="46.368127" lon="12.141021"><ele>1072.25</ele></trkpt>
   <trkpt lat="46.36831" lon="12.141055"><ele>1075</ele></trkpt>
   <trkpt lat="46.368412" lon="12.141053"><ele>1076.75</ele></trkpt>
   <trkpt lat="46.368504" lon="12.141037"><ele>1078.5</ele></trkpt>
   <trkpt lat="46.368644" lon="12.140941"><ele>1080</ele></trkpt>
   <trkpt lat="46.368892" lon="12.140736"><ele>1084</ele></trkpt>
   <trkpt lat="46.369035" lon="12.140603"><ele>1086.5</ele></trkpt>
   <trkpt lat="46.369159" lon="12.140474"><ele>1088.5</ele></trkpt>
   <trkpt lat="46.369225" lon="12.140367"><ele>1090.5</ele></trkpt>
   <trkpt lat="46.369285" lon="12.140228"><ele>1091.25</ele></trkpt>
   <trkpt lat="46.369333" lon="12.140055"><ele>1091</ele></trkpt>
   <trkpt lat="46.369361" lon="12.139892"><ele>1090.25</ele></trkpt>
   <trkpt lat="46.369399" lon="12.139745"><ele>1090.75</ele></trkpt>
   <trkpt lat="46.369457" lon="12.139626"><ele>1092</ele></trkpt>
   <trkpt lat="46.369512" lon="12.139541"><ele>1092.5</ele></trkpt>
   <trkpt lat="46.369601" lon="12.139454"><ele>1094</ele></trkpt>
   <trkpt lat="46.369705" lon="12.13933"><ele>1095.5</ele></trkpt>
   <trkpt lat="46.369795" lon="12.139193"><ele>1097</ele></trkpt>
   <trkpt lat="46.369871" lon="12.139056"><ele>1097.25</ele></trkpt>
   <trkpt lat="46.369922" lon="12.138989"><ele>1098.75</ele></trkpt>
   <trkpt lat="46.369985" lon="12.138936"><ele>1101.75</ele></trkpt>
   <trkpt lat="46.370225" lon="12.138764"><ele>1104.5</ele></trkpt>
   <trkpt lat="46.370317" lon="12.138676"><ele>1106.5</ele></trkpt>
   <trkpt lat="46.370519" lon="12.138431"><ele>1110.25</ele></trkpt>
   <trkpt lat="46.370662" lon="12.13828"><ele>1112</ele></trkpt>
   <trkpt lat="46.371342" lon="12.137684"><ele>1119.25</ele></trkpt>
   <trkpt lat="46.371413" lon="12.137663"><ele>1120.25</ele></trkpt>
   <trkpt lat="46.371509" lon="12.137664"><ele>1121</ele></trkpt>
   <trkpt lat="46.371642" lon="12.137699"><ele>1123</ele></trkpt>
   <trkpt lat="46.371807" lon="12.137769"><ele>1125</ele></trkpt>
   <trkpt lat="46.372002" lon="12.13788"><ele>1127.5</ele></trkpt>
   <trkpt lat="46.372364" lon="12.13808"><ele>1133.5</ele></trkpt>
   <trkpt lat="46.372408" lon="12.13808"><ele>1133.75</ele></trkpt>
   <trkpt lat="46.372453" lon="12.138062"><ele>1133.75</ele></trkpt>
   <trkpt lat="46.372514" lon="12.138004"><ele>1132.75</ele></trkpt>
   <trkpt lat="46.372542" lon="12.137968"><ele>1132.25</ele></trkpt>
   <trkpt lat="46.372644" lon="12.137808"><ele>1132.25</ele></trkpt>
   <trkpt lat="46.372878" lon="12.137439"><ele>1138.75</ele></trkpt>
   <trkpt lat="46.373147" lon="12.137007"><ele>1141.25</ele></trkpt>
   <trkpt lat="46.373211" lon="12.136864"><ele>1142.25</ele></trkpt>
   <trkpt lat="46.373227" lon="12.136797"><ele>1142.75</ele></trkpt>
   <trkpt lat="46.373332" lon="12.136915"><ele>1144</ele></trkpt>
   <trkpt lat="46.373478" lon="12.137162"><ele>1145.75</ele></trkpt>
   <trkpt lat="46.37354" lon="12.137352"><ele>1146.75</ele></trkpt>
   <trkpt lat="46.373591" lon="12.137821"><ele>1150.25</ele></trkpt>
   <trkpt lat="46.373703" lon="12.137917"><ele>1153</ele></trkpt>
   <trkpt lat="46.373869" lon="12.137995"><ele>1156.25</ele></trkpt>
   <trkpt lat="46.373948" lon="12.137985"><ele>1157.75</ele></trkpt>
   <trkpt lat="46.374011" lon="12.137957"><ele>1159</ele></trkpt>
   <trkpt lat="46.374054" lon="12.137991"><ele>1160</ele></trkpt>
   <trkpt lat="46.374083" lon="12.138043"><ele>1160.5</ele></trkpt>
   <trkpt lat="46.3741" lon="12.13813"><ele>1161.25</ele></trkpt>
   <trkpt lat="46.374089" lon="12.138439"><ele>1163.25</ele></trkpt>
   <trkpt lat="46.374112" lon="12.1385"><ele>1164</ele></trkpt>
   <trkpt lat="46.374166" lon="12.138516"><ele>1165.25</ele></trkpt>
   <trkpt lat="46.374225" lon="12.138491"><ele>1166.25</ele></trkpt>
   <trkpt lat="46.374259" lon="12.138445"><ele>1166.75</ele></trkpt>
   <trkpt lat="46.37436" lon="12.138361"><ele>1169</ele></trkpt>
   <trkpt lat="46.374441" lon="12.138262"><ele>1170.25</ele></trkpt>
   <trkpt lat="46.374537" lon="12.138191"><ele>1171.25</ele></trkpt>
   <trkpt lat="46.374642" lon="12.138189"><ele>1173</ele></trkpt>
   <trkpt lat="46.374669" lon="12.13823"><ele>1173.75</ele></trkpt>
   <trkpt lat="46.374695" lon="12.138465"><ele>1175.5</ele></trkpt>
   <trkpt lat="46.374723" lon="12.138574"><ele>1176.5</ele></trkpt>
   <trkpt lat="46.374768" lon="12.138683"><ele>1177.5</ele></trkpt>
   <trkpt lat="46.374879" lon="12.138881"><ele>1179.25</ele></trkpt>
   <trkpt lat="46.375155" lon="12.139164"><ele>1184.75</ele></trkpt>
   <trkpt lat="46.375456" lon="12.139404"><ele>1191.5</ele></trkpt>
   <trkpt lat="46.375585" lon="12.13962"><ele>1195</ele></trkpt>
   <trkpt lat="46.375649" lon="12.139742"><ele>1196.5</ele></trkpt>
   <trkpt lat="46.375689" lon="12.139877"><ele>1197.25</ele></trkpt>
   <trkpt lat="46.375696" lon="12.140001"><ele>1197.5</ele></trkpt>
   <trkpt lat="46.375721" lon="12.140116"><ele>1198.75</ele></trkpt>
   <trkpt lat="46.375775" lon="12.140159"><ele>1201.25</ele></trkpt>
   <trkpt lat="46.375858" lon="12.140146"><ele>1204</ele></trkpt>
   <trkpt lat="46.375923" lon="12.14012"><ele>1205</ele></trkpt>
   <trkpt lat="46.376026" lon="12.140049"><ele>1206</ele></trkpt>
   <trkpt lat="46.376107" lon="12.139903"><ele>1206.75</ele></trkpt>
   <trkpt lat="46.376144" lon="12.139791"><ele>1207.5</ele></trkpt>
   <trkpt lat="46.376171" lon="12.139664"><ele>1208.25</ele></trkpt>
   <trkpt lat="46.376224" lon="12.139571"><ele>1209.5</ele></trkpt>
   <trkpt lat="46.37627" lon="12.139564"><ele>1210.75</ele></trkpt>
   <trkpt lat="46.376314" lon="12.139595"><ele>1211.5</ele></trkpt>
   <trkpt lat="46.376358" lon="12.139685"><ele>1212.25</ele></trkpt>
   <trkpt lat="46.376451" lon="12.139967"><ele>1214.25</ele></trkpt>
   <trkpt lat="46.376461" lon="12.140054"><ele>1215</ele></trkpt>
   <trkpt lat="46.376463" lon="12.140144"><ele>1216</ele></trkpt>
   <trkpt lat="46.376448" lon="12.140236"><ele>1216.5</ele></trkpt>
   <trkpt lat="46.376351" lon="12.140412"><ele>1216</ele></trkpt>
   <trkpt lat="46.37636" lon="12.140506"><ele>1217</ele></trkpt>
   <trkpt lat="46.376397" lon="12.140561"><ele>1218</ele></trkpt>
   <trkpt lat="46.376704" lon="12.140618"><ele>1224.25</ele></trkpt>
   <trkpt lat="46.377004" lon="12.140697"><ele>1229.25</ele></trkpt>
   <trkpt lat="46.377189" lon="12.140726"><ele>1231.5</ele></trkpt>
   <trkpt lat="46.377398" lon="12.140737"><ele>1233.75</ele></trkpt>
   <trkpt lat="46.377585" lon="12.140726"><ele>1236.25</ele></trkpt>
   <trkpt lat="46.37768" lon="12.140747"><ele>1237.25</ele></trkpt>
   <trkpt lat="46.378016" lon="12.140744"><ele>1242.75</ele></trkpt>
   <trkpt lat="46.378124" lon="12.140685"><ele>1244.5</ele></trkpt>
   <trkpt lat="46.378216" lon="12.140554"><ele>1246.5</ele></trkpt>
   <trkpt lat="46.37832" lon="12.14022"><ele>1249</ele></trkpt>
   <trkpt lat="46.378343" lon="12.140018"><ele>1251</ele></trkpt>
   <trkpt lat="46.378344" lon="12.139775"><ele>1253.5</ele></trkpt>
   <trkpt lat="46.378361" lon="12.139645"><ele>1255.25</ele></trkpt>
   <trkpt lat="46.37838" lon="12.139547"><ele>1256.5</ele></trkpt>
   <trkpt lat="46.37843" lon="12.139469"><ele>1258</ele></trkpt>
   <trkpt lat="46.378511" lon="12.139511"><ele>1258.75</ele></trkpt>
   <trkpt lat="46.378734" lon="12.139577"><ele>1261</ele></trkpt>
   <trkpt lat="46.379055" lon="12.139618"><ele>1266.25</ele></trkpt>
   <trkpt lat="46.379162" lon="12.139603"><ele>1269</ele></trkpt>
   <trkpt lat="46.379209" lon="12.139635"><ele>1269.75</ele></trkpt>
   <trkpt lat="46.379265" lon="12.139697"><ele>1270.25</ele></trkpt>
   <trkpt lat="46.379297" lon="12.139743"><ele>1270.5</ele></trkpt>
   <trkpt lat="46.379318" lon="12.139811"><ele>1270.25</ele></trkpt>
   <trkpt lat="46.379345" lon="12.139863"><ele>1270.5</ele></trkpt>
   <trkpt lat="46.379364" lon="12.139877"><ele>1270.75</ele></trkpt>
   <trkpt lat="46.37945" lon="12.139867"><ele>1272.25</ele></trkpt>
   <trkpt lat="46.379485" lon="12.139808"><ele>1273.5</ele></trkpt>
   <trkpt lat="46.379507" lon="12.139729"><ele>1274.5</ele></trkpt>
   <trkpt lat="46.379517" lon="12.13966"><ele>1275.25</ele></trkpt>
   <trkpt lat="46.37951" lon="12.139071"><ele>1280.5</ele></trkpt>
   <trkpt lat="46.379491" lon="12.138881"><ele>1281.5</ele></trkpt>
   <trkpt lat="46.379485" lon="12.138644"><ele>1282.5</ele></trkpt>
   <trkpt lat="46.379525" lon="12.138445"><ele>1283.75</ele></trkpt>
   <trkpt lat="46.379614" lon="12.138233"><ele>1286</ele></trkpt>
   <trkpt lat="46.379943" lon="12.137657"><ele>1292.75</ele></trkpt>
   <trkpt lat="46.37999" lon="12.137588"><ele>1293.5</ele></trkpt>
   <trkpt lat="46.380046" lon="12.137546"><ele>1294.25</ele></trkpt>
   <trkpt lat="46.380118" lon="12.137515"><ele>1295</ele></trkpt>
   <trkpt lat="46.380185" lon="12.137501"><ele>1295.75</ele></trkpt>
   <trkpt lat="46.380242" lon="12.137501"><ele>1296.5</ele></trkpt>
   <trkpt lat="46.380318" lon="12.137526"><ele>1297.25</ele></trkpt>
   <trkpt lat="46.380387" lon="12.137575"><ele>1298</ele></trkpt>
   <trkpt lat="46.380471" lon="12.13767"><ele>1298.75</ele></trkpt>
   <trkpt lat="46.380516" lon="12.137756"><ele>1299.25</ele></trkpt>
   <trkpt lat="46.380667" lon="12.137991"><ele>1301</ele></trkpt>
   <trkpt lat="46.381035" lon="12.138326"><ele>1304.75</ele></trkpt>
   <trkpt lat="46.381125" lon="12.138496"><ele>1306.25</ele></trkpt>
   <trkpt lat="46.381301" lon="12.138761"><ele>1309.75</ele></trkpt>
   <trkpt lat="46.381326" lon="12.138789"><ele>1310.25</ele></trkpt>
   <trkpt lat="46.381356" lon="12.138797"><ele>1311</ele></trkpt>
   <trkpt lat="46.381378" lon="12.138794"><ele>1311.5</ele></trkpt>
   <trkpt lat="46.381401" lon="12.13877"><ele>1312</ele></trkpt>
   <trkpt lat="46.381647" lon="12.138471"><ele>1316</ele></trkpt>
   <trkpt lat="46.38172" lon="12.138346"><ele>1317</ele></trkpt>
   <trkpt lat="46.381859" lon="12.137991"><ele>1320.25</ele></trkpt>
   <trkpt lat="46.381988" lon="12.137617"><ele>1324.25</ele></trkpt>
   <trkpt lat="46.382054" lon="12.137469"><ele>1326</ele></trkpt>
   <trkpt lat="46.382109" lon="12.137392"><ele>1327.5</ele></trkpt>
   <trkpt lat="46.382161" lon="12.13735"><ele>1328.75</ele></trkpt>
   <trkpt lat="46.382206" lon="12.137327"><ele>1329.75</ele></trkpt>
   <trkpt lat="46.382252" lon="12.137317"><ele>1330.75</ele></trkpt>
   <trkpt lat="46.382297" lon="12.13732"><ele>1331.75</ele></trkpt>
   <trkpt lat="46.382384" lon="12.137392"><ele>1333.25</ele></trkpt>
   <trkpt lat="46.382597" lon="12.137709"><ele>1336.25</ele></trkpt>
   <trkpt lat="46.382751" lon="12.137998"><ele>1339.25</ele></trkpt>
   <trkpt lat="46.3828" lon="12.138118"><ele>1340.75</ele></trkpt>
   <trkpt lat="46.382818" lon="12.138189"><ele>1341.25</ele></trkpt>
   <trkpt lat="46.382824" lon="12.138263"><ele>1341.75</ele></trkpt>
   <trkpt lat="46.382816" lon="12.138688"><ele>1344.25</ele></trkpt>
   <trkpt lat="46.382826" lon="12.138936"><ele>1345.5</ele></trkpt>
   <trkpt lat="46.382861" lon="12.139009"><ele>1346.5</ele></trkpt>
   <trkpt lat="46.382916" lon="12.139023"><ele>1348</ele></trkpt>
   <trkpt lat="46.382942" lon="12.139017"><ele>1348.75</ele></trkpt>
   <trkpt lat="46.38297" lon="12.138992"><ele>1349.5</ele></trkpt>
   <trkpt lat="46.383164" lon="12.138704"><ele>1352.75</ele></trkpt>
   <trkpt lat="46.383351" lon="12.13841"><ele>1355.5</ele></trkpt>
   <trkpt lat="46.383441" lon="12.138289"><ele>1357.25</ele></trkpt>
   <trkpt lat="46.383469" lon="12.138253"><ele>1357.75</ele></trkpt>
   <trkpt lat="46.383513" lon="12.138221"><ele>1358.75</ele></trkpt>
   <trkpt lat="46.38356" lon="12.13821"><ele>1359.75</ele></trkpt>
   <trkpt lat="46.383583" lon="12.138221"><ele>1360.25</ele></trkpt>
   <trkpt lat="46.383605" lon="12.138245"><ele>1360.75</ele></trkpt>
   <trkpt lat="46.383626" lon="12.138305"><ele>1361.25</ele></trkpt>
   <trkpt lat="46.383696" lon="12.138848"><ele>1365.25</ele></trkpt>
   <trkpt lat="46.383725" lon="12.138983"><ele>1365.5</ele></trkpt>
   <trkpt lat="46.383749" lon="12.139065"><ele>1365.75</ele></trkpt>
   <trkpt lat="46.38378" lon="12.139103"><ele>1366.25</ele></trkpt>
   <trkpt lat="46.383841" lon="12.139086"><ele>1367.25</ele></trkpt>
   <trkpt lat="46.383869" lon="12.139051"><ele>1368</ele></trkpt>
   <trkpt lat="46.384132" lon="12.138406"><ele>1374.25</ele></trkpt>
   <trkpt lat="46.384173" lon="12.138356"><ele>1375</ele></trkpt>
   <trkpt lat="46.384196" lon="12.138336"><ele>1375.5</ele></trkpt>
   <trkpt lat="46.384217" lon="12.138331"><ele>1375.75</ele></trkpt>
   <trkpt lat="46.384259" lon="12.138351"><ele>1376.5</ele></trkpt>
   <trkpt lat="46.38428" lon="12.13838"><ele>1377</ele></trkpt>
   <trkpt lat="46.384301" lon="12.138424"><ele>1377.25</ele></trkpt>
   <trkpt lat="46.384392" lon="12.138718"><ele>1378.75</ele></trkpt>
   <trkpt lat="46.384496" lon="12.138942"><ele>1381</ele></trkpt>
   <trkpt lat="46.384547" lon="12.138995"><ele>1382</ele></trkpt>
   <trkpt lat="46.384569" lon="12.139004"><ele>1382.5</ele></trkpt>
   <trkpt lat="46.38463" lon="12.138944"><ele>1384</ele></trkpt>
   <trkpt lat="46.384651" lon="12.13885"><ele>1384.5</ele></trkpt>
   <trkpt lat="46.384657" lon="12.138602"><ele>1385.25</ele></trkpt>
   <trkpt lat="46.384661" lon="12.138285"><ele>1386.5</ele></trkpt>
   <trkpt lat="46.384688" lon="12.137715"><ele>1391.25</ele></trkpt>
   <trkpt lat="46.384696" lon="12.137213"><ele>1397</ele></trkpt>
   <trkpt lat="46.384714" lon="12.136814"><ele>1399.5</ele></trkpt>
   <trkpt lat="46.384713" lon="12.136556"><ele>1401.75</ele></trkpt>
   <trkpt lat="46.384697" lon="12.136447"><ele>1402.5</ele></trkpt>
   <trkpt lat="46.384677" lon="12.136236"><ele>1404.75</ele></trkpt>
   <trkpt lat="46.384595" lon="12.135981"><ele>1407.5</ele></trkpt>
   <trkpt lat="46.384549" lon="12.135909"><ele>1408.25</ele></trkpt>
   <trkpt lat="46.384488" lon="12.135851"><ele>1408.25</ele></trkpt>
   <trkpt lat="46.384417" lon="12.135814"><ele>1408.75</ele></trkpt>
   <trkpt lat="46.384279" lon="12.135791"><ele>1411</ele></trkpt>
   <trkpt lat="46.384213" lon="12.135798"><ele>1411.5</ele></trkpt>
   <trkpt lat="46.384133" lon="12.13583"><ele>1411.5</ele></trkpt>
   <trkpt lat="46.383937" lon="12.135889"><ele>1413</ele></trkpt>
   <trkpt lat="46.383674" lon="12.136046"><ele>1416</ele></trkpt>
   <trkpt lat="46.383589" lon="12.136133"><ele>1416.25</ele></trkpt>
   <trkpt lat="46.383471" lon="12.136228"><ele>1414.25</ele></trkpt>
   <trkpt lat="46.38344" lon="12.136233"><ele>1414</ele></trkpt>
   <trkpt lat="46.383418" lon="12.13621"><ele>1414.75</ele></trkpt>
   <trkpt lat="46.383409" lon="12.136176"><ele>1415.5</ele></trkpt>
   <trkpt lat="46.383406" lon="12.136125"><ele>1416.5</ele></trkpt>
   <trkpt lat="46.383426" lon="12.13606"><ele>1417.5</ele></trkpt>
   <trkpt lat="46.383453" lon="12.136006"><ele>1418.25</ele></trkpt>
   <trkpt lat="46.383612" lon="12.135841"><ele>1421.75</ele></trkpt>
   <trkpt lat="46.383858" lon="12.135557"><ele>1426.25</ele></trkpt>
   <trkpt lat="46.383881" lon="12.135503"><ele>1427.5</ele></trkpt>
   <trkpt lat="46.38388" lon="12.135458"><ele>1428.75</ele></trkpt>
   <trkpt lat="46.383869" lon="12.135413"><ele>1430.25</ele></trkpt>
   <trkpt lat="46.383848" lon="12.13538"><ele>1431.75</ele></trkpt>
   <trkpt lat="46.383809" lon="12.135363"><ele>1433</ele></trkpt>
   <trkpt lat="46.383776" lon="12.135362"><ele>1433.75</ele></trkpt>
   <trkpt lat="46.383754" lon="12.135374"><ele>1433.75</ele></trkpt>
   <trkpt lat="46.38365" lon="12.135521"><ele>1430.5</ele></trkpt>
   <trkpt lat="46.383623" lon="12.13554"><ele>1430.25</ele></trkpt>
   <trkpt lat="46.383566" lon="12.135553"><ele>1429.25</ele></trkpt>
   <trkpt lat="46.383545" lon="12.135534"><ele>1429.5</ele></trkpt>
   <trkpt lat="46.383503" lon="12.135459"><ele>1430.75</ele></trkpt>
   <trkpt lat="46.383277" lon="12.134916"><ele>1439.25</ele></trkpt>
   <trkpt lat="46.383227" lon="12.13483"><ele>1440.75</ele></trkpt>
   <trkpt lat="46.383097" lon="12.134732"><ele>1442</ele></trkpt>
   <trkpt lat="46.383006" lon="12.134689"><ele>1443</ele></trkpt>
   <trkpt lat="46.382783" lon="12.13468"><ele>1444.5</ele></trkpt>
   <trkpt lat="46.382601" lon="12.134709"><ele>1444.75</ele></trkpt>
   <trkpt lat="46.382563" lon="12.134696"><ele>1445.25</ele></trkpt>
   <trkpt lat="46.382547" lon="12.134583"><ele>1447.75</ele></trkpt>
   <trkpt lat="46.382561" lon="12.134515"><ele>1449</ele></trkpt>
   <trkpt lat="46.382619" lon="12.134426"><ele>1450.75</ele></trkpt>
   <trkpt lat="46.382803" lon="12.134299"><ele>1452.5</ele></trkpt>
   <trkpt lat="46.382938" lon="12.134226"><ele>1453.75</ele></trkpt>
   <trkpt lat="46.383049" lon="12.13419"><ele>1454.25</ele></trkpt>
   <trkpt lat="46.383147" lon="12.134188"><ele>1456</ele></trkpt>
   <trkpt lat="46.383226" lon="12.134216"><ele>1456.75</ele></trkpt>
   <trkpt lat="46.383283" lon="12.13425"><ele>1456.75</ele></trkpt>
   <trkpt lat="46.383408" lon="12.134393"><ele>1456.75</ele></trkpt>
   <trkpt lat="46.383594" lon="12.134684"><ele>1457.75</ele></trkpt>
   <trkpt lat="46.383635" lon="12.134727"><ele>1458</ele></trkpt>
   <trkpt lat="46.383668" lon="12.134739"><ele>1458</ele></trkpt>
   <trkpt lat="46.383706" lon="12.134734"><ele>1458.75</ele></trkpt>
   <trkpt lat="46.383739" lon="12.134703"><ele>1460.25</ele></trkpt>
   <trkpt lat="46.383766" lon="12.134649"><ele>1462</ele></trkpt>
   <trkpt lat="46.383771" lon="12.134594"><ele>1463.5</ele></trkpt>
   <trkpt lat="46.38373" lon="12.134488"><ele>1465.25</ele></trkpt>
   <trkpt lat="46.383559" lon="12.134237"><ele>1465.5</ele></trkpt>
   <trkpt lat="46.383288" lon="12.133918"><ele>1467.25</ele></trkpt>
   <trkpt lat="46.383112" lon="12.133777"><ele>1469.75</ele></trkpt>
   <trkpt lat="46.382914" lon="12.133693"><ele>1472.25</ele></trkpt>
   <trkpt lat="46.382716" lon="12.133715"><ele>1474</ele></trkpt>
   <trkpt lat="46.382548" lon="12.133814"><ele>1474.75</ele></trkpt>
   <trkpt lat="46.382376" lon="12.133974"><ele>1474</ele></trkpt>
   <trkpt lat="46.382189" lon="12.134094"><ele>1475.5</ele></trkpt>
   <trkpt lat="46.381999" lon="12.134127"><ele>1478.5</ele></trkpt>
   <trkpt lat="46.381567" lon="12.134117"><ele>1479.25</ele></trkpt>
   <trkpt lat="46.381518" lon="12.134106"><ele>1479</ele></trkpt>
   <trkpt lat="46.381462" lon="12.134063"><ele>1479.25</ele></trkpt>
   <trkpt lat="46.381418" lon="12.133928"><ele>1482</ele></trkpt>
   <trkpt lat="46.38144" lon="12.13378"><ele>1482.5</ele></trkpt>
   <trkpt lat="46.381483" lon="12.133696"><ele>1482.75</ele></trkpt>
   <trkpt lat="46.38151" lon="12.133642"><ele>1483</ele></trkpt>
   <trkpt lat="46.381594" lon="12.133519"><ele>1483.75</ele></trkpt>
   <trkpt lat="46.381682" lon="12.133416"><ele>1483.75</ele></trkpt>
   <trkpt lat="46.381722" lon="12.133384"><ele>1483.75</ele></trkpt>
   <trkpt lat="46.381879" lon="12.133389"><ele>1484.75</ele></trkpt>
   <trkpt lat="46.382193" lon="12.13346"><ele>1487.25</ele></trkpt>
   <trkpt lat="46.382298" lon="12.133461"><ele>1487.25</ele></trkpt>
   <trkpt lat="46.382351" lon="12.133442"><ele>1487.5</ele></trkpt>
   <trkpt lat="46.382402" lon="12.133424"><ele>1487.75</ele></trkpt>
   <trkpt lat="46.382523" lon="12.133341"><ele>1490.5</ele></trkpt>
   <trkpt lat="46.382638" lon="12.133222"><ele>1492</ele></trkpt>
   <trkpt lat="46.382747" lon="12.133087"><ele>1495.5</ele></trkpt>
   <trkpt lat="46.383024" lon="12.132785"><ele>1501</ele></trkpt>
   <trkpt lat="46.383045" lon="12.132764"><ele>1501.25</ele></trkpt>
   <trkpt lat="46.383113" lon="12.132653"><ele>1501.5</ele></trkpt>
  </trkseg>
 </trk>
</gpx>
