<?xml version="1.0" encoding="UTF-8"?>
<!-- track-length = 11839 filtered ascend = 873 plain-ascend = 836 cost=16859 energy=0.2kwh time=2h 14m 56s -->
<gpx 
 xmlns="http://www.topografix.com/GPX/1/1" 
 xmlns:xsi="http://www.w3.org/2001/XMLSchema-instance" 
 xsi:schemaLocation="http://www.topografix.com/GPX/1/1 http://www.topografix.com/GPX/1/1/gpx.xsd" 
 version="1.1" 
 creator="BRouter-Web 0.18.1">
 <trk>
  <name>col du haag (11.8km)</name>
  <trkseg>
   <trkpt lat="47.874505" lon="7.028877"><ele>411.75</ele></trkpt>
   <trkpt lat="47.874553" lon="7.028741"><ele>411.5</ele></trkpt>
   <trkpt lat="47.874576" lon="7.028765"><ele>411.75</ele></trkpt>
   <trkpt lat="47.874787" lon="7.028974"><ele>412</ele></trkpt>
   <trkpt lat="47.87498" lon="7.029229"><ele>412.75</ele></trkpt>
   <trkpt lat="47.875399" lon="7.029759"><ele>415</ele></trkpt>
   <trkpt lat="47.87546" lon="7.029847"><ele>415.25</ele></trkpt>
   <trkpt lat="47.875486" lon="7.029884"><ele>415.5</ele></trkpt>
   <trkpt lat="47.875669" lon="7.030082"><ele>416</ele></trkpt>
   <trkpt lat="47.875752" lon="7.030191"><ele>416.25</ele></trkpt>
   <trkpt lat="47.875796" lon="7.030317"><ele>417</ele></trkpt>
   <trkpt lat="47.875817" lon="7.030431"><ele>417.25</ele></trkpt>
   <trkpt lat="47.875843" lon="7.031035"><ele>418.75</ele></trkpt>
   <trkpt lat="47.875853" lon="7.031099"><ele>419</ele></trkpt>
   <trkpt lat="47.875868" lon="7.031142"><ele>419</ele></trkpt>
   <trkpt lat="47.875972" lon="7.031331"><ele>420.25</ele></trkpt>
   <trkpt lat="47.87604" lon="7.031441"><ele>420.75</ele></trkpt>
   <trkpt lat="47.876201" lon="7.031704"><ele>422.25</ele></trkpt>
   <trkpt lat="47.876246" lon="7.031807"><ele>422.5</ele></trkpt>
   <trkpt lat="47.876311" lon="7.031907"><ele>422.75</ele></trkpt>
   <trkpt lat="47.876391" lon="7.032023"><ele>423.25</ele></trkpt>
   <trkpt lat="47.876438" lon="7.032155"><ele>423.75</ele></trkpt>
   <trkpt lat="47.876514" lon="7.032367"><ele>424.25</ele></trkpt>
   <trkpt lat="47.87658" lon="7.032475"><ele>424.5</ele></trkpt>
   <trkpt lat="47.876663" lon="7.032571"><ele>425</ele></trkpt>
   <trkpt lat="47.876978" lon="7.032773"><ele>427</ele></trkpt>
   <trkpt lat="47.877087" lon="7.032881"><ele>428</ele></trkpt>
   <trkpt lat="47.877164" lon="7.032983"><ele>428.5</ele></trkpt>
   <trkpt lat="47.877218" lon="7.033097"><ele>428.75</ele></trkpt>
   <trkpt lat="47.877253" lon="7.033205"><ele>428.5</ele></trkpt>
   <trkpt lat="47.877273" lon="7.033303"><ele>428.5</ele></trkpt>
   <trkpt lat="47.877306" lon="7.033535"><ele>431</ele></trkpt>
   <trkpt lat="47.87731" lon="7.033628"><ele>432</ele></trkpt>
   <trkpt lat="47.877296" lon="7.033781"><ele>433.5</ele></trkpt>
   <trkpt lat="47.877252" lon="7.033987"><ele>435.25</ele></trkpt>
   <trkpt lat="47.877197" lon="7.034197"><ele>436.25</ele></trkpt>
   <trkpt lat="47.877161" lon="7.034388"><ele>438.5</ele></trkpt>
   <trkpt lat="47.877149" lon="7.034554"><ele>440.25</ele></trkpt>
   <trkpt lat="47.877157" lon="7.03472"><ele>442</ele></trkpt>
   <trkpt lat="47.877195" lon="7.034866"><ele>442.5</ele></trkpt>
   <trkpt lat="47.877234" lon="7.034959"><ele>442.75</ele></trkpt>
   <trkpt lat="47.877289" lon="7.035041"><ele>445</ele></trkpt>
   <trkpt lat="47.877528" lon="7.035258"><ele>449</ele></trkpt>
   <trkpt lat="47.877981" lon="7.035623"><ele>457.25</ele></trkpt>
   <trkpt lat="47.878155" lon="7.035789"><ele>458.5</ele></trkpt>
   <trkpt lat="47.87861" lon="7.036074"><ele>462.5</ele></trkpt>
   <trkpt lat="47.87916" lon="7.036537"><ele>472</ele></trkpt>
   <trkpt lat="47.879464" lon="7.036761"><ele>476.75</ele></trkpt>
   <trkpt lat="47.879667" lon="7.036936"><ele>479.75</ele></trkpt>
   <trkpt lat="47.87974" lon="7.037012"><ele>481.25</ele></trkpt>
   <trkpt lat="47.879816" lon="7.037149"><ele>484.25</ele></trkpt>
   <trkpt lat="47.879885" lon="7.037254"><ele>486</ele></trkpt>
   <trkpt lat="47.879966" lon="7.037326"><ele>487.25</ele></trkpt>
   <trkpt lat="47.880375" lon="7.037486"><ele>490.25</ele></trkpt>
   <trkpt lat="47.880837" lon="7.037624"><ele>496.75</ele></trkpt>
   <trkpt lat="47.881168" lon="7.037784"><ele>498.25</ele></trkpt>
   <trkpt lat="47.881278" lon="7.037847"><ele>499.5</ele></trkpt>
   <trkpt lat="47.881409" lon="7.037927"><ele>501.5</ele></trkpt>
   <trkpt lat="47.88151" lon="7.038017"><ele>502.75</ele></trkpt>
   <trkpt lat="47.881828" lon="7.038397"><ele>508.25</ele></trkpt>
   <trkpt lat="47.882142" lon="7.038658"><ele>513.25</ele></trkpt>
   <trkpt lat="47.882457" lon="7.038889"><ele>519</ele></trkpt>
   <trkpt lat="47.882629" lon="7.039027"><ele>522</ele></trkpt>
   <trkpt lat="47.882934" lon="7.039364"><ele>525.75</ele></trkpt>
   <trkpt lat="47.883051" lon="7.039519"><ele>527.25</ele></trkpt>
   <trkpt lat="47.883214" lon="7.039763"><ele>529.5</ele></trkpt>
   <trkpt lat="47.883473" lon="7.040084"><ele>533</ele></trkpt>
   <trkpt lat="47.883647" lon="7.040293"><ele>535.75</ele></trkpt>
   <trkpt lat="47.883946" lon="7.040769"><ele>540.75</ele></trkpt>
   <trkpt lat="47.884075" lon="7.040915"><ele>542</ele></trkpt>
   <trkpt lat="47.884309" lon="7.041037"><ele>542.75</ele></trkpt>
   <trkpt lat="47.884481" lon="7.041166"><ele>545</ele></trkpt>
   <trkpt lat="47.884747" lon="7.041493"><ele>547.75</ele></trkpt>
   <trkpt lat="47.884952" lon="7.04182"><ele>550.25</ele></trkpt>
   <trkpt lat="47.885351" lon="7.042582"><ele>555.5</ele></trkpt>
   <trkpt lat="47.88543" lon="7.042725"><ele>557</ele></trkpt>
   <trkpt lat="47.885485" lon="7.042825"><ele>557</ele></trkpt>
   <trkpt lat="47.885542" lon="7.043051"><ele>558.25</ele></trkpt>
   <trkpt lat="47.885575" lon="7.043433"><ele>560.5</ele></trkpt>
   <trkpt lat="47.885634" lon="7.043614"><ele>561.75</ele></trkpt>
   <trkpt lat="47.88573" lon="7.043728"><ele>562.25</ele></trkpt>
   <trkpt lat="47.885846" lon="7.043771"><ele>562</ele></trkpt>
   <trkpt lat="47.885954" lon="7.043758"><ele>562.75</ele></trkpt>
   <trkpt lat="47.886072" lon="7.043716"><ele>563.25</ele></trkpt>
   <trkpt lat="47.886265" lon="7.043568"><ele>563.5</ele></trkpt>
   <trkpt lat="47.886463" lon="7.043347"><ele>564.75</ele></trkpt>
   <trkpt lat="47.886578" lon="7.043303"><ele>565.25</ele></trkpt>
   <trkpt lat="47.886826" lon="7.04329"><ele>565.25</ele></trkpt>
   <trkpt lat="47.887419" lon="7.043421"><ele>567.5</ele></trkpt>
   <trkpt lat="47.887776" lon="7.043569"><ele>567</ele></trkpt>
   <trkpt lat="47.888115" lon="7.043847"><ele>571.25</ele></trkpt>
   <trkpt lat="47.888307" lon="7.044041"><ele>572.5</ele></trkpt>
   <trkpt lat="47.888665" lon="7.044458"><ele>577</ele></trkpt>
   <trkpt lat="47.88875" lon="7.044494"><ele>577.5</ele></trkpt>
   <trkpt lat="47.889022" lon="7.044506"><ele>578.75</ele></trkpt>
   <trkpt lat="47.889065" lon="7.044535"><ele>579.5</ele></trkpt>
   <trkpt lat="47.889091" lon="7.044583"><ele>580</ele></trkpt>
   <trkpt lat="47.889106" lon="7.044642"><ele>580.5</ele></trkpt>
   <trkpt lat="47.889102" lon="7.044712"><ele>580.5</ele></trkpt>
   <trkpt lat="47.889086" lon="7.044764"><ele>581.5</ele></trkpt>
   <trkpt lat="47.889063" lon="7.04481"><ele>582.25</ele></trkpt>
   <trkpt lat="47.888994" lon="7.04487"><ele>583</ele></trkpt>
   <trkpt lat="47.888922" lon="7.044901"><ele>583.25</ele></trkpt>
   <trkpt lat="47.888825" lon="7.044884"><ele>584.75</ele></trkpt>
   <trkpt lat="47.888703" lon="7.044818"><ele>586.5</ele></trkpt>
   <trkpt lat="47.888519" lon="7.044632"><ele>585.75</ele></trkpt>
   <trkpt lat="47.888294" lon="7.044477"><ele>587.5</ele></trkpt>
   <trkpt lat="47.887811" lon="7.044247"><ele>589.75</ele></trkpt>
   <trkpt lat="47.887641" lon="7.044176"><ele>589.75</ele></trkpt>
   <trkpt lat="47.887404" lon="7.044158"><ele>592</ele></trkpt>
   <trkpt lat="47.887233" lon="7.044161"><ele>594.5</ele></trkpt>
   <trkpt lat="47.887111" lon="7.044196"><ele>594.5</ele></trkpt>
   <trkpt lat="47.88698" lon="7.044286"><ele>595.5</ele></trkpt>
   <trkpt lat="47.886892" lon="7.044414"><ele>596</ele></trkpt>
   <trkpt lat="47.886655" lon="7.04513"><ele>603</ele></trkpt>
   <trkpt lat="47.886618" lon="7.045266"><ele>604.5</ele></trkpt>
   <trkpt lat="47.886571" lon="7.045359"><ele>606</ele></trkpt>
   <trkpt lat="47.886534" lon="7.045425"><ele>607</ele></trkpt>
   <trkpt lat="47.886435" lon="7.045528"><ele>607.25</ele></trkpt>
   <trkpt lat="47.88635" lon="7.045547"><ele>607.25</ele></trkpt>
   <trkpt lat="47.886186" lon="7.045523"><ele>608.75</ele></trkpt>
   <trkpt lat="47.886019" lon="7.045556"><ele>611</ele></trkpt>
   <trkpt lat="47.885907" lon="7.045605"><ele>612.5</ele></trkpt>
   <trkpt lat="47.885811" lon="7.045665"><ele>614</ele></trkpt>
   <trkpt lat="47.885602" lon="7.045892"><ele>618.75</ele></trkpt>
   <trkpt lat="47.885381" lon="7.045956"><ele>621.5</ele></trkpt>
   <trkpt lat="47.884994" lon="7.045892"><ele>625.5</ele></trkpt>
   <trkpt lat="47.884724" lon="7.045793"><ele>627</ele></trkpt>
   <trkpt lat="47.884478" lon="7.045562"><ele>630.75</ele></trkpt>
   <trkpt lat="47.884337" lon="7.045389"><ele>633.25</ele></trkpt>
   <trkpt lat="47.884232" lon="7.045196"><ele>635.5</ele></trkpt>
   <trkpt lat="47.884167" lon="7.044991"><ele>637.75</ele></trkpt>
   <trkpt lat="47.884087" lon="7.04461"><ele>639.5</ele></trkpt>
   <trkpt lat="47.884011" lon="7.04443"><ele>640.25</ele></trkpt>
   <trkpt lat="47.883883" lon="7.044262"><ele>643</ele></trkpt>
   <trkpt lat="47.883846" lon="7.044245"><ele>643.5</ele></trkpt>
   <trkpt lat="47.883804" lon="7.044246"><ele>644</ele></trkpt>
   <trkpt lat="47.883781" lon="7.044281"><ele>645</ele></trkpt>
   <trkpt lat="47.883784" lon="7.044346"><ele>646.25</ele></trkpt>
   <trkpt lat="47.883814" lon="7.044411"><ele>646.5</ele></trkpt>
   <trkpt lat="47.883882" lon="7.044563"><ele>647.25</ele></trkpt>
   <trkpt lat="47.883926" lon="7.044712"><ele>648</ele></trkpt>
   <trkpt lat="47.883946" lon="7.044854"><ele>648.5</ele></trkpt>
   <trkpt lat="47.88395" lon="7.045599"><ele>653.75</ele></trkpt>
   <trkpt lat="47.883971" lon="7.045749"><ele>655.75</ele></trkpt>
   <trkpt lat="47.884057" lon="7.046061"><ele>658.25</ele></trkpt>
   <trkpt lat="47.884274" lon="7.046678"><ele>664</ele></trkpt>
   <trkpt lat="47.88434" lon="7.046811"><ele>665.75</ele></trkpt>
   <trkpt lat="47.884415" lon="7.046909"><ele>666.5</ele></trkpt>
   <trkpt lat="47.884688" lon="7.04719"><ele>669.25</ele></trkpt>
   <trkpt lat="47.884936" lon="7.047306"><ele>672</ele></trkpt>
   <trkpt lat="47.88532" lon="7.047456"><ele>676.75</ele></trkpt>
   <trkpt lat="47.88639" lon="7.047805"><ele>688.75</ele></trkpt>
   <trkpt lat="47.886568" lon="7.047843"><ele>691.25</ele></trkpt>
   <trkpt lat="47.88712" lon="7.047864"><ele>698.25</ele></trkpt>
   <trkpt lat="47.887663" lon="7.047735"><ele>704.5</ele></trkpt>
   <trkpt lat="47.887749" lon="7.047743"><ele>705.75</ele></trkpt>
   <trkpt lat="47.887823" lon="7.047778"><ele>705.75</ele></trkpt>
   <trkpt lat="47.888059" lon="7.048086"><ele>711</ele></trkpt>
   <trkpt lat="47.888132" lon="7.048164"><ele>713.25</ele></trkpt>
   <trkpt lat="47.888217" lon="7.048202"><ele>713.75</ele></trkpt>
   <trkpt lat="47.888388" lon="7.048231"><ele>713.5</ele></trkpt>
   <trkpt lat="47.888637" lon="7.048228"><ele>713.75</ele></trkpt>
   <trkpt lat="47.888711" lon="7.048235"><ele>713.5</ele></trkpt>
   <trkpt lat="47.888756" lon="7.048277"><ele>714.5</ele></trkpt>
   <trkpt lat="47.888757" lon="7.048346"><ele>716.75</ele></trkpt>
   <trkpt lat="47.888727" lon="7.048391"><ele>719.25</ele></trkpt>
   <trkpt lat="47.888043" lon="7.048478"><ele>727.25</ele></trkpt>
   <trkpt lat="47.887839" lon="7.048451"><ele>730</ele></trkpt>
   <trkpt lat="47.887681" lon="7.048502"><ele>731.5</ele></trkpt>
   <trkpt lat="47.887494" lon="7.048671"><ele>735</ele></trkpt>
   <trkpt lat="47.887255" lon="7.048926"><ele>739</ele></trkpt>
   <trkpt lat="47.88673" lon="7.049269"><ele>745.5</ele></trkpt>
   <trkpt lat="47.885608" lon="7.049814"><ele>762</ele></trkpt>
   <trkpt lat="47.885199" lon="7.050023"><ele>765.5</ele></trkpt>
   <trkpt lat="47.885173" lon="7.050032"><ele>767.25</ele></trkpt>
   <trkpt lat="47.884957" lon="7.050112"><ele>767.25</ele></trkpt>
   <trkpt lat="47.884861" lon="7.050129"><ele>767.25</ele></trkpt>
   <trkpt lat="47.884593" lon="7.050141"><ele>766.75</ele></trkpt>
   <trkpt lat="47.884345" lon="7.050182"><ele>766.25</ele></trkpt>
   <trkpt lat="47.884234" lon="7.050248"><ele>766.25</ele></trkpt>
   <trkpt lat="47.884166" lon="7.05032"><ele>766.25</ele></trkpt>
   <trkpt lat="47.884105" lon="7.050448"><ele>767.25</ele></trkpt>
   <trkpt lat="47.883991" lon="7.050734"><ele>767</ele></trkpt>
   <trkpt lat="47.883959" lon="7.05088"><ele>766.5</ele></trkpt>
   <trkpt lat="47.883925" lon="7.051059"><ele>765.25</ele></trkpt>
   <trkpt lat="47.883945" lon="7.051212"><ele>765</ele></trkpt>
   <trkpt lat="47.884018" lon="7.051544"><ele>763.5</ele></trkpt>
   <trkpt lat="47.884044" lon="7.051619"><ele>763</ele></trkpt>
   <trkpt lat="47.884106" lon="7.051735"><ele>762.25</ele></trkpt>
   <trkpt lat="47.884227" lon="7.0519"><ele>761.25</ele></trkpt>
   <trkpt lat="47.884636" lon="7.052235"><ele>757.75</ele></trkpt>
   <trkpt lat="47.884788" lon="7.052413"><ele>756</ele></trkpt>
   <trkpt lat="47.885071" lon="7.052822"><ele>753.75</ele></trkpt>
   <trkpt lat="47.88532" lon="7.053496"><ele>749.75</ele></trkpt>
   <trkpt lat="47.885394" lon="7.053681"><ele>748.5</ele></trkpt>
   <trkpt lat="47.885456" lon="7.053785"><ele>747.5</ele></trkpt>
   <trkpt lat="47.88558" lon="7.053938"><ele>746.5</ele></trkpt>
   <trkpt lat="47.885722" lon="7.054065"><ele>745.5</ele></trkpt>
   <trkpt lat="47.886064" lon="7.054207"><ele>745.25</ele></trkpt>
   <trkpt lat="47.8866" lon="7.054348"><ele>745.25</ele></trkpt>
   <trkpt lat="47.886759" lon="7.054433"><ele>744.5</ele></trkpt>
   <trkpt lat="47.887062" lon="7.054673"><ele>742</ele></trkpt>
   <trkpt lat="47.887178" lon="7.054778"><ele>739.75</ele></trkpt>
   <trkpt lat="47.887442" lon="7.055074"><ele>738</ele></trkpt>
   <trkpt lat="47.887475" lon="7.055149"><ele>738.5</ele></trkpt>
   <trkpt lat="47.887488" lon="7.05522"><ele>738.5</ele></trkpt>
   <trkpt lat="47.887483" lon="7.055294"><ele>738.5</ele></trkpt>
   <trkpt lat="47.887425" lon="7.055638"><ele>739</ele></trkpt>
   <trkpt lat="47.887343" lon="7.055923"><ele>738.25</ele></trkpt>
   <trkpt lat="47.887153" lon="7.056389"><ele>736.75</ele></trkpt>
   <trkpt lat="47.887074" lon="7.056547"><ele>736.5</ele></trkpt>
   <trkpt lat="47.887018" lon="7.056657"><ele>736.5</ele></trkpt>
   <trkpt lat="47.886737" lon="7.057105"><ele>736</ele></trkpt>
   <trkpt lat="47.886708" lon="7.057151"><ele>736.25</ele></trkpt>
   <trkpt lat="47.886331" lon="7.057874"><ele>738.25</ele></trkpt>
   <trkpt lat="47.886232" lon="7.05815"><ele>738</ele></trkpt>
   <trkpt lat="47.886186" lon="7.058307"><ele>737.5</ele></trkpt>
   <trkpt lat="47.886083" lon="7.058497"><ele>735.5</ele></trkpt>
   <trkpt lat="47.886009" lon="7.058588"><ele>735.25</ele></trkpt>
   <trkpt lat="47.885587" lon="7.059106"><ele>734.75</ele></trkpt>
   <trkpt lat="47.885492" lon="7.059297"><ele>734.75</ele></trkpt>
   <trkpt lat="47.88537" lon="7.059619"><ele>735</ele></trkpt>
   <trkpt lat="47.885319" lon="7.059697"><ele>734</ele></trkpt>
   <trkpt lat="47.885262" lon="7.059751"><ele>732.5</ele></trkpt>
   <trkpt lat="47.885262" lon="7.05975"><ele>734</ele></trkpt>
   <trkpt lat="47.885319" lon="7.059697"><ele>734</ele></trkpt>
   <trkpt lat="47.885339" lon="7.059749"><ele>735.25</ele></trkpt>
   <trkpt lat="47.885348" lon="7.059777"><ele>735.75</ele></trkpt>
   <trkpt lat="47.885333" lon="7.059862"><ele>736.25</ele></trkpt>
   <trkpt lat="47.8853" lon="7.059918"><ele>735.75</ele></trkpt>
   <trkpt lat="47.885137" lon="7.059994"><ele>733.25</ele></trkpt>
   <trkpt lat="47.885034" lon="7.060105"><ele>733.75</ele></trkpt>
   <trkpt lat="47.884995" lon="7.060207"><ele>735.25</ele></trkpt>
   <trkpt lat="47.884977" lon="7.060311"><ele>736.25</ele></trkpt>
   <trkpt lat="47.884965" lon="7.060544"><ele>737</ele></trkpt>
   <trkpt lat="47.884961" lon="7.060618"><ele>737.75</ele></trkpt>
   <trkpt lat="47.884911" lon="7.060931"><ele>740</ele></trkpt>
   <trkpt lat="47.88482" lon="7.061369"><ele>742.5</ele></trkpt>
   <trkpt lat="47.884775" lon="7.061704"><ele>743.5</ele></trkpt>
   <trkpt lat="47.884684" lon="7.062736"><ele>750.5</ele></trkpt>
   <trkpt lat="47.884696" lon="7.063172"><ele>754</ele></trkpt>
   <trkpt lat="47.884681" lon="7.063397"><ele>755.5</ele></trkpt>
   <trkpt lat="47.884585" lon="7.06393"><ele>760.25</ele></trkpt>
   <trkpt lat="47.884573" lon="7.064108"><ele>761.75</ele></trkpt>
   <trkpt lat="47.884581" lon="7.064223"><ele>762.75</ele></trkpt>
   <trkpt lat="47.884616" lon="7.06442"><ele>764.25</ele></trkpt>
   <trkpt lat="47.884647" lon="7.0645"><ele>764.5</ele></trkpt>
   <trkpt lat="47.884667" lon="7.064416"><ele>764.75</ele></trkpt>
   <trkpt lat="47.884647" lon="7.0645"><ele>764.5</ele></trkpt>
   <trkpt lat="47.884675" lon="7.064564"><ele>764.75</ele></trkpt>
   <trkpt lat="47.884713" lon="7.064652"><ele>765</ele></trkpt>
   <trkpt lat="47.884775" lon="7.064895"><ele>767.5</ele></trkpt>
   <trkpt lat="47.884809" lon="7.065084"><ele>768.75</ele></trkpt>
   <trkpt lat="47.884857" lon="7.065186"><ele>769.25</ele></trkpt>
   <trkpt lat="47.884924" lon="7.065245"><ele>770.5</ele></trkpt>
   <trkpt lat="47.885004" lon="7.065263"><ele>772</ele></trkpt>
   <trkpt lat="47.885108" lon="7.065231"><ele>773</ele></trkpt>
   <trkpt lat="47.88521" lon="7.065162"><ele>774.5</ele></trkpt>
   <trkpt lat="47.885332" lon="7.064988"><ele>777.5</ele></trkpt>
   <trkpt lat="47.885411" lon="7.064835"><ele>779.25</ele></trkpt>
   <trkpt lat="47.885454" lon="7.064799"><ele>779.75</ele></trkpt>
   <trkpt lat="47.885519" lon="7.064763"><ele>780.5</ele></trkpt>
   <trkpt lat="47.885573" lon="7.06476"><ele>781</ele></trkpt>
   <trkpt lat="47.885638" lon="7.064774"><ele>782.25</ele></trkpt>
   <trkpt lat="47.885676" lon="7.064798"><ele>782.75</ele></trkpt>
   <trkpt lat="47.885803" lon="7.064901"><ele>783.75</ele></trkpt>
   <trkpt lat="47.885982" lon="7.065078"><ele>785.75</ele></trkpt>
   <trkpt lat="47.886307" lon="7.065476"><ele>789</ele></trkpt>
   <trkpt lat="47.886644" lon="7.065818"><ele>793.5</ele></trkpt>
   <trkpt lat="47.887159" lon="7.066409"><ele>800</ele></trkpt>
   <trkpt lat="47.887369" lon="7.066561"><ele>802.25</ele></trkpt>
   <trkpt lat="47.887647" lon="7.066681"><ele>804</ele></trkpt>
   <trkpt lat="47.887934" lon="7.066727"><ele>806.5</ele></trkpt>
   <trkpt lat="47.888341" lon="7.066723"><ele>811.75</ele></trkpt>
   <trkpt lat="47.888664" lon="7.066648"><ele>814.75</ele></trkpt>
   <trkpt lat="47.888816" lon="7.066612"><ele>816.5</ele></trkpt>
   <trkpt lat="47.888927" lon="7.066569"><ele>817.75</ele></trkpt>
   <trkpt lat="47.889147" lon="7.066412"><ele>818.5</ele></trkpt>
   <trkpt lat="47.889353" lon="7.0663"><ele>820.5</ele></trkpt>
   <trkpt lat="47.889608" lon="7.066187"><ele>823.5</ele></trkpt>
   <trkpt lat="47.889757" lon="7.06615"><ele>824.75</ele></trkpt>
   <trkpt lat="47.889941" lon="7.066125"><ele>827</ele></trkpt>
   <trkpt lat="47.890168" lon="7.066126"><ele>829.75</ele></trkpt>
   <trkpt lat="47.890277" lon="7.066163"><ele>830.25</ele></trkpt>
   <trkpt lat="47.890343" lon="7.066214"><ele>831</ele></trkpt>
   <trkpt lat="47.890591" lon="7.066482"><ele>832.5</ele></trkpt>
   <trkpt lat="47.890733" lon="7.066587"><ele>834.25</ele></trkpt>
   <trkpt lat="47.890886" lon="7.066666"><ele>836</ele></trkpt>
   <trkpt lat="47.891134" lon="7.06674"><ele>838</ele></trkpt>
   <trkpt lat="47.891434" lon="7.066764"><ele>842</ele></trkpt>
   <trkpt lat="47.891577" lon="7.066793"><ele>844</ele></trkpt>
   <trkpt lat="47.891653" lon="7.066845"><ele>844.75</ele></trkpt>
   <trkpt lat="47.891733" lon="7.066933"><ele>846.25</ele></trkpt>
   <trkpt lat="47.891763" lon="7.067012"><ele>847</ele></trkpt>
   <trkpt lat="47.891932" lon="7.067845"><ele>851</ele></trkpt>
   <trkpt lat="47.891999" lon="7.068105"><ele>853</ele></trkpt>
   <trkpt lat="47.892059" lon="7.068289"><ele>854</ele></trkpt>
   <trkpt lat="47.892287" lon="7.068695"><ele>859.25</ele></trkpt>
   <trkpt lat="47.892412" lon="7.068832"><ele>861.25</ele></trkpt>
   <trkpt lat="47.892673" lon="7.069078"><ele>864.75</ele></trkpt>
   <trkpt lat="47.892875" lon="7.069307"><ele>868</ele></trkpt>
   <trkpt lat="47.892984" lon="7.06947"><ele>869.75</ele></trkpt>
   <trkpt lat="47.893018" lon="7.06959"><ele>870.75</ele></trkpt>
   <trkpt lat="47.893026" lon="7.069692"><ele>870.5</ele></trkpt>
   <trkpt lat="47.892999" lon="7.069951"><ele>872.5</ele></trkpt>
   <trkpt lat="47.892766" lon="7.070834"><ele>878.25</ele></trkpt>
   <trkpt lat="47.892661" lon="7.071292"><ele>881.5</ele></trkpt>
   <trkpt lat="47.892538" lon="7.071631"><ele>885.25</ele></trkpt>
   <trkpt lat="47.892435" lon="7.071871"><ele>887</ele></trkpt>
   <trkpt lat="47.892294" lon="7.072165"><ele>889.5</ele></trkpt>
   <trkpt lat="47.892022" lon="7.072683"><ele>894.5</ele></trkpt>
   <trkpt lat="47.891822" lon="7.072964"><ele>896.75</ele></trkpt>
   <trkpt lat="47.891776" lon="7.073061"><ele>898.25</ele></trkpt>
   <trkpt lat="47.89173" lon="7.073179"><ele>899.5</ele></trkpt>
   <trkpt lat="47.891642" lon="7.073404"><ele>902</ele></trkpt>
   <trkpt lat="47.891392" lon="7.073943"><ele>908</ele></trkpt>
   <trkpt lat="47.891255" lon="7.074179"><ele>910.75</ele></trkpt>
   <trkpt lat="47.891088" lon="7.07441"><ele>912.75</ele></trkpt>
   <trkpt lat="47.890948" lon="7.074661"><ele>916</ele></trkpt>
   <trkpt lat="47.890765" lon="7.07506"><ele>919.75</ele></trkpt>
   <trkpt lat="47.890685" lon="7.075241"><ele>921.5</ele></trkpt>
   <trkpt lat="47.890591" lon="7.075617"><ele>925.25</ele></trkpt>
   <trkpt lat="47.890555" lon="7.07583"><ele>926.75</ele></trkpt>
   <trkpt lat="47.890603" lon="7.07591"><ele>928.75</ele></trkpt>
   <trkpt lat="47.890638" lon="7.076054"><ele>933.75</ele></trkpt>
   <trkpt lat="47.890603" lon="7.07591"><ele>928.75</ele></trkpt>
   <trkpt lat="47.890555" lon="7.07583"><ele>926.75</ele></trkpt>
   <trkpt lat="47.890532" lon="7.075985"><ele>928</ele></trkpt>
   <trkpt lat="47.890504" lon="7.076282"><ele>929.25</ele></trkpt>
   <trkpt lat="47.890501" lon="7.076378"><ele>929.5</ele></trkpt>
   <trkpt lat="47.890504" lon="7.076546"><ele>930.5</ele></trkpt>
   <trkpt lat="47.890537" lon="7.076731"><ele>931.5</ele></trkpt>
   <trkpt lat="47.890582" lon="7.076824"><ele>931.75</ele></trkpt>
   <trkpt lat="47.890668" lon="7.076902"><ele>932.5</ele></trkpt>
   <trkpt lat="47.890857" lon="7.076967"><ele>934.25</ele></trkpt>
   <trkpt lat="47.891082" lon="7.077059"><ele>934.5</ele></trkpt>
   <trkpt lat="47.891248" lon="7.077192"><ele>935.25</ele></trkpt>
   <trkpt lat="47.891547" lon="7.077483"><ele>936.5</ele></trkpt>
   <trkpt lat="47.891638" lon="7.077597"><ele>936.75</ele></trkpt>
   <trkpt lat="47.892001" lon="7.078137"><ele>937.5</ele></trkpt>
   <trkpt lat="47.892179" lon="7.078273"><ele>938.5</ele></trkpt>
   <trkpt lat="47.8923" lon="7.078324"><ele>938.5</ele></trkpt>
   <trkpt lat="47.892412" lon="7.078328"><ele>938.75</ele></trkpt>
   <trkpt lat="47.892592" lon="7.078312"><ele>940</ele></trkpt>
   <trkpt lat="47.892788" lon="7.078346"><ele>939.5</ele></trkpt>
   <trkpt lat="47.892975" lon="7.078412"><ele>940.5</ele></trkpt>
   <trkpt lat="47.89317" lon="7.078511"><ele>941.75</ele></trkpt>
   <trkpt lat="47.893464" lon="7.078739"><ele>943</ele></trkpt>
   <trkpt lat="47.893631" lon="7.078977"><ele>943.75</ele></trkpt>
   <trkpt lat="47.893849" lon="7.079361"><ele>945</ele></trkpt>
   <trkpt lat="47.894008" lon="7.07967"><ele>946.75</ele></trkpt>
   <trkpt lat="47.894402" lon="7.080629"><ele>952.25</ele></trkpt>
   <trkpt lat="47.894624" lon="7.081148"><ele>953.25</ele></trkpt>
   <trkpt lat="47.89475" lon="7.081322"><ele>954.5</ele></trkpt>
   <trkpt lat="47.894825" lon="7.081403"><ele>954.75</ele></trkpt>
   <trkpt lat="47.894895" lon="7.081466"><ele>955</ele></trkpt>
   <trkpt lat="47.895001" lon="7.081512"><ele>957</ele></trkpt>
   <trkpt lat="47.895144" lon="7.081521"><ele>957.25</ele></trkpt>
   <trkpt lat="47.895312" lon="7.081481"><ele>959.25</ele></trkpt>
   <trkpt lat="47.895602" lon="7.081443"><ele>962</ele></trkpt>
   <trkpt lat="47.895841" lon="7.081456"><ele>962.25</ele></trkpt>
   <trkpt lat="47.895973" lon="7.081493"><ele>963.75</ele></trkpt>
   <trkpt lat="47.896065" lon="7.081566"><ele>964.25</ele></trkpt>
   <trkpt lat="47.896106" lon="7.081626"><ele>964.5</ele></trkpt>
   <trkpt lat="47.896139" lon="7.081733"><ele>965.75</ele></trkpt>
   <trkpt lat="47.896148" lon="7.081933"><ele>966.25</ele></trkpt>
   <trkpt lat="47.8962" lon="7.082276"><ele>969</ele></trkpt>
   <trkpt lat="47.896257" lon="7.082554"><ele>970.75</ele></trkpt>
   <trkpt lat="47.896389" lon="7.082997"><ele>972.75</ele></trkpt>
   <trkpt lat="47.896899" lon="7.084048"><ele>984</ele></trkpt>
   <trkpt lat="47.896994" lon="7.084242"><ele>984</ele></trkpt>
   <trkpt lat="47.897115" lon="7.084456"><ele>985.5</ele></trkpt>
   <trkpt lat="47.897167" lon="7.084594"><ele>986.75</ele></trkpt>
   <trkpt lat="47.897222" lon="7.084787"><ele>988</ele></trkpt>
   <trkpt lat="47.897736" lon="7.086033"><ele>1001.5</ele></trkpt>
   <trkpt lat="47.897869" lon="7.086262"><ele>1003.75</ele></trkpt>
   <trkpt lat="47.897991" lon="7.086424"><ele>1005.75</ele></trkpt>
   <trkpt lat="47.898467" lon="7.086909"><ele>1011.75</ele></trkpt>
   <trkpt lat="47.898852" lon="7.087201"><ele>1016.25</ele></trkpt>
   <trkpt lat="47.899085" lon="7.087412"><ele>1020.5</ele></trkpt>
   <trkpt lat="47.899621" lon="7.087929"><ele>1027.75</ele></trkpt>
   <trkpt lat="47.899805" lon="7.088122"><ele>1031</ele></trkpt>
   <trkpt lat="47.899865" lon="7.08822"><ele>1032</ele></trkpt>
   <trkpt lat="47.899869" lon="7.088324"><ele>1031.25</ele></trkpt>
   <trkpt lat="47.899838" lon="7.088417"><ele>1032</ele></trkpt>
   <trkpt lat="47.89977" lon="7.088525"><ele>1031.75</ele></trkpt>
   <trkpt lat="47.899572" lon="7.0888"><ele>1034</ele></trkpt>
   <trkpt lat="47.89917" lon="7.089332"><ele>1037.75</ele></trkpt>
   <trkpt lat="47.899059" lon="7.089541"><ele>1038.75</ele></trkpt>
   <trkpt lat="47.899021" lon="7.089644"><ele>1039.25</ele></trkpt>
   <trkpt lat="47.898982" lon="7.08993"><ele>1043.25</ele></trkpt>
   <trkpt lat="47.898947" lon="7.08999"><ele>1043.25</ele></trkpt>
   <trkpt lat="47.898922" lon="7.090008"><ele>1042.75</ele></trkpt>
   <trkpt lat="47.898875" lon="7.090009"><ele>1041.5</ele></trkpt>
   <trkpt lat="47.898791" lon="7.089992"><ele>1041.25</ele></trkpt>
   <trkpt lat="47.898654" lon="7.089992"><ele>1042.25</ele></trkpt>
   <trkpt lat="47.898533" lon="7.090025"><ele>1043.25</ele></trkpt>
   <trkpt lat="47.898358" lon="7.090124"><ele>1045.25</ele></trkpt>
   <trkpt lat="47.897877" lon="7.090335"><ele>1045.5</ele></trkpt>
   <trkpt lat="47.89766" lon="7.090421"><ele>1046.25</ele></trkpt>
   <trkpt lat="47.896829" lon="7.090608"><ele>1049.5</ele></trkpt>
   <trkpt lat="47.896721" lon="7.090621"><ele>1049.5</ele></trkpt>
   <trkpt lat="47.896615" lon="7.090601"><ele>1049.5</ele></trkpt>
   <trkpt lat="47.896147" lon="7.090386"><ele>1050.25</ele></trkpt>
   <trkpt lat="47.89518" lon="7.090032"><ele>1053.25</ele></trkpt>
   <trkpt lat="47.894974" lon="7.089917"><ele>1051.75</ele></trkpt>
   <trkpt lat="47.894856" lon="7.08991"><ele>1050</ele></trkpt>
   <trkpt lat="47.894684" lon="7.090007"><ele>1052.75</ele></trkpt>
   <trkpt lat="47.894494" lon="7.090062"><ele>1052.25</ele></trkpt>
   <trkpt lat="47.894272" lon="7.090184"><ele>1052.75</ele></trkpt>
   <trkpt lat="47.8939" lon="7.090325"><ele>1053</ele></trkpt>
   <trkpt lat="47.893645" lon="7.090345"><ele>1053.5</ele></trkpt>
   <trkpt lat="47.893205" lon="7.09034"><ele>1053</ele></trkpt>
   <trkpt lat="47.892973" lon="7.090358"><ele>1052.75</ele></trkpt>
   <trkpt lat="47.892791" lon="7.090409"><ele>1052.25</ele></trkpt>
   <trkpt lat="47.892603" lon="7.090514"><ele>1053.25</ele></trkpt>
   <trkpt lat="47.892474" lon="7.090619"><ele>1052.75</ele></trkpt>
   <trkpt lat="47.892448" lon="7.090674"><ele>1052.75</ele></trkpt>
   <trkpt lat="47.892448" lon="7.090705"><ele>1052.75</ele></trkpt>
   <trkpt lat="47.892462" lon="7.090762"><ele>1053.25</ele></trkpt>
   <trkpt lat="47.892501" lon="7.090782"><ele>1053.75</ele></trkpt>
   <trkpt lat="47.892534" lon="7.090781"><ele>1054.5</ele></trkpt>
   <trkpt lat="47.892578" lon="7.090754"><ele>1055.5</ele></trkpt>
   <trkpt lat="47.892624" lon="7.090709"><ele>1056</ele></trkpt>
   <trkpt lat="47.892763" lon="7.090633"><ele>1057.25</ele></trkpt>
   <trkpt lat="47.892868" lon="7.090602"><ele>1058.25</ele></trkpt>
   <trkpt lat="47.892961" lon="7.090602"><ele>1059.75</ele></trkpt>
   <trkpt lat="47.893392" lon="7.090736"><ele>1066</ele></trkpt>
   <trkpt lat="47.893932" lon="7.090855"><ele>1074.25</ele></trkpt>
   <trkpt lat="47.894121" lon="7.090869"><ele>1077</ele></trkpt>
   <trkpt lat="47.894205" lon="7.090857"><ele>1077.75</ele></trkpt>
   <trkpt lat="47.894593" lon="7.090757"><ele>1082</ele></trkpt>
   <trkpt lat="47.894766" lon="7.090772"><ele>1084.75</ele></trkpt>
   <trkpt lat="47.895078" lon="7.090907"><ele>1090</ele></trkpt>
   <trkpt lat="47.895338" lon="7.091035"><ele>1092.75</ele></trkpt>
   <trkpt lat="47.895478" lon="7.091131"><ele>1094.75</ele></trkpt>
   <trkpt lat="47.895925" lon="7.091625"><ele>1102.75</ele></trkpt>
   <trkpt lat="47.896316" lon="7.092101"><ele>1109.25</ele></trkpt>
   <trkpt lat="47.896501" lon="7.092211"><ele>1111.5</ele></trkpt>
   <trkpt lat="47.896685" lon="7.092294"><ele>1114.5</ele></trkpt>
   <trkpt lat="47.897064" lon="7.092341"><ele>1130</ele></trkpt>
   <trkpt lat="47.897897" lon="7.092444"><ele>1130</ele></trkpt>
   <trkpt lat="47.898082" lon="7.092459"><ele>1132.5</ele></trkpt>
   <trkpt lat="47.898331" lon="7.092443"><ele>1136.25</ele></trkpt>
   <trkpt lat="47.898606" lon="7.092386"><ele>1138.25</ele></trkpt>
   <trkpt lat="47.898718" lon="7.09241"><ele>1141</ele></trkpt>
   <trkpt lat="47.898815" lon="7.092404"><ele>1142.25</ele></trkpt>
   <trkpt lat="47.898902" lon="7.09236"><ele>1142.25</ele></trkpt>
   <trkpt lat="47.899143" lon="7.09229"><ele>1146.25</ele></trkpt>
   <trkpt lat="47.899263" lon="7.092286"><ele>1146.5</ele></trkpt>
   <trkpt lat="47.900029" lon="7.092415"><ele>1151.75</ele></trkpt>
   <trkpt lat="47.900085" lon="7.092406"><ele>1154</ele></trkpt>
   <trkpt lat="47.900125" lon="7.092331"><ele>1154</ele></trkpt>
   <trkpt lat="47.900156" lon="7.092241"><ele>1153.5</ele></trkpt>
   <trkpt lat="47.900183" lon="7.092036"><ele>1152.25</ele></trkpt>
   <trkpt lat="47.900173" lon="7.091827"><ele>1150.5</ele></trkpt>
   <trkpt lat="47.900181" lon="7.091683"><ele>1152</ele></trkpt>
   <trkpt lat="47.900199" lon="7.091567"><ele>1151.5</ele></trkpt>
   <trkpt lat="47.900271" lon="7.091373"><ele>1152</ele></trkpt>
   <trkpt lat="47.90035" lon="7.091256"><ele>1152</ele></trkpt>
   <trkpt lat="47.90047" lon="7.091145"><ele>1153.5</ele></trkpt>
   <trkpt lat="47.900634" lon="7.091022"><ele>1156.5</ele></trkpt>
   <trkpt lat="47.901" lon="7.090788"><ele>1163</ele></trkpt>
   <trkpt lat="47.901502" lon="7.090537"><ele>1170.25</ele></trkpt>
   <trkpt lat="47.901662" lon="7.090441"><ele>1172.5</ele></trkpt>
   <trkpt lat="47.901874" lon="7.09034"><ele>1176.5</ele></trkpt>
   <trkpt lat="47.902327" lon="7.090095"><ele>1183.5</ele></trkpt>
   <trkpt lat="47.902503" lon="7.089973"><ele>1185.25</ele></trkpt>
   <trkpt lat="47.902664" lon="7.089833"><ele>1187.25</ele></trkpt>
   <trkpt lat="47.902902" lon="7.08969"><ele>1190.5</ele></trkpt>
   <trkpt lat="47.903043" lon="7.089645"><ele>1192.25</ele></trkpt>
   <trkpt lat="47.903183" lon="7.089614"><ele>1195.25</ele></trkpt>
   <trkpt lat="47.903419" lon="7.089514"><ele>1199.5</ele></trkpt>
   <trkpt lat="47.903638" lon="7.089402"><ele>1202.75</ele></trkpt>
   <trkpt lat="47.903844" lon="7.089263"><ele>1206</ele></trkpt>
   <trkpt lat="47.903998" lon="7.089121"><ele>1208.5</ele></trkpt>
   <trkpt lat="47.904061" lon="7.08899"><ele>1209.5</ele></trkpt>
   <trkpt lat="47.904166" lon="7.088699"><ele>1212.75</ele></trkpt>
   <trkpt lat="47.9042" lon="7.08867"><ele>1213.75</ele></trkpt>
   <trkpt lat="47.904242" lon="7.088674"><ele>1215</ele></trkpt>
   <trkpt lat="47.904275" lon="7.08871"><ele>1216</ele></trkpt>
   <trkpt lat="47.904429" lon="7.089175"><ele>1220.5</ele></trkpt>
   <trkpt lat="47.904553" lon="7.089473"><ele>1224.75</ele></trkpt>
   <trkpt lat="47.904633" lon="7.089614"><ele>1226.5</ele></trkpt>
   <trkpt lat="47.904808" lon="7.089924"><ele>1229</ele></trkpt>
   <trkpt lat="47.904998" lon="7.090218"><ele>1230.75</ele></trkpt>
   <trkpt lat="47.905051" lon="7.090326"><ele>1231.25</ele></trkpt>
   <trkpt lat="47.905054" lon="7.090334"><ele>1231.25</ele></trkpt>
   <trkpt lat="47.905075" lon="7.090391"><ele>1231.25</ele></trkpt>
   <trkpt lat="47.90518" lon="7.090271"><ele>1230.75</ele></trkpt>
   <trkpt lat="47.905283" lon="7.090167"><ele>1230.5</ele></trkpt>
   <trkpt lat="47.905336" lon="7.090115"><ele>1230.5</ele></trkpt>
   <trkpt lat="47.905618" lon="7.089892"><ele>1231</ele></trkpt>
   <trkpt lat="47.905681" lon="7.089813"><ele>1230.75</ele></trkpt>
   <trkpt lat="47.905739" lon="7.089713"><ele>1230.75</ele></trkpt>
   <trkpt lat="47.905781" lon="7.089597"><ele>1231</ele></trkpt>
   <trkpt lat="47.905808" lon="7.089498"><ele>1231</ele></trkpt>
   <trkpt lat="47.905874" lon="7.0891"><ele>1230.75</ele></trkpt>
   <trkpt lat="47.905946" lon="7.088448"><ele>1233.25</ele></trkpt>
   <trkpt lat="47.906001" lon="7.088042"><ele>1233.5</ele></trkpt>
  </trkseg>
 </trk>
</gpx>
