<?xml version="1.0" encoding="UTF-8"?>
<!-- track-length = 5248 filtered ascend = 350 plain-ascend = 348 cost=8005 energy=0.1kwh time=57m 56s -->
<gpx 
 xmlns="http://www.topografix.com/GPX/1/1" 
 xmlns:xsi="http://www.w3.org/2001/XMLSchema-instance" 
 xsi:schemaLocation="http://www.topografix.com/GPX/1/1 http://www.topografix.com/GPX/1/1/gpx.xsd" 
 version="1.1" 
 creator="BRouter-Web 0.18.1">
 <trk>
  <name>Gap (5.2km)</name>
  <trkseg>
      <trkpt lat="44.579709" lon="6.082154"><ele>900.75</ele></trkpt>
   <trkpt lat="44.579758" lon="6.082149"><ele>901.5</ele></trkpt>
   <trkpt lat="44.579801" lon="6.082121"><ele>902</ele></trkpt>
   <trkpt lat="44.57981" lon="6.082079"><ele>902.25</ele></trkpt>
   <trkpt lat="44.580008" lon="6.08209"><ele>904</ele></trkpt>
   <trkpt lat="44.580237" lon="6.082075"><ele>905.25</ele></trkpt>
   <trkpt lat="44.580387" lon="6.082063"><ele>906.25</ele></trkpt>
   <trkpt lat="44.580775" lon="6.082023"><ele>910.5</ele></trkpt>
   <trkpt lat="44.581073" lon="6.081977"><ele>914.25</ele></trkpt>
   <trkpt lat="44.581131" lon="6.081953"><ele>915</ele></trkpt>
   <trkpt lat="44.581187" lon="6.081904"><ele>916</ele></trkpt>
   <trkpt lat="44.581233" lon="6.081851"><ele>916.75</ele></trkpt>
   <trkpt lat="44.581263" lon="6.081794"><ele>917</ele></trkpt>
   <trkpt lat="44.58129" lon="6.081724"><ele>917.5</ele></trkpt>
   <trkpt lat="44.581299" lon="6.081664"><ele>917.5</ele></trkpt>
   <trkpt lat="44.581305" lon="6.081488"><ele>918.75</ele></trkpt>
   <trkpt lat="44.581306" lon="6.081453"><ele>919</ele></trkpt>
   <trkpt lat="44.581299" lon="6.081244"><ele>919.75</ele></trkpt>
   <trkpt lat="44.581285" lon="6.081122"><ele>920</ele></trkpt>
   <trkpt lat="44.581281" lon="6.08109"><ele>920</ele></trkpt>
   <trkpt lat="44.58126" lon="6.080962"><ele>920.25</ele></trkpt>
   <trkpt lat="44.581249" lon="6.080829"><ele>921</ele></trkpt>
   <trkpt lat="44.58125" lon="6.080746"><ele>921.25</ele></trkpt>
   <trkpt lat="44.581267" lon="6.080681"><ele>922</ele></trkpt>
   <trkpt lat="44.581297" lon="6.080623"><ele>922.5</ele></trkpt>
   <trkpt lat="44.581333" lon="6.080591"><ele>923</ele></trkpt>
   <trkpt lat="44.581376" lon="6.080575"><ele>923.75</ele></trkpt>
   <trkpt lat="44.581425" lon="6.08058"><ele>924.75</ele></trkpt>
   <trkpt lat="44.581469" lon="6.080604"><ele>925.5</ele></trkpt>
   <trkpt lat="44.581502" lon="6.080647"><ele>926.25</ele></trkpt>
   <trkpt lat="44.581531" lon="6.080707"><ele>926.25</ele></trkpt>
   <trkpt lat="44.581544" lon="6.080792"><ele>926</ele></trkpt>
   <trkpt lat="44.581563" lon="6.081046"><ele>925.25</ele></trkpt>
   <trkpt lat="44.581573" lon="6.081109"><ele>925.25</ele></trkpt>
   <trkpt lat="44.581623" lon="6.081251"><ele>926.5</ele></trkpt>
   <trkpt lat="44.581663" lon="6.081337"><ele>927.5</ele></trkpt>
   <trkpt lat="44.581714" lon="6.081426"><ele>928.5</ele></trkpt>
   <trkpt lat="44.581769" lon="6.081504"><ele>928.75</ele></trkpt>
   <trkpt lat="44.582401" lon="6.082309"><ele>937.75</ele></trkpt>
   <trkpt lat="44.582448" lon="6.082359"><ele>938.5</ele></trkpt>
   <trkpt lat="44.5825" lon="6.082399"><ele>939.5</ele></trkpt>
   <trkpt lat="44.582536" lon="6.082413"><ele>939.75</ele></trkpt>
   <trkpt lat="44.582579" lon="6.082415"><ele>940</ele></trkpt>
   <trkpt lat="44.582629" lon="6.082393"><ele>940.5</ele></trkpt>
   <trkpt lat="44.582671" lon="6.082337"><ele>941</ele></trkpt>
   <trkpt lat="44.582688" lon="6.082296"><ele>941.25</ele></trkpt>
   <trkpt lat="44.582703" lon="6.082227"><ele>941.75</ele></trkpt>
   <trkpt lat="44.582702" lon="6.082154"><ele>942.75</ele></trkpt>
   <trkpt lat="44.582688" lon="6.082053"><ele>943.75</ele></trkpt>
   <trkpt lat="44.582662" lon="6.081929"><ele>944.5</ele></trkpt>
   <trkpt lat="44.58259" lon="6.081677"><ele>946</ele></trkpt>
   <trkpt lat="44.582344" lon="6.080974"><ele>947.75</ele></trkpt>
   <trkpt lat="44.582314" lon="6.080867"><ele>949</ele></trkpt>
   <trkpt lat="44.582309" lon="6.080789"><ele>949.5</ele></trkpt>
   <trkpt lat="44.582314" lon="6.080726"><ele>949.75</ele></trkpt>
   <trkpt lat="44.582331" lon="6.080676"><ele>950</ele></trkpt>
   <trkpt lat="44.582357" lon="6.080635"><ele>950.25</ele></trkpt>
   <trkpt lat="44.582398" lon="6.080603"><ele>950.75</ele></trkpt>
   <trkpt lat="44.582439" lon="6.080595"><ele>951</ele></trkpt>
   <trkpt lat="44.582474" lon="6.080598"><ele>951.5</ele></trkpt>
   <trkpt lat="44.58251" lon="6.080612"><ele>952</ele></trkpt>
   <trkpt lat="44.582553" lon="6.080656"><ele>953.5</ele></trkpt>
   <trkpt lat="44.582595" lon="6.080737"><ele>954.5</ele></trkpt>
   <trkpt lat="44.582806" lon="6.081308"><ele>955.25</ele></trkpt>
   <trkpt lat="44.582882" lon="6.081447"><ele>955.75</ele></trkpt>
   <trkpt lat="44.582987" lon="6.081599"><ele>956.5</ele></trkpt>
   <trkpt lat="44.583745" lon="6.082522"><ele>966.25</ele></trkpt>
   <trkpt lat="44.58385" lon="6.082666"><ele>967.75</ele></trkpt>
   <trkpt lat="44.583928" lon="6.08279"><ele>968.5</ele></trkpt>
   <trkpt lat="44.584111" lon="6.08313"><ele>968.75</ele></trkpt>
   <trkpt lat="44.584156" lon="6.083184"><ele>969.75</ele></trkpt>
   <trkpt lat="44.584195" lon="6.083212"><ele>970</ele></trkpt>
   <trkpt lat="44.584238" lon="6.08322"><ele>970.5</ele></trkpt>
   <trkpt lat="44.584274" lon="6.083208"><ele>971.25</ele></trkpt>
   <trkpt lat="44.584304" lon="6.083184"><ele>971.75</ele></trkpt>
   <trkpt lat="44.584327" lon="6.083142"><ele>972.25</ele></trkpt>
   <trkpt lat="44.58434" lon="6.083083"><ele>972.5</ele></trkpt>
   <trkpt lat="44.584341" lon="6.083027"><ele>973</ele></trkpt>
   <trkpt lat="44.58433" lon="6.08297"><ele>973.5</ele></trkpt>
   <trkpt lat="44.584299" lon="6.082907"><ele>974</ele></trkpt>
   <trkpt lat="44.584111" lon="6.082665"><ele>973.75</ele></trkpt>
   <trkpt lat="44.584051" lon="6.082567"><ele>974</ele></trkpt>
   <trkpt lat="44.5839" lon="6.082224"><ele>977</ele></trkpt>
   <trkpt lat="44.583845" lon="6.082046"><ele>977.5</ele></trkpt>
   <trkpt lat="44.583835" lon="6.08196"><ele>978.25</ele></trkpt>
   <trkpt lat="44.583839" lon="6.081887"><ele>978.75</ele></trkpt>
   <trkpt lat="44.583851" lon="6.081823"><ele>979.5</ele></trkpt>
   <trkpt lat="44.583875" lon="6.081756"><ele>980.25</ele></trkpt>
   <trkpt lat="44.583903" lon="6.08171"><ele>980.75</ele></trkpt>
   <trkpt lat="44.583978" lon="6.081643"><ele>981.5</ele></trkpt>
   <trkpt lat="44.584083" lon="6.081616"><ele>982.5</ele></trkpt>
   <trkpt lat="44.584147" lon="6.081609"><ele>982.75</ele></trkpt>
   <trkpt lat="44.584569" lon="6.081609"><ele>985.5</ele></trkpt>
   <trkpt lat="44.584931" lon="6.081599"><ele>987.75</ele></trkpt>
   <trkpt lat="44.586086" lon="6.081475"><ele>993.75</ele></trkpt>
   <trkpt lat="44.587125" lon="6.081359"><ele>1001</ele></trkpt>
   <trkpt lat="44.587154" lon="6.081356"><ele>1001.25</ele></trkpt>
   <trkpt lat="44.587297" lon="6.081344"><ele>1002.25</ele></trkpt>
   <trkpt lat="44.588296" lon="6.08125"><ele>1006.25</ele></trkpt>
   <trkpt lat="44.588808" lon="6.081192"><ele>1010.25</ele></trkpt>
   <trkpt lat="44.588955" lon="6.081155"><ele>1012.25</ele></trkpt>
   <trkpt lat="44.589011" lon="6.081128"><ele>1013</ele></trkpt>
   <trkpt lat="44.589069" lon="6.081086"><ele>1014</ele></trkpt>
   <trkpt lat="44.58912" lon="6.081035"><ele>1014.5</ele></trkpt>
   <trkpt lat="44.589162" lon="6.080964"><ele>1015.25</ele></trkpt>
   <trkpt lat="44.589203" lon="6.080881"><ele>1016</ele></trkpt>
   <trkpt lat="44.589339" lon="6.080507"><ele>1018.75</ele></trkpt>
   <trkpt lat="44.589375" lon="6.080422"><ele>1019.75</ele></trkpt>
   <trkpt lat="44.58941" lon="6.080361"><ele>1020.75</ele></trkpt>
   <trkpt lat="44.58944" lon="6.080332"><ele>1021.5</ele></trkpt>
   <trkpt lat="44.589505" lon="6.0803"><ele>1022.25</ele></trkpt>
   <trkpt lat="44.589546" lon="6.080302"><ele>1022.5</ele></trkpt>
   <trkpt lat="44.589617" lon="6.080346"><ele>1023</ele></trkpt>
   <trkpt lat="44.589655" lon="6.080397"><ele>1023.25</ele></trkpt>
   <trkpt lat="44.589682" lon="6.080448"><ele>1023.5</ele></trkpt>
   <trkpt lat="44.589826" lon="6.080826"><ele>1026</ele></trkpt>
   <trkpt lat="44.590287" lon="6.081864"><ele>1033.75</ele></trkpt>
   <trkpt lat="44.590346" lon="6.081951"><ele>1034.75</ele></trkpt>
   <trkpt lat="44.590384" lon="6.081983"><ele>1035.25</ele></trkpt>
   <trkpt lat="44.590418" lon="6.082"><ele>1035.5</ele></trkpt>
   <trkpt lat="44.59046" lon="6.082002"><ele>1036.25</ele></trkpt>
   <trkpt lat="44.590538" lon="6.081957"><ele>1037.5</ele></trkpt>
   <trkpt lat="44.590572" lon="6.081917"><ele>1038.5</ele></trkpt>
   <trkpt lat="44.590606" lon="6.081854"><ele>1039.5</ele></trkpt>
   <trkpt lat="44.590627" lon="6.081795"><ele>1040.25</ele></trkpt>
   <trkpt lat="44.590643" lon="6.081716"><ele>1041</ele></trkpt>
   <trkpt lat="44.590827" lon="6.080296"><ele>1049.5</ele></trkpt>
   <trkpt lat="44.590846" lon="6.080226"><ele>1050</ele></trkpt>
   <trkpt lat="44.590871" lon="6.080175"><ele>1050.25</ele></trkpt>
   <trkpt lat="44.590906" lon="6.080135"><ele>1050.75</ele></trkpt>
   <trkpt lat="44.590952" lon="6.080113"><ele>1051.5</ele></trkpt>
   <trkpt lat="44.591" lon="6.08011"><ele>1052</ele></trkpt>
   <trkpt lat="44.591042" lon="6.080123"><ele>1052.5</ele></trkpt>
   <trkpt lat="44.591084" lon="6.080153"><ele>1053</ele></trkpt>
   <trkpt lat="44.591121" lon="6.080194"><ele>1053.25</ele></trkpt>
   <trkpt lat="44.591928" lon="6.081744"><ele>1064.5</ele></trkpt>
   <trkpt lat="44.591974" lon="6.081814"><ele>1065.25</ele></trkpt>
   <trkpt lat="44.592013" lon="6.081865"><ele>1065.75</ele></trkpt>
   <trkpt lat="44.592062" lon="6.081902"><ele>1066.5</ele></trkpt>
   <trkpt lat="44.5921" lon="6.081916"><ele>1067</ele></trkpt>
   <trkpt lat="44.592141" lon="6.081913"><ele>1067.75</ele></trkpt>
   <trkpt lat="44.592189" lon="6.081892"><ele>1068.5</ele></trkpt>
   <trkpt lat="44.592228" lon="6.081852"><ele>1069</ele></trkpt>
   <trkpt lat="44.592261" lon="6.081753"><ele>1070.25</ele></trkpt>
   <trkpt lat="44.592269" lon="6.081694"><ele>1070.5</ele></trkpt>
   <trkpt lat="44.592258" lon="6.081379"><ele>1071.75</ele></trkpt>
   <trkpt lat="44.592261" lon="6.081245"><ele>1072.75</ele></trkpt>
   <trkpt lat="44.592272" lon="6.081155"><ele>1073.25</ele></trkpt>
   <trkpt lat="44.592334" lon="6.080971"><ele>1074.5</ele></trkpt>
   <trkpt lat="44.592368" lon="6.080907"><ele>1075</ele></trkpt>
   <trkpt lat="44.592406" lon="6.080855"><ele>1075.5</ele></trkpt>
   <trkpt lat="44.592462" lon="6.080802"><ele>1076</ele></trkpt>
   <trkpt lat="44.592573" lon="6.080746"><ele>1077</ele></trkpt>
   <trkpt lat="44.592649" lon="6.080734"><ele>1078</ele></trkpt>
   <trkpt lat="44.592856" lon="6.080727"><ele>1080.25</ele></trkpt>
   <trkpt lat="44.592887" lon="6.080727"><ele>1080.5</ele></trkpt>
   <trkpt lat="44.593347" lon="6.080739"><ele>1086.5</ele></trkpt>
   <trkpt lat="44.593804" lon="6.08075"><ele>1091</ele></trkpt>
   <trkpt lat="44.594845" lon="6.080651"><ele>1103.5</ele></trkpt>
   <trkpt lat="44.594993" lon="6.08065"><ele>1104.75</ele></trkpt>
   <trkpt lat="44.595127" lon="6.080675"><ele>1105.75</ele></trkpt>
   <trkpt lat="44.595264" lon="6.080743"><ele>1106.5</ele></trkpt>
   <trkpt lat="44.595438" lon="6.08088"><ele>1106.25</ele></trkpt>
   <trkpt lat="44.596286" lon="6.081659"><ele>1116</ele></trkpt>
   <trkpt lat="44.596505" lon="6.081883"><ele>1119.75</ele></trkpt>
   <trkpt lat="44.597378" lon="6.082834"><ele>1133.75</ele></trkpt>
   <trkpt lat="44.597762" lon="6.083269"><ele>1139.5</ele></trkpt>
   <trkpt lat="44.597966" lon="6.083481"><ele>1142.25</ele></trkpt>
   <trkpt lat="44.598159" lon="6.08368"><ele>1145.5</ele></trkpt>
   <trkpt lat="44.598302" lon="6.08378"><ele>1148</ele></trkpt>
   <trkpt lat="44.598468" lon="6.083849"><ele>1150.25</ele></trkpt>
   <trkpt lat="44.598553" lon="6.083875"><ele>1151.25</ele></trkpt>
   <trkpt lat="44.59864" lon="6.083891"><ele>1152.25</ele></trkpt>
   <trkpt lat="44.598709" lon="6.083897"><ele>1153.25</ele></trkpt>
   <trkpt lat="44.59887" lon="6.083879"><ele>1155.5</ele></trkpt>
   <trkpt lat="44.598959" lon="6.083854"><ele>1156.75</ele></trkpt>
   <trkpt lat="44.599196" lon="6.083761"><ele>1159.5</ele></trkpt>
   <trkpt lat="44.599286" lon="6.083713"><ele>1161</ele></trkpt>
   <trkpt lat="44.599363" lon="6.08366"><ele>1162</ele></trkpt>
   <trkpt lat="44.599438" lon="6.083597"><ele>1162.75</ele></trkpt>
   <trkpt lat="44.599513" lon="6.083519"><ele>1163.75</ele></trkpt>
   <trkpt lat="44.599698" lon="6.083292"><ele>1166</ele></trkpt>
   <trkpt lat="44.600229" lon="6.082617"><ele>1174.5</ele></trkpt>
   <trkpt lat="44.60031" lon="6.082498"><ele>1175.75</ele></trkpt>
   <trkpt lat="44.600423" lon="6.082282"><ele>1177.5</ele></trkpt>
   <trkpt lat="44.60048" lon="6.082146"><ele>1178.5</ele></trkpt>
   <trkpt lat="44.600574" lon="6.081866"><ele>1180.5</ele></trkpt>
   <trkpt lat="44.600656" lon="6.081537"><ele>1183.25</ele></trkpt>
   <trkpt lat="44.600693" lon="6.081348"><ele>1185</ele></trkpt>
   <trkpt lat="44.600755" lon="6.080961"><ele>1188</ele></trkpt>
   <trkpt lat="44.6008" lon="6.080526"><ele>1191</ele></trkpt>
   <trkpt lat="44.600846" lon="6.079749"><ele>1197</ele></trkpt>
   <trkpt lat="44.600874" lon="6.079548"><ele>1198.25</ele></trkpt>
   <trkpt lat="44.600896" lon="6.079486"><ele>1199</ele></trkpt>
   <trkpt lat="44.600924" lon="6.079434"><ele>1199.25</ele></trkpt>
   <trkpt lat="44.600955" lon="6.079395"><ele>1199.25</ele></trkpt>
   <trkpt lat="44.600993" lon="6.079363"><ele>1199.5</ele></trkpt>
   <trkpt lat="44.601034" lon="6.079347"><ele>1199.75</ele></trkpt>
   <trkpt lat="44.601078" lon="6.079343"><ele>1200.5</ele></trkpt>
   <trkpt lat="44.601121" lon="6.079355"><ele>1201.25</ele></trkpt>
   <trkpt lat="44.601181" lon="6.079394"><ele>1202.5</ele></trkpt>
   <trkpt lat="44.601468" lon="6.079619"><ele>1206</ele></trkpt>
   <trkpt lat="44.601873" lon="6.079947"><ele>1209.25</ele></trkpt>
   <trkpt lat="44.602182" lon="6.080206"><ele>1212</ele></trkpt>
   <trkpt lat="44.602243" lon="6.080254"><ele>1215</ele></trkpt>
   <trkpt lat="44.602573" lon="6.080519"><ele>1215</ele></trkpt>
   <trkpt lat="44.603006" lon="6.080857"><ele>1218.5</ele></trkpt>
   <trkpt lat="44.603189" lon="6.080986"><ele>1220</ele></trkpt>
   <trkpt lat="44.603275" lon="6.081034"><ele>1220.75</ele></trkpt>
   <trkpt lat="44.603426" lon="6.08109"><ele>1221.5</ele></trkpt>
   <trkpt lat="44.603585" lon="6.081119"><ele>1222</ele></trkpt>
   <trkpt lat="44.603682" lon="6.081127"><ele>1222.25</ele></trkpt>
   <trkpt lat="44.604038" lon="6.081146"><ele>1223</ele></trkpt>
   <trkpt lat="44.604332" lon="6.081156"><ele>1223.75</ele></trkpt>
   <trkpt lat="44.604521" lon="6.081167"><ele>1224</ele></trkpt>
   <trkpt lat="44.604546" lon="6.081169"><ele>1224.25</ele></trkpt>
   <trkpt lat="44.604834" lon="6.081175"><ele>1224.75</ele></trkpt>
   <trkpt lat="44.604995" lon="6.081152"><ele>1224.5</ele></trkpt>
   <trkpt lat="44.605526" lon="6.081049"><ele>1224</ele></trkpt>
   <trkpt lat="44.606641" lon="6.080869"><ele>1227</ele></trkpt>
   <trkpt lat="44.607396" lon="6.080746"><ele>1233</ele></trkpt>
   <trkpt lat="44.608367" lon="6.080604"><ele>1237.75</ele></trkpt>
   <trkpt lat="44.608744" lon="6.080541"><ele>1239.25</ele></trkpt>
   <trkpt lat="44.60921" lon="6.080482"><ele>1239.5</ele></trkpt>
   <trkpt lat="44.609429" lon="6.080469"><ele>1240</ele></trkpt>
   <trkpt lat="44.60954" lon="6.080472"><ele>1239.75</ele></trkpt>
   <trkpt lat="44.609711" lon="6.080493"><ele>1239.5</ele></trkpt>
   <trkpt lat="44.611267" lon="6.080747"><ele>1241</ele></trkpt>
   <trkpt lat="44.612394" lon="6.080914"><ele>1244.75</ele></trkpt>
   <trkpt lat="44.61255" lon="6.080939"><ele>1245.25</ele></trkpt>
   <trkpt lat="44.613785" lon="6.081135"><ele>1248.25</ele></trkpt>

  </trkseg>
 </trk>
</gpx>