<?xml version="1.0" encoding="UTF-8"?>
<!-- track-length = 21014 filtered ascend = 1242 plain-ascend = 1056 cost=33184 energy=0.3kwh time=3h 31m 57s -->
<gpx 
 xmlns="http://www.topografix.com/GPX/1/1" 
 xmlns:xsi="http://www.w3.org/2001/XMLSchema-instance" 
 xsi:schemaLocation="http://www.topografix.com/GPX/1/1 http://www.topografix.com/GPX/1/1/gpx.xsd" 
 version="1.1" 
 creator="BRouter-Web 0.18.1">
 <trk>
  <name>galibier (21km)</name>
  <trkseg>
   <trkpt lat="45.16541" lon="6.430593"><ele>1398.5</ele></trkpt>
   <trkpt lat="45.165442" lon="6.430421"><ele>1399.5</ele></trkpt>
   <trkpt lat="45.165485" lon="6.430175"><ele>1401.25</ele></trkpt>
   <trkpt lat="45.165481" lon="6.430078"><ele>1401.5</ele></trkpt>
   <trkpt lat="45.165484" lon="6.429986"><ele>1402</ele></trkpt>
   <trkpt lat="45.165507" lon="6.42986"><ele>1402</ele></trkpt>
   <trkpt lat="45.165568" lon="6.429572"><ele>1401.75</ele></trkpt>
   <trkpt lat="45.16562" lon="6.429443"><ele>1401.5</ele></trkpt>
   <trkpt lat="45.165582" lon="6.429284"><ele>1402.25</ele></trkpt>
   <trkpt lat="45.165566" lon="6.429165"><ele>1402.75</ele></trkpt>
   <trkpt lat="45.165529" lon="6.428907"><ele>1403</ele></trkpt>
   <trkpt lat="45.165529" lon="6.428808"><ele>1403.25</ele></trkpt>
   <trkpt lat="45.165528" lon="6.428636"><ele>1404</ele></trkpt>
   <trkpt lat="45.16554" lon="6.428509"><ele>1404</ele></trkpt>
   <trkpt lat="45.165571" lon="6.428378"><ele>1403.75</ele></trkpt>
   <trkpt lat="45.165589" lon="6.428301"><ele>1404</ele></trkpt>
   <trkpt lat="45.165636" lon="6.4281"><ele>1404.75</ele></trkpt>
   <trkpt lat="45.165653" lon="6.42803"><ele>1405</ele></trkpt>
   <trkpt lat="45.165673" lon="6.427949"><ele>1405.25</ele></trkpt>
   <trkpt lat="45.165721" lon="6.427758"><ele>1405.75</ele></trkpt>
   <trkpt lat="45.165766" lon="6.427553"><ele>1406.75</ele></trkpt>
   <trkpt lat="45.165776" lon="6.427422"><ele>1407.25</ele></trkpt>
   <trkpt lat="45.165754" lon="6.42726"><ele>1408</ele></trkpt>
   <trkpt lat="45.165616" lon="6.42699"><ele>1409.5</ele></trkpt>
   <trkpt lat="45.165603" lon="6.426966"><ele>1409.75</ele></trkpt>
   <trkpt lat="45.165559" lon="6.426897"><ele>1410</ele></trkpt>
   <trkpt lat="45.16545" lon="6.426727"><ele>1411</ele></trkpt>
   <trkpt lat="45.165256" lon="6.426443"><ele>1413.5</ele></trkpt>
   <trkpt lat="45.165224" lon="6.4264"><ele>1413.75</ele></trkpt>
   <trkpt lat="45.165027" lon="6.42612"><ele>1415.5</ele></trkpt>
   <trkpt lat="45.165" lon="6.426079"><ele>1416</ele></trkpt>
   <trkpt lat="45.164927" lon="6.425912"><ele>1416.75</ele></trkpt>
   <trkpt lat="45.164904" lon="6.425858"><ele>1417.25</ele></trkpt>
   <trkpt lat="45.164808" lon="6.425638"><ele>1419</ele></trkpt>
   <trkpt lat="45.16479" lon="6.425571"><ele>1419.5</ele></trkpt>
   <trkpt lat="45.164667" lon="6.425199"><ele>1420.75</ele></trkpt>
   <trkpt lat="45.164648" lon="6.425143"><ele>1420.5</ele></trkpt>
   <trkpt lat="45.164613" lon="6.425043"><ele>1420.5</ele></trkpt>
   <trkpt lat="45.16456" lon="6.424955"><ele>1421.25</ele></trkpt>
   <trkpt lat="45.164417" lon="6.4248"><ele>1423</ele></trkpt>
   <trkpt lat="45.164329" lon="6.424723"><ele>1423.75</ele></trkpt>
   <trkpt lat="45.16423" lon="6.424626"><ele>1424.5</ele></trkpt>
   <trkpt lat="45.164227" lon="6.424581"><ele>1424.5</ele></trkpt>
   <trkpt lat="45.164217" lon="6.424547"><ele>1424.75</ele></trkpt>
   <trkpt lat="45.164199" lon="6.42452"><ele>1425</ele></trkpt>
   <trkpt lat="45.164177" lon="6.424502"><ele>1425.5</ele></trkpt>
   <trkpt lat="45.164151" lon="6.424495"><ele>1425.75</ele></trkpt>
   <trkpt lat="45.164126" lon="6.4245"><ele>1425.75</ele></trkpt>
   <trkpt lat="45.164102" lon="6.424516"><ele>1425.75</ele></trkpt>
   <trkpt lat="45.164044" lon="6.42441"><ele>1426.25</ele></trkpt>
   <trkpt lat="45.16397" lon="6.424294"><ele>1426.75</ele></trkpt>
   <trkpt lat="45.163883" lon="6.424202"><ele>1429</ele></trkpt>
   <trkpt lat="45.16383" lon="6.424131"><ele>1432.5</ele></trkpt>
   <trkpt lat="45.163804" lon="6.424058"><ele>1433</ele></trkpt>
   <trkpt lat="45.163798" lon="6.423983"><ele>1431.75</ele></trkpt>
   <trkpt lat="45.163888" lon="6.423662"><ele>1430.5</ele></trkpt>
   <trkpt lat="45.16392" lon="6.42356"><ele>1432.25</ele></trkpt>
   <trkpt lat="45.163968" lon="6.423386"><ele>1433.75</ele></trkpt>
   <trkpt lat="45.163984" lon="6.423304"><ele>1434.5</ele></trkpt>
   <trkpt lat="45.163992" lon="6.423207"><ele>1435.25</ele></trkpt>
   <trkpt lat="45.163987" lon="6.423099"><ele>1436</ele></trkpt>
   <trkpt lat="45.163946" lon="6.422933"><ele>1437.25</ele></trkpt>
   <trkpt lat="45.163894" lon="6.42283"><ele>1438.25</ele></trkpt>
   <trkpt lat="45.163805" lon="6.422738"><ele>1438.75</ele></trkpt>
   <trkpt lat="45.163747" lon="6.422699"><ele>1438.75</ele></trkpt>
   <trkpt lat="45.163634" lon="6.422644"><ele>1438</ele></trkpt>
   <trkpt lat="45.16345" lon="6.422562"><ele>1438.75</ele></trkpt>
   <trkpt lat="45.163435" lon="6.422557"><ele>1439</ele></trkpt>
   <trkpt lat="45.163313" lon="6.422517"><ele>1440.5</ele></trkpt>
   <trkpt lat="45.1632" lon="6.422448"><ele>1441.5</ele></trkpt>
   <trkpt lat="45.163085" lon="6.422399"><ele>1441.75</ele></trkpt>
   <trkpt lat="45.162685" lon="6.42223"><ele>1443.5</ele></trkpt>
   <trkpt lat="45.162571" lon="6.422193"><ele>1444.25</ele></trkpt>
   <trkpt lat="45.162415" lon="6.422166"><ele>1445.25</ele></trkpt>
   <trkpt lat="45.162148" lon="6.422053"><ele>1445.75</ele></trkpt>
   <trkpt lat="45.162104" lon="6.422027"><ele>1445.75</ele></trkpt>
   <trkpt lat="45.161936" lon="6.421959"><ele>1447.5</ele></trkpt>
   <trkpt lat="45.16182" lon="6.421925"><ele>1448.75</ele></trkpt>
   <trkpt lat="45.161064" lon="6.421835"><ele>1452.25</ele></trkpt>
   <trkpt lat="45.160498" lon="6.421729"><ele>1454.25</ele></trkpt>
   <trkpt lat="45.160389" lon="6.421701"><ele>1454.75</ele></trkpt>
   <trkpt lat="45.160333" lon="6.421687"><ele>1455.25</ele></trkpt>
   <trkpt lat="45.160309" lon="6.421681"><ele>1455.5</ele></trkpt>
   <trkpt lat="45.160257" lon="6.421632"><ele>1456</ele></trkpt>
   <trkpt lat="45.160225" lon="6.42159"><ele>1456.5</ele></trkpt>
   <trkpt lat="45.160204" lon="6.421543"><ele>1456.75</ele></trkpt>
   <trkpt lat="45.160202" lon="6.421513"><ele>1456.75</ele></trkpt>
   <trkpt lat="45.160181" lon="6.421461"><ele>1457.25</ele></trkpt>
   <trkpt lat="45.160145" lon="6.421433"><ele>1457.5</ele></trkpt>
   <trkpt lat="45.160124" lon="6.42143"><ele>1457.75</ele></trkpt>
   <trkpt lat="45.160086" lon="6.421448"><ele>1458</ele></trkpt>
   <trkpt lat="45.159945" lon="6.421506"><ele>1458.25</ele></trkpt>
   <trkpt lat="45.159798" lon="6.421526"><ele>1459</ele></trkpt>
   <trkpt lat="45.159714" lon="6.421519"><ele>1459.5</ele></trkpt>
   <trkpt lat="45.159438" lon="6.421461"><ele>1461.75</ele></trkpt>
   <trkpt lat="45.159123" lon="6.421357"><ele>1464.75</ele></trkpt>
   <trkpt lat="45.159055" lon="6.421345"><ele>1465.25</ele></trkpt>
   <trkpt lat="45.158663" lon="6.42128"><ele>1468.5</ele></trkpt>
   <trkpt lat="45.1585" lon="6.421267"><ele>1469.75</ele></trkpt>
   <trkpt lat="45.158446" lon="6.421248"><ele>1470.25</ele></trkpt>
   <trkpt lat="45.158318" lon="6.421217"><ele>1472</ele></trkpt>
   <trkpt lat="45.158303" lon="6.421214"><ele>1472</ele></trkpt>
   <trkpt lat="45.157441" lon="6.421014"><ele>1480.75</ele></trkpt>
   <trkpt lat="45.157059" lon="6.420929"><ele>1485</ele></trkpt>
   <trkpt lat="45.156378" lon="6.42077"><ele>1491.75</ele></trkpt>
   <trkpt lat="45.155946" lon="6.420678"><ele>1495.25</ele></trkpt>
   <trkpt lat="45.155732" lon="6.420655"><ele>1497.25</ele></trkpt>
   <trkpt lat="45.155637" lon="6.420656"><ele>1498</ele></trkpt>
   <trkpt lat="45.155348" lon="6.420689"><ele>1501.5</ele></trkpt>
   <trkpt lat="45.154985" lon="6.420743"><ele>1505.25</ele></trkpt>
   <trkpt lat="45.154833" lon="6.420764"><ele>1506.75</ele></trkpt>
   <trkpt lat="45.154794" lon="6.420771"><ele>1507.25</ele></trkpt>
   <trkpt lat="45.154448" lon="6.42082"><ele>1511</ele></trkpt>
   <trkpt lat="45.15432" lon="6.420815"><ele>1511.75</ele></trkpt>
   <trkpt lat="45.15388" lon="6.420748"><ele>1515.5</ele></trkpt>
   <trkpt lat="45.153658" lon="6.420713"><ele>1517.75</ele></trkpt>
   <trkpt lat="45.15333" lon="6.420667"><ele>1520</ele></trkpt>
   <trkpt lat="45.15313" lon="6.420667"><ele>1521.75</ele></trkpt>
   <trkpt lat="45.15286" lon="6.420742"><ele>1525.25</ele></trkpt>
   <trkpt lat="45.152738" lon="6.420766"><ele>1526.5</ele></trkpt>
   <trkpt lat="45.152657" lon="6.420758"><ele>1527</ele></trkpt>
   <trkpt lat="45.152417" lon="6.42064"><ele>1529.5</ele></trkpt>
   <trkpt lat="45.152361" lon="6.42061"><ele>1530.25</ele></trkpt>
   <trkpt lat="45.151774" lon="6.420305"><ele>1537.25</ele></trkpt>
   <trkpt lat="45.151695" lon="6.420268"><ele>1537.75</ele></trkpt>
   <trkpt lat="45.151549" lon="6.420218"><ele>1539.25</ele></trkpt>
   <trkpt lat="45.15144" lon="6.420199"><ele>1540.25</ele></trkpt>
   <trkpt lat="45.151383" lon="6.420197"><ele>1540.75</ele></trkpt>
   <trkpt lat="45.151294" lon="6.420215"><ele>1541.25</ele></trkpt>
   <trkpt lat="45.15117" lon="6.420258"><ele>1542.25</ele></trkpt>
   <trkpt lat="45.151147" lon="6.420272"><ele>1542.5</ele></trkpt>
   <trkpt lat="45.151083" lon="6.420308"><ele>1543.25</ele></trkpt>
   <trkpt lat="45.150966" lon="6.420394"><ele>1544.75</ele></trkpt>
   <trkpt lat="45.150884" lon="6.420441"><ele>1545.5</ele></trkpt>
   <trkpt lat="45.150783" lon="6.420482"><ele>1546</ele></trkpt>
   <trkpt lat="45.150683" lon="6.420499"><ele>1546.5</ele></trkpt>
   <trkpt lat="45.150647" lon="6.420503"><ele>1546.75</ele></trkpt>
   <trkpt lat="45.150397" lon="6.420463"><ele>1544.75</ele></trkpt>
   <trkpt lat="45.15035" lon="6.420454"><ele>1544</ele></trkpt>
   <trkpt lat="45.150142" lon="6.420426"><ele>1547</ele></trkpt>
   <trkpt lat="45.150116" lon="6.420425"><ele>1547.75</ele></trkpt>
   <trkpt lat="45.150058" lon="6.420426"><ele>1549.25</ele></trkpt>
   <trkpt lat="45.149953" lon="6.420434"><ele>1551</ele></trkpt>
   <trkpt lat="45.149586" lon="6.420523"><ele>1551.5</ele></trkpt>
   <trkpt lat="45.14949" lon="6.420539"><ele>1551.75</ele></trkpt>
   <trkpt lat="45.149398" lon="6.420536"><ele>1552.25</ele></trkpt>
   <trkpt lat="45.149273" lon="6.420508"><ele>1552.75</ele></trkpt>
   <trkpt lat="45.14913" lon="6.420479"><ele>1553.75</ele></trkpt>
   <trkpt lat="45.148997" lon="6.420467"><ele>1555</ele></trkpt>
   <trkpt lat="45.148859" lon="6.420474"><ele>1556</ele></trkpt>
   <trkpt lat="45.148733" lon="6.420496"><ele>1556</ele></trkpt>
   <trkpt lat="45.148601" lon="6.420539"><ele>1556</ele></trkpt>
   <trkpt lat="45.148524" lon="6.420554"><ele>1556.25</ele></trkpt>
   <trkpt lat="45.148468" lon="6.420556"><ele>1556.5</ele></trkpt>
   <trkpt lat="45.148352" lon="6.420524"><ele>1557</ele></trkpt>
   <trkpt lat="45.148256" lon="6.420482"><ele>1555.75</ele></trkpt>
   <trkpt lat="45.14802" lon="6.420375"><ele>1555.25</ele></trkpt>
   <trkpt lat="45.147952" lon="6.420344"><ele>1556</ele></trkpt>
   <trkpt lat="45.14779" lon="6.420282"><ele>1556.75</ele></trkpt>
   <trkpt lat="45.147689" lon="6.420255"><ele>1556.75</ele></trkpt>
   <trkpt lat="45.147537" lon="6.42023"><ele>1556.5</ele></trkpt>
   <trkpt lat="45.147312" lon="6.420234"><ele>1556.25</ele></trkpt>
   <trkpt lat="45.147145" lon="6.420257"><ele>1556</ele></trkpt>
   <trkpt lat="45.147032" lon="6.420278"><ele>1556</ele></trkpt>
   <trkpt lat="45.146922" lon="6.42028"><ele>1556</ele></trkpt>
   <trkpt lat="45.146902" lon="6.420281"><ele>1556</ele></trkpt>
   <trkpt lat="45.146805" lon="6.420267"><ele>1556</ele></trkpt>
   <trkpt lat="45.146654" lon="6.42023"><ele>1556.25</ele></trkpt>
   <trkpt lat="45.146378" lon="6.420163"><ele>1558</ele></trkpt>
   <trkpt lat="45.146318" lon="6.420149"><ele>1558</ele></trkpt>
   <trkpt lat="45.145909" lon="6.420055"><ele>1558.5</ele></trkpt>
   <trkpt lat="45.14585" lon="6.42004"><ele>1558.75</ele></trkpt>
   <trkpt lat="45.145414" lon="6.419941"><ele>1559.5</ele></trkpt>
   <trkpt lat="45.145214" lon="6.419897"><ele>1560</ele></trkpt>
   <trkpt lat="45.145091" lon="6.419871"><ele>1560</ele></trkpt>
   <trkpt lat="45.144959" lon="6.419839"><ele>1560</ele></trkpt>
   <trkpt lat="45.144776" lon="6.419809"><ele>1560.75</ele></trkpt>
   <trkpt lat="45.144667" lon="6.419805"><ele>1561</ele></trkpt>
   <trkpt lat="45.14432" lon="6.419788"><ele>1562</ele></trkpt>
   <trkpt lat="45.144268" lon="6.419786"><ele>1562.25</ele></trkpt>
   <trkpt lat="45.144112" lon="6.419779"><ele>1562.75</ele></trkpt>
   <trkpt lat="45.14386" lon="6.419781"><ele>1563</ele></trkpt>
   <trkpt lat="45.143819" lon="6.41978"><ele>1563.25</ele></trkpt>
   <trkpt lat="45.143775" lon="6.419779"><ele>1563.25</ele></trkpt>
   <trkpt lat="45.143167" lon="6.419765"><ele>1565.25</ele></trkpt>
   <trkpt lat="45.143139" lon="6.419765"><ele>1565.25</ele></trkpt>
   <trkpt lat="45.142812" lon="6.419757"><ele>1565.75</ele></trkpt>
   <trkpt lat="45.142072" lon="6.419743"><ele>1567.75</ele></trkpt>
   <trkpt lat="45.141854" lon="6.419747"><ele>1568</ele></trkpt>
   <trkpt lat="45.141191" lon="6.419777"><ele>1569.75</ele></trkpt>
   <trkpt lat="45.139021" lon="6.41991"><ele>1578.75</ele></trkpt>
   <trkpt lat="45.138852" lon="6.419918"><ele>1579.5</ele></trkpt>
   <trkpt lat="45.138749" lon="6.419912"><ele>1580</ele></trkpt>
   <trkpt lat="45.138625" lon="6.419886"><ele>1581</ele></trkpt>
   <trkpt lat="45.13826" lon="6.419778"><ele>1582</ele></trkpt>
   <trkpt lat="45.138012" lon="6.419695"><ele>1583.25</ele></trkpt>
   <trkpt lat="45.137628" lon="6.419542"><ele>1584.75</ele></trkpt>
   <trkpt lat="45.137443" lon="6.419463"><ele>1585.5</ele></trkpt>
   <trkpt lat="45.137324" lon="6.419423"><ele>1586.25</ele></trkpt>
   <trkpt lat="45.13726" lon="6.41942"><ele>1586.25</ele></trkpt>
   <trkpt lat="45.137223" lon="6.419431"><ele>1586</ele></trkpt>
   <trkpt lat="45.13718" lon="6.419462"><ele>1586</ele></trkpt>
   <trkpt lat="45.137127" lon="6.419522"><ele>1586.25</ele></trkpt>
   <trkpt lat="45.136964" lon="6.419745"><ele>1587.25</ele></trkpt>
   <trkpt lat="45.136919" lon="6.41979"><ele>1587.25</ele></trkpt>
   <trkpt lat="45.136876" lon="6.41982"><ele>1588.5</ele></trkpt>
   <trkpt lat="45.136782" lon="6.419842"><ele>1589.75</ele></trkpt>
   <trkpt lat="45.136672" lon="6.419841"><ele>1590.5</ele></trkpt>
   <trkpt lat="45.135996" lon="6.419757"><ele>1587</ele></trkpt>
   <trkpt lat="45.135798" lon="6.419716"><ele>1587</ele></trkpt>
   <trkpt lat="45.135191" lon="6.419539"><ele>1587.5</ele></trkpt>
   <trkpt lat="45.134059" lon="6.419201"><ele>1589.75</ele></trkpt>
   <trkpt lat="45.133246" lon="6.418969"><ele>1592.75</ele></trkpt>
   <trkpt lat="45.132795" lon="6.418829"><ele>1594</ele></trkpt>
   <trkpt lat="45.132681" lon="6.418796"><ele>1595.75</ele></trkpt>
   <trkpt lat="45.132269" lon="6.418679"><ele>1595.75</ele></trkpt>
   <trkpt lat="45.132241" lon="6.418671"><ele>1595.75</ele></trkpt>
   <trkpt lat="45.130687" lon="6.418357"><ele>1601</ele></trkpt>
   <trkpt lat="45.130448" lon="6.418317"><ele>1601.5</ele></trkpt>
   <trkpt lat="45.130215" lon="6.418302"><ele>1602.5</ele></trkpt>
   <trkpt lat="45.128679" lon="6.418343"><ele>1610.25</ele></trkpt>
   <trkpt lat="45.128393" lon="6.418373"><ele>1611.75</ele></trkpt>
   <trkpt lat="45.128112" lon="6.418421"><ele>1613.5</ele></trkpt>
   <trkpt lat="45.127587" lon="6.418494"><ele>1615</ele></trkpt>
   <trkpt lat="45.127" lon="6.418582"><ele>1618.5</ele></trkpt>
   <trkpt lat="45.12658" lon="6.418633"><ele>1621.5</ele></trkpt>
   <trkpt lat="45.126434" lon="6.418638"><ele>1623.25</ele></trkpt>
   <trkpt lat="45.126174" lon="6.418629"><ele>1625.25</ele></trkpt>
   <trkpt lat="45.125687" lon="6.418649"><ele>1629.5</ele></trkpt>
   <trkpt lat="45.125119" lon="6.418666"><ele>1634</ele></trkpt>
   <trkpt lat="45.125044" lon="6.418651"><ele>1634.5</ele></trkpt>
   <trkpt lat="45.124997" lon="6.418633"><ele>1634.75</ele></trkpt>
   <trkpt lat="45.124946" lon="6.418601"><ele>1635.75</ele></trkpt>
   <trkpt lat="45.124888" lon="6.41855"><ele>1636.75</ele></trkpt>
   <trkpt lat="45.124821" lon="6.418476"><ele>1637.5</ele></trkpt>
   <trkpt lat="45.124559" lon="6.418141"><ele>1640</ele></trkpt>
   <trkpt lat="45.12448" lon="6.418047"><ele>1641.5</ele></trkpt>
   <trkpt lat="45.124425" lon="6.417994"><ele>1641.75</ele></trkpt>
   <trkpt lat="45.124353" lon="6.41794"><ele>1641.75</ele></trkpt>
   <trkpt lat="45.124237" lon="6.417873"><ele>1643.5</ele></trkpt>
   <trkpt lat="45.123952" lon="6.417635"><ele>1646.75</ele></trkpt>
   <trkpt lat="45.123886" lon="6.417595"><ele>1648.25</ele></trkpt>
   <trkpt lat="45.123848" lon="6.417583"><ele>1648.75</ele></trkpt>
   <trkpt lat="45.123798" lon="6.41759"><ele>1649.25</ele></trkpt>
   <trkpt lat="45.123765" lon="6.417612"><ele>1649.75</ele></trkpt>
   <trkpt lat="45.12374" lon="6.41765"><ele>1650.25</ele></trkpt>
   <trkpt lat="45.123726" lon="6.417695"><ele>1650.75</ele></trkpt>
   <trkpt lat="45.123723" lon="6.417746"><ele>1651</ele></trkpt>
   <trkpt lat="45.123732" lon="6.417797"><ele>1651.25</ele></trkpt>
   <trkpt lat="45.123777" lon="6.417923"><ele>1651.5</ele></trkpt>
   <trkpt lat="45.12381" lon="6.418037"><ele>1652</ele></trkpt>
   <trkpt lat="45.123888" lon="6.418395"><ele>1653.25</ele></trkpt>
   <trkpt lat="45.12392" lon="6.418473"><ele>1653.5</ele></trkpt>
   <trkpt lat="45.124023" lon="6.418652"><ele>1653.75</ele></trkpt>
   <trkpt lat="45.124045" lon="6.418705"><ele>1654</ele></trkpt>
   <trkpt lat="45.124057" lon="6.418768"><ele>1654.5</ele></trkpt>
   <trkpt lat="45.124054" lon="6.418832"><ele>1655</ele></trkpt>
   <trkpt lat="45.124041" lon="6.41888"><ele>1655.5</ele></trkpt>
   <trkpt lat="45.124017" lon="6.418918"><ele>1656.25</ele></trkpt>
   <trkpt lat="45.123961" lon="6.418949"><ele>1657.25</ele></trkpt>
   <trkpt lat="45.123919" lon="6.418944"><ele>1657.75</ele></trkpt>
   <trkpt lat="45.123897" lon="6.418933"><ele>1658</ele></trkpt>
   <trkpt lat="45.123703" lon="6.418721"><ele>1658.75</ele></trkpt>
   <trkpt lat="45.123559" lon="6.418624"><ele>1659.5</ele></trkpt>
   <trkpt lat="45.123244" lon="6.418436"><ele>1662.25</ele></trkpt>
   <trkpt lat="45.12233" lon="6.417891"><ele>1668.5</ele></trkpt>
   <trkpt lat="45.122221" lon="6.41785"><ele>1670.5</ele></trkpt>
   <trkpt lat="45.122143" lon="6.417838"><ele>1670.75</ele></trkpt>
   <trkpt lat="45.121926" lon="6.417838"><ele>1672.25</ele></trkpt>
   <trkpt lat="45.120388" lon="6.417915"><ele>1685.75</ele></trkpt>
   <trkpt lat="45.120136" lon="6.417929"><ele>1687.5</ele></trkpt>
   <trkpt lat="45.119594" lon="6.417948"><ele>1693</ele></trkpt>
   <trkpt lat="45.119345" lon="6.417958"><ele>1693.75</ele></trkpt>
   <trkpt lat="45.119288" lon="6.41796"><ele>1693.25</ele></trkpt>
   <trkpt lat="45.11906" lon="6.41797"><ele>1694</ele></trkpt>
   <trkpt lat="45.118927" lon="6.418029"><ele>1697.5</ele></trkpt>
   <trkpt lat="45.11888" lon="6.418067"><ele>1698.75</ele></trkpt>
   <trkpt lat="45.118816" lon="6.418137"><ele>1698.25</ele></trkpt>
   <trkpt lat="45.118743" lon="6.418236"><ele>1698.75</ele></trkpt>
   <trkpt lat="45.118091" lon="6.41931"><ele>1707.5</ele></trkpt>
   <trkpt lat="45.117923" lon="6.419579"><ele>1708.5</ele></trkpt>
   <trkpt lat="45.117859" lon="6.419666"><ele>1709.75</ele></trkpt>
   <trkpt lat="45.117676" lon="6.419855"><ele>1711.75</ele></trkpt>
   <trkpt lat="45.117371" lon="6.420133"><ele>1714.5</ele></trkpt>
   <trkpt lat="45.117226" lon="6.420289"><ele>1716.25</ele></trkpt>
   <trkpt lat="45.116798" lon="6.420814"><ele>1720.75</ele></trkpt>
   <trkpt lat="45.116697" lon="6.420918"><ele>1721.5</ele></trkpt>
   <trkpt lat="45.116615" lon="6.420992"><ele>1721.75</ele></trkpt>
   <trkpt lat="45.116489" lon="6.421071"><ele>1723</ele></trkpt>
   <trkpt lat="45.116159" lon="6.421259"><ele>1726.5</ele></trkpt>
   <trkpt lat="45.115995" lon="6.421367"><ele>1727.5</ele></trkpt>
   <trkpt lat="45.115904" lon="6.421445"><ele>1728.5</ele></trkpt>
   <trkpt lat="45.115741" lon="6.421629"><ele>1730.5</ele></trkpt>
   <trkpt lat="45.115649" lon="6.421751"><ele>1731.75</ele></trkpt>
   <trkpt lat="45.115568" lon="6.421874"><ele>1733</ele></trkpt>
   <trkpt lat="45.115516" lon="6.421977"><ele>1734.25</ele></trkpt>
   <trkpt lat="45.115407" lon="6.42225"><ele>1736</ele></trkpt>
   <trkpt lat="45.115295" lon="6.42257"><ele>1737.75</ele></trkpt>
   <trkpt lat="45.115234" lon="6.422744"><ele>1739.25</ele></trkpt>
   <trkpt lat="45.115169" lon="6.422906"><ele>1740.5</ele></trkpt>
   <trkpt lat="45.115104" lon="6.423029"><ele>1741</ele></trkpt>
   <trkpt lat="45.115016" lon="6.42318"><ele>1741.75</ele></trkpt>
   <trkpt lat="45.114942" lon="6.423291"><ele>1742.75</ele></trkpt>
   <trkpt lat="45.114831" lon="6.423433"><ele>1744.75</ele></trkpt>
   <trkpt lat="45.114778" lon="6.42348"><ele>1745.25</ele></trkpt>
   <trkpt lat="45.11472" lon="6.423518"><ele>1746</ele></trkpt>
   <trkpt lat="45.114666" lon="6.423544"><ele>1746.5</ele></trkpt>
   <trkpt lat="45.114539" lon="6.423576"><ele>1747.75</ele></trkpt>
   <trkpt lat="45.114456" lon="6.423592"><ele>1748.5</ele></trkpt>
   <trkpt lat="45.113915" lon="6.423625"><ele>1754</ele></trkpt>
   <trkpt lat="45.113611" lon="6.42363"><ele>1757.25</ele></trkpt>
   <trkpt lat="45.113314" lon="6.423668"><ele>1760</ele></trkpt>
   <trkpt lat="45.113165" lon="6.4237"><ele>1760.25</ele></trkpt>
   <trkpt lat="45.113032" lon="6.423741"><ele>1760.5</ele></trkpt>
   <trkpt lat="45.112948" lon="6.423793"><ele>1761.5</ele></trkpt>
   <trkpt lat="45.112894" lon="6.423841"><ele>1762.75</ele></trkpt>
   <trkpt lat="45.112838" lon="6.423901"><ele>1764</ele></trkpt>
   <trkpt lat="45.112746" lon="6.42402"><ele>1764.5</ele></trkpt>
   <trkpt lat="45.112687" lon="6.424107"><ele>1764.75</ele></trkpt>
   <trkpt lat="45.112602" lon="6.424208"><ele>1766.5</ele></trkpt>
   <trkpt lat="45.112517" lon="6.424271"><ele>1768</ele></trkpt>
   <trkpt lat="45.112459" lon="6.424297"><ele>1768.75</ele></trkpt>
   <trkpt lat="45.112339" lon="6.424315"><ele>1769.5</ele></trkpt>
   <trkpt lat="45.112176" lon="6.424319"><ele>1770.5</ele></trkpt>
   <trkpt lat="45.111799" lon="6.424305"><ele>1773.25</ele></trkpt>
   <trkpt lat="45.111635" lon="6.424309"><ele>1774</ele></trkpt>
   <trkpt lat="45.111417" lon="6.424328"><ele>1775.75</ele></trkpt>
   <trkpt lat="45.111234" lon="6.42436"><ele>1776.75</ele></trkpt>
   <trkpt lat="45.111163" lon="6.424393"><ele>1777.75</ele></trkpt>
   <trkpt lat="45.110529" lon="6.424836"><ele>1783.25</ele></trkpt>
   <trkpt lat="45.110101" lon="6.425087"><ele>1789</ele></trkpt>
   <trkpt lat="45.109943" lon="6.425205"><ele>1789.75</ele></trkpt>
   <trkpt lat="45.109876" lon="6.425274"><ele>1790</ele></trkpt>
   <trkpt lat="45.109829" lon="6.425336"><ele>1790.5</ele></trkpt>
   <trkpt lat="45.109655" lon="6.425602"><ele>1791.25</ele></trkpt>
   <trkpt lat="45.109476" lon="6.425834"><ele>1793.25</ele></trkpt>
   <trkpt lat="45.109357" lon="6.425951"><ele>1794.5</ele></trkpt>
   <trkpt lat="45.109308" lon="6.425983"><ele>1794.75</ele></trkpt>
   <trkpt lat="45.109269" lon="6.425997"><ele>1795</ele></trkpt>
   <trkpt lat="45.10923" lon="6.426003"><ele>1794.75</ele></trkpt>
   <trkpt lat="45.109141" lon="6.425993"><ele>1795</ele></trkpt>
   <trkpt lat="45.108766" lon="6.425838"><ele>1799.25</ele></trkpt>
   <trkpt lat="45.108653" lon="6.425799"><ele>1800</ele></trkpt>
   <trkpt lat="45.108182" lon="6.425674"><ele>1803</ele></trkpt>
   <trkpt lat="45.107145" lon="6.42537"><ele>1811.5</ele></trkpt>
   <trkpt lat="45.107023" lon="6.425345"><ele>1812.5</ele></trkpt>
   <trkpt lat="45.106856" lon="6.425349"><ele>1814</ele></trkpt>
   <trkpt lat="45.106561" lon="6.4254"><ele>1815.5</ele></trkpt>
   <trkpt lat="45.106302" lon="6.425468"><ele>1817</ele></trkpt>
   <trkpt lat="45.106039" lon="6.425556"><ele>1820.5</ele></trkpt>
   <trkpt lat="45.105744" lon="6.425679"><ele>1823</ele></trkpt>
   <trkpt lat="45.10556" lon="6.425774"><ele>1823.5</ele></trkpt>
   <trkpt lat="45.104906" lon="6.426301"><ele>1830.25</ele></trkpt>
   <trkpt lat="45.104535" lon="6.426612"><ele>1834</ele></trkpt>
   <trkpt lat="45.104371" lon="6.426763"><ele>1835.75</ele></trkpt>
   <trkpt lat="45.104316" lon="6.426842"><ele>1837</ele></trkpt>
   <trkpt lat="45.104271" lon="6.426928"><ele>1838.5</ele></trkpt>
   <trkpt lat="45.104164" lon="6.427254"><ele>1839.25</ele></trkpt>
   <trkpt lat="45.104135" lon="6.427312"><ele>1839.5</ele></trkpt>
   <trkpt lat="45.104109" lon="6.427347"><ele>1839.75</ele></trkpt>
   <trkpt lat="45.104026" lon="6.427409"><ele>1840.5</ele></trkpt>
   <trkpt lat="45.103615" lon="6.427603"><ele>1845.25</ele></trkpt>
   <trkpt lat="45.10312" lon="6.427855"><ele>1850.5</ele></trkpt>
   <trkpt lat="45.102985" lon="6.427947"><ele>1851.25</ele></trkpt>
   <trkpt lat="45.102935" lon="6.428001"><ele>1851.5</ele></trkpt>
   <trkpt lat="45.102873" lon="6.428096"><ele>1852.5</ele></trkpt>
   <trkpt lat="45.102538" lon="6.42871"><ele>1858</ele></trkpt>
   <trkpt lat="45.102413" lon="6.428875"><ele>1859.5</ele></trkpt>
   <trkpt lat="45.102327" lon="6.42894"><ele>1861</ele></trkpt>
   <trkpt lat="45.102244" lon="6.428976"><ele>1861.25</ele></trkpt>
   <trkpt lat="45.101911" lon="6.429062"><ele>1864.25</ele></trkpt>
   <trkpt lat="45.101866" lon="6.429085"><ele>1864.5</ele></trkpt>
   <trkpt lat="45.101812" lon="6.429125"><ele>1865</ele></trkpt>
   <trkpt lat="45.101615" lon="6.429348"><ele>1867.75</ele></trkpt>
   <trkpt lat="45.101556" lon="6.429405"><ele>1868.75</ele></trkpt>
   <trkpt lat="45.101447" lon="6.429482"><ele>1870.75</ele></trkpt>
   <trkpt lat="45.101342" lon="6.429524"><ele>1872</ele></trkpt>
   <trkpt lat="45.101076" lon="6.429605"><ele>1874.5</ele></trkpt>
   <trkpt lat="45.100994" lon="6.429615"><ele>1874.75</ele></trkpt>
   <trkpt lat="45.10089" lon="6.429593"><ele>1874.75</ele></trkpt>
   <trkpt lat="45.100832" lon="6.429547"><ele>1874.75</ele></trkpt>
   <trkpt lat="45.100738" lon="6.429435"><ele>1877.5</ele></trkpt>
   <trkpt lat="45.100634" lon="6.429285"><ele>1877.75</ele></trkpt>
   <trkpt lat="45.100479" lon="6.429086"><ele>1879.25</ele></trkpt>
   <trkpt lat="45.100273" lon="6.428889"><ele>1881</ele></trkpt>
   <trkpt lat="45.100149" lon="6.428837"><ele>1881.75</ele></trkpt>
   <trkpt lat="45.100076" lon="6.428833"><ele>1882.75</ele></trkpt>
   <trkpt lat="45.10001" lon="6.428846"><ele>1884.25</ele></trkpt>
   <trkpt lat="45.099747" lon="6.428925"><ele>1887</ele></trkpt>
   <trkpt lat="45.099647" lon="6.428935"><ele>1888</ele></trkpt>
   <trkpt lat="45.099336" lon="6.428907"><ele>1890.5</ele></trkpt>
   <trkpt lat="45.099262" lon="6.428916"><ele>1891.75</ele></trkpt>
   <trkpt lat="45.099188" lon="6.428945"><ele>1893</ele></trkpt>
   <trkpt lat="45.099135" lon="6.428981"><ele>1893.5</ele></trkpt>
   <trkpt lat="45.099081" lon="6.429035"><ele>1893.75</ele></trkpt>
   <trkpt lat="45.099037" lon="6.429089"><ele>1894</ele></trkpt>
   <trkpt lat="45.098867" lon="6.429393"><ele>1896</ele></trkpt>
   <trkpt lat="45.098773" lon="6.429497"><ele>1898</ele></trkpt>
   <trkpt lat="45.09869" lon="6.429557"><ele>1899.25</ele></trkpt>
   <trkpt lat="45.098532" lon="6.429645"><ele>1900</ele></trkpt>
   <trkpt lat="45.098385" lon="6.4297"><ele>1901</ele></trkpt>
   <trkpt lat="45.098232" lon="6.429745"><ele>1903</ele></trkpt>
   <trkpt lat="45.097985" lon="6.429794"><ele>1905.5</ele></trkpt>
   <trkpt lat="45.097525" lon="6.429935"><ele>1908</ele></trkpt>
   <trkpt lat="45.097317" lon="6.430018"><ele>1911.5</ele></trkpt>
   <trkpt lat="45.0972" lon="6.430087"><ele>1913.5</ele></trkpt>
   <trkpt lat="45.097095" lon="6.430175"><ele>1914</ele></trkpt>
   <trkpt lat="45.096916" lon="6.430357"><ele>1916.5</ele></trkpt>
   <trkpt lat="45.096825" lon="6.430426"><ele>1917.5</ele></trkpt>
   <trkpt lat="45.096733" lon="6.430483"><ele>1918</ele></trkpt>
   <trkpt lat="45.096655" lon="6.430508"><ele>1918.25</ele></trkpt>
   <trkpt lat="45.096575" lon="6.430521"><ele>1919.5</ele></trkpt>
   <trkpt lat="45.096192" lon="6.430492"><ele>1922.75</ele></trkpt>
   <trkpt lat="45.095922" lon="6.430488"><ele>1925.5</ele></trkpt>
   <trkpt lat="45.095618" lon="6.430492"><ele>1927.75</ele></trkpt>
   <trkpt lat="45.095482" lon="6.430514"><ele>1929.25</ele></trkpt>
   <trkpt lat="45.095344" lon="6.430515"><ele>1930</ele></trkpt>
   <trkpt lat="45.095236" lon="6.430497"><ele>1930.75</ele></trkpt>
   <trkpt lat="45.095128" lon="6.430491"><ele>1932.25</ele></trkpt>
   <trkpt lat="45.095025" lon="6.430496"><ele>1934</ele></trkpt>
   <trkpt lat="45.094924" lon="6.430517"><ele>1935</ele></trkpt>
   <trkpt lat="45.094855" lon="6.430544"><ele>1935.75</ele></trkpt>
   <trkpt lat="45.094781" lon="6.430586"><ele>1937</ele></trkpt>
   <trkpt lat="45.094715" lon="6.430644"><ele>1938</ele></trkpt>
   <trkpt lat="45.09448" lon="6.430894"><ele>1939</ele></trkpt>
   <trkpt lat="45.094374" lon="6.430994"><ele>1939</ele></trkpt>
   <trkpt lat="45.094259" lon="6.431088"><ele>1939.75</ele></trkpt>
   <trkpt lat="45.094046" lon="6.431224"><ele>1942</ele></trkpt>
   <trkpt lat="45.093836" lon="6.431388"><ele>1942.25</ele></trkpt>
   <trkpt lat="45.093744" lon="6.431473"><ele>1942.75</ele></trkpt>
   <trkpt lat="45.093642" lon="6.431554"><ele>1943.25</ele></trkpt>
   <trkpt lat="45.093556" lon="6.43161"><ele>1943</ele></trkpt>
   <trkpt lat="45.093378" lon="6.431688"><ele>1944</ele></trkpt>
   <trkpt lat="45.093284" lon="6.431738"><ele>1943.75</ele></trkpt>
   <trkpt lat="45.093199" lon="6.431815"><ele>1944</ele></trkpt>
   <trkpt lat="45.093118" lon="6.431904"><ele>1945</ele></trkpt>
   <trkpt lat="45.093" lon="6.432106"><ele>1946</ele></trkpt>
   <trkpt lat="45.092959" lon="6.432192"><ele>1946.75</ele></trkpt>
   <trkpt lat="45.09291" lon="6.432262"><ele>1947.5</ele></trkpt>
   <trkpt lat="45.092859" lon="6.432302"><ele>1947.5</ele></trkpt>
   <trkpt lat="45.092784" lon="6.432345"><ele>1947</ele></trkpt>
   <trkpt lat="45.092656" lon="6.432409"><ele>1947.5</ele></trkpt>
   <trkpt lat="45.092567" lon="6.432444"><ele>1947.25</ele></trkpt>
   <trkpt lat="45.092354" lon="6.432556"><ele>1948.5</ele></trkpt>
   <trkpt lat="45.092247" lon="6.43263"><ele>1949</ele></trkpt>
   <trkpt lat="45.092141" lon="6.432719"><ele>1948.75</ele></trkpt>
   <trkpt lat="45.091964" lon="6.432906"><ele>1949.25</ele></trkpt>
   <trkpt lat="45.091895" lon="6.433002"><ele>1949</ele></trkpt>
   <trkpt lat="45.091824" lon="6.433135"><ele>1950</ele></trkpt>
   <trkpt lat="45.091687" lon="6.433492"><ele>1951.75</ele></trkpt>
   <trkpt lat="45.091614" lon="6.433618"><ele>1951.75</ele></trkpt>
   <trkpt lat="45.091466" lon="6.433844"><ele>1953.25</ele></trkpt>
   <trkpt lat="45.09141" lon="6.433962"><ele>1953.75</ele></trkpt>
   <trkpt lat="45.091385" lon="6.434044"><ele>1954</ele></trkpt>
   <trkpt lat="45.091278" lon="6.434586"><ele>1956.25</ele></trkpt>
   <trkpt lat="45.091199" lon="6.434826"><ele>1956.75</ele></trkpt>
   <trkpt lat="45.091088" lon="6.434994"><ele>1956.75</ele></trkpt>
   <trkpt lat="45.09103" lon="6.435047"><ele>1957.75</ele></trkpt>
   <trkpt lat="45.090882" lon="6.435139"><ele>1959.25</ele></trkpt>
   <trkpt lat="45.090718" lon="6.435219"><ele>1960</ele></trkpt>
   <trkpt lat="45.090525" lon="6.43529"><ele>1960</ele></trkpt>
   <trkpt lat="45.090313" lon="6.435345"><ele>1961.25</ele></trkpt>
   <trkpt lat="45.090131" lon="6.435357"><ele>1962</ele></trkpt>
   <trkpt lat="45.090048" lon="6.435354"><ele>1962.25</ele></trkpt>
   <trkpt lat="45.089964" lon="6.435341"><ele>1962.5</ele></trkpt>
   <trkpt lat="45.089798" lon="6.435298"><ele>1963.5</ele></trkpt>
   <trkpt lat="45.089592" lon="6.435274"><ele>1964.25</ele></trkpt>
   <trkpt lat="45.089411" lon="6.43528"><ele>1965</ele></trkpt>
   <trkpt lat="45.089218" lon="6.435307"><ele>1966</ele></trkpt>
   <trkpt lat="45.088639" lon="6.435455"><ele>1968.75</ele></trkpt>
   <trkpt lat="45.088461" lon="6.435488"><ele>1969</ele></trkpt>
   <trkpt lat="45.08826" lon="6.435547"><ele>1970</ele></trkpt>
   <trkpt lat="45.088106" lon="6.43562"><ele>1971.5</ele></trkpt>
   <trkpt lat="45.087665" lon="6.435862"><ele>1973.5</ele></trkpt>
   <trkpt lat="45.087536" lon="6.435966"><ele>1974.75</ele></trkpt>
   <trkpt lat="45.087426" lon="6.436082"><ele>1975</ele></trkpt>
   <trkpt lat="45.086922" lon="6.436616"><ele>1979.5</ele></trkpt>
   <trkpt lat="45.0867" lon="6.436868"><ele>1982</ele></trkpt>
   <trkpt lat="45.086245" lon="6.437309"><ele>1986.25</ele></trkpt>
   <trkpt lat="45.0862" lon="6.437346"><ele>1986.75</ele></trkpt>
   <trkpt lat="45.086121" lon="6.437388"><ele>1987</ele></trkpt>
   <trkpt lat="45.086056" lon="6.437399"><ele>1986.75</ele></trkpt>
   <trkpt lat="45.086002" lon="6.437388"><ele>1986.5</ele></trkpt>
   <trkpt lat="45.085928" lon="6.437338"><ele>1986.5</ele></trkpt>
   <trkpt lat="45.085788" lon="6.437167"><ele>1986.5</ele></trkpt>
   <trkpt lat="45.08575" lon="6.437101"><ele>1986.5</ele></trkpt>
   <trkpt lat="45.085702" lon="6.436972"><ele>1986.5</ele></trkpt>
   <trkpt lat="45.085693" lon="6.4369"><ele>1987.5</ele></trkpt>
   <trkpt lat="45.085696" lon="6.436806"><ele>1988.5</ele></trkpt>
   <trkpt lat="45.085702" lon="6.436753"><ele>1989</ele></trkpt>
   <trkpt lat="45.08573" lon="6.436634"><ele>1989.5</ele></trkpt>
   <trkpt lat="45.085801" lon="6.436446"><ele>1989</ele></trkpt>
   <trkpt lat="45.085961" lon="6.436094"><ele>1992.5</ele></trkpt>
   <trkpt lat="45.085998" lon="6.435989"><ele>1993.25</ele></trkpt>
   <trkpt lat="45.086085" lon="6.435691"><ele>1995</ele></trkpt>
   <trkpt lat="45.08612" lon="6.435608"><ele>1994.75</ele></trkpt>
   <trkpt lat="45.086187" lon="6.435481"><ele>1996.25</ele></trkpt>
   <trkpt lat="45.086583" lon="6.4349"><ele>2003.5</ele></trkpt>
   <trkpt lat="45.086662" lon="6.43478"><ele>2003.75</ele></trkpt>
   <trkpt lat="45.086847" lon="6.434473"><ele>2008.75</ele></trkpt>
   <trkpt lat="45.086967" lon="6.434307"><ele>2012</ele></trkpt>
   <trkpt lat="45.087274" lon="6.434014"><ele>2016.5</ele></trkpt>
   <trkpt lat="45.087501" lon="6.433813"><ele>2019.25</ele></trkpt>
   <trkpt lat="45.087751" lon="6.433633"><ele>2020.5</ele></trkpt>
   <trkpt lat="45.087807" lon="6.433587"><ele>2020.5</ele></trkpt>
   <trkpt lat="45.087909" lon="6.433482"><ele>2020.5</ele></trkpt>
   <trkpt lat="45.087973" lon="6.433397"><ele>2022</ele></trkpt>
   <trkpt lat="45.088025" lon="6.433319"><ele>2023.5</ele></trkpt>
   <trkpt lat="45.08808" lon="6.433211"><ele>2024</ele></trkpt>
   <trkpt lat="45.08813" lon="6.433065"><ele>2026.25</ele></trkpt>
   <trkpt lat="45.088172" lon="6.432888"><ele>2028</ele></trkpt>
   <trkpt lat="45.088216" lon="6.432611"><ele>2030.75</ele></trkpt>
   <trkpt lat="45.088243" lon="6.432527"><ele>2030.75</ele></trkpt>
   <trkpt lat="45.088272" lon="6.432472"><ele>2030.5</ele></trkpt>
   <trkpt lat="45.088321" lon="6.43242"><ele>2030</ele></trkpt>
   <trkpt lat="45.088511" lon="6.432285"><ele>2032.5</ele></trkpt>
   <trkpt lat="45.088631" lon="6.432191"><ele>2034</ele></trkpt>
   <trkpt lat="45.088897" lon="6.43191"><ele>2038</ele></trkpt>
   <trkpt lat="45.088991" lon="6.431825"><ele>2039.5</ele></trkpt>
   <trkpt lat="45.089048" lon="6.431784"><ele>2040</ele></trkpt>
   <trkpt lat="45.089279" lon="6.431657"><ele>2041.5</ele></trkpt>
   <trkpt lat="45.089614" lon="6.431429"><ele>2046</ele></trkpt>
   <trkpt lat="45.0899" lon="6.431286"><ele>2047.5</ele></trkpt>
   <trkpt lat="45.08993" lon="6.431266"><ele>2047.75</ele></trkpt>
   <trkpt lat="45.089972" lon="6.431228"><ele>2047.75</ele></trkpt>
   <trkpt lat="45.089986" lon="6.431201"><ele>2048</ele></trkpt>
   <trkpt lat="45.09" lon="6.431122"><ele>2048.75</ele></trkpt>
   <trkpt lat="45.089995" lon="6.431077"><ele>2051.75</ele></trkpt>
   <trkpt lat="45.089986" lon="6.431056"><ele>2053.5</ele></trkpt>
   <trkpt lat="45.08996" lon="6.431031"><ele>2055.75</ele></trkpt>
   <trkpt lat="45.089923" lon="6.431025"><ele>2056.5</ele></trkpt>
   <trkpt lat="45.089868" lon="6.431048"><ele>2055.5</ele></trkpt>
   <trkpt lat="45.089642" lon="6.431203"><ele>2053.25</ele></trkpt>
   <trkpt lat="45.089486" lon="6.431291"><ele>2054.75</ele></trkpt>
   <trkpt lat="45.089355" lon="6.431349"><ele>2054.75</ele></trkpt>
   <trkpt lat="45.089234" lon="6.431371"><ele>2056.25</ele></trkpt>
   <trkpt lat="45.088965" lon="6.431361"><ele>2059.25</ele></trkpt>
   <trkpt lat="45.088805" lon="6.431393"><ele>2060</ele></trkpt>
   <trkpt lat="45.088729" lon="6.431388"><ele>2061.25</ele></trkpt>
   <trkpt lat="45.088696" lon="6.431362"><ele>2062.5</ele></trkpt>
   <trkpt lat="45.088682" lon="6.431338"><ele>2063.5</ele></trkpt>
   <trkpt lat="45.088671" lon="6.431288"><ele>2065</ele></trkpt>
   <trkpt lat="45.088672" lon="6.431259"><ele>2066</ele></trkpt>
   <trkpt lat="45.088676" lon="6.431234"><ele>2066.75</ele></trkpt>
   <trkpt lat="45.088699" lon="6.431188"><ele>2067.75</ele></trkpt>
   <trkpt lat="45.088736" lon="6.431163"><ele>2067.75</ele></trkpt>
   <trkpt lat="45.088769" lon="6.431157"><ele>2067.25</ele></trkpt>
   <trkpt lat="45.089111" lon="6.431186"><ele>2065.25</ele></trkpt>
   <trkpt lat="45.08916" lon="6.431183"><ele>2065.75</ele></trkpt>
   <trkpt lat="45.089202" lon="6.431172"><ele>2065.75</ele></trkpt>
   <trkpt lat="45.089309" lon="6.431118"><ele>2066.5</ele></trkpt>
   <trkpt lat="45.089423" lon="6.431032"><ele>2067.75</ele></trkpt>
   <trkpt lat="45.089582" lon="6.430883"><ele>2070.5</ele></trkpt>
   <trkpt lat="45.089633" lon="6.430848"><ele>2071.75</ele></trkpt>
   <trkpt lat="45.089734" lon="6.430795"><ele>2072.75</ele></trkpt>
   <trkpt lat="45.08997" lon="6.43072"><ele>2073.5</ele></trkpt>
   <trkpt lat="45.090063" lon="6.430655"><ele>2074</ele></trkpt>
   <trkpt lat="45.0903" lon="6.43043"><ele>2077.25</ele></trkpt>
   <trkpt lat="45.090567" lon="6.430198"><ele>2079.25</ele></trkpt>
   <trkpt lat="45.090614" lon="6.430131"><ele>2079.25</ele></trkpt>
   <trkpt lat="45.090626" lon="6.430052"><ele>2080</ele></trkpt>
   <trkpt lat="45.090616" lon="6.429995"><ele>2081</ele></trkpt>
   <trkpt lat="45.090594" lon="6.429949"><ele>2082.75</ele></trkpt>
   <trkpt lat="45.090578" lon="6.429932"><ele>2083.25</ele></trkpt>
   <trkpt lat="45.090539" lon="6.429929"><ele>2083.75</ele></trkpt>
   <trkpt lat="45.090489" lon="6.429956"><ele>2084</ele></trkpt>
   <trkpt lat="45.090217" lon="6.430187"><ele>2084</ele></trkpt>
   <trkpt lat="45.090133" lon="6.430241"><ele>2083.5</ele></trkpt>
   <trkpt lat="45.09005" lon="6.43027"><ele>2083.5</ele></trkpt>
   <trkpt lat="45.089851" lon="6.430308"><ele>2085.25</ele></trkpt>
   <trkpt lat="45.089583" lon="6.430393"><ele>2086.75</ele></trkpt>
   <trkpt lat="45.089517" lon="6.430404"><ele>2087.5</ele></trkpt>
   <trkpt lat="45.089443" lon="6.430401"><ele>2089</ele></trkpt>
   <trkpt lat="45.089401" lon="6.430391"><ele>2089.25</ele></trkpt>
   <trkpt lat="45.089146" lon="6.430275"><ele>2093</ele></trkpt>
   <trkpt lat="45.088847" lon="6.430183"><ele>2098.5</ele></trkpt>
   <trkpt lat="45.088727" lon="6.430157"><ele>2100.25</ele></trkpt>
   <trkpt lat="45.08854" lon="6.430167"><ele>2101.75</ele></trkpt>
   <trkpt lat="45.088286" lon="6.43024"><ele>2103.5</ele></trkpt>
   <trkpt lat="45.088215" lon="6.430247"><ele>2104.25</ele></trkpt>
   <trkpt lat="45.088054" lon="6.430235"><ele>2106.5</ele></trkpt>
   <trkpt lat="45.0879" lon="6.430212"><ele>2108.75</ele></trkpt>
   <trkpt lat="45.087806" lon="6.430214"><ele>2109.5</ele></trkpt>
   <trkpt lat="45.087739" lon="6.430226"><ele>2110.5</ele></trkpt>
   <trkpt lat="45.087426" lon="6.430324"><ele>2113</ele></trkpt>
   <trkpt lat="45.087051" lon="6.4304"><ele>2118.5</ele></trkpt>
   <trkpt lat="45.086976" lon="6.430433"><ele>2119.75</ele></trkpt>
   <trkpt lat="45.086944" lon="6.430458"><ele>2120</ele></trkpt>
   <trkpt lat="45.086897" lon="6.430534"><ele>2120.5</ele></trkpt>
   <trkpt lat="45.086883" lon="6.430577"><ele>2120.75</ele></trkpt>
   <trkpt lat="45.086881" lon="6.430683"><ele>2121.75</ele></trkpt>
   <trkpt lat="45.086905" lon="6.430911"><ele>2122.5</ele></trkpt>
   <trkpt lat="45.086908" lon="6.431009"><ele>2123.25</ele></trkpt>
   <trkpt lat="45.086893" lon="6.431315"><ele>2123.5</ele></trkpt>
   <trkpt lat="45.086869" lon="6.431601"><ele>2125.25</ele></trkpt>
   <trkpt lat="45.086838" lon="6.431748"><ele>2125.75</ele></trkpt>
   <trkpt lat="45.086798" lon="6.431853"><ele>2126.25</ele></trkpt>
   <trkpt lat="45.086727" lon="6.431973"><ele>2128.25</ele></trkpt>
   <trkpt lat="45.086647" lon="6.432068"><ele>2129.75</ele></trkpt>
   <trkpt lat="45.08655" lon="6.432153"><ele>2131</ele></trkpt>
   <trkpt lat="45.086157" lon="6.432453"><ele>2136.25</ele></trkpt>
   <trkpt lat="45.086083" lon="6.432492"><ele>2137.25</ele></trkpt>
   <trkpt lat="45.086047" lon="6.432503"><ele>2137.25</ele></trkpt>
   <trkpt lat="45.085973" lon="6.432501"><ele>2137.75</ele></trkpt>
   <trkpt lat="45.0859" lon="6.432462"><ele>2138.75</ele></trkpt>
   <trkpt lat="45.085845" lon="6.432401"><ele>2140</ele></trkpt>
   <trkpt lat="45.085776" lon="6.432282"><ele>2140.75</ele></trkpt>
   <trkpt lat="45.085757" lon="6.432235"><ele>2141.25</ele></trkpt>
   <trkpt lat="45.08573" lon="6.432134"><ele>2142</ele></trkpt>
   <trkpt lat="45.085715" lon="6.432001"><ele>2143.25</ele></trkpt>
   <trkpt lat="45.085713" lon="6.431823"><ele>2145.25</ele></trkpt>
   <trkpt lat="45.085738" lon="6.431402"><ele>2147</ele></trkpt>
   <trkpt lat="45.085749" lon="6.431276"><ele>2147.25</ele></trkpt>
   <trkpt lat="45.085773" lon="6.431024"><ele>2149</ele></trkpt>
   <trkpt lat="45.085786" lon="6.430942"><ele>2149.75</ele></trkpt>
   <trkpt lat="45.085808" lon="6.430854"><ele>2150.75</ele></trkpt>
   <trkpt lat="45.085878" lon="6.430688"><ele>2152.5</ele></trkpt>
   <trkpt lat="45.086187" lon="6.430086"><ele>2158.25</ele></trkpt>
   <trkpt lat="45.086274" lon="6.429953"><ele>2160</ele></trkpt>
   <trkpt lat="45.086365" lon="6.429865"><ele>2160.25</ele></trkpt>
   <trkpt lat="45.086617" lon="6.429669"><ele>2159.75</ele></trkpt>
   <trkpt lat="45.086645" lon="6.429636"><ele>2159.75</ele></trkpt>
   <trkpt lat="45.086677" lon="6.429577"><ele>2160.5</ele></trkpt>
   <trkpt lat="45.086691" lon="6.429511"><ele>2162</ele></trkpt>
   <trkpt lat="45.086683" lon="6.429432"><ele>2163.5</ele></trkpt>
   <trkpt lat="45.086651" lon="6.42937"><ele>2164.25</ele></trkpt>
   <trkpt lat="45.086628" lon="6.429343"><ele>2165</ele></trkpt>
   <trkpt lat="45.086598" lon="6.429323"><ele>2165.5</ele></trkpt>
   <trkpt lat="45.086549" lon="6.429315"><ele>2166</ele></trkpt>
   <trkpt lat="45.086489" lon="6.429347"><ele>2165.75</ele></trkpt>
   <trkpt lat="45.086455" lon="6.429385"><ele>2165.75</ele></trkpt>
   <trkpt lat="45.086357" lon="6.429533"><ele>2165.5</ele></trkpt>
   <trkpt lat="45.086215" lon="6.429703"><ele>2165.5</ele></trkpt>
   <trkpt lat="45.086114" lon="6.429803"><ele>2165.5</ele></trkpt>
   <trkpt lat="45.086074" lon="6.429834"><ele>2166</ele></trkpt>
   <trkpt lat="45.085953" lon="6.429893"><ele>2168.75</ele></trkpt>
   <trkpt lat="45.085663" lon="6.429942"><ele>2172</ele></trkpt>
   <trkpt lat="45.085494" lon="6.42995"><ele>2173</ele></trkpt>
   <trkpt lat="45.085379" lon="6.429928"><ele>2174</ele></trkpt>
   <trkpt lat="45.085236" lon="6.429858"><ele>2176.25</ele></trkpt>
   <trkpt lat="45.085124" lon="6.429777"><ele>2177.25</ele></trkpt>
   <trkpt lat="45.085064" lon="6.42971"><ele>2178.25</ele></trkpt>
   <trkpt lat="45.085011" lon="6.429591"><ele>2178.5</ele></trkpt>
   <trkpt lat="45.084948" lon="6.429313"><ele>2180.75</ele></trkpt>
   <trkpt lat="45.084921" lon="6.429237"><ele>2181.25</ele></trkpt>
   <trkpt lat="45.084878" lon="6.429145"><ele>2181.75</ele></trkpt>
   <trkpt lat="45.084817" lon="6.42904"><ele>2182.75</ele></trkpt>
   <trkpt lat="45.084678" lon="6.428845"><ele>2185.25</ele></trkpt>
   <trkpt lat="45.084624" lon="6.428759"><ele>2186.5</ele></trkpt>
   <trkpt lat="45.084327" lon="6.42815"><ele>2193.5</ele></trkpt>
   <trkpt lat="45.084252" lon="6.428023"><ele>2195.5</ele></trkpt>
   <trkpt lat="45.084208" lon="6.42797"><ele>2195.5</ele></trkpt>
   <trkpt lat="45.084156" lon="6.427924"><ele>2195.75</ele></trkpt>
   <trkpt lat="45.083808" lon="6.427723"><ele>2199.25</ele></trkpt>
   <trkpt lat="45.083743" lon="6.427673"><ele>2199.5</ele></trkpt>
   <trkpt lat="45.083692" lon="6.427624"><ele>2200</ele></trkpt>
   <trkpt lat="45.083508" lon="6.427366"><ele>2204.25</ele></trkpt>
   <trkpt lat="45.083421" lon="6.427271"><ele>2205.5</ele></trkpt>
   <trkpt lat="45.083386" lon="6.427243"><ele>2206</ele></trkpt>
   <trkpt lat="45.083338" lon="6.427218"><ele>2206</ele></trkpt>
   <trkpt lat="45.082304" lon="6.426761"><ele>2215.5</ele></trkpt>
   <trkpt lat="45.082216" lon="6.426714"><ele>2217</ele></trkpt>
   <trkpt lat="45.081311" lon="6.42614"><ele>2229.25</ele></trkpt>
   <trkpt lat="45.081182" lon="6.42605"><ele>2231.25</ele></trkpt>
   <trkpt lat="45.081069" lon="6.425979"><ele>2232.5</ele></trkpt>
   <trkpt lat="45.081" lon="6.425947"><ele>2233.25</ele></trkpt>
   <trkpt lat="45.080915" lon="6.425925"><ele>2233.75</ele></trkpt>
   <trkpt lat="45.080847" lon="6.425934"><ele>2233.75</ele></trkpt>
   <trkpt lat="45.080779" lon="6.425966"><ele>2234.25</ele></trkpt>
   <trkpt lat="45.080709" lon="6.426027"><ele>2235</ele></trkpt>
   <trkpt lat="45.080656" lon="6.426091"><ele>2235.25</ele></trkpt>
   <trkpt lat="45.080646" lon="6.426107"><ele>2235.25</ele></trkpt>
   <trkpt lat="45.080481" lon="6.426365"><ele>2238.25</ele></trkpt>
   <trkpt lat="45.080435" lon="6.426427"><ele>2238.75</ele></trkpt>
   <trkpt lat="45.080364" lon="6.426504"><ele>2239.5</ele></trkpt>
   <trkpt lat="45.080328" lon="6.426527"><ele>2240</ele></trkpt>
   <trkpt lat="45.080263" lon="6.426554"><ele>2240.75</ele></trkpt>
   <trkpt lat="45.079784" lon="6.426687"><ele>2245.75</ele></trkpt>
   <trkpt lat="45.07969" lon="6.426698"><ele>2246.75</ele></trkpt>
   <trkpt lat="45.079619" lon="6.426687"><ele>2247</ele></trkpt>
   <trkpt lat="45.079531" lon="6.426637"><ele>2248</ele></trkpt>
   <trkpt lat="45.079019" lon="6.426204"><ele>2254</ele></trkpt>
   <trkpt lat="45.078326" lon="6.42557"><ele>2263.75</ele></trkpt>
   <trkpt lat="45.078083" lon="6.425337"><ele>2266.75</ele></trkpt>
   <trkpt lat="45.077979" lon="6.425213"><ele>2268.5</ele></trkpt>
   <trkpt lat="45.07794" lon="6.425152"><ele>2269.25</ele></trkpt>
   <trkpt lat="45.077913" lon="6.425095"><ele>2270.25</ele></trkpt>
   <trkpt lat="45.077891" lon="6.425016"><ele>2271.5</ele></trkpt>
   <trkpt lat="45.077881" lon="6.42495"><ele>2272.25</ele></trkpt>
   <trkpt lat="45.077881" lon="6.424908"><ele>2272.5</ele></trkpt>
   <trkpt lat="45.077899" lon="6.42481"><ele>2273</ele></trkpt>
   <trkpt lat="45.077928" lon="6.42474"><ele>2273.25</ele></trkpt>
   <trkpt lat="45.077983" lon="6.424674"><ele>2273.75</ele></trkpt>
   <trkpt lat="45.078115" lon="6.424609"><ele>2274.75</ele></trkpt>
   <trkpt lat="45.078218" lon="6.424548"><ele>2275.5</ele></trkpt>
   <trkpt lat="45.078295" lon="6.424469"><ele>2276.5</ele></trkpt>
   <trkpt lat="45.0785" lon="6.42418"><ele>2279.5</ele></trkpt>
   <trkpt lat="45.078688" lon="6.42393"><ele>2282</ele></trkpt>
   <trkpt lat="45.078763" lon="6.423815"><ele>2283.25</ele></trkpt>
   <trkpt lat="45.078783" lon="6.423769"><ele>2283.75</ele></trkpt>
   <trkpt lat="45.078811" lon="6.423675"><ele>2284.75</ele></trkpt>
   <trkpt lat="45.078825" lon="6.423582"><ele>2285.5</ele></trkpt>
   <trkpt lat="45.078872" lon="6.423163"><ele>2287.25</ele></trkpt>
   <trkpt lat="45.078896" lon="6.423018"><ele>2288</ele></trkpt>
   <trkpt lat="45.078937" lon="6.422847"><ele>2289</ele></trkpt>
   <trkpt lat="45.07896" lon="6.422781"><ele>2289.5</ele></trkpt>
   <trkpt lat="45.079007" lon="6.422678"><ele>2290</ele></trkpt>
   <trkpt lat="45.079049" lon="6.422609"><ele>2290.75</ele></trkpt>
   <trkpt lat="45.079199" lon="6.422404"><ele>2291.75</ele></trkpt>
   <trkpt lat="45.079544" lon="6.421952"><ele>2295</ele></trkpt>
   <trkpt lat="45.07961" lon="6.421879"><ele>2296.25</ele></trkpt>
   <trkpt lat="45.079672" lon="6.421845"><ele>2297.75</ele></trkpt>
   <trkpt lat="45.079702" lon="6.42184"><ele>2298.25</ele></trkpt>
   <trkpt lat="45.079762" lon="6.421852"><ele>2299.75</ele></trkpt>
   <trkpt lat="45.079814" lon="6.421886"><ele>2300.75</ele></trkpt>
   <trkpt lat="45.07984" lon="6.421915"><ele>2301</ele></trkpt>
   <trkpt lat="45.079863" lon="6.421946"><ele>2301.5</ele></trkpt>
   <trkpt lat="45.079902" lon="6.42202"><ele>2301.75</ele></trkpt>
   <trkpt lat="45.07992" lon="6.422075"><ele>2301.75</ele></trkpt>
   <trkpt lat="45.079936" lon="6.422159"><ele>2301</ele></trkpt>
   <trkpt lat="45.079949" lon="6.422425"><ele>2300.75</ele></trkpt>
   <trkpt lat="45.079977" lon="6.422524"><ele>2301.25</ele></trkpt>
   <trkpt lat="45.080024" lon="6.422594"><ele>2302</ele></trkpt>
   <trkpt lat="45.08014" lon="6.422731"><ele>2304</ele></trkpt>
   <trkpt lat="45.080193" lon="6.422834"><ele>2304.75</ele></trkpt>
   <trkpt lat="45.080229" lon="6.422934"><ele>2305.25</ele></trkpt>
   <trkpt lat="45.080246" lon="6.423006"><ele>2305.25</ele></trkpt>
   <trkpt lat="45.080264" lon="6.423133"><ele>2306</ele></trkpt>
   <trkpt lat="45.08026" lon="6.423249"><ele>2306.75</ele></trkpt>
   <trkpt lat="45.080242" lon="6.423376"><ele>2307.25</ele></trkpt>
   <trkpt lat="45.080165" lon="6.423672"><ele>2306.25</ele></trkpt>
   <trkpt lat="45.080156" lon="6.423765"><ele>2306.25</ele></trkpt>
   <trkpt lat="45.080172" lon="6.423839"><ele>2307</ele></trkpt>
   <trkpt lat="45.080206" lon="6.423896"><ele>2308</ele></trkpt>
   <trkpt lat="45.080251" lon="6.423921"><ele>2308.5</ele></trkpt>
   <trkpt lat="45.080306" lon="6.423916"><ele>2310.75</ele></trkpt>
   <trkpt lat="45.080335" lon="6.423897"><ele>2312.75</ele></trkpt>
   <trkpt lat="45.08036" lon="6.423867"><ele>2314.25</ele></trkpt>
   <trkpt lat="45.080388" lon="6.423793"><ele>2315.5</ele></trkpt>
   <trkpt lat="45.08041" lon="6.423479"><ele>2314.75</ele></trkpt>
   <trkpt lat="45.080471" lon="6.423181"><ele>2314.75</ele></trkpt>
   <trkpt lat="45.080571" lon="6.422743"><ele>2317.25</ele></trkpt>
   <trkpt lat="45.080648" lon="6.422479"><ele>2318.25</ele></trkpt>
   <trkpt lat="45.080834" lon="6.421992"><ele>2322</ele></trkpt>
   <trkpt lat="45.080861" lon="6.421908"><ele>2322.75</ele></trkpt>
   <trkpt lat="45.080905" lon="6.421729"><ele>2324</ele></trkpt>
   <trkpt lat="45.080976" lon="6.421244"><ele>2326.25</ele></trkpt>
   <trkpt lat="45.081042" lon="6.420962"><ele>2327.75</ele></trkpt>
   <trkpt lat="45.08106" lon="6.420858"><ele>2328</ele></trkpt>
   <trkpt lat="45.081066" lon="6.420759"><ele>2329</ele></trkpt>
   <trkpt lat="45.081063" lon="6.420697"><ele>2329.5</ele></trkpt>
   <trkpt lat="45.081054" lon="6.420587"><ele>2330.25</ele></trkpt>
   <trkpt lat="45.081038" lon="6.420485"><ele>2331.5</ele></trkpt>
   <trkpt lat="45.08083" lon="6.419313"><ele>2337.75</ele></trkpt>
   <trkpt lat="45.080815" lon="6.419082"><ele>2338.75</ele></trkpt>
   <trkpt lat="45.08079" lon="6.41809"><ele>2345</ele></trkpt>
   <trkpt lat="45.080768" lon="6.417663"><ele>2348.75</ele></trkpt>
   <trkpt lat="45.080747" lon="6.417464"><ele>2350</ele></trkpt>
   <trkpt lat="45.080709" lon="6.417311"><ele>2351</ele></trkpt>
   <trkpt lat="45.080667" lon="6.417195"><ele>2351.5</ele></trkpt>
   <trkpt lat="45.080585" lon="6.417002"><ele>2352.5</ele></trkpt>
   <trkpt lat="45.080539" lon="6.416913"><ele>2353.25</ele></trkpt>
   <trkpt lat="45.080461" lon="6.416792"><ele>2354.5</ele></trkpt>
   <trkpt lat="45.080362" lon="6.416685"><ele>2355.75</ele></trkpt>
   <trkpt lat="45.080108" lon="6.416498"><ele>2357.25</ele></trkpt>
   <trkpt lat="45.079666" lon="6.416203"><ele>2362</ele></trkpt>
   <trkpt lat="45.079593" lon="6.416133"><ele>2362.75</ele></trkpt>
   <trkpt lat="45.079565" lon="6.416091"><ele>2363.25</ele></trkpt>
   <trkpt lat="45.079531" lon="6.416037"><ele>2363.5</ele></trkpt>
   <trkpt lat="45.079285" lon="6.415548"><ele>2366.5</ele></trkpt>
   <trkpt lat="45.079242" lon="6.415433"><ele>2367.5</ele></trkpt>
   <trkpt lat="45.079214" lon="6.415295"><ele>2369</ele></trkpt>
   <trkpt lat="45.079174" lon="6.414969"><ele>2371.5</ele></trkpt>
   <trkpt lat="45.079134" lon="6.414808"><ele>2372.25</ele></trkpt>
   <trkpt lat="45.079097" lon="6.414721"><ele>2373</ele></trkpt>
   <trkpt lat="45.078984" lon="6.414506"><ele>2375.5</ele></trkpt>
   <trkpt lat="45.078855" lon="6.414278"><ele>2376.25</ele></trkpt>
   <trkpt lat="45.07877" lon="6.414154"><ele>2377</ele></trkpt>
   <trkpt lat="45.078645" lon="6.414029"><ele>2378.75</ele></trkpt>
   <trkpt lat="45.07762" lon="6.413163"><ele>2388.75</ele></trkpt>
   <trkpt lat="45.077507" lon="6.413046"><ele>2389.5</ele></trkpt>
   <trkpt lat="45.07732" lon="6.412806"><ele>2393</ele></trkpt>
   <trkpt lat="45.077249" lon="6.412729"><ele>2393.5</ele></trkpt>
   <trkpt lat="45.077158" lon="6.412637"><ele>2394.75</ele></trkpt>
   <trkpt lat="45.077132" lon="6.412613"><ele>2398</ele></trkpt>
   <trkpt lat="45.076676" lon="6.412203"><ele>2398</ele></trkpt>
   <trkpt lat="45.076534" lon="6.412089"><ele>2400.5</ele></trkpt>
   <trkpt lat="45.076267" lon="6.411915"><ele>2403</ele></trkpt>
   <trkpt lat="45.076229" lon="6.411897"><ele>2403.5</ele></trkpt>
   <trkpt lat="45.076162" lon="6.411887"><ele>2403.5</ele></trkpt>
   <trkpt lat="45.076099" lon="6.411902"><ele>2403.5</ele></trkpt>
   <trkpt lat="45.076044" lon="6.411943"><ele>2404</ele></trkpt>
   <trkpt lat="45.076019" lon="6.411975"><ele>2404.25</ele></trkpt>
   <trkpt lat="45.075978" lon="6.412059"><ele>2405</ele></trkpt>
   <trkpt lat="45.075955" lon="6.412155"><ele>2405.75</ele></trkpt>
   <trkpt lat="45.075947" lon="6.41238"><ele>2406.25</ele></trkpt>
   <trkpt lat="45.075939" lon="6.412433"><ele>2406.75</ele></trkpt>
   <trkpt lat="45.075926" lon="6.41248"><ele>2407.5</ele></trkpt>
   <trkpt lat="45.075907" lon="6.412521"><ele>2408</ele></trkpt>
   <trkpt lat="45.075847" lon="6.412608"><ele>2408.5</ele></trkpt>
   <trkpt lat="45.075729" lon="6.412712"><ele>2409.75</ele></trkpt>
   <trkpt lat="45.075223" lon="6.413101"><ele>2414.5</ele></trkpt>
   <trkpt lat="45.075063" lon="6.413211"><ele>2416.5</ele></trkpt>
   <trkpt lat="45.074966" lon="6.413252"><ele>2417.75</ele></trkpt>
   <trkpt lat="45.074511" lon="6.413323"><ele>2423</ele></trkpt>
   <trkpt lat="45.074283" lon="6.413348"><ele>2424.5</ele></trkpt>
   <trkpt lat="45.074184" lon="6.413345"><ele>2425.5</ele></trkpt>
   <trkpt lat="45.074108" lon="6.413306"><ele>2425.75</ele></trkpt>
   <trkpt lat="45.074074" lon="6.41327"><ele>2426</ele></trkpt>
   <trkpt lat="45.074033" lon="6.413215"><ele>2426.75</ele></trkpt>
   <trkpt lat="45.073901" lon="6.412983"><ele>2429</ele></trkpt>
   <trkpt lat="45.07382" lon="6.412871"><ele>2430.25</ele></trkpt>
   <trkpt lat="45.073734" lon="6.412798"><ele>2431.5</ele></trkpt>
   <trkpt lat="45.07366" lon="6.412771"><ele>2431.75</ele></trkpt>
   <trkpt lat="45.073617" lon="6.412767"><ele>2431.75</ele></trkpt>
   <trkpt lat="45.073517" lon="6.412778"><ele>2432.5</ele></trkpt>
   <trkpt lat="45.073364" lon="6.412822"><ele>2433</ele></trkpt>
   <trkpt lat="45.073244" lon="6.412847"><ele>2434.5</ele></trkpt>
   <trkpt lat="45.072983" lon="6.412847"><ele>2437.75</ele></trkpt>
   <trkpt lat="45.072841" lon="6.412865"><ele>2438.5</ele></trkpt>
   <trkpt lat="45.072424" lon="6.412989"><ele>2442.75</ele></trkpt>
   <trkpt lat="45.072303" lon="6.413014"><ele>2443.25</ele></trkpt>
   <trkpt lat="45.072257" lon="6.413013"><ele>2443.5</ele></trkpt>
   <trkpt lat="45.072195" lon="6.412989"><ele>2443.25</ele></trkpt>
   <trkpt lat="45.072143" lon="6.412931"><ele>2443</ele></trkpt>
   <trkpt lat="45.07212" lon="6.412885"><ele>2442.75</ele></trkpt>
   <trkpt lat="45.072099" lon="6.412823"><ele>2442.5</ele></trkpt>
   <trkpt lat="45.072078" lon="6.412705"><ele>2443</ele></trkpt>
   <trkpt lat="45.072072" lon="6.412565"><ele>2444</ele></trkpt>
   <trkpt lat="45.072078" lon="6.412479"><ele>2444.75</ele></trkpt>
   <trkpt lat="45.072091" lon="6.41237"><ele>2446</ele></trkpt>
   <trkpt lat="45.072134" lon="6.412042"><ele>2448</ele></trkpt>
   <trkpt lat="45.072134" lon="6.411946"><ele>2448.75</ele></trkpt>
   <trkpt lat="45.072119" lon="6.411866"><ele>2449.5</ele></trkpt>
   <trkpt lat="45.07209" lon="6.41179"><ele>2450.25</ele></trkpt>
   <trkpt lat="45.072058" lon="6.411737"><ele>2450.75</ele></trkpt>
   <trkpt lat="45.07202" lon="6.411693"><ele>2451</ele></trkpt>
   <trkpt lat="45.071981" lon="6.411659"><ele>2450.75</ele></trkpt>
   <trkpt lat="45.071903" lon="6.41162"><ele>2450.5</ele></trkpt>
   <trkpt lat="45.071681" lon="6.411569"><ele>2453</ele></trkpt>
   <trkpt lat="45.071453" lon="6.411533"><ele>2456</ele></trkpt>
   <trkpt lat="45.071038" lon="6.411484"><ele>2457.5</ele></trkpt>
   <trkpt lat="45.07099" lon="6.41146"><ele>2457</ele></trkpt>
   <trkpt lat="45.070842" lon="6.411361"><ele>2457.5</ele></trkpt>
   <trkpt lat="45.070263" lon="6.410949"><ele>2464.25</ele></trkpt>
   <trkpt lat="45.070128" lon="6.41089"><ele>2465.75</ele></trkpt>
   <trkpt lat="45.069795" lon="6.410842"><ele>2469</ele></trkpt>
   <trkpt lat="45.069653" lon="6.410803"><ele>2470.5</ele></trkpt>
   <trkpt lat="45.069341" lon="6.410655"><ele>2472.25</ele></trkpt>
   <trkpt lat="45.069257" lon="6.410595"><ele>2473.25</ele></trkpt>
   <trkpt lat="45.069208" lon="6.410521"><ele>2474.25</ele></trkpt>
   <trkpt lat="45.069184" lon="6.41043"><ele>2474.25</ele></trkpt>
   <trkpt lat="45.069181" lon="6.410379"><ele>2474.5</ele></trkpt>
   <trkpt lat="45.069185" lon="6.410314"><ele>2474.5</ele></trkpt>
   <trkpt lat="45.0692" lon="6.41024"><ele>2474.75</ele></trkpt>
   <trkpt lat="45.069264" lon="6.410019"><ele>2474</ele></trkpt>
   <trkpt lat="45.069272" lon="6.409957"><ele>2474.25</ele></trkpt>
   <trkpt lat="45.06927" lon="6.409881"><ele>2474.75</ele></trkpt>
   <trkpt lat="45.06924" lon="6.409802"><ele>2476.5</ele></trkpt>
   <trkpt lat="45.069195" lon="6.409763"><ele>2478.5</ele></trkpt>
   <trkpt lat="45.069174" lon="6.409758"><ele>2479.25</ele></trkpt>
   <trkpt lat="45.069147" lon="6.409754"><ele>2480.25</ele></trkpt>
   <trkpt lat="45.069097" lon="6.409774"><ele>2481.5</ele></trkpt>
   <trkpt lat="45.068987" lon="6.409875"><ele>2483</ele></trkpt>
   <trkpt lat="45.068913" lon="6.409925"><ele>2483.5</ele></trkpt>
   <trkpt lat="45.06881" lon="6.409958"><ele>2484</ele></trkpt>
   <trkpt lat="45.068604" lon="6.409993"><ele>2485.25</ele></trkpt>
   <trkpt lat="45.068493" lon="6.410033"><ele>2487</ele></trkpt>
   <trkpt lat="45.068449" lon="6.410064"><ele>2487.5</ele></trkpt>
   <trkpt lat="45.06835" lon="6.410171"><ele>2488.75</ele></trkpt>
   <trkpt lat="45.068266" lon="6.410279"><ele>2490</ele></trkpt>
   <trkpt lat="45.068237" lon="6.410333"><ele>2490.75</ele></trkpt>
   <trkpt lat="45.068222" lon="6.410376"><ele>2491</ele></trkpt>
   <trkpt lat="45.068208" lon="6.410425"><ele>2491.25</ele></trkpt>
   <trkpt lat="45.068202" lon="6.410482"><ele>2491</ele></trkpt>
   <trkpt lat="45.068211" lon="6.41074"><ele>2490.75</ele></trkpt>
   <trkpt lat="45.068197" lon="6.41084"><ele>2491.25</ele></trkpt>
   <trkpt lat="45.068182" lon="6.410878"><ele>2491.75</ele></trkpt>
   <trkpt lat="45.068158" lon="6.410904"><ele>2492.25</ele></trkpt>
   <trkpt lat="45.068105" lon="6.410932"><ele>2493.5</ele></trkpt>
   <trkpt lat="45.068074" lon="6.410935"><ele>2494.25</ele></trkpt>
   <trkpt lat="45.06802" lon="6.410918"><ele>2496.5</ele></trkpt>
   <trkpt lat="45.067978" lon="6.410869"><ele>2498.5</ele></trkpt>
   <trkpt lat="45.067963" lon="6.410828"><ele>2499</ele></trkpt>
   <trkpt lat="45.067954" lon="6.410744"><ele>2499.5</ele></trkpt>
   <trkpt lat="45.067971" lon="6.410631"><ele>2498.75</ele></trkpt>
   <trkpt lat="45.068013" lon="6.410402"><ele>2497.75</ele></trkpt>
   <trkpt lat="45.068053" lon="6.409559"><ele>2503</ele></trkpt>
   <trkpt lat="45.068074" lon="6.409472"><ele>2503.5</ele></trkpt>
   <trkpt lat="45.068116" lon="6.409392"><ele>2504</ele></trkpt>
   <trkpt lat="45.068167" lon="6.409337"><ele>2504.25</ele></trkpt>
   <trkpt lat="45.068193" lon="6.409318"><ele>2504.25</ele></trkpt>
   <trkpt lat="45.068231" lon="6.409304"><ele>2504.25</ele></trkpt>
   <trkpt lat="45.068389" lon="6.409282"><ele>2504.25</ele></trkpt>
   <trkpt lat="45.068452" lon="6.409256"><ele>2504.75</ele></trkpt>
   <trkpt lat="45.068487" lon="6.409232"><ele>2505.25</ele></trkpt>
   <trkpt lat="45.068514" lon="6.409198"><ele>2506</ele></trkpt>
   <trkpt lat="45.068539" lon="6.409162"><ele>2506.75</ele></trkpt>
   <trkpt lat="45.068559" lon="6.409116"><ele>2507.25</ele></trkpt>
   <trkpt lat="45.068569" lon="6.409076"><ele>2507.75</ele></trkpt>
   <trkpt lat="45.068578" lon="6.408981"><ele>2508.75</ele></trkpt>
   <trkpt lat="45.068574" lon="6.408921"><ele>2509.5</ele></trkpt>
   <trkpt lat="45.068565" lon="6.408874"><ele>2509.5</ele></trkpt>
   <trkpt lat="45.068544" lon="6.408822"><ele>2509.5</ele></trkpt>
   <trkpt lat="45.068508" lon="6.408762"><ele>2509.5</ele></trkpt>
   <trkpt lat="45.068453" lon="6.408699"><ele>2510.25</ele></trkpt>
   <trkpt lat="45.068422" lon="6.408677"><ele>2511</ele></trkpt>
   <trkpt lat="45.068327" lon="6.40865"><ele>2513.25</ele></trkpt>
   <trkpt lat="45.068227" lon="6.408665"><ele>2514.25</ele></trkpt>
   <trkpt lat="45.067923" lon="6.408803"><ele>2517.25</ele></trkpt>
   <trkpt lat="45.067687" lon="6.408925"><ele>2520.75</ele></trkpt>
   <trkpt lat="45.067635" lon="6.408959"><ele>2521.75</ele></trkpt>
   <trkpt lat="45.067567" lon="6.409031"><ele>2523</ele></trkpt>
   <trkpt lat="45.067512" lon="6.409148"><ele>2523.5</ele></trkpt>
   <trkpt lat="45.067463" lon="6.409324"><ele>2525.25</ele></trkpt>
   <trkpt lat="45.067385" lon="6.409746"><ele>2528.25</ele></trkpt>
   <trkpt lat="45.067323" lon="6.410177"><ele>2529.25</ele></trkpt>
   <trkpt lat="45.067312" lon="6.410339"><ele>2529.25</ele></trkpt>
   <trkpt lat="45.067321" lon="6.410501"><ele>2530.25</ele></trkpt>
   <trkpt lat="45.067313" lon="6.410618"><ele>2531</ele></trkpt>
   <trkpt lat="45.067301" lon="6.410663"><ele>2531.5</ele></trkpt>
   <trkpt lat="45.067284" lon="6.410702"><ele>2532.25</ele></trkpt>
   <trkpt lat="45.06727" lon="6.410718"><ele>2532.75</ele></trkpt>
   <trkpt lat="45.067226" lon="6.41074"><ele>2534.5</ele></trkpt>
   <trkpt lat="45.067197" lon="6.410741"><ele>2535.5</ele></trkpt>
   <trkpt lat="45.06716" lon="6.410736"><ele>2537</ele></trkpt>
   <trkpt lat="45.06712" lon="6.410708"><ele>2538.5</ele></trkpt>
   <trkpt lat="45.067098" lon="6.410677"><ele>2539</ele></trkpt>
   <trkpt lat="45.067078" lon="6.41063"><ele>2539.25</ele></trkpt>
   <trkpt lat="45.067065" lon="6.410577"><ele>2539.25</ele></trkpt>
   <trkpt lat="45.067039" lon="6.410287"><ele>2538</ele></trkpt>
   <trkpt lat="45.066986" lon="6.410026"><ele>2540</ele></trkpt>
   <trkpt lat="45.066949" lon="6.409792"><ele>2541.5</ele></trkpt>
   <trkpt lat="45.066919" lon="6.409283"><ele>2544.25</ele></trkpt>
   <trkpt lat="45.066906" lon="6.40917"><ele>2545.25</ele></trkpt>
   <trkpt lat="45.066888" lon="6.409088"><ele>2546</ele></trkpt>
   <trkpt lat="45.066829" lon="6.409108"><ele>2546.25</ele></trkpt>
   <trkpt lat="45.06679" lon="6.40912"><ele>2546.5</ele></trkpt>
   <trkpt lat="45.06672" lon="6.409183"><ele>2546.5</ele></trkpt>
   <trkpt lat="45.066557" lon="6.40944"><ele>2549.5</ele></trkpt>
   <trkpt lat="45.066495" lon="6.409517"><ele>2551.25</ele></trkpt>
   <trkpt lat="45.066465" lon="6.409541"><ele>2552.25</ele></trkpt>
   <trkpt lat="45.066416" lon="6.40955"><ele>2553.25</ele></trkpt>
   <trkpt lat="45.066358" lon="6.409535"><ele>2554.25</ele></trkpt>
   <trkpt lat="45.066332" lon="6.409517"><ele>2554.5</ele></trkpt>
   <trkpt lat="45.06627" lon="6.409452"><ele>2554.5</ele></trkpt>
   <trkpt lat="45.066247" lon="6.409418"><ele>2555</ele></trkpt>
   <trkpt lat="45.06621" lon="6.40934"><ele>2555.5</ele></trkpt>
   <trkpt lat="45.066152" lon="6.409163"><ele>2556.25</ele></trkpt>
   <trkpt lat="45.066118" lon="6.409107"><ele>2556.75</ele></trkpt>
   <trkpt lat="45.066079" lon="6.409085"><ele>2557.75</ele></trkpt>
   <trkpt lat="45.066038" lon="6.40909"><ele>2558.75</ele></trkpt>
   <trkpt lat="45.065996" lon="6.409117"><ele>2559.5</ele></trkpt>
   <trkpt lat="45.065967" lon="6.409162"><ele>2560</ele></trkpt>
   <trkpt lat="45.065948" lon="6.40922"><ele>2561</ele></trkpt>
   <trkpt lat="45.065947" lon="6.409251"><ele>2561.25</ele></trkpt>
   <trkpt lat="45.065958" lon="6.409349"><ele>2562</ele></trkpt>
   <trkpt lat="45.065985" lon="6.409482"><ele>2562.75</ele></trkpt>
   <trkpt lat="45.066044" lon="6.409642"><ele>2563.75</ele></trkpt>
   <trkpt lat="45.066164" lon="6.409907"><ele>2565</ele></trkpt>
   <trkpt lat="45.066265" lon="6.410197"><ele>2567.5</ele></trkpt>
   <trkpt lat="45.066306" lon="6.410338"><ele>2569.25</ele></trkpt>
   <trkpt lat="45.066372" lon="6.41062"><ele>2572.5</ele></trkpt>
   <trkpt lat="45.066413" lon="6.410738"><ele>2572.5</ele></trkpt>
   <trkpt lat="45.06644" lon="6.410797"><ele>2572.5</ele></trkpt>
   <trkpt lat="45.066609" lon="6.411077"><ele>2578.5</ele></trkpt>
   <trkpt lat="45.066683" lon="6.411219"><ele>2578</ele></trkpt>
   <trkpt lat="45.066716" lon="6.411295"><ele>2578</ele></trkpt>
   <trkpt lat="45.066731" lon="6.411354"><ele>2579</ele></trkpt>
   <trkpt lat="45.066731" lon="6.411378"><ele>2579.75</ele></trkpt>
   <trkpt lat="45.066715" lon="6.411472"><ele>2580</ele></trkpt>
   <trkpt lat="45.066699" lon="6.411514"><ele>2580.25</ele></trkpt>
   <trkpt lat="45.066522" lon="6.411847"><ele>2584.5</ele></trkpt>
   <trkpt lat="45.06647" lon="6.411984"><ele>2585.75</ele></trkpt>
   <trkpt lat="45.066388" lon="6.412231"><ele>2587.75</ele></trkpt>
   <trkpt lat="45.0663" lon="6.412435"><ele>2590.75</ele></trkpt>
   <trkpt lat="45.066098" lon="6.412828"><ele>2594.75</ele></trkpt>
   <trkpt lat="45.066028" lon="6.412987"><ele>2594.5</ele></trkpt>
   <trkpt lat="45.065985" lon="6.413059"><ele>2594.5</ele></trkpt>
   <trkpt lat="45.065959" lon="6.413077"><ele>2594.75</ele></trkpt>
   <trkpt lat="45.065927" lon="6.413077"><ele>2595.75</ele></trkpt>
   <trkpt lat="45.065901" lon="6.413062"><ele>2596.75</ele></trkpt>
   <trkpt lat="45.065877" lon="6.413011"><ele>2598.75</ele></trkpt>
   <trkpt lat="45.065875" lon="6.412967"><ele>2600</ele></trkpt>
   <trkpt lat="45.065897" lon="6.412899"><ele>2601</ele></trkpt>
   <trkpt lat="45.065978" lon="6.412763"><ele>2601</ele></trkpt>
   <trkpt lat="45.066001" lon="6.412702"><ele>2601.25</ele></trkpt>
   <trkpt lat="45.066027" lon="6.412623"><ele>2601.5</ele></trkpt>
   <trkpt lat="45.066115" lon="6.412268"><ele>2602.75</ele></trkpt>
   <trkpt lat="45.066143" lon="6.412076"><ele>2603.5</ele></trkpt>
   <trkpt lat="45.066148" lon="6.412"><ele>2604.25</ele></trkpt>
   <trkpt lat="45.066143" lon="6.411795"><ele>2605.75</ele></trkpt>
   <trkpt lat="45.066163" lon="6.411455"><ele>2607.25</ele></trkpt>
   <trkpt lat="45.066161" lon="6.411402"><ele>2607.75</ele></trkpt>
   <trkpt lat="45.066156" lon="6.411364"><ele>2607.5</ele></trkpt>
   <trkpt lat="45.066131" lon="6.411304"><ele>2606.75</ele></trkpt>
   <trkpt lat="45.066083" lon="6.411256"><ele>2607.5</ele></trkpt>
   <trkpt lat="45.065814" lon="6.411083"><ele>2612.25</ele></trkpt>
   <trkpt lat="45.065711" lon="6.411026"><ele>2613.25</ele></trkpt>
   <trkpt lat="45.065528" lon="6.410927"><ele>2615.75</ele></trkpt>
   <trkpt lat="45.065462" lon="6.410863"><ele>2617</ele></trkpt>
   <trkpt lat="45.065429" lon="6.410815"><ele>2617.25</ele></trkpt>
   <trkpt lat="45.065403" lon="6.410772"><ele>2618</ele></trkpt>
   <trkpt lat="45.065304" lon="6.41052"><ele>2618.75</ele></trkpt>
   <trkpt lat="45.065249" lon="6.410397"><ele>2620</ele></trkpt>
   <trkpt lat="45.06513" lon="6.410207"><ele>2622.75</ele></trkpt>
   <trkpt lat="45.064909" lon="6.409746"><ele>2626.5</ele></trkpt>
   <trkpt lat="45.06487" lon="6.409676"><ele>2626.5</ele></trkpt>
   <trkpt lat="45.064806" lon="6.409577"><ele>2627</ele></trkpt>
   <trkpt lat="45.064771" lon="6.409536"><ele>2627.75</ele></trkpt>
   <trkpt lat="45.064607" lon="6.409388"><ele>2631</ele></trkpt>
   <trkpt lat="45.064513" lon="6.409276"><ele>2631.75</ele></trkpt>
   <trkpt lat="45.064476" lon="6.409216"><ele>2631.75</ele></trkpt>
   <trkpt lat="45.064442" lon="6.409144"><ele>2631.75</ele></trkpt>
   <trkpt lat="45.06434" lon="6.408863"><ele>2635.5</ele></trkpt>
   <trkpt lat="45.064224" lon="6.408473"><ele>2637</ele></trkpt>
   <trkpt lat="45.06421" lon="6.408408"><ele>2637.25</ele></trkpt>
   <trkpt lat="45.064199" lon="6.408265"><ele>2637.25</ele></trkpt>
   <trkpt lat="45.064206" lon="6.407988"><ele>2639</ele></trkpt>
   <trkpt lat="45.06419" lon="6.407924"><ele>2640.5</ele></trkpt>
   <trkpt lat="45.064168" lon="6.407887"><ele>2641.75</ele></trkpt>
  </trkseg>
 </trk>
</gpx>
