<?xml version="1.0" encoding="UTF-8"?>
<!-- track-length = 71821 filtered ascend = 1684 plain-ascend = 1511 cost=98706 energy=0.6kwh time=6h 21m 46s -->
<gpx 
 xmlns="http://www.topografix.com/GPX/1/1" 
 xmlns:xsi="http://www.w3.org/2001/XMLSchema-instance" 
 xsi:schemaLocation="http://www.topografix.com/GPX/1/1 http://www.topografix.com/GPX/1/1/gpx.xsd" 
 version="1.1" 
 creator="BRouter-Web 0.18.1">
 <trk>
  <name>col de mont louis (71.8km)</name>
  <trkseg>
   <trkpt lat="42.535473" lon="2.254281"><ele>743.75</ele></trkpt>
   <trkpt lat="42.534654" lon="2.254177"><ele>746</ele></trkpt>
   <trkpt lat="42.534469" lon="2.254163"><ele>748</ele></trkpt>
   <trkpt lat="42.53431" lon="2.254175"><ele>748</ele></trkpt>
   <trkpt lat="42.534156" lon="2.254201"><ele>748</ele></trkpt>
   <trkpt lat="42.534029" lon="2.254223"><ele>748</ele></trkpt>
   <trkpt lat="42.533779" lon="2.254269"><ele>748.25</ele></trkpt>
   <trkpt lat="42.533669" lon="2.254253"><ele>749.25</ele></trkpt>
   <trkpt lat="42.533556" lon="2.254214"><ele>750.75</ele></trkpt>
   <trkpt lat="42.533449" lon="2.254143"><ele>753.75</ele></trkpt>
   <trkpt lat="42.533352" lon="2.25405"><ele>755.75</ele></trkpt>
   <trkpt lat="42.533281" lon="2.253935"><ele>754.5</ele></trkpt>
   <trkpt lat="42.533219" lon="2.253769"><ele>755.25</ele></trkpt>
   <trkpt lat="42.533186" lon="2.253561"><ele>754.5</ele></trkpt>
   <trkpt lat="42.533195" lon="2.253312"><ele>752.75</ele></trkpt>
   <trkpt lat="42.533198" lon="2.252852"><ele>758.75</ele></trkpt>
   <trkpt lat="42.533182" lon="2.252641"><ele>760.75</ele></trkpt>
   <trkpt lat="42.533137" lon="2.252496"><ele>758</ele></trkpt>
   <trkpt lat="42.533087" lon="2.252385"><ele>755.75</ele></trkpt>
   <trkpt lat="42.532974" lon="2.252198"><ele>757.25</ele></trkpt>
   <trkpt lat="42.532919" lon="2.252094"><ele>760.75</ele></trkpt>
   <trkpt lat="42.532821" lon="2.25183"><ele>759.75</ele></trkpt>
   <trkpt lat="42.532773" lon="2.251597"><ele>759</ele></trkpt>
   <trkpt lat="42.532751" lon="2.251381"><ele>758.25</ele></trkpt>
   <trkpt lat="42.532748" lon="2.251171"><ele>757.75</ele></trkpt>
   <trkpt lat="42.532772" lon="2.250925"><ele>757</ele></trkpt>
   <trkpt lat="42.532785" lon="2.250836"><ele>757</ele></trkpt>
   <trkpt lat="42.532845" lon="2.250574"><ele>754</ele></trkpt>
   <trkpt lat="42.533067" lon="2.250073"><ele>755.5</ele></trkpt>
   <trkpt lat="42.533119" lon="2.249932"><ele>756.25</ele></trkpt>
   <trkpt lat="42.533143" lon="2.249775"><ele>755.75</ele></trkpt>
   <trkpt lat="42.533139" lon="2.249641"><ele>755.75</ele></trkpt>
   <trkpt lat="42.533115" lon="2.249428"><ele>756.5</ele></trkpt>
   <trkpt lat="42.533079" lon="2.249207"><ele>756</ele></trkpt>
   <trkpt lat="42.533037" lon="2.249067"><ele>755.5</ele></trkpt>
   <trkpt lat="42.532975" lon="2.248975"><ele>755.5</ele></trkpt>
   <trkpt lat="42.532889" lon="2.24892"><ele>755.75</ele></trkpt>
   <trkpt lat="42.53259" lon="2.248806"><ele>758.25</ele></trkpt>
   <trkpt lat="42.532415" lon="2.248749"><ele>753.25</ele></trkpt>
   <trkpt lat="42.532312" lon="2.248677"><ele>751</ele></trkpt>
   <trkpt lat="42.532203" lon="2.248568"><ele>754.75</ele></trkpt>
   <trkpt lat="42.532132" lon="2.24852"><ele>756.75</ele></trkpt>
   <trkpt lat="42.532049" lon="2.248501"><ele>756.25</ele></trkpt>
   <trkpt lat="42.531894" lon="2.248561"><ele>748.5</ele></trkpt>
   <trkpt lat="42.531832" lon="2.248569"><ele>746.5</ele></trkpt>
   <trkpt lat="42.531753" lon="2.248538"><ele>746.5</ele></trkpt>
   <trkpt lat="42.531686" lon="2.248457"><ele>747.5</ele></trkpt>
   <trkpt lat="42.531645" lon="2.248364"><ele>747.75</ele></trkpt>
   <trkpt lat="42.531605" lon="2.248168"><ele>747.75</ele></trkpt>
   <trkpt lat="42.53157" lon="2.248035"><ele>747.75</ele></trkpt>
   <trkpt lat="42.531507" lon="2.247903"><ele>748</ele></trkpt>
   <trkpt lat="42.531378" lon="2.247675"><ele>748</ele></trkpt>
   <trkpt lat="42.531286" lon="2.24757"><ele>747.25</ele></trkpt>
   <trkpt lat="42.531191" lon="2.24752"><ele>746.25</ele></trkpt>
   <trkpt lat="42.531119" lon="2.247501"><ele>745</ele></trkpt>
   <trkpt lat="42.531001" lon="2.247498"><ele>745.5</ele></trkpt>
   <trkpt lat="42.530876" lon="2.247553"><ele>743.5</ele></trkpt>
   <trkpt lat="42.530796" lon="2.247635"><ele>743.25</ele></trkpt>
   <trkpt lat="42.530703" lon="2.247779"><ele>742</ele></trkpt>
   <trkpt lat="42.530601" lon="2.247868"><ele>741</ele></trkpt>
   <trkpt lat="42.530491" lon="2.247912"><ele>739.75</ele></trkpt>
   <trkpt lat="42.530407" lon="2.24793"><ele>738.5</ele></trkpt>
   <trkpt lat="42.530274" lon="2.247919"><ele>739</ele></trkpt>
   <trkpt lat="42.530168" lon="2.247877"><ele>738.75</ele></trkpt>
   <trkpt lat="42.530071" lon="2.247809"><ele>738.25</ele></trkpt>
   <trkpt lat="42.53001" lon="2.247738"><ele>740.25</ele></trkpt>
   <trkpt lat="42.529917" lon="2.247587"><ele>748</ele></trkpt>
   <trkpt lat="42.529847" lon="2.247497"><ele>747</ele></trkpt>
   <trkpt lat="42.529749" lon="2.247413"><ele>740.75</ele></trkpt>
   <trkpt lat="42.529387" lon="2.247209"><ele>739.75</ele></trkpt>
   <trkpt lat="42.529309" lon="2.247137"><ele>741</ele></trkpt>
   <trkpt lat="42.52926" lon="2.247035"><ele>742.5</ele></trkpt>
   <trkpt lat="42.529025" lon="2.246347"><ele>746.25</ele></trkpt>
   <trkpt lat="42.528966" lon="2.246194"><ele>745.25</ele></trkpt>
   <trkpt lat="42.528926" lon="2.24611"><ele>745.25</ele></trkpt>
   <trkpt lat="42.528874" lon="2.246047"><ele>743</ele></trkpt>
   <trkpt lat="42.528802" lon="2.245993"><ele>741.25</ele></trkpt>
   <trkpt lat="42.528702" lon="2.24598"><ele>739.75</ele></trkpt>
   <trkpt lat="42.528514" lon="2.245973"><ele>743.5</ele></trkpt>
   <trkpt lat="42.528449" lon="2.245957"><ele>746.5</ele></trkpt>
   <trkpt lat="42.528397" lon="2.245894"><ele>748</ele></trkpt>
   <trkpt lat="42.528352" lon="2.245747"><ele>748.25</ele></trkpt>
   <trkpt lat="42.528336" lon="2.245606"><ele>748.75</ele></trkpt>
   <trkpt lat="42.52832" lon="2.24525"><ele>749.25</ele></trkpt>
   <trkpt lat="42.528296" lon="2.245103"><ele>751.5</ele></trkpt>
   <trkpt lat="42.528183" lon="2.244492"><ele>756</ele></trkpt>
   <trkpt lat="42.527929" lon="2.243191"><ele>757.75</ele></trkpt>
   <trkpt lat="42.527796" lon="2.242764"><ele>760</ele></trkpt>
   <trkpt lat="42.527725" lon="2.242515"><ele>761</ele></trkpt>
   <trkpt lat="42.52767" lon="2.24213"><ele>761.5</ele></trkpt>
   <trkpt lat="42.527579" lon="2.241809"><ele>762.5</ele></trkpt>
   <trkpt lat="42.527479" lon="2.241515"><ele>763.75</ele></trkpt>
   <trkpt lat="42.527345" lon="2.240735"><ele>766.25</ele></trkpt>
   <trkpt lat="42.526929" lon="2.238811"><ele>771.25</ele></trkpt>
   <trkpt lat="42.526874" lon="2.238629"><ele>773.75</ele></trkpt>
   <trkpt lat="42.526797" lon="2.238424"><ele>774.75</ele></trkpt>
   <trkpt lat="42.526742" lon="2.238257"><ele>775</ele></trkpt>
   <trkpt lat="42.526538" lon="2.237514"><ele>774</ele></trkpt>
   <trkpt lat="42.526447" lon="2.237315"><ele>776.75</ele></trkpt>
   <trkpt lat="42.52639" lon="2.237195"><ele>778.25</ele></trkpt>
   <trkpt lat="42.526296" lon="2.236962"><ele>779</ele></trkpt>
   <trkpt lat="42.526232" lon="2.236722"><ele>778.75</ele></trkpt>
   <trkpt lat="42.526173" lon="2.236375"><ele>782.25</ele></trkpt>
   <trkpt lat="42.526139" lon="2.236267"><ele>780.75</ele></trkpt>
   <trkpt lat="42.526052" lon="2.236122"><ele>782</ele></trkpt>
   <trkpt lat="42.52599" lon="2.235985"><ele>783.75</ele></trkpt>
   <trkpt lat="42.525938" lon="2.235617"><ele>782</ele></trkpt>
   <trkpt lat="42.52591" lon="2.23546"><ele>781.75</ele></trkpt>
   <trkpt lat="42.525849" lon="2.235301"><ele>781.75</ele></trkpt>
   <trkpt lat="42.525782" lon="2.235065"><ele>783.75</ele></trkpt>
   <trkpt lat="42.525717" lon="2.234719"><ele>783.5</ele></trkpt>
   <trkpt lat="42.525635" lon="2.234472"><ele>785.5</ele></trkpt>
   <trkpt lat="42.525516" lon="2.234203"><ele>785.25</ele></trkpt>
   <trkpt lat="42.525301" lon="2.233521"><ele>787.25</ele></trkpt>
   <trkpt lat="42.525161" lon="2.233054"><ele>791</ele></trkpt>
   <trkpt lat="42.525113" lon="2.232758"><ele>791.25</ele></trkpt>
   <trkpt lat="42.52508" lon="2.232593"><ele>791.5</ele></trkpt>
   <trkpt lat="42.525014" lon="2.232365"><ele>791.75</ele></trkpt>
   <trkpt lat="42.524901" lon="2.232039"><ele>794.25</ele></trkpt>
   <trkpt lat="42.524871" lon="2.231914"><ele>794.25</ele></trkpt>
   <trkpt lat="42.524837" lon="2.23162"><ele>792.75</ele></trkpt>
   <trkpt lat="42.52474" lon="2.231217"><ele>794.5</ele></trkpt>
   <trkpt lat="42.524585" lon="2.230617"><ele>796.25</ele></trkpt>
   <trkpt lat="42.524269" lon="2.229365"><ele>801.5</ele></trkpt>
   <trkpt lat="42.524169" lon="2.22895"><ele>800.75</ele></trkpt>
   <trkpt lat="42.524047" lon="2.228256"><ele>803.5</ele></trkpt>
   <trkpt lat="42.524029" lon="2.228069"><ele>803</ele></trkpt>
   <trkpt lat="42.524034" lon="2.227904"><ele>803.25</ele></trkpt>
   <trkpt lat="42.52415" lon="2.227301"><ele>803.25</ele></trkpt>
   <trkpt lat="42.5242" lon="2.227148"><ele>803.75</ele></trkpt>
   <trkpt lat="42.524326" lon="2.226879"><ele>805</ele></trkpt>
   <trkpt lat="42.524473" lon="2.226524"><ele>805.25</ele></trkpt>
   <trkpt lat="42.524581" lon="2.226198"><ele>808.5</ele></trkpt>
   <trkpt lat="42.52462" lon="2.226111"><ele>808.75</ele></trkpt>
   <trkpt lat="42.524695" lon="2.226021"><ele>807</ele></trkpt>
   <trkpt lat="42.524787" lon="2.226"><ele>805.25</ele></trkpt>
   <trkpt lat="42.525041" lon="2.225997"><ele>803.75</ele></trkpt>
   <trkpt lat="42.525178" lon="2.225987"><ele>804.5</ele></trkpt>
   <trkpt lat="42.525261" lon="2.225971"><ele>804.75</ele></trkpt>
   <trkpt lat="42.525322" lon="2.225948"><ele>805</ele></trkpt>
   <trkpt lat="42.52538" lon="2.225909"><ele>805.75</ele></trkpt>
   <trkpt lat="42.525438" lon="2.225855"><ele>806.5</ele></trkpt>
   <trkpt lat="42.525505" lon="2.225773"><ele>808.5</ele></trkpt>
   <trkpt lat="42.525572" lon="2.225632"><ele>810.5</ele></trkpt>
   <trkpt lat="42.525604" lon="2.225514"><ele>811.75</ele></trkpt>
   <trkpt lat="42.525719" lon="2.224876"><ele>813.5</ele></trkpt>
   <trkpt lat="42.525761" lon="2.224705"><ele>812.25</ele></trkpt>
   <trkpt lat="42.525888" lon="2.224346"><ele>814.25</ele></trkpt>
   <trkpt lat="42.525917" lon="2.224194"><ele>814</ele></trkpt>
   <trkpt lat="42.525929" lon="2.224047"><ele>815.5</ele></trkpt>
   <trkpt lat="42.525925" lon="2.223879"><ele>817</ele></trkpt>
   <trkpt lat="42.52591" lon="2.223707"><ele>817.5</ele></trkpt>
   <trkpt lat="42.525871" lon="2.223516"><ele>816</ele></trkpt>
   <trkpt lat="42.525756" lon="2.223211"><ele>815.25</ele></trkpt>
   <trkpt lat="42.525378" lon="2.222363"><ele>821</ele></trkpt>
   <trkpt lat="42.525324" lon="2.22224"><ele>820.5</ele></trkpt>
   <trkpt lat="42.52529" lon="2.222132"><ele>819.75</ele></trkpt>
   <trkpt lat="42.525232" lon="2.221754"><ele>825.25</ele></trkpt>
   <trkpt lat="42.525178" lon="2.221593"><ele>828.25</ele></trkpt>
   <trkpt lat="42.524995" lon="2.221183"><ele>825.25</ele></trkpt>
   <trkpt lat="42.524841" lon="2.220856"><ele>830.25</ele></trkpt>
   <trkpt lat="42.524776" lon="2.220694"><ele>829.5</ele></trkpt>
   <trkpt lat="42.524613" lon="2.220086"><ele>833.75</ele></trkpt>
   <trkpt lat="42.524513" lon="2.219859"><ele>833.5</ele></trkpt>
   <trkpt lat="42.524411" lon="2.219675"><ele>833.25</ele></trkpt>
   <trkpt lat="42.524254" lon="2.219469"><ele>836.5</ele></trkpt>
   <trkpt lat="42.524136" lon="2.219347"><ele>837</ele></trkpt>
   <trkpt lat="42.524026" lon="2.219262"><ele>837.5</ele></trkpt>
   <trkpt lat="42.523739" lon="2.219074"><ele>837.5</ele></trkpt>
   <trkpt lat="42.523611" lon="2.21897"><ele>838.25</ele></trkpt>
   <trkpt lat="42.523369" lon="2.2187"><ele>841.25</ele></trkpt>
   <trkpt lat="42.523269" lon="2.218624"><ele>842</ele></trkpt>
   <trkpt lat="42.52312" lon="2.218563"><ele>842.75</ele></trkpt>
   <trkpt lat="42.523016" lon="2.218497"><ele>843.75</ele></trkpt>
   <trkpt lat="42.522929" lon="2.218393"><ele>845.25</ele></trkpt>
   <trkpt lat="42.522882" lon="2.218308"><ele>846</ele></trkpt>
   <trkpt lat="42.522828" lon="2.218182"><ele>845.5</ele></trkpt>
   <trkpt lat="42.522788" lon="2.218047"><ele>845.75</ele></trkpt>
   <trkpt lat="42.522734" lon="2.217896"><ele>847.25</ele></trkpt>
   <trkpt lat="42.522635" lon="2.217696"><ele>849</ele></trkpt>
   <trkpt lat="42.52248" lon="2.217501"><ele>849.5</ele></trkpt>
   <trkpt lat="42.522387" lon="2.217357"><ele>851.5</ele></trkpt>
   <trkpt lat="42.52233" lon="2.217222"><ele>853.5</ele></trkpt>
   <trkpt lat="42.522277" lon="2.217062"><ele>852.75</ele></trkpt>
   <trkpt lat="42.522249" lon="2.216856"><ele>852.75</ele></trkpt>
   <trkpt lat="42.522246" lon="2.216705"><ele>853.25</ele></trkpt>
   <trkpt lat="42.522258" lon="2.216522"><ele>854.5</ele></trkpt>
   <trkpt lat="42.522285" lon="2.216318"><ele>856.25</ele></trkpt>
   <trkpt lat="42.522306" lon="2.216089"><ele>857.75</ele></trkpt>
   <trkpt lat="42.522288" lon="2.21591"><ele>859</ele></trkpt>
   <trkpt lat="42.522258" lon="2.215802"><ele>859.25</ele></trkpt>
   <trkpt lat="42.5222" lon="2.21567"><ele>860.25</ele></trkpt>
   <trkpt lat="42.522124" lon="2.21554"><ele>860.5</ele></trkpt>
   <trkpt lat="42.521987" lon="2.215333"><ele>860.25</ele></trkpt>
   <trkpt lat="42.521954" lon="2.215213"><ele>860.75</ele></trkpt>
   <trkpt lat="42.521949" lon="2.215129"><ele>861.25</ele></trkpt>
   <trkpt lat="42.521952" lon="2.214979"><ele>862</ele></trkpt>
   <trkpt lat="42.521983" lon="2.214829"><ele>862.25</ele></trkpt>
   <trkpt lat="42.522043" lon="2.214619"><ele>864.5</ele></trkpt>
   <trkpt lat="42.522069" lon="2.21447"><ele>865</ele></trkpt>
   <trkpt lat="42.522074" lon="2.214307"><ele>866.5</ele></trkpt>
   <trkpt lat="42.522039" lon="2.213667"><ele>870</ele></trkpt>
   <trkpt lat="42.522026" lon="2.213482"><ele>870.5</ele></trkpt>
   <trkpt lat="42.522007" lon="2.213323"><ele>870.75</ele></trkpt>
   <trkpt lat="42.521943" lon="2.213111"><ele>872.5</ele></trkpt>
   <trkpt lat="42.52152" lon="2.211924"><ele>876.75</ele></trkpt>
   <trkpt lat="42.521479" lon="2.211779"><ele>876.75</ele></trkpt>
   <trkpt lat="42.521458" lon="2.211603"><ele>878.75</ele></trkpt>
   <trkpt lat="42.521467" lon="2.211152"><ele>883.75</ele></trkpt>
   <trkpt lat="42.521459" lon="2.210992"><ele>884.5</ele></trkpt>
   <trkpt lat="42.521386" lon="2.210463"><ele>886</ele></trkpt>
   <trkpt lat="42.521354" lon="2.210302"><ele>886.25</ele></trkpt>
   <trkpt lat="42.521304" lon="2.210142"><ele>887.75</ele></trkpt>
   <trkpt lat="42.521249" lon="2.210043"><ele>888.25</ele></trkpt>
   <trkpt lat="42.521154" lon="2.209902"><ele>888.5</ele></trkpt>
   <trkpt lat="42.521107" lon="2.209751"><ele>889.75</ele></trkpt>
   <trkpt lat="42.521081" lon="2.209571"><ele>890</ele></trkpt>
   <trkpt lat="42.521081" lon="2.209406"><ele>891.5</ele></trkpt>
   <trkpt lat="42.521182" lon="2.208544"><ele>896.75</ele></trkpt>
   <trkpt lat="42.521186" lon="2.208337"><ele>898.25</ele></trkpt>
   <trkpt lat="42.521176" lon="2.208112"><ele>900.75</ele></trkpt>
   <trkpt lat="42.521152" lon="2.207919"><ele>900.75</ele></trkpt>
   <trkpt lat="42.521118" lon="2.207716"><ele>900.5</ele></trkpt>
   <trkpt lat="42.521056" lon="2.207549"><ele>901.25</ele></trkpt>
   <trkpt lat="42.520772" lon="2.206866"><ele>905.5</ele></trkpt>
   <trkpt lat="42.520698" lon="2.206714"><ele>905.25</ele></trkpt>
   <trkpt lat="42.520598" lon="2.206546"><ele>906</ele></trkpt>
   <trkpt lat="42.520452" lon="2.206413"><ele>907.5</ele></trkpt>
   <trkpt lat="42.520417" lon="2.206386"><ele>908</ele></trkpt>
   <trkpt lat="42.520314" lon="2.206334"><ele>911</ele></trkpt>
   <trkpt lat="42.520072" lon="2.206285"><ele>913</ele></trkpt>
   <trkpt lat="42.519952" lon="2.206239"><ele>913.75</ele></trkpt>
   <trkpt lat="42.519828" lon="2.206102"><ele>916</ele></trkpt>
   <trkpt lat="42.519778" lon="2.206012"><ele>916.5</ele></trkpt>
   <trkpt lat="42.519733" lon="2.205842"><ele>915.75</ele></trkpt>
   <trkpt lat="42.519714" lon="2.2057"><ele>915</ele></trkpt>
   <trkpt lat="42.519692" lon="2.204829"><ele>919.5</ele></trkpt>
   <trkpt lat="42.519703" lon="2.204608"><ele>921.75</ele></trkpt>
   <trkpt lat="42.519687" lon="2.204435"><ele>922.75</ele></trkpt>
   <trkpt lat="42.519616" lon="2.204207"><ele>924</ele></trkpt>
   <trkpt lat="42.519537" lon="2.204078"><ele>925.5</ele></trkpt>
   <trkpt lat="42.519448" lon="2.20395"><ele>926.5</ele></trkpt>
   <trkpt lat="42.519343" lon="2.203866"><ele>928.75</ele></trkpt>
   <trkpt lat="42.51923" lon="2.203805"><ele>932</ele></trkpt>
   <trkpt lat="42.519023" lon="2.20374"><ele>933.5</ele></trkpt>
   <trkpt lat="42.518849" lon="2.203665"><ele>933</ele></trkpt>
   <trkpt lat="42.518682" lon="2.20351"><ele>934.25</ele></trkpt>
   <trkpt lat="42.518493" lon="2.203244"><ele>936</ele></trkpt>
   <trkpt lat="42.518031" lon="2.202566"><ele>940.75</ele></trkpt>
   <trkpt lat="42.517934" lon="2.202414"><ele>942</ele></trkpt>
   <trkpt lat="42.517767" lon="2.201924"><ele>944</ele></trkpt>
   <trkpt lat="42.517628" lon="2.201626"><ele>947</ele></trkpt>
   <trkpt lat="42.517267" lon="2.200865"><ele>950.5</ele></trkpt>
   <trkpt lat="42.516868" lon="2.200064"><ele>952.5</ele></trkpt>
   <trkpt lat="42.516798" lon="2.199831"><ele>954.5</ele></trkpt>
   <trkpt lat="42.516763" lon="2.199661"><ele>955.25</ele></trkpt>
   <trkpt lat="42.516755" lon="2.199471"><ele>956</ele></trkpt>
   <trkpt lat="42.516769" lon="2.199274"><ele>956</ele></trkpt>
   <trkpt lat="42.51682" lon="2.198946"><ele>952</ele></trkpt>
   <trkpt lat="42.516959" lon="2.198484"><ele>957.75</ele></trkpt>
   <trkpt lat="42.517013" lon="2.19824"><ele>960</ele></trkpt>
   <trkpt lat="42.517028" lon="2.198019"><ele>962</ele></trkpt>
   <trkpt lat="42.517014" lon="2.197893"><ele>963.5</ele></trkpt>
   <trkpt lat="42.516922" lon="2.1975"><ele>963.25</ele></trkpt>
   <trkpt lat="42.516885" lon="2.197304"><ele>964</ele></trkpt>
   <trkpt lat="42.516882" lon="2.197126"><ele>965.5</ele></trkpt>
   <trkpt lat="42.516898" lon="2.196945"><ele>967.25</ele></trkpt>
   <trkpt lat="42.516937" lon="2.196784"><ele>968.25</ele></trkpt>
   <trkpt lat="42.517004" lon="2.196561"><ele>972.5</ele></trkpt>
   <trkpt lat="42.51703" lon="2.196369"><ele>972.5</ele></trkpt>
   <trkpt lat="42.517016" lon="2.196144"><ele>971.25</ele></trkpt>
   <trkpt lat="42.516943" lon="2.195913"><ele>973.75</ele></trkpt>
   <trkpt lat="42.516854" lon="2.195752"><ele>974</ele></trkpt>
   <trkpt lat="42.51675" lon="2.195645"><ele>974.75</ele></trkpt>
   <trkpt lat="42.516635" lon="2.19557"><ele>976.5</ele></trkpt>
   <trkpt lat="42.516454" lon="2.195499"><ele>980</ele></trkpt>
   <trkpt lat="42.515961" lon="2.195332"><ele>979.25</ele></trkpt>
   <trkpt lat="42.515806" lon="2.195214"><ele>981.75</ele></trkpt>
   <trkpt lat="42.515495" lon="2.194952"><ele>983.75</ele></trkpt>
   <trkpt lat="42.515281" lon="2.194761"><ele>985.25</ele></trkpt>
   <trkpt lat="42.515114" lon="2.194558"><ele>987</ele></trkpt>
   <trkpt lat="42.515059" lon="2.194461"><ele>988.5</ele></trkpt>
   <trkpt lat="42.514997" lon="2.194302"><ele>988.25</ele></trkpt>
   <trkpt lat="42.514964" lon="2.194187"><ele>988.25</ele></trkpt>
   <trkpt lat="42.514934" lon="2.194049"><ele>989</ele></trkpt>
   <trkpt lat="42.514922" lon="2.19388"><ele>990</ele></trkpt>
   <trkpt lat="42.514922" lon="2.193784"><ele>989.75</ele></trkpt>
   <trkpt lat="42.514967" lon="2.193362"><ele>994</ele></trkpt>
   <trkpt lat="42.514963" lon="2.193215"><ele>994.75</ele></trkpt>
   <trkpt lat="42.514945" lon="2.1931"><ele>995</ele></trkpt>
   <trkpt lat="42.514914" lon="2.192986"><ele>995</ele></trkpt>
   <trkpt lat="42.514853" lon="2.192865"><ele>996</ele></trkpt>
   <trkpt lat="42.51478" lon="2.192778"><ele>997.75</ele></trkpt>
   <trkpt lat="42.514563" lon="2.192568"><ele>1000.75</ele></trkpt>
   <trkpt lat="42.514483" lon="2.192496"><ele>1001.75</ele></trkpt>
   <trkpt lat="42.514413" lon="2.192411"><ele>1002.5</ele></trkpt>
   <trkpt lat="42.51436" lon="2.192327"><ele>1002.25</ele></trkpt>
   <trkpt lat="42.514292" lon="2.192197"><ele>1002.25</ele></trkpt>
   <trkpt lat="42.51417" lon="2.191865"><ele>1005.25</ele></trkpt>
   <trkpt lat="42.514103" lon="2.191754"><ele>1004.5</ele></trkpt>
   <trkpt lat="42.513734" lon="2.191193"><ele>1010.75</ele></trkpt>
   <trkpt lat="42.513631" lon="2.19099"><ele>1010.5</ele></trkpt>
   <trkpt lat="42.51355" lon="2.190756"><ele>1008.25</ele></trkpt>
   <trkpt lat="42.513439" lon="2.190082"><ele>1016.5</ele></trkpt>
   <trkpt lat="42.513296" lon="2.189549"><ele>1014.75</ele></trkpt>
   <trkpt lat="42.513077" lon="2.188695"><ele>1020.25</ele></trkpt>
   <trkpt lat="42.513069" lon="2.188348"><ele>1021.75</ele></trkpt>
   <trkpt lat="42.513093" lon="2.18804"><ele>1024.25</ele></trkpt>
   <trkpt lat="42.513186" lon="2.187586"><ele>1027.25</ele></trkpt>
   <trkpt lat="42.513192" lon="2.187431"><ele>1026.25</ele></trkpt>
   <trkpt lat="42.513178" lon="2.187283"><ele>1025.75</ele></trkpt>
   <trkpt lat="42.513138" lon="2.187101"><ele>1026.5</ele></trkpt>
   <trkpt lat="42.513123" lon="2.18694"><ele>1028.25</ele></trkpt>
   <trkpt lat="42.513132" lon="2.186701"><ele>1027</ele></trkpt>
   <trkpt lat="42.513259" lon="2.18623"><ele>1028.5</ele></trkpt>
   <trkpt lat="42.513283" lon="2.186066"><ele>1029.75</ele></trkpt>
   <trkpt lat="42.51329" lon="2.185926"><ele>1030</ele></trkpt>
   <trkpt lat="42.513275" lon="2.185763"><ele>1030.5</ele></trkpt>
   <trkpt lat="42.513241" lon="2.185624"><ele>1031.75</ele></trkpt>
   <trkpt lat="42.513109" lon="2.185293"><ele>1034.75</ele></trkpt>
   <trkpt lat="42.512836" lon="2.184641"><ele>1036.75</ele></trkpt>
   <trkpt lat="42.512782" lon="2.184518"><ele>1037.25</ele></trkpt>
   <trkpt lat="42.512706" lon="2.18434"><ele>1039.5</ele></trkpt>
   <trkpt lat="42.512693" lon="2.18429"><ele>1040.5</ele></trkpt>
   <trkpt lat="42.512619" lon="2.184054"><ele>1043.5</ele></trkpt>
   <trkpt lat="42.512589" lon="2.183899"><ele>1044.5</ele></trkpt>
   <trkpt lat="42.512556" lon="2.183536"><ele>1046.25</ele></trkpt>
   <trkpt lat="42.512511" lon="2.18333"><ele>1044</ele></trkpt>
   <trkpt lat="42.512311" lon="2.182528"><ele>1048.25</ele></trkpt>
   <trkpt lat="42.512118" lon="2.181733"><ele>1047</ele></trkpt>
   <trkpt lat="42.512055" lon="2.181431"><ele>1049</ele></trkpt>
   <trkpt lat="42.512036" lon="2.181168"><ele>1050.75</ele></trkpt>
   <trkpt lat="42.512035" lon="2.181123"><ele>1051</ele></trkpt>
   <trkpt lat="42.512034" lon="2.181002"><ele>1051</ele></trkpt>
   <trkpt lat="42.512047" lon="2.180866"><ele>1051.5</ele></trkpt>
   <trkpt lat="42.512098" lon="2.180593"><ele>1053</ele></trkpt>
   <trkpt lat="42.512115" lon="2.180409"><ele>1053.25</ele></trkpt>
   <trkpt lat="42.512099" lon="2.180162"><ele>1053.25</ele></trkpt>
   <trkpt lat="42.511863" lon="2.178812"><ele>1058.75</ele></trkpt>
   <trkpt lat="42.511851" lon="2.178739"><ele>1058.25</ele></trkpt>
   <trkpt lat="42.511786" lon="2.178363"><ele>1061.75</ele></trkpt>
   <trkpt lat="42.511678" lon="2.177769"><ele>1059.75</ele></trkpt>
   <trkpt lat="42.511638" lon="2.177624"><ele>1060.75</ele></trkpt>
   <trkpt lat="42.511556" lon="2.177436"><ele>1061.75</ele></trkpt>
   <trkpt lat="42.511458" lon="2.177267"><ele>1062.75</ele></trkpt>
   <trkpt lat="42.511382" lon="2.177153"><ele>1062.5</ele></trkpt>
   <trkpt lat="42.511253" lon="2.176961"><ele>1062.5</ele></trkpt>
   <trkpt lat="42.510912" lon="2.176425"><ele>1069.25</ele></trkpt>
   <trkpt lat="42.510806" lon="2.176288"><ele>1071.25</ele></trkpt>
   <trkpt lat="42.510669" lon="2.176151"><ele>1072.75</ele></trkpt>
   <trkpt lat="42.51051" lon="2.176045"><ele>1074</ele></trkpt>
   <trkpt lat="42.510405" lon="2.175987"><ele>1075.25</ele></trkpt>
   <trkpt lat="42.510246" lon="2.175932"><ele>1075.5</ele></trkpt>
   <trkpt lat="42.510126" lon="2.17591"><ele>1076</ele></trkpt>
   <trkpt lat="42.510044" lon="2.175896"><ele>1076</ele></trkpt>
   <trkpt lat="42.509768" lon="2.175859"><ele>1078.75</ele></trkpt>
   <trkpt lat="42.509497" lon="2.175828"><ele>1082.75</ele></trkpt>
   <trkpt lat="42.509394" lon="2.175804"><ele>1083</ele></trkpt>
   <trkpt lat="42.509338" lon="2.175776"><ele>1082.75</ele></trkpt>
   <trkpt lat="42.509279" lon="2.175729"><ele>1083</ele></trkpt>
   <trkpt lat="42.509217" lon="2.175636"><ele>1084.75</ele></trkpt>
   <trkpt lat="42.509166" lon="2.175507"><ele>1087</ele></trkpt>
   <trkpt lat="42.509109" lon="2.175418"><ele>1088.25</ele></trkpt>
   <trkpt lat="42.509029" lon="2.175365"><ele>1089</ele></trkpt>
   <trkpt lat="42.508936" lon="2.175355"><ele>1088.75</ele></trkpt>
   <trkpt lat="42.508851" lon="2.175391"><ele>1089</ele></trkpt>
   <trkpt lat="42.508772" lon="2.17547"><ele>1089.75</ele></trkpt>
   <trkpt lat="42.508688" lon="2.175614"><ele>1089.25</ele></trkpt>
   <trkpt lat="42.50862" lon="2.17569"><ele>1091.5</ele></trkpt>
   <trkpt lat="42.508555" lon="2.175735"><ele>1091.75</ele></trkpt>
   <trkpt lat="42.508491" lon="2.175748"><ele>1092</ele></trkpt>
   <trkpt lat="42.508417" lon="2.175752"><ele>1092.75</ele></trkpt>
   <trkpt lat="42.508342" lon="2.175734"><ele>1094.25</ele></trkpt>
   <trkpt lat="42.508297" lon="2.175706"><ele>1094.5</ele></trkpt>
   <trkpt lat="42.508248" lon="2.175657"><ele>1094.5</ele></trkpt>
   <trkpt lat="42.50821" lon="2.175595"><ele>1094.75</ele></trkpt>
   <trkpt lat="42.508109" lon="2.175288"><ele>1097.75</ele></trkpt>
   <trkpt lat="42.508036" lon="2.175132"><ele>1098.75</ele></trkpt>
   <trkpt lat="42.507966" lon="2.175026"><ele>1099.75</ele></trkpt>
   <trkpt lat="42.507853" lon="2.174904"><ele>1101</ele></trkpt>
   <trkpt lat="42.507766" lon="2.174837"><ele>1100.75</ele></trkpt>
   <trkpt lat="42.507696" lon="2.174799"><ele>1101.5</ele></trkpt>
   <trkpt lat="42.507571" lon="2.174755"><ele>1102</ele></trkpt>
   <trkpt lat="42.507296" lon="2.174721"><ele>1103.75</ele></trkpt>
   <trkpt lat="42.507176" lon="2.174691"><ele>1104.5</ele></trkpt>
   <trkpt lat="42.507065" lon="2.17461"><ele>1105.25</ele></trkpt>
   <trkpt lat="42.50702" lon="2.174546"><ele>1106</ele></trkpt>
   <trkpt lat="42.506985" lon="2.174475"><ele>1106.75</ele></trkpt>
   <trkpt lat="42.506955" lon="2.17435"><ele>1108.25</ele></trkpt>
   <trkpt lat="42.506902" lon="2.173918"><ele>1111</ele></trkpt>
   <trkpt lat="42.506878" lon="2.173766"><ele>1112.75</ele></trkpt>
   <trkpt lat="42.506853" lon="2.173664"><ele>1113.75</ele></trkpt>
   <trkpt lat="42.506808" lon="2.173542"><ele>1116</ele></trkpt>
   <trkpt lat="42.506707" lon="2.173404"><ele>1115.25</ele></trkpt>
   <trkpt lat="42.506501" lon="2.173168"><ele>1117.5</ele></trkpt>
   <trkpt lat="42.506411" lon="2.17302"><ele>1117.25</ele></trkpt>
   <trkpt lat="42.506362" lon="2.172893"><ele>1116.75</ele></trkpt>
   <trkpt lat="42.506336" lon="2.172818"><ele>1117</ele></trkpt>
   <trkpt lat="42.50629" lon="2.17261"><ele>1118.5</ele></trkpt>
   <trkpt lat="42.506128" lon="2.171117"><ele>1128</ele></trkpt>
   <trkpt lat="42.50611" lon="2.170918"><ele>1128.25</ele></trkpt>
   <trkpt lat="42.506112" lon="2.170738"><ele>1129.25</ele></trkpt>
   <trkpt lat="42.506133" lon="2.170516"><ele>1131.25</ele></trkpt>
   <trkpt lat="42.506195" lon="2.170244"><ele>1133.25</ele></trkpt>
   <trkpt lat="42.506251" lon="2.170082"><ele>1134</ele></trkpt>
   <trkpt lat="42.506575" lon="2.169341"><ele>1140.75</ele></trkpt>
   <trkpt lat="42.506595" lon="2.169294"><ele>1140.75</ele></trkpt>
   <trkpt lat="42.506697" lon="2.169049"><ele>1142.25</ele></trkpt>
   <trkpt lat="42.506805" lon="2.168772"><ele>1142.75</ele></trkpt>
   <trkpt lat="42.506886" lon="2.168573"><ele>1141.5</ele></trkpt>
   <trkpt lat="42.506925" lon="2.168463"><ele>1140.5</ele></trkpt>
   <trkpt lat="42.506945" lon="2.168389"><ele>1139.5</ele></trkpt>
   <trkpt lat="42.506958" lon="2.168289"><ele>1138.75</ele></trkpt>
   <trkpt lat="42.506957" lon="2.168182"><ele>1140.25</ele></trkpt>
   <trkpt lat="42.506948" lon="2.168096"><ele>1141.5</ele></trkpt>
   <trkpt lat="42.506925" lon="2.168013"><ele>1142.75</ele></trkpt>
   <trkpt lat="42.506881" lon="2.16792"><ele>1144.75</ele></trkpt>
   <trkpt lat="42.506821" lon="2.16784"><ele>1146.75</ele></trkpt>
   <trkpt lat="42.506709" lon="2.167718"><ele>1150.5</ele></trkpt>
   <trkpt lat="42.506581" lon="2.167519"><ele>1151</ele></trkpt>
   <trkpt lat="42.506475" lon="2.167247"><ele>1155.25</ele></trkpt>
   <trkpt lat="42.506404" lon="2.166961"><ele>1156</ele></trkpt>
   <trkpt lat="42.506355" lon="2.166571"><ele>1158.5</ele></trkpt>
   <trkpt lat="42.506318" lon="2.166386"><ele>1159.75</ele></trkpt>
   <trkpt lat="42.506277" lon="2.166235"><ele>1161.25</ele></trkpt>
   <trkpt lat="42.506224" lon="2.166102"><ele>1161.75</ele></trkpt>
   <trkpt lat="42.506167" lon="2.165997"><ele>1162.25</ele></trkpt>
   <trkpt lat="42.505952" lon="2.165702"><ele>1162.25</ele></trkpt>
   <trkpt lat="42.505893" lon="2.16557"><ele>1164.75</ele></trkpt>
   <trkpt lat="42.505856" lon="2.165449"><ele>1165</ele></trkpt>
   <trkpt lat="42.505837" lon="2.165324"><ele>1165.5</ele></trkpt>
   <trkpt lat="42.505842" lon="2.165167"><ele>1167</ele></trkpt>
   <trkpt lat="42.505864" lon="2.165045"><ele>1169.25</ele></trkpt>
   <trkpt lat="42.505923" lon="2.164875"><ele>1170.25</ele></trkpt>
   <trkpt lat="42.50607" lon="2.164638"><ele>1171.5</ele></trkpt>
   <trkpt lat="42.506101" lon="2.16454"><ele>1172.25</ele></trkpt>
   <trkpt lat="42.506115" lon="2.16444"><ele>1172.25</ele></trkpt>
   <trkpt lat="42.50611" lon="2.164318"><ele>1173.5</ele></trkpt>
   <trkpt lat="42.50604" lon="2.163965"><ele>1173.25</ele></trkpt>
   <trkpt lat="42.506047" lon="2.163619"><ele>1175.25</ele></trkpt>
   <trkpt lat="42.50606" lon="2.163421"><ele>1175.75</ele></trkpt>
   <trkpt lat="42.506095" lon="2.163272"><ele>1177.5</ele></trkpt>
   <trkpt lat="42.506144" lon="2.163157"><ele>1180.25</ele></trkpt>
   <trkpt lat="42.506217" lon="2.163066"><ele>1181.5</ele></trkpt>
   <trkpt lat="42.506398" lon="2.162933"><ele>1184.75</ele></trkpt>
   <trkpt lat="42.506441" lon="2.16287"><ele>1185</ele></trkpt>
   <trkpt lat="42.506494" lon="2.162738"><ele>1183.5</ele></trkpt>
   <trkpt lat="42.506507" lon="2.162666"><ele>1182.75</ele></trkpt>
   <trkpt lat="42.506509" lon="2.162545"><ele>1180.5</ele></trkpt>
   <trkpt lat="42.506493" lon="2.162459"><ele>1181</ele></trkpt>
   <trkpt lat="42.506468" lon="2.162382"><ele>1183.5</ele></trkpt>
   <trkpt lat="42.506387" lon="2.162273"><ele>1186.5</ele></trkpt>
   <trkpt lat="42.506291" lon="2.162178"><ele>1188</ele></trkpt>
   <trkpt lat="42.50622" lon="2.162079"><ele>1189.5</ele></trkpt>
   <trkpt lat="42.506168" lon="2.161936"><ele>1192.25</ele></trkpt>
   <trkpt lat="42.506159" lon="2.161776"><ele>1192.75</ele></trkpt>
   <trkpt lat="42.506175" lon="2.161648"><ele>1194</ele></trkpt>
   <trkpt lat="42.506226" lon="2.161434"><ele>1195.75</ele></trkpt>
   <trkpt lat="42.506261" lon="2.16119"><ele>1196.5</ele></trkpt>
   <trkpt lat="42.506265" lon="2.160988"><ele>1198.5</ele></trkpt>
   <trkpt lat="42.506247" lon="2.160808"><ele>1200.75</ele></trkpt>
   <trkpt lat="42.506101" lon="2.160174"><ele>1205</ele></trkpt>
   <trkpt lat="42.506019" lon="2.159815"><ele>1207.75</ele></trkpt>
   <trkpt lat="42.505972" lon="2.159647"><ele>1209.75</ele></trkpt>
   <trkpt lat="42.505911" lon="2.159532"><ele>1210</ele></trkpt>
   <trkpt lat="42.505568" lon="2.158987"><ele>1212.75</ele></trkpt>
   <trkpt lat="42.505449" lon="2.158808"><ele>1213</ele></trkpt>
   <trkpt lat="42.505334" lon="2.158607"><ele>1216</ele></trkpt>
   <trkpt lat="42.505282" lon="2.15845"><ele>1215.75</ele></trkpt>
   <trkpt lat="42.505258" lon="2.158316"><ele>1216.25</ele></trkpt>
   <trkpt lat="42.505268" lon="2.158153"><ele>1217.75</ele></trkpt>
   <trkpt lat="42.505305" lon="2.158008"><ele>1219.5</ele></trkpt>
   <trkpt lat="42.505384" lon="2.157851"><ele>1220</ele></trkpt>
   <trkpt lat="42.505496" lon="2.157739"><ele>1221</ele></trkpt>
   <trkpt lat="42.505599" lon="2.157663"><ele>1222.5</ele></trkpt>
   <trkpt lat="42.50566" lon="2.157588"><ele>1223</ele></trkpt>
   <trkpt lat="42.505699" lon="2.157503"><ele>1222</ele></trkpt>
   <trkpt lat="42.505719" lon="2.157413"><ele>1222.25</ele></trkpt>
   <trkpt lat="42.505726" lon="2.157291"><ele>1222</ele></trkpt>
   <trkpt lat="42.505712" lon="2.15717"><ele>1222.75</ele></trkpt>
   <trkpt lat="42.50568" lon="2.157087"><ele>1224</ele></trkpt>
   <trkpt lat="42.505575" lon="2.156916"><ele>1227.25</ele></trkpt>
   <trkpt lat="42.505528" lon="2.156769"><ele>1227.25</ele></trkpt>
   <trkpt lat="42.505506" lon="2.15662"><ele>1227.5</ele></trkpt>
   <trkpt lat="42.505512" lon="2.156481"><ele>1228.25</ele></trkpt>
   <trkpt lat="42.505548" lon="2.156318"><ele>1229.5</ele></trkpt>
   <trkpt lat="42.505623" lon="2.156164"><ele>1231.25</ele></trkpt>
   <trkpt lat="42.506072" lon="2.155524"><ele>1235.75</ele></trkpt>
   <trkpt lat="42.506132" lon="2.155369"><ele>1237</ele></trkpt>
   <trkpt lat="42.506156" lon="2.155213"><ele>1237.25</ele></trkpt>
   <trkpt lat="42.506208" lon="2.15403"><ele>1242.25</ele></trkpt>
   <trkpt lat="42.506203" lon="2.153828"><ele>1242.25</ele></trkpt>
   <trkpt lat="42.506154" lon="2.15335"><ele>1243.25</ele></trkpt>
   <trkpt lat="42.506026" lon="2.152154"><ele>1243</ele></trkpt>
   <trkpt lat="42.505995" lon="2.151777"><ele>1243.75</ele></trkpt>
   <trkpt lat="42.505988" lon="2.151585"><ele>1243.25</ele></trkpt>
   <trkpt lat="42.506008" lon="2.151447"><ele>1244</ele></trkpt>
   <trkpt lat="42.506038" lon="2.151365"><ele>1244.25</ele></trkpt>
   <trkpt lat="42.506092" lon="2.151287"><ele>1244.25</ele></trkpt>
   <trkpt lat="42.506145" lon="2.151248"><ele>1244.5</ele></trkpt>
   <trkpt lat="42.506215" lon="2.151234"><ele>1245.25</ele></trkpt>
   <trkpt lat="42.506266" lon="2.151248"><ele>1246.25</ele></trkpt>
   <trkpt lat="42.506318" lon="2.151284"><ele>1247.75</ele></trkpt>
   <trkpt lat="42.506353" lon="2.151334"><ele>1248.75</ele></trkpt>
   <trkpt lat="42.506387" lon="2.15142"><ele>1250</ele></trkpt>
   <trkpt lat="42.506399" lon="2.151499"><ele>1251</ele></trkpt>
   <trkpt lat="42.506385" lon="2.151601"><ele>1250.5</ele></trkpt>
   <trkpt lat="42.506354" lon="2.151687"><ele>1251</ele></trkpt>
   <trkpt lat="42.50629" lon="2.151794"><ele>1252</ele></trkpt>
   <trkpt lat="42.506256" lon="2.151894"><ele>1252.5</ele></trkpt>
   <trkpt lat="42.506224" lon="2.152023"><ele>1251.75</ele></trkpt>
   <trkpt lat="42.506215" lon="2.152154"><ele>1251.75</ele></trkpt>
   <trkpt lat="42.506233" lon="2.152384"><ele>1252.5</ele></trkpt>
   <trkpt lat="42.506308" lon="2.152806"><ele>1254</ele></trkpt>
   <trkpt lat="42.506363" lon="2.153074"><ele>1254.5</ele></trkpt>
   <trkpt lat="42.506373" lon="2.153227"><ele>1255.5</ele></trkpt>
   <trkpt lat="42.506358" lon="2.153391"><ele>1255.25</ele></trkpt>
   <trkpt lat="42.506362" lon="2.153521"><ele>1255.75</ele></trkpt>
   <trkpt lat="42.506389" lon="2.153615"><ele>1257.75</ele></trkpt>
   <trkpt lat="42.506446" lon="2.153702"><ele>1260</ele></trkpt>
   <trkpt lat="42.506498" lon="2.153769"><ele>1262.5</ele></trkpt>
   <trkpt lat="42.506521" lon="2.153833"><ele>1263.25</ele></trkpt>
   <trkpt lat="42.50653" lon="2.153895"><ele>1263.5</ele></trkpt>
   <trkpt lat="42.506532" lon="2.153986"><ele>1263.75</ele></trkpt>
   <trkpt lat="42.506499" lon="2.154244"><ele>1262.25</ele></trkpt>
   <trkpt lat="42.506491" lon="2.154412"><ele>1262</ele></trkpt>
   <trkpt lat="42.506489" lon="2.15462"><ele>1262</ele></trkpt>
   <trkpt lat="42.506515" lon="2.154867"><ele>1263.75</ele></trkpt>
   <trkpt lat="42.506559" lon="2.155059"><ele>1265.75</ele></trkpt>
   <trkpt lat="42.506639" lon="2.155333"><ele>1266.25</ele></trkpt>
   <trkpt lat="42.506655" lon="2.155433"><ele>1267.25</ele></trkpt>
   <trkpt lat="42.50665" lon="2.15553"><ele>1267</ele></trkpt>
   <trkpt lat="42.506629" lon="2.15562"><ele>1267.5</ele></trkpt>
   <trkpt lat="42.506598" lon="2.155711"><ele>1268</ele></trkpt>
   <trkpt lat="42.506529" lon="2.155835"><ele>1268.5</ele></trkpt>
   <trkpt lat="42.506506" lon="2.155929"><ele>1269.5</ele></trkpt>
   <trkpt lat="42.506498" lon="2.156009"><ele>1270.75</ele></trkpt>
   <trkpt lat="42.506516" lon="2.156103"><ele>1273.25</ele></trkpt>
   <trkpt lat="42.50655" lon="2.156186"><ele>1272.25</ele></trkpt>
   <trkpt lat="42.506589" lon="2.156251"><ele>1271.5</ele></trkpt>
   <trkpt lat="42.506646" lon="2.156308"><ele>1271.75</ele></trkpt>
   <trkpt lat="42.506756" lon="2.15635"><ele>1271.75</ele></trkpt>
   <trkpt lat="42.507021" lon="2.156321"><ele>1275.25</ele></trkpt>
   <trkpt lat="42.507664" lon="2.156412"><ele>1280</ele></trkpt>
   <trkpt lat="42.507737" lon="2.156435"><ele>1280.75</ele></trkpt>
   <trkpt lat="42.507811" lon="2.156474"><ele>1281.75</ele></trkpt>
   <trkpt lat="42.507887" lon="2.156544"><ele>1282.25</ele></trkpt>
   <trkpt lat="42.50793" lon="2.156619"><ele>1281</ele></trkpt>
   <trkpt lat="42.507957" lon="2.156693"><ele>1281.75</ele></trkpt>
   <trkpt lat="42.507981" lon="2.156776"><ele>1282.5</ele></trkpt>
   <trkpt lat="42.507988" lon="2.156872"><ele>1283.25</ele></trkpt>
   <trkpt lat="42.507976" lon="2.156949"><ele>1284</ele></trkpt>
   <trkpt lat="42.507931" lon="2.15707"><ele>1285.25</ele></trkpt>
   <trkpt lat="42.507785" lon="2.157344"><ele>1285.25</ele></trkpt>
   <trkpt lat="42.507486" lon="2.157979"><ele>1289</ele></trkpt>
   <trkpt lat="42.507391" lon="2.158132"><ele>1290.75</ele></trkpt>
   <trkpt lat="42.507243" lon="2.158263"><ele>1291.25</ele></trkpt>
   <trkpt lat="42.507122" lon="2.158338"><ele>1291.25</ele></trkpt>
   <trkpt lat="42.507059" lon="2.158359"><ele>1291</ele></trkpt>
   <trkpt lat="42.506877" lon="2.158374"><ele>1289</ele></trkpt>
   <trkpt lat="42.506808" lon="2.158408"><ele>1288.25</ele></trkpt>
   <trkpt lat="42.506758" lon="2.158459"><ele>1288</ele></trkpt>
   <trkpt lat="42.506724" lon="2.158522"><ele>1288.75</ele></trkpt>
   <trkpt lat="42.506709" lon="2.158604"><ele>1290.25</ele></trkpt>
   <trkpt lat="42.506712" lon="2.158698"><ele>1288.5</ele></trkpt>
   <trkpt lat="42.506743" lon="2.158797"><ele>1287.5</ele></trkpt>
   <trkpt lat="42.506783" lon="2.158863"><ele>1287.75</ele></trkpt>
   <trkpt lat="42.506833" lon="2.158911"><ele>1288.75</ele></trkpt>
   <trkpt lat="42.506889" lon="2.158932"><ele>1290.25</ele></trkpt>
   <trkpt lat="42.506943" lon="2.158942"><ele>1292.25</ele></trkpt>
   <trkpt lat="42.507" lon="2.15893"><ele>1295.25</ele></trkpt>
   <trkpt lat="42.507047" lon="2.15889"><ele>1298.25</ele></trkpt>
   <trkpt lat="42.507169" lon="2.158673"><ele>1297.25</ele></trkpt>
   <trkpt lat="42.507243" lon="2.158569"><ele>1296.25</ele></trkpt>
   <trkpt lat="42.50842" lon="2.157616"><ele>1313</ele></trkpt>
   <trkpt lat="42.508491" lon="2.157551"><ele>1314.25</ele></trkpt>
   <trkpt lat="42.508563" lon="2.157457"><ele>1315.5</ele></trkpt>
   <trkpt lat="42.508614" lon="2.157346"><ele>1316.75</ele></trkpt>
   <trkpt lat="42.508645" lon="2.157197"><ele>1318.25</ele></trkpt>
   <trkpt lat="42.508701" lon="2.156153"><ele>1318.25</ele></trkpt>
   <trkpt lat="42.508688" lon="2.155981"><ele>1319.75</ele></trkpt>
   <trkpt lat="42.508649" lon="2.155857"><ele>1319.5</ele></trkpt>
   <trkpt lat="42.508581" lon="2.155737"><ele>1319.25</ele></trkpt>
   <trkpt lat="42.508501" lon="2.155655"><ele>1320.25</ele></trkpt>
   <trkpt lat="42.508437" lon="2.155613"><ele>1320.5</ele></trkpt>
   <trkpt lat="42.508321" lon="2.15558"><ele>1320.75</ele></trkpt>
   <trkpt lat="42.508104" lon="2.155563"><ele>1322.5</ele></trkpt>
   <trkpt lat="42.507936" lon="2.155528"><ele>1324.5</ele></trkpt>
   <trkpt lat="42.507796" lon="2.155451"><ele>1325.75</ele></trkpt>
   <trkpt lat="42.507701" lon="2.155364"><ele>1326</ele></trkpt>
   <trkpt lat="42.507615" lon="2.155249"><ele>1328.25</ele></trkpt>
   <trkpt lat="42.507528" lon="2.15509"><ele>1329</ele></trkpt>
   <trkpt lat="42.507472" lon="2.154881"><ele>1327.25</ele></trkpt>
   <trkpt lat="42.507457" lon="2.154611"><ele>1328.25</ele></trkpt>
   <trkpt lat="42.507663" lon="2.152838"><ele>1339.25</ele></trkpt>
   <trkpt lat="42.507702" lon="2.152613"><ele>1340.5</ele></trkpt>
   <trkpt lat="42.507766" lon="2.152432"><ele>1343</ele></trkpt>
   <trkpt lat="42.50786" lon="2.152287"><ele>1345.5</ele></trkpt>
   <trkpt lat="42.507983" lon="2.152167"><ele>1345.25</ele></trkpt>
   <trkpt lat="42.508256" lon="2.151973"><ele>1348.25</ele></trkpt>
   <trkpt lat="42.50833" lon="2.151905"><ele>1348</ele></trkpt>
   <trkpt lat="42.50851" lon="2.151752"><ele>1351.75</ele></trkpt>
   <trkpt lat="42.50901" lon="2.151141"><ele>1358.25</ele></trkpt>
   <trkpt lat="42.509073" lon="2.151006"><ele>1357.75</ele></trkpt>
   <trkpt lat="42.509093" lon="2.150883"><ele>1356.75</ele></trkpt>
   <trkpt lat="42.509085" lon="2.150768"><ele>1357.75</ele></trkpt>
   <trkpt lat="42.50905" lon="2.150652"><ele>1360.5</ele></trkpt>
   <trkpt lat="42.508975" lon="2.150557"><ele>1362</ele></trkpt>
   <trkpt lat="42.508814" lon="2.150382"><ele>1361.75</ele></trkpt>
   <trkpt lat="42.508729" lon="2.150255"><ele>1362.75</ele></trkpt>
   <trkpt lat="42.508651" lon="2.15005"><ele>1364.5</ele></trkpt>
   <trkpt lat="42.508603" lon="2.149913"><ele>1366</ele></trkpt>
   <trkpt lat="42.508526" lon="2.149789"><ele>1367</ele></trkpt>
   <trkpt lat="42.5082" lon="2.149395"><ele>1368.75</ele></trkpt>
   <trkpt lat="42.508104" lon="2.149247"><ele>1370</ele></trkpt>
   <trkpt lat="42.508065" lon="2.149138"><ele>1370.5</ele></trkpt>
   <trkpt lat="42.508044" lon="2.148977"><ele>1370.75</ele></trkpt>
   <trkpt lat="42.508048" lon="2.148511"><ele>1374.5</ele></trkpt>
   <trkpt lat="42.508028" lon="2.148338"><ele>1375.25</ele></trkpt>
   <trkpt lat="42.508002" lon="2.148188"><ele>1377</ele></trkpt>
   <trkpt lat="42.507928" lon="2.147927"><ele>1380</ele></trkpt>
   <trkpt lat="42.507846" lon="2.147731"><ele>1380.5</ele></trkpt>
   <trkpt lat="42.507805" lon="2.147633"><ele>1380.5</ele></trkpt>
   <trkpt lat="42.507725" lon="2.147471"><ele>1380.25</ele></trkpt>
   <trkpt lat="42.507681" lon="2.147306"><ele>1381.75</ele></trkpt>
   <trkpt lat="42.507659" lon="2.147076"><ele>1384</ele></trkpt>
   <trkpt lat="42.507665" lon="2.146769"><ele>1386</ele></trkpt>
   <trkpt lat="42.507691" lon="2.146543"><ele>1386</ele></trkpt>
   <trkpt lat="42.507736" lon="2.146354"><ele>1386.5</ele></trkpt>
   <trkpt lat="42.507828" lon="2.146137"><ele>1391.5</ele></trkpt>
   <trkpt lat="42.508079" lon="2.145671"><ele>1395.5</ele></trkpt>
   <trkpt lat="42.508122" lon="2.145558"><ele>1398.5</ele></trkpt>
   <trkpt lat="42.508158" lon="2.145437"><ele>1401.75</ele></trkpt>
   <trkpt lat="42.508161" lon="2.145309"><ele>1401.5</ele></trkpt>
   <trkpt lat="42.508137" lon="2.145211"><ele>1400.5</ele></trkpt>
   <trkpt lat="42.508078" lon="2.145106"><ele>1398.75</ele></trkpt>
   <trkpt lat="42.507992" lon="2.145038"><ele>1398.5</ele></trkpt>
   <trkpt lat="42.507533" lon="2.144913"><ele>1400.5</ele></trkpt>
   <trkpt lat="42.507235" lon="2.144852"><ele>1402.25</ele></trkpt>
   <trkpt lat="42.506877" lon="2.14488"><ele>1404.75</ele></trkpt>
   <trkpt lat="42.506771" lon="2.144873"><ele>1404.75</ele></trkpt>
   <trkpt lat="42.506701" lon="2.144848"><ele>1405.25</ele></trkpt>
   <trkpt lat="42.506635" lon="2.144809"><ele>1406.25</ele></trkpt>
   <trkpt lat="42.506582" lon="2.144753"><ele>1408</ele></trkpt>
   <trkpt lat="42.506543" lon="2.144673"><ele>1409.5</ele></trkpt>
   <trkpt lat="42.50652" lon="2.144576"><ele>1410.25</ele></trkpt>
   <trkpt lat="42.506518" lon="2.144493"><ele>1410.5</ele></trkpt>
   <trkpt lat="42.506537" lon="2.144397"><ele>1410</ele></trkpt>
   <trkpt lat="42.50659" lon="2.144289"><ele>1409.75</ele></trkpt>
   <trkpt lat="42.506644" lon="2.144221"><ele>1411.75</ele></trkpt>
   <trkpt lat="42.506746" lon="2.144121"><ele>1414</ele></trkpt>
   <trkpt lat="42.506894" lon="2.144005"><ele>1416</ele></trkpt>
   <trkpt lat="42.507049" lon="2.143844"><ele>1418.5</ele></trkpt>
   <trkpt lat="42.507144" lon="2.143703"><ele>1418.5</ele></trkpt>
   <trkpt lat="42.507221" lon="2.14355"><ele>1418.75</ele></trkpt>
   <trkpt lat="42.507319" lon="2.143381"><ele>1419.5</ele></trkpt>
   <trkpt lat="42.507422" lon="2.14325"><ele>1420.5</ele></trkpt>
   <trkpt lat="42.507514" lon="2.143166"><ele>1423.5</ele></trkpt>
   <trkpt lat="42.507701" lon="2.142938"><ele>1424.5</ele></trkpt>
   <trkpt lat="42.507948" lon="2.142605"><ele>1426.5</ele></trkpt>
   <trkpt lat="42.508067" lon="2.142401"><ele>1429</ele></trkpt>
   <trkpt lat="42.508152" lon="2.142182"><ele>1433</ele></trkpt>
   <trkpt lat="42.508233" lon="2.141884"><ele>1433.25</ele></trkpt>
   <trkpt lat="42.508314" lon="2.14149"><ele>1434.25</ele></trkpt>
   <trkpt lat="42.508365" lon="2.141107"><ele>1438</ele></trkpt>
   <trkpt lat="42.508426" lon="2.140477"><ele>1443.5</ele></trkpt>
   <trkpt lat="42.508416" lon="2.140132"><ele>1445.5</ele></trkpt>
   <trkpt lat="42.508373" lon="2.139242"><ele>1448.5</ele></trkpt>
   <trkpt lat="42.50838" lon="2.13896"><ele>1450.75</ele></trkpt>
   <trkpt lat="42.508399" lon="2.138755"><ele>1452</ele></trkpt>
   <trkpt lat="42.508451" lon="2.138567"><ele>1453.5</ele></trkpt>
   <trkpt lat="42.508522" lon="2.138398"><ele>1452.75</ele></trkpt>
   <trkpt lat="42.508625" lon="2.138262"><ele>1454.75</ele></trkpt>
   <trkpt lat="42.508656" lon="2.13821"><ele>1456</ele></trkpt>
   <trkpt lat="42.50869" lon="2.138104"><ele>1456.5</ele></trkpt>
   <trkpt lat="42.508688" lon="2.138007"><ele>1455.75</ele></trkpt>
   <trkpt lat="42.508673" lon="2.137909"><ele>1455.75</ele></trkpt>
   <trkpt lat="42.508625" lon="2.137804"><ele>1455</ele></trkpt>
   <trkpt lat="42.508576" lon="2.137746"><ele>1455.75</ele></trkpt>
   <trkpt lat="42.508296" lon="2.137552"><ele>1457.75</ele></trkpt>
   <trkpt lat="42.508027" lon="2.13737"><ele>1459.5</ele></trkpt>
   <trkpt lat="42.507906" lon="2.137272"><ele>1458.75</ele></trkpt>
   <trkpt lat="42.507815" lon="2.137128"><ele>1459.75</ele></trkpt>
   <trkpt lat="42.507757" lon="2.136941"><ele>1460.75</ele></trkpt>
   <trkpt lat="42.507658" lon="2.136485"><ele>1464.75</ele></trkpt>
   <trkpt lat="42.507616" lon="2.136356"><ele>1465.75</ele></trkpt>
   <trkpt lat="42.507539" lon="2.136246"><ele>1466</ele></trkpt>
   <trkpt lat="42.506998" lon="2.135803"><ele>1469.75</ele></trkpt>
   <trkpt lat="42.506415" lon="2.135441"><ele>1472.25</ele></trkpt>
   <trkpt lat="42.506305" lon="2.135356"><ele>1472.25</ele></trkpt>
   <trkpt lat="42.50622" lon="2.135273"><ele>1473.25</ele></trkpt>
   <trkpt lat="42.506161" lon="2.135166"><ele>1474</ele></trkpt>
   <trkpt lat="42.50612" lon="2.135029"><ele>1474.75</ele></trkpt>
   <trkpt lat="42.506108" lon="2.134909"><ele>1475</ele></trkpt>
   <trkpt lat="42.506134" lon="2.134744"><ele>1476.5</ele></trkpt>
   <trkpt lat="42.506189" lon="2.134609"><ele>1476.25</ele></trkpt>
   <trkpt lat="42.506299" lon="2.134447"><ele>1476.75</ele></trkpt>
   <trkpt lat="42.506424" lon="2.134329"><ele>1478.75</ele></trkpt>
   <trkpt lat="42.506765" lon="2.134067"><ele>1481.5</ele></trkpt>
   <trkpt lat="42.506889" lon="2.133927"><ele>1482.25</ele></trkpt>
   <trkpt lat="42.506982" lon="2.133776"><ele>1483</ele></trkpt>
   <trkpt lat="42.50703" lon="2.133646"><ele>1483</ele></trkpt>
   <trkpt lat="42.507064" lon="2.133462"><ele>1484</ele></trkpt>
   <trkpt lat="42.507064" lon="2.133331"><ele>1485</ele></trkpt>
   <trkpt lat="42.507037" lon="2.132952"><ele>1488.25</ele></trkpt>
   <trkpt lat="42.507026" lon="2.132694"><ele>1489.25</ele></trkpt>
   <trkpt lat="42.507033" lon="2.132449"><ele>1489.75</ele></trkpt>
   <trkpt lat="42.507051" lon="2.132289"><ele>1490.25</ele></trkpt>
   <trkpt lat="42.507096" lon="2.132112"><ele>1490</ele></trkpt>
   <trkpt lat="42.507214" lon="2.131747"><ele>1491.5</ele></trkpt>
   <trkpt lat="42.507246" lon="2.131579"><ele>1492.75</ele></trkpt>
   <trkpt lat="42.507273" lon="2.131351"><ele>1493.5</ele></trkpt>
   <trkpt lat="42.507293" lon="2.131048"><ele>1494.5</ele></trkpt>
   <trkpt lat="42.507324" lon="2.130922"><ele>1494.75</ele></trkpt>
   <trkpt lat="42.507384" lon="2.130839"><ele>1495.5</ele></trkpt>
   <trkpt lat="42.507465" lon="2.130788"><ele>1496</ele></trkpt>
   <trkpt lat="42.507671" lon="2.130696"><ele>1497.75</ele></trkpt>
   <trkpt lat="42.507784" lon="2.130622"><ele>1499</ele></trkpt>
   <trkpt lat="42.507854" lon="2.130546"><ele>1500.5</ele></trkpt>
   <trkpt lat="42.507916" lon="2.130461"><ele>1500.25</ele></trkpt>
   <trkpt lat="42.507988" lon="2.130395"><ele>1500.75</ele></trkpt>
   <trkpt lat="42.508062" lon="2.130343"><ele>1501.25</ele></trkpt>
   <trkpt lat="42.508144" lon="2.130321"><ele>1501.5</ele></trkpt>
   <trkpt lat="42.508323" lon="2.130306"><ele>1502.5</ele></trkpt>
   <trkpt lat="42.508563" lon="2.130248"><ele>1502.25</ele></trkpt>
   <trkpt lat="42.508899" lon="2.130227"><ele>1504.75</ele></trkpt>
   <trkpt lat="42.508952" lon="2.130207"><ele>1506.5</ele></trkpt>
   <trkpt lat="42.509015" lon="2.130159"><ele>1507.5</ele></trkpt>
   <trkpt lat="42.509254" lon="2.129919"><ele>1507.5</ele></trkpt>
   <trkpt lat="42.509513" lon="2.129689"><ele>1508</ele></trkpt>
   <trkpt lat="42.509814" lon="2.129361"><ele>1507.5</ele></trkpt>
   <trkpt lat="42.509871" lon="2.129309"><ele>1507.5</ele></trkpt>
   <trkpt lat="42.509937" lon="2.129271"><ele>1508</ele></trkpt>
   <trkpt lat="42.510031" lon="2.129242"><ele>1508.75</ele></trkpt>
   <trkpt lat="42.510114" lon="2.129247"><ele>1508.5</ele></trkpt>
   <trkpt lat="42.510222" lon="2.129274"><ele>1508.5</ele></trkpt>
   <trkpt lat="42.510332" lon="2.129261"><ele>1508.75</ele></trkpt>
   <trkpt lat="42.510674" lon="2.129036"><ele>1509.5</ele></trkpt>
   <trkpt lat="42.510773" lon="2.128962"><ele>1510.25</ele></trkpt>
   <trkpt lat="42.510816" lon="2.128896"><ele>1509.5</ele></trkpt>
   <trkpt lat="42.510836" lon="2.128817"><ele>1509.5</ele></trkpt>
   <trkpt lat="42.510818" lon="2.128471"><ele>1508</ele></trkpt>
   <trkpt lat="42.510817" lon="2.128275"><ele>1508.5</ele></trkpt>
   <trkpt lat="42.510845" lon="2.128151"><ele>1509.75</ele></trkpt>
   <trkpt lat="42.510978" lon="2.127833"><ele>1509.5</ele></trkpt>
   <trkpt lat="42.511015" lon="2.127672"><ele>1508.75</ele></trkpt>
   <trkpt lat="42.511041" lon="2.127476"><ele>1508.5</ele></trkpt>
   <trkpt lat="42.511082" lon="2.127235"><ele>1511.5</ele></trkpt>
   <trkpt lat="42.511139" lon="2.127071"><ele>1513.5</ele></trkpt>
   <trkpt lat="42.511246" lon="2.126745"><ele>1517.5</ele></trkpt>
   <trkpt lat="42.511271" lon="2.126626"><ele>1518.75</ele></trkpt>
   <trkpt lat="42.511269" lon="2.126496"><ele>1518.5</ele></trkpt>
   <trkpt lat="42.511236" lon="2.12626"><ele>1519</ele></trkpt>
   <trkpt lat="42.511175" lon="2.126062"><ele>1519.25</ele></trkpt>
   <trkpt lat="42.511092" lon="2.125853"><ele>1517.5</ele></trkpt>
   <trkpt lat="42.511058" lon="2.125716"><ele>1518.25</ele></trkpt>
   <trkpt lat="42.510931" lon="2.12503"><ele>1521</ele></trkpt>
   <trkpt lat="42.510912" lon="2.124876"><ele>1521.75</ele></trkpt>
   <trkpt lat="42.510914" lon="2.124771"><ele>1523</ele></trkpt>
   <trkpt lat="42.510945" lon="2.124658"><ele>1522.75</ele></trkpt>
   <trkpt lat="42.511005" lon="2.124514"><ele>1520.5</ele></trkpt>
   <trkpt lat="42.511078" lon="2.1244"><ele>1520.25</ele></trkpt>
   <trkpt lat="42.511154" lon="2.124343"><ele>1521</ele></trkpt>
   <trkpt lat="42.511306" lon="2.124295"><ele>1524</ele></trkpt>
   <trkpt lat="42.511375" lon="2.124256"><ele>1524.5</ele></trkpt>
   <trkpt lat="42.511652" lon="2.124013"><ele>1523.5</ele></trkpt>
   <trkpt lat="42.511885" lon="2.123883"><ele>1524.5</ele></trkpt>
   <trkpt lat="42.511973" lon="2.1238"><ele>1524.75</ele></trkpt>
   <trkpt lat="42.51204" lon="2.123666"><ele>1524.25</ele></trkpt>
   <trkpt lat="42.512167" lon="2.123287"><ele>1523</ele></trkpt>
   <trkpt lat="42.512209" lon="2.12306"><ele>1523.25</ele></trkpt>
   <trkpt lat="42.512207" lon="2.122986"><ele>1523</ele></trkpt>
   <trkpt lat="42.512202" lon="2.122941"><ele>1522.75</ele></trkpt>
   <trkpt lat="42.51216" lon="2.12282"><ele>1520.25</ele></trkpt>
   <trkpt lat="42.512084" lon="2.12273"><ele>1515.5</ele></trkpt>
   <trkpt lat="42.511858" lon="2.122524"><ele>1516.25</ele></trkpt>
   <trkpt lat="42.511799" lon="2.12249"><ele>1519.25</ele></trkpt>
   <trkpt lat="42.511726" lon="2.122467"><ele>1522.5</ele></trkpt>
   <trkpt lat="42.51166" lon="2.122485"><ele>1524.5</ele></trkpt>
   <trkpt lat="42.511586" lon="2.122543"><ele>1525.5</ele></trkpt>
   <trkpt lat="42.511061" lon="2.123122"><ele>1526.75</ele></trkpt>
   <trkpt lat="42.510989" lon="2.123186"><ele>1526.75</ele></trkpt>
   <trkpt lat="42.510916" lon="2.123228"><ele>1528.25</ele></trkpt>
   <trkpt lat="42.510838" lon="2.123243"><ele>1531.25</ele></trkpt>
   <trkpt lat="42.510514" lon="2.123173"><ele>1531.5</ele></trkpt>
   <trkpt lat="42.51035" lon="2.123143"><ele>1532.75</ele></trkpt>
   <trkpt lat="42.510239" lon="2.123166"><ele>1533.75</ele></trkpt>
   <trkpt lat="42.510148" lon="2.123235"><ele>1535</ele></trkpt>
   <trkpt lat="42.509441" lon="2.124281"><ele>1541.25</ele></trkpt>
   <trkpt lat="42.509342" lon="2.124449"><ele>1542.75</ele></trkpt>
   <trkpt lat="42.509297" lon="2.124565"><ele>1542.75</ele></trkpt>
   <trkpt lat="42.509281" lon="2.124667"><ele>1542.5</ele></trkpt>
   <trkpt lat="42.509279" lon="2.124791"><ele>1542.5</ele></trkpt>
   <trkpt lat="42.509325" lon="2.125375"><ele>1542.5</ele></trkpt>
   <trkpt lat="42.509331" lon="2.125527"><ele>1543</ele></trkpt>
   <trkpt lat="42.509311" lon="2.125633"><ele>1543.25</ele></trkpt>
   <trkpt lat="42.509276" lon="2.125712"><ele>1543.75</ele></trkpt>
   <trkpt lat="42.509232" lon="2.125763"><ele>1545.25</ele></trkpt>
   <trkpt lat="42.509172" lon="2.125789"><ele>1547.75</ele></trkpt>
   <trkpt lat="42.5091" lon="2.125794"><ele>1548</ele></trkpt>
   <trkpt lat="42.509038" lon="2.125764"><ele>1548.25</ele></trkpt>
   <trkpt lat="42.508946" lon="2.125665"><ele>1549.25</ele></trkpt>
   <trkpt lat="42.508878" lon="2.125535"><ele>1551</ele></trkpt>
   <trkpt lat="42.508759" lon="2.125267"><ele>1552.5</ele></trkpt>
   <trkpt lat="42.508694" lon="2.125148"><ele>1553</ele></trkpt>
   <trkpt lat="42.508606" lon="2.125045"><ele>1553.75</ele></trkpt>
   <trkpt lat="42.508546" lon="2.124985"><ele>1554.25</ele></trkpt>
   <trkpt lat="42.508482" lon="2.12493"><ele>1555</ele></trkpt>
   <trkpt lat="42.508337" lon="2.124845"><ele>1556.5</ele></trkpt>
   <trkpt lat="42.508224" lon="2.124779"><ele>1557.25</ele></trkpt>
   <trkpt lat="42.508104" lon="2.124664"><ele>1558.5</ele></trkpt>
   <trkpt lat="42.50799" lon="2.124523"><ele>1559</ele></trkpt>
   <trkpt lat="42.507924" lon="2.124443"><ele>1559.5</ele></trkpt>
   <trkpt lat="42.507827" lon="2.124349"><ele>1559.75</ele></trkpt>
   <trkpt lat="42.507633" lon="2.124202"><ele>1559.5</ele></trkpt>
   <trkpt lat="42.507538" lon="2.124118"><ele>1559.75</ele></trkpt>
   <trkpt lat="42.507466" lon="2.124024"><ele>1559.75</ele></trkpt>
   <trkpt lat="42.507411" lon="2.12389"><ele>1560.5</ele></trkpt>
   <trkpt lat="42.50733" lon="2.123632"><ele>1561.25</ele></trkpt>
   <trkpt lat="42.507256" lon="2.123392"><ele>1561.25</ele></trkpt>
   <trkpt lat="42.507211" lon="2.123276"><ele>1561</ele></trkpt>
   <trkpt lat="42.507145" lon="2.12316"><ele>1561</ele></trkpt>
   <trkpt lat="42.507056" lon="2.123029"><ele>1561.25</ele></trkpt>
   <trkpt lat="42.506856" lon="2.122833"><ele>1561</ele></trkpt>
   <trkpt lat="42.50675" lon="2.122656"><ele>1561.25</ele></trkpt>
   <trkpt lat="42.506725" lon="2.122539"><ele>1561</ele></trkpt>
   <trkpt lat="42.506713" lon="2.12245"><ele>1561</ele></trkpt>
   <trkpt lat="42.50672" lon="2.122295"><ele>1561.25</ele></trkpt>
   <trkpt lat="42.506727" lon="2.122086"><ele>1561.25</ele></trkpt>
   <trkpt lat="42.506723" lon="2.121919"><ele>1561.25</ele></trkpt>
   <trkpt lat="42.506717" lon="2.121838"><ele>1561.25</ele></trkpt>
   <trkpt lat="42.506689" lon="2.121651"><ele>1561</ele></trkpt>
   <trkpt lat="42.506671" lon="2.121538"><ele>1561</ele></trkpt>
   <trkpt lat="42.50666" lon="2.121471"><ele>1560.75</ele></trkpt>
   <trkpt lat="42.506631" lon="2.121229"><ele>1561</ele></trkpt>
   <trkpt lat="42.506632" lon="2.121096"><ele>1561.25</ele></trkpt>
   <trkpt lat="42.506649" lon="2.120986"><ele>1561.25</ele></trkpt>
   <trkpt lat="42.506681" lon="2.120873"><ele>1561.25</ele></trkpt>
   <trkpt lat="42.506726" lon="2.120774"><ele>1561</ele></trkpt>
   <trkpt lat="42.506782" lon="2.120694"><ele>1560.75</ele></trkpt>
   <trkpt lat="42.507161" lon="2.120223"><ele>1561.75</ele></trkpt>
   <trkpt lat="42.507329" lon="2.119975"><ele>1562.5</ele></trkpt>
   <trkpt lat="42.50736" lon="2.11993"><ele>1562.25</ele></trkpt>
   <trkpt lat="42.507437" lon="2.119769"><ele>1562.25</ele></trkpt>
   <trkpt lat="42.50751" lon="2.119589"><ele>1563</ele></trkpt>
   <trkpt lat="42.507642" lon="2.119003"><ele>1564</ele></trkpt>
   <trkpt lat="42.507687" lon="2.118894"><ele>1564.5</ele></trkpt>
   <trkpt lat="42.507739" lon="2.118799"><ele>1564.75</ele></trkpt>
   <trkpt lat="42.507855" lon="2.118644"><ele>1565.5</ele></trkpt>
   <trkpt lat="42.508132" lon="2.118342"><ele>1566</ele></trkpt>
   <trkpt lat="42.508243" lon="2.118177"><ele>1566.5</ele></trkpt>
   <trkpt lat="42.508347" lon="2.117993"><ele>1567.25</ele></trkpt>
   <trkpt lat="42.508444" lon="2.117775"><ele>1566.5</ele></trkpt>
   <trkpt lat="42.50867" lon="2.117184"><ele>1568.25</ele></trkpt>
   <trkpt lat="42.508723" lon="2.117009"><ele>1569</ele></trkpt>
   <trkpt lat="42.50874" lon="2.116905"><ele>1569</ele></trkpt>
   <trkpt lat="42.508743" lon="2.116802"><ele>1569</ele></trkpt>
   <trkpt lat="42.50873" lon="2.116708"><ele>1568.5</ele></trkpt>
   <trkpt lat="42.5087" lon="2.116601"><ele>1568</ele></trkpt>
   <trkpt lat="42.508641" lon="2.116475"><ele>1568</ele></trkpt>
   <trkpt lat="42.508548" lon="2.116366"><ele>1568.5</ele></trkpt>
   <trkpt lat="42.508457" lon="2.116303"><ele>1568.75</ele></trkpt>
   <trkpt lat="42.508387" lon="2.116266"><ele>1569</ele></trkpt>
   <trkpt lat="42.508246" lon="2.116223"><ele>1569.75</ele></trkpt>
   <trkpt lat="42.508079" lon="2.116185"><ele>1570.25</ele></trkpt>
   <trkpt lat="42.507875" lon="2.116107"><ele>1572</ele></trkpt>
   <trkpt lat="42.507765" lon="2.11607"><ele>1572</ele></trkpt>
   <trkpt lat="42.507698" lon="2.116038"><ele>1572</ele></trkpt>
   <trkpt lat="42.507614" lon="2.115975"><ele>1572</ele></trkpt>
   <trkpt lat="42.507568" lon="2.115883"><ele>1572.5</ele></trkpt>
   <trkpt lat="42.507544" lon="2.115787"><ele>1573</ele></trkpt>
   <trkpt lat="42.507532" lon="2.115738"><ele>1573.25</ele></trkpt>
   <trkpt lat="42.507542" lon="2.115698"><ele>1573.5</ele></trkpt>
   <trkpt lat="42.507545" lon="2.115655"><ele>1573.5</ele></trkpt>
   <trkpt lat="42.507537" lon="2.115592"><ele>1573.75</ele></trkpt>
   <trkpt lat="42.507515" lon="2.115535"><ele>1574.25</ele></trkpt>
   <trkpt lat="42.507481" lon="2.115491"><ele>1574.75</ele></trkpt>
   <trkpt lat="42.507446" lon="2.115467"><ele>1574.75</ele></trkpt>
   <trkpt lat="42.507407" lon="2.115457"><ele>1574.5</ele></trkpt>
   <trkpt lat="42.507368" lon="2.11546"><ele>1574.25</ele></trkpt>
   <trkpt lat="42.507331" lon="2.115478"><ele>1573.75</ele></trkpt>
   <trkpt lat="42.50725" lon="2.115457"><ele>1573.5</ele></trkpt>
   <trkpt lat="42.507184" lon="2.115413"><ele>1572.75</ele></trkpt>
   <trkpt lat="42.507042" lon="2.115208"><ele>1571.25</ele></trkpt>
   <trkpt lat="42.506976" lon="2.114979"><ele>1571.5</ele></trkpt>
   <trkpt lat="42.506915" lon="2.114755"><ele>1572</ele></trkpt>
   <trkpt lat="42.506827" lon="2.114404"><ele>1572.5</ele></trkpt>
   <trkpt lat="42.506786" lon="2.114139"><ele>1572</ele></trkpt>
   <trkpt lat="42.506771" lon="2.113964"><ele>1572</ele></trkpt>
   <trkpt lat="42.506759" lon="2.113702"><ele>1572.75</ele></trkpt>
   <trkpt lat="42.506737" lon="2.113538"><ele>1573</ele></trkpt>
   <trkpt lat="42.506689" lon="2.113332"><ele>1573.25</ele></trkpt>
   <trkpt lat="42.50662" lon="2.113137"><ele>1573</ele></trkpt>
   <trkpt lat="42.506556" lon="2.113018"><ele>1573</ele></trkpt>
   <trkpt lat="42.506436" lon="2.112829"><ele>1573.25</ele></trkpt>
   <trkpt lat="42.506159" lon="2.112452"><ele>1573</ele></trkpt>
   <trkpt lat="42.506034" lon="2.112297"><ele>1573.25</ele></trkpt>
   <trkpt lat="42.50575" lon="2.112012"><ele>1573</ele></trkpt>
   <trkpt lat="42.505645" lon="2.11187"><ele>1573</ele></trkpt>
   <trkpt lat="42.505549" lon="2.111687"><ele>1573.5</ele></trkpt>
   <trkpt lat="42.505474" lon="2.111501"><ele>1573</ele></trkpt>
   <trkpt lat="42.505425" lon="2.111295"><ele>1573</ele></trkpt>
   <trkpt lat="42.505348" lon="2.110783"><ele>1571.75</ele></trkpt>
   <trkpt lat="42.505307" lon="2.11062"><ele>1572</ele></trkpt>
   <trkpt lat="42.505226" lon="2.110448"><ele>1572</ele></trkpt>
   <trkpt lat="42.504943" lon="2.110004"><ele>1572</ele></trkpt>
   <trkpt lat="42.504868" lon="2.109819"><ele>1573</ele></trkpt>
   <trkpt lat="42.504831" lon="2.109649"><ele>1573.5</ele></trkpt>
   <trkpt lat="42.504804" lon="2.109408"><ele>1573</ele></trkpt>
   <trkpt lat="42.50481" lon="2.109175"><ele>1572.5</ele></trkpt>
   <trkpt lat="42.504841" lon="2.108789"><ele>1572.75</ele></trkpt>
   <trkpt lat="42.504839" lon="2.108465"><ele>1572.5</ele></trkpt>
   <trkpt lat="42.504813" lon="2.108148"><ele>1573</ele></trkpt>
   <trkpt lat="42.504727" lon="2.107529"><ele>1573</ele></trkpt>
   <trkpt lat="42.504714" lon="2.107294"><ele>1573.5</ele></trkpt>
   <trkpt lat="42.50471" lon="2.107072"><ele>1573.5</ele></trkpt>
   <trkpt lat="42.50473" lon="2.106792"><ele>1574</ele></trkpt>
   <trkpt lat="42.504797" lon="2.106237"><ele>1573.5</ele></trkpt>
   <trkpt lat="42.504807" lon="2.105963"><ele>1573</ele></trkpt>
   <trkpt lat="42.504792" lon="2.105732"><ele>1573</ele></trkpt>
   <trkpt lat="42.504755" lon="2.105494"><ele>1572.75</ele></trkpt>
   <trkpt lat="42.504694" lon="2.105207"><ele>1573</ele></trkpt>
   <trkpt lat="42.504577" lon="2.104797"><ele>1574.5</ele></trkpt>
   <trkpt lat="42.504501" lon="2.104488"><ele>1574.75</ele></trkpt>
   <trkpt lat="42.504485" lon="2.104331"><ele>1575</ele></trkpt>
   <trkpt lat="42.504464" lon="2.103805"><ele>1574.25</ele></trkpt>
   <trkpt lat="42.504434" lon="2.103483"><ele>1574.25</ele></trkpt>
   <trkpt lat="42.504415" lon="2.103392"><ele>1574.25</ele></trkpt>
  </trkseg>
 </trk>
</gpx>