<?xml version="1.0" encoding="UTF-8"?>
<!-- track-length = 28742 filtered ascend = 1574 plain-ascend = 1328 cost=42037 energy=0.4kwh time=4h 30m 52s -->
<gpx 
 xmlns="http://www.topografix.com/GPX/1/1" 
 xmlns:xsi="http://www.w3.org/2001/XMLSchema-instance" 
 xsi:schemaLocation="http://www.topografix.com/GPX/1/1 http://www.topografix.com/GPX/1/1/gpx.xsd" 
 version="1.1" 
 creator="BRouter-Web 0.18.1">
 <trk>
  <name>col de la croix de fer (28.7km)</name>
  <trkseg>
      <trkpt lat="45.154635" lon="6.045381"><ele>812.75</ele></trkpt>
   <trkpt lat="45.154931" lon="6.045248"><ele>818.25</ele></trkpt>
   <trkpt lat="45.155026" lon="6.04522"><ele>819.75</ele></trkpt>
   <trkpt lat="45.155214" lon="6.045183"><ele>822</ele></trkpt>
   <trkpt lat="45.155291" lon="6.045147"><ele>823.5</ele></trkpt>
   <trkpt lat="45.155375" lon="6.045096"><ele>824.75</ele></trkpt>
   <trkpt lat="45.155447" lon="6.045038"><ele>826.5</ele></trkpt>
   <trkpt lat="45.155502" lon="6.044977"><ele>828.25</ele></trkpt>
   <trkpt lat="45.155641" lon="6.044749"><ele>833.75</ele></trkpt>
   <trkpt lat="45.155751" lon="6.044625"><ele>835.75</ele></trkpt>
   <trkpt lat="45.155877" lon="6.044527"><ele>838</ele></trkpt>
   <trkpt lat="45.156085" lon="6.044381"><ele>841.75</ele></trkpt>
   <trkpt lat="45.156263" lon="6.044288"><ele>841</ele></trkpt>
   <trkpt lat="45.15634" lon="6.044255"><ele>840.5</ele></trkpt>
   <trkpt lat="45.156538" lon="6.044124"><ele>842.5</ele></trkpt>
   <trkpt lat="45.156703" lon="6.043992"><ele>844.75</ele></trkpt>
   <trkpt lat="45.157164" lon="6.043598"><ele>851.75</ele></trkpt>
   <trkpt lat="45.157284" lon="6.043513"><ele>855.5</ele></trkpt>
   <trkpt lat="45.157436" lon="6.043448"><ele>855</ele></trkpt>
   <trkpt lat="45.157939" lon="6.04333"><ele>859.5</ele></trkpt>
   <trkpt lat="45.158126" lon="6.043267"><ele>859.75</ele></trkpt>
   <trkpt lat="45.158205" lon="6.043229"><ele>858.75</ele></trkpt>
   <trkpt lat="45.158287" lon="6.043178"><ele>857.75</ele></trkpt>
   <trkpt lat="45.158482" lon="6.043029"><ele>860.25</ele></trkpt>
   <trkpt lat="45.158589" lon="6.042967"><ele>861.5</ele></trkpt>
   <trkpt lat="45.158798" lon="6.042933"><ele>863.75</ele></trkpt>
   <trkpt lat="45.158957" lon="6.042933"><ele>865.5</ele></trkpt>
   <trkpt lat="45.159093" lon="6.042911"><ele>867.25</ele></trkpt>
   <trkpt lat="45.159227" lon="6.042852"><ele>869.75</ele></trkpt>
   <trkpt lat="45.159427" lon="6.042765"><ele>872.75</ele></trkpt>
   <trkpt lat="45.159843" lon="6.042548"><ele>876.75</ele></trkpt>
   <trkpt lat="45.160122" lon="6.042346"><ele>880.75</ele></trkpt>
   <trkpt lat="45.160402" lon="6.042214"><ele>881.75</ele></trkpt>
   <trkpt lat="45.16061" lon="6.042126"><ele>883.75</ele></trkpt>
   <trkpt lat="45.16061" lon="6.042125"><ele>883.75</ele></trkpt>
   <trkpt lat="45.160672" lon="6.0421"><ele>883.75</ele></trkpt>
   <trkpt lat="45.160938" lon="6.042033"><ele>886</ele></trkpt>
   <trkpt lat="45.161256" lon="6.042019"><ele>888.75</ele></trkpt>
   <trkpt lat="45.1616" lon="6.04207"><ele>890.25</ele></trkpt>
   <trkpt lat="45.162056" lon="6.042188"><ele>891.75</ele></trkpt>
   <trkpt lat="45.162346" lon="6.042239"><ele>895</ele></trkpt>
   <trkpt lat="45.162724" lon="6.042257"><ele>897.5</ele></trkpt>
   <trkpt lat="45.163444" lon="6.04216"><ele>901.75</ele></trkpt>
   <trkpt lat="45.163826" lon="6.042138"><ele>905.25</ele></trkpt>
   <trkpt lat="45.164146" lon="6.042136"><ele>909.25</ele></trkpt>
   <trkpt lat="45.16433" lon="6.042121"><ele>912.25</ele></trkpt>
   <trkpt lat="45.165009" lon="6.041982"><ele>912.5</ele></trkpt>
   <trkpt lat="45.165271" lon="6.042007"><ele>917.5</ele></trkpt>
   <trkpt lat="45.165479" lon="6.042007"><ele>914.75</ele></trkpt>
   <trkpt lat="45.165634" lon="6.041991"><ele>914</ele></trkpt>
   <trkpt lat="45.165806" lon="6.041888"><ele>918.25</ele></trkpt>
   <trkpt lat="45.165928" lon="6.041803"><ele>923.25</ele></trkpt>
   <trkpt lat="45.166176" lon="6.041771"><ele>925.75</ele></trkpt>
   <trkpt lat="45.166527" lon="6.041791"><ele>925.75</ele></trkpt>
   <trkpt lat="45.166903" lon="6.041727"><ele>928.5</ele></trkpt>
   <trkpt lat="45.167252" lon="6.041562"><ele>938.75</ele></trkpt>
   <trkpt lat="45.167507" lon="6.041487"><ele>932.75</ele></trkpt>
   <trkpt lat="45.168052" lon="6.041228"><ele>941</ele></trkpt>
   <trkpt lat="45.168157" lon="6.041152"><ele>943</ele></trkpt>
   <trkpt lat="45.168264" lon="6.041067"><ele>945.5</ele></trkpt>
   <trkpt lat="45.168399" lon="6.040941"><ele>946.5</ele></trkpt>
   <trkpt lat="45.168541" lon="6.040742"><ele>946</ele></trkpt>
   <trkpt lat="45.168685" lon="6.040422"><ele>943.5</ele></trkpt>
   <trkpt lat="45.168838" lon="6.040149"><ele>945</ele></trkpt>
   <trkpt lat="45.16895" lon="6.040036"><ele>947.25</ele></trkpt>
   <trkpt lat="45.169112" lon="6.039894"><ele>951</ele></trkpt>
   <trkpt lat="45.169304" lon="6.039785"><ele>953.5</ele></trkpt>
   <trkpt lat="45.169484" lon="6.039739"><ele>952.5</ele></trkpt>
   <trkpt lat="45.169602" lon="6.039734"><ele>951.5</ele></trkpt>
   <trkpt lat="45.169665" lon="6.039731"><ele>951</ele></trkpt>
   <trkpt lat="45.16984" lon="6.039669"><ele>949.75</ele></trkpt>
   <trkpt lat="45.170097" lon="6.039498"><ele>954.25</ele></trkpt>
   <trkpt lat="45.170327" lon="6.039281"><ele>962.25</ele></trkpt>
   <trkpt lat="45.170568" lon="6.039079"><ele>968.75</ele></trkpt>
   <trkpt lat="45.170868" lon="6.038916"><ele>968.25</ele></trkpt>
   <trkpt lat="45.171262" lon="6.038676"><ele>966.75</ele></trkpt>
   <trkpt lat="45.1717" lon="6.038396"><ele>971.5</ele></trkpt>
   <trkpt lat="45.172001" lon="6.038187"><ele>974.75</ele></trkpt>
   <trkpt lat="45.172198" lon="6.038078"><ele>975.5</ele></trkpt>
   <trkpt lat="45.172378" lon="6.038039"><ele>973.75</ele></trkpt>
   <trkpt lat="45.172854" lon="6.037869"><ele>973.5</ele></trkpt>
   <trkpt lat="45.173105" lon="6.037822"><ele>973</ele></trkpt>
   <trkpt lat="45.173737" lon="6.037786"><ele>974.5</ele></trkpt>
   <trkpt lat="45.173932" lon="6.037698"><ele>978.5</ele></trkpt>
   <trkpt lat="45.174162" lon="6.037558"><ele>982.75</ele></trkpt>
   <trkpt lat="45.174331" lon="6.037403"><ele>987.25</ele></trkpt>
   <trkpt lat="45.174496" lon="6.037232"><ele>993.75</ele></trkpt>
   <trkpt lat="45.174687" lon="6.037139"><ele>997.25</ele></trkpt>
   <trkpt lat="45.174972" lon="6.037054"><ele>1001.25</ele></trkpt>
   <trkpt lat="45.175343" lon="6.037063"><ele>999.5</ele></trkpt>
   <trkpt lat="45.175595" lon="6.036968"><ele>1003.75</ele></trkpt>
   <trkpt lat="45.175754" lon="6.036875"><ele>1009</ele></trkpt>
   <trkpt lat="45.175885" lon="6.036868"><ele>1009.75</ele></trkpt>
   <trkpt lat="45.176186" lon="6.036922"><ele>1008</ele></trkpt>
   <trkpt lat="45.176356" lon="6.036914"><ele>1006.5</ele></trkpt>
   <trkpt lat="45.176492" lon="6.036823"><ele>1007</ele></trkpt>
   <trkpt lat="45.17664" lon="6.036695"><ele>1007.5</ele></trkpt>
   <trkpt lat="45.176916" lon="6.036353"><ele>1012.5</ele></trkpt>
   <trkpt lat="45.17702" lon="6.036286"><ele>1013.75</ele></trkpt>
   <trkpt lat="45.177105" lon="6.036279"><ele>1014.25</ele></trkpt>
   <trkpt lat="45.177135" lon="6.03629"><ele>1014</ele></trkpt>
   <trkpt lat="45.177203" lon="6.036298"><ele>1014</ele></trkpt>
   <trkpt lat="45.177282" lon="6.036352"><ele>1014.5</ele></trkpt>
   <trkpt lat="45.17775" lon="6.036746"><ele>1012</ele></trkpt>
   <trkpt lat="45.177869" lon="6.036761"><ele>1012.25</ele></trkpt>
   <trkpt lat="45.178094" lon="6.03663"><ele>1018.5</ele></trkpt>
   <trkpt lat="45.178181" lon="6.036586"><ele>1021</ele></trkpt>
   <trkpt lat="45.178205" lon="6.036559"><ele>1022.25</ele></trkpt>
   <trkpt lat="45.17833" lon="6.036542"><ele>1023.75</ele></trkpt>
   <trkpt lat="45.178508" lon="6.036556"><ele>1027</ele></trkpt>
   <trkpt lat="45.178711" lon="6.036616"><ele>1028</ele></trkpt>
   <trkpt lat="45.178932" lon="6.036604"><ele>1030.5</ele></trkpt>
   <trkpt lat="45.179107" lon="6.036517"><ele>1034.5</ele></trkpt>
   <trkpt lat="45.179338" lon="6.036357"><ele>1039.75</ele></trkpt>
   <trkpt lat="45.179846" lon="6.035935"><ele>1050.25</ele></trkpt>
   <trkpt lat="45.180092" lon="6.035804"><ele>1053</ele></trkpt>
   <trkpt lat="45.180365" lon="6.03568"><ele>1055.25</ele></trkpt>
   <trkpt lat="45.181636" lon="6.035136"><ele>1072</ele></trkpt>
   <trkpt lat="45.181937" lon="6.035033"><ele>1077.5</ele></trkpt>
   <trkpt lat="45.182318" lon="6.034939"><ele>1083.25</ele></trkpt>
   <trkpt lat="45.182973" lon="6.034926"><ele>1081.25</ele></trkpt>
   <trkpt lat="45.183259" lon="6.034887"><ele>1082.75</ele></trkpt>
   <trkpt lat="45.184458" lon="6.034635"><ele>1097.75</ele></trkpt>
   <trkpt lat="45.185518" lon="6.034468"><ele>1104.75</ele></trkpt>
   <trkpt lat="45.185761" lon="6.034392"><ele>1107</ele></trkpt>
   <trkpt lat="45.185972" lon="6.034291"><ele>1110.5</ele></trkpt>
   <trkpt lat="45.186358" lon="6.034068"><ele>1118</ele></trkpt>
   <trkpt lat="45.18691" lon="6.03383"><ele>1121.25</ele></trkpt>
   <trkpt lat="45.186979" lon="6.033815"><ele>1121.75</ele></trkpt>
   <trkpt lat="45.18715" lon="6.033823"><ele>1122.75</ele></trkpt>
   <trkpt lat="45.187373" lon="6.033941"><ele>1122.75</ele></trkpt>
   <trkpt lat="45.187676" lon="6.034192"><ele>1129.5</ele></trkpt>
   <trkpt lat="45.188492" lon="6.034804"><ele>1142.75</ele></trkpt>
   <trkpt lat="45.189068" lon="6.035183"><ele>1147.5</ele></trkpt>
   <trkpt lat="45.18955" lon="6.035334"><ele>1154.75</ele></trkpt>
   <trkpt lat="45.189792" lon="6.035472"><ele>1156</ele></trkpt>
   <trkpt lat="45.190088" lon="6.035669"><ele>1156</ele></trkpt>
   <trkpt lat="45.190474" lon="6.03583"><ele>1160.5</ele></trkpt>
   <trkpt lat="45.191546" lon="6.036131"><ele>1182</ele></trkpt>
   <trkpt lat="45.191804" lon="6.03623"><ele>1185.25</ele></trkpt>
   <trkpt lat="45.191991" lon="6.036337"><ele>1185.75</ele></trkpt>
   <trkpt lat="45.192089" lon="6.036439"><ele>1183.5</ele></trkpt>
   <trkpt lat="45.192241" lon="6.036497"><ele>1184.5</ele></trkpt>
   <trkpt lat="45.192508" lon="6.036526"><ele>1189.25</ele></trkpt>
   <trkpt lat="45.192815" lon="6.036574"><ele>1196.5</ele></trkpt>
   <trkpt lat="45.193061" lon="6.036744"><ele>1199</ele></trkpt>
   <trkpt lat="45.193544" lon="6.037344"><ele>1198.5</ele></trkpt>
   <trkpt lat="45.193711" lon="6.037458"><ele>1200.25</ele></trkpt>
   <trkpt lat="45.193958" lon="6.037622"><ele>1201.75</ele></trkpt>
   <trkpt lat="45.194375" lon="6.037852"><ele>1206.25</ele></trkpt>
   <trkpt lat="45.194556" lon="6.03793"><ele>1209</ele></trkpt>
   <trkpt lat="45.194768" lon="6.037955"><ele>1215.75</ele></trkpt>
   <trkpt lat="45.19503" lon="6.037961"><ele>1225.25</ele></trkpt>
   <trkpt lat="45.195177" lon="6.03801"><ele>1227.75</ele></trkpt>
   <trkpt lat="45.195412" lon="6.038187"><ele>1228.5</ele></trkpt>
   <trkpt lat="45.195657" lon="6.038387"><ele>1230.5</ele></trkpt>
   <trkpt lat="45.196024" lon="6.038706"><ele>1230.25</ele></trkpt>
   <trkpt lat="45.196145" lon="6.038747"><ele>1230.5</ele></trkpt>
   <trkpt lat="45.196266" lon="6.03877"><ele>1231.25</ele></trkpt>
   <trkpt lat="45.196527" lon="6.038795"><ele>1234</ele></trkpt>
   <trkpt lat="45.196946" lon="6.038863"><ele>1238.5</ele></trkpt>
   <trkpt lat="45.19765" lon="6.038994"><ele>1247.75</ele></trkpt>
   <trkpt lat="45.198083" lon="6.039118"><ele>1254.75</ele></trkpt>
   <trkpt lat="45.198414" lon="6.039232"><ele>1255.75</ele></trkpt>
   <trkpt lat="45.198608" lon="6.039329"><ele>1253.75</ele></trkpt>
   <trkpt lat="45.198696" lon="6.039348"><ele>1253.25</ele></trkpt>
   <trkpt lat="45.198779" lon="6.039351"><ele>1253</ele></trkpt>
   <trkpt lat="45.199064" lon="6.039272"><ele>1256</ele></trkpt>
   <trkpt lat="45.199133" lon="6.039251"><ele>1256.5</ele></trkpt>
   <trkpt lat="45.199376" lon="6.039232"><ele>1255.25</ele></trkpt>
   <trkpt lat="45.199476" lon="6.039162"><ele>1257</ele></trkpt>
   <trkpt lat="45.199549" lon="6.039126"><ele>1257.75</ele></trkpt>
   <trkpt lat="45.199679" lon="6.039095"><ele>1258.5</ele></trkpt>
   <trkpt lat="45.199748" lon="6.039091"><ele>1258.75</ele></trkpt>
   <trkpt lat="45.199877" lon="6.039107"><ele>1259</ele></trkpt>
   <trkpt lat="45.200176" lon="6.039171"><ele>1259.75</ele></trkpt>
   <trkpt lat="45.200286" lon="6.039203"><ele>1259.75</ele></trkpt>
   <trkpt lat="45.200681" lon="6.039389"><ele>1258</ele></trkpt>
   <trkpt lat="45.200814" lon="6.039457"><ele>1257.25</ele></trkpt>
   <trkpt lat="45.200884" lon="6.03948"><ele>1257.5</ele></trkpt>
   <trkpt lat="45.200993" lon="6.039501"><ele>1258.5</ele></trkpt>
   <trkpt lat="45.201098" lon="6.039509"><ele>1259.5</ele></trkpt>
   <trkpt lat="45.201377" lon="6.039509"><ele>1263.25</ele></trkpt>
   <trkpt lat="45.201549" lon="6.039532"><ele>1264.75</ele></trkpt>
   <trkpt lat="45.201577" lon="6.039542"><ele>1264.75</ele></trkpt>
   <trkpt lat="45.201661" lon="6.039587"><ele>1264.75</ele></trkpt>
   <trkpt lat="45.201764" lon="6.039694"><ele>1264.5</ele></trkpt>
   <trkpt lat="45.201831" lon="6.039771"><ele>1264.25</ele></trkpt>
   <trkpt lat="45.202068" lon="6.040083"><ele>1262.25</ele></trkpt>
   <trkpt lat="45.202181" lon="6.040175"><ele>1263.25</ele></trkpt>
   <trkpt lat="45.202316" lon="6.040283"><ele>1262.75</ele></trkpt>
   <trkpt lat="45.202364" lon="6.040313"><ele>1262.25</ele></trkpt>
   <trkpt lat="45.202402" lon="6.040324"><ele>1262.5</ele></trkpt>
   <trkpt lat="45.202501" lon="6.040333"><ele>1263</ele></trkpt>
   <trkpt lat="45.20261" lon="6.040312"><ele>1263.5</ele></trkpt>
   <trkpt lat="45.202667" lon="6.040285"><ele>1264</ele></trkpt>
   <trkpt lat="45.20284" lon="6.040225"><ele>1266</ele></trkpt>
   <trkpt lat="45.202902" lon="6.040215"><ele>1266</ele></trkpt>
   <trkpt lat="45.203006" lon="6.040219"><ele>1265.25</ele></trkpt>
   <trkpt lat="45.203105" lon="6.040264"><ele>1265.5</ele></trkpt>
   <trkpt lat="45.203175" lon="6.040316"><ele>1266</ele></trkpt>
   <trkpt lat="45.203229" lon="6.04037"><ele>1266.5</ele></trkpt>
   <trkpt lat="45.203307" lon="6.040469"><ele>1266.75</ele></trkpt>
   <trkpt lat="45.203423" lon="6.040654"><ele>1266.5</ele></trkpt>
   <trkpt lat="45.203446" lon="6.04068"><ele>1266.75</ele></trkpt>
   <trkpt lat="45.203635" lon="6.040864"><ele>1268</ele></trkpt>
   <trkpt lat="45.204084" lon="6.041346"><ele>1270.5</ele></trkpt>
   <trkpt lat="45.204285" lon="6.041536"><ele>1271.75</ele></trkpt>
   <trkpt lat="45.20443" lon="6.041692"><ele>1272.25</ele></trkpt>
   <trkpt lat="45.204523" lon="6.041843"><ele>1272.5</ele></trkpt>
   <trkpt lat="45.204599" lon="6.041998"><ele>1272.25</ele></trkpt>
   <trkpt lat="45.204775" lon="6.04249"><ele>1272.5</ele></trkpt>
   <trkpt lat="45.204985" lon="6.043048"><ele>1272.75</ele></trkpt>
   <trkpt lat="45.20503" lon="6.043144"><ele>1272.75</ele></trkpt>
   <trkpt lat="45.205078" lon="6.043226"><ele>1273</ele></trkpt>
   <trkpt lat="45.205143" lon="6.043302"><ele>1273.25</ele></trkpt>
   <trkpt lat="45.20517" lon="6.04333"><ele>1273.25</ele></trkpt>
   <trkpt lat="45.205209" lon="6.04336"><ele>1273.5</ele></trkpt>
   <trkpt lat="45.205266" lon="6.043412"><ele>1273.5</ele></trkpt>
   <trkpt lat="45.205456" lon="6.043535"><ele>1274</ele></trkpt>
   <trkpt lat="45.205717" lon="6.043634"><ele>1274.5</ele></trkpt>
   <trkpt lat="45.206037" lon="6.043755"><ele>1275.25</ele></trkpt>
   <trkpt lat="45.20629" lon="6.043907"><ele>1275</ele></trkpt>
   <trkpt lat="45.206346" lon="6.043965"><ele>1274.5</ele></trkpt>
   <trkpt lat="45.206605" lon="6.044272"><ele>1275.25</ele></trkpt>
   <trkpt lat="45.206858" lon="6.044504"><ele>1277.25</ele></trkpt>
   <trkpt lat="45.20703" lon="6.04461"><ele>1278</ele></trkpt>
   <trkpt lat="45.207182" lon="6.044687"><ele>1278.25</ele></trkpt>
   <trkpt lat="45.207347" lon="6.044754"><ele>1277.75</ele></trkpt>
   <trkpt lat="45.20747" lon="6.04479"><ele>1277.5</ele></trkpt>
   <trkpt lat="45.207983" lon="6.044815"><ele>1279.5</ele></trkpt>
   <trkpt lat="45.208061" lon="6.044831"><ele>1279.5</ele></trkpt>
   <trkpt lat="45.208126" lon="6.044858"><ele>1280.25</ele></trkpt>
   <trkpt lat="45.208223" lon="6.044963"><ele>1279.75</ele></trkpt>
   <trkpt lat="45.208334" lon="6.045198"><ele>1277.25</ele></trkpt>
   <trkpt lat="45.208437" lon="6.045377"><ele>1276.25</ele></trkpt>
   <trkpt lat="45.208567" lon="6.045486"><ele>1275.5</ele></trkpt>
   <trkpt lat="45.20868" lon="6.045517"><ele>1275.25</ele></trkpt>
   <trkpt lat="45.20879" lon="6.045481"><ele>1276.5</ele></trkpt>
   <trkpt lat="45.208952" lon="6.045391"><ele>1280.5</ele></trkpt>
   <trkpt lat="45.209206" lon="6.045225"><ele>1285</ele></trkpt>
   <trkpt lat="45.209293" lon="6.045221"><ele>1284.25</ele></trkpt>
   <trkpt lat="45.209361" lon="6.045253"><ele>1282.25</ele></trkpt>
   <trkpt lat="45.209428" lon="6.045328"><ele>1280.25</ele></trkpt>
   <trkpt lat="45.209455" lon="6.045395"><ele>1280</ele></trkpt>
   <trkpt lat="45.209472" lon="6.045476"><ele>1279.75</ele></trkpt>
   <trkpt lat="45.209465" lon="6.045672"><ele>1278</ele></trkpt>
   <trkpt lat="45.209425" lon="6.046072"><ele>1272.25</ele></trkpt>
   <trkpt lat="45.209421" lon="6.046221"><ele>1269.25</ele></trkpt>
   <trkpt lat="45.209442" lon="6.046341"><ele>1267.75</ele></trkpt>
   <trkpt lat="45.209511" lon="6.046456"><ele>1268</ele></trkpt>
   <trkpt lat="45.209588" lon="6.04653"><ele>1269</ele></trkpt>
   <trkpt lat="45.20973" lon="6.046561"><ele>1274</ele></trkpt>
   <trkpt lat="45.20986" lon="6.046571"><ele>1278.5</ele></trkpt>
   <trkpt lat="45.209977" lon="6.046616"><ele>1280.5</ele></trkpt>
   <trkpt lat="45.210233" lon="6.046899"><ele>1273.25</ele></trkpt>
   <trkpt lat="45.210303" lon="6.046983"><ele>1270.25</ele></trkpt>
   <trkpt lat="45.210401" lon="6.047036"><ele>1270</ele></trkpt>
   <trkpt lat="45.210577" lon="6.047087"><ele>1273</ele></trkpt>
   <trkpt lat="45.210678" lon="6.04713"><ele>1274</ele></trkpt>
   <trkpt lat="45.210782" lon="6.047208"><ele>1272.75</ele></trkpt>
   <trkpt lat="45.211147" lon="6.047454"><ele>1272</ele></trkpt>
   <trkpt lat="45.211209" lon="6.047506"><ele>1272.75</ele></trkpt>
   <trkpt lat="45.211245" lon="6.047568"><ele>1275</ele></trkpt>
   <trkpt lat="45.211261" lon="6.04763"><ele>1276.75</ele></trkpt>
   <trkpt lat="45.211271" lon="6.047721"><ele>1279.5</ele></trkpt>
   <trkpt lat="45.211259" lon="6.047831"><ele>1283</ele></trkpt>
   <trkpt lat="45.211228" lon="6.047931"><ele>1283</ele></trkpt>
   <trkpt lat="45.211152" lon="6.048042"><ele>1284.75</ele></trkpt>
   <trkpt lat="45.211067" lon="6.048149"><ele>1281</ele></trkpt>
   <trkpt lat="45.210947" lon="6.048257"><ele>1273</ele></trkpt>
   <trkpt lat="45.210888" lon="6.048348"><ele>1271</ele></trkpt>
   <trkpt lat="45.210859" lon="6.04845"><ele>1269.75</ele></trkpt>
   <trkpt lat="45.210812" lon="6.048777"><ele>1270.5</ele></trkpt>
   <trkpt lat="45.210746" lon="6.049391"><ele>1269.75</ele></trkpt>
   <trkpt lat="45.210757" lon="6.049525"><ele>1269</ele></trkpt>
   <trkpt lat="45.210781" lon="6.049627"><ele>1268.5</ele></trkpt>
   <trkpt lat="45.210838" lon="6.04976"><ele>1269</ele></trkpt>
   <trkpt lat="45.210933" lon="6.049871"><ele>1270.5</ele></trkpt>
   <trkpt lat="45.211071" lon="6.050058"><ele>1271.25</ele></trkpt>
   <trkpt lat="45.21115" lon="6.05019"><ele>1272.75</ele></trkpt>
   <trkpt lat="45.211173" lon="6.050296"><ele>1272</ele></trkpt>
   <trkpt lat="45.211178" lon="6.050392"><ele>1272.75</ele></trkpt>
   <trkpt lat="45.211167" lon="6.050508"><ele>1272.75</ele></trkpt>
   <trkpt lat="45.211147" lon="6.050601"><ele>1272.5</ele></trkpt>
   <trkpt lat="45.211082" lon="6.05075"><ele>1271</ele></trkpt>
   <trkpt lat="45.210955" lon="6.050893"><ele>1267.5</ele></trkpt>
   <trkpt lat="45.210856" lon="6.050991"><ele>1264.5</ele></trkpt>
   <trkpt lat="45.210791" lon="6.051125"><ele>1263.25</ele></trkpt>
   <trkpt lat="45.210766" lon="6.051326"><ele>1261.75</ele></trkpt>
   <trkpt lat="45.210785" lon="6.051586"><ele>1261.5</ele></trkpt>
   <trkpt lat="45.210872" lon="6.05225"><ele>1259.25</ele></trkpt>
   <trkpt lat="45.21093" lon="6.052618"><ele>1261</ele></trkpt>
   <trkpt lat="45.210933" lon="6.052874"><ele>1259.75</ele></trkpt>
   <trkpt lat="45.210919" lon="6.053227"><ele>1258.5</ele></trkpt>
   <trkpt lat="45.210862" lon="6.054099"><ele>1257.5</ele></trkpt>
   <trkpt lat="45.210809" lon="6.054981"><ele>1256.25</ele></trkpt>
   <trkpt lat="45.210824" lon="6.055178"><ele>1253.5</ele></trkpt>
   <trkpt lat="45.21088" lon="6.055416"><ele>1252.25</ele></trkpt>
   <trkpt lat="45.210892" lon="6.055591"><ele>1250</ele></trkpt>
   <trkpt lat="45.210879" lon="6.055804"><ele>1248.25</ele></trkpt>
   <trkpt lat="45.21085" lon="6.056051"><ele>1246.75</ele></trkpt>
   <trkpt lat="45.210833" lon="6.056376"><ele>1245</ele></trkpt>
   <trkpt lat="45.210848" lon="6.05677"><ele>1244</ele></trkpt>
   <trkpt lat="45.210841" lon="6.056858"><ele>1243</ele></trkpt>
   <trkpt lat="45.210834" lon="6.056885"><ele>1242.25</ele></trkpt>
   <trkpt lat="45.210807" lon="6.056926"><ele>1240.75</ele></trkpt>
   <trkpt lat="45.210784" lon="6.056936"><ele>1239.75</ele></trkpt>
   <trkpt lat="45.210759" lon="6.056924"><ele>1238.75</ele></trkpt>
   <trkpt lat="45.210731" lon="6.056885"><ele>1237.75</ele></trkpt>
   <trkpt lat="45.21072" lon="6.056856"><ele>1237.5</ele></trkpt>
   <trkpt lat="45.210711" lon="6.056822"><ele>1237.25</ele></trkpt>
   <trkpt lat="45.210698" lon="6.056697"><ele>1237.5</ele></trkpt>
   <trkpt lat="45.210605" lon="6.056251"><ele>1234.25</ele></trkpt>
   <trkpt lat="45.210574" lon="6.056027"><ele>1232.75</ele></trkpt>
   <trkpt lat="45.210547" lon="6.055666"><ele>1231.5</ele></trkpt>
   <trkpt lat="45.210532" lon="6.055542"><ele>1231</ele></trkpt>
   <trkpt lat="45.210523" lon="6.055512"><ele>1230.75</ele></trkpt>
   <trkpt lat="45.210503" lon="6.055481"><ele>1230</ele></trkpt>
   <trkpt lat="45.210478" lon="6.055474"><ele>1228.75</ele></trkpt>
   <trkpt lat="45.210458" lon="6.05548"><ele>1227.75</ele></trkpt>
   <trkpt lat="45.210426" lon="6.055514"><ele>1226</ele></trkpt>
   <trkpt lat="45.210413" lon="6.055546"><ele>1225.25</ele></trkpt>
   <trkpt lat="45.210361" lon="6.05587"><ele>1223.5</ele></trkpt>
   <trkpt lat="45.210204" lon="6.056567"><ele>1218</ele></trkpt>
   <trkpt lat="45.210165" lon="6.056911"><ele>1215</ele></trkpt>
   <trkpt lat="45.210168" lon="6.057202"><ele>1212.5</ele></trkpt>
   <trkpt lat="45.21015" lon="6.057288"><ele>1211.75</ele></trkpt>
   <trkpt lat="45.210107" lon="6.057313"><ele>1210.25</ele></trkpt>
   <trkpt lat="45.210003" lon="6.057171"><ele>1207.5</ele></trkpt>
   <trkpt lat="45.209804" lon="6.05622"><ele>1199.25</ele></trkpt>
   <trkpt lat="45.209761" lon="6.055919"><ele>1196.25</ele></trkpt>
   <trkpt lat="45.209748" lon="6.055698"><ele>1194</ele></trkpt>
   <trkpt lat="45.209804" lon="6.055243"><ele>1192</ele></trkpt>
   <trkpt lat="45.209791" lon="6.055133"><ele>1190</ele></trkpt>
   <trkpt lat="45.20975" lon="6.055087"><ele>1187.5</ele></trkpt>
   <trkpt lat="45.209683" lon="6.055114"><ele>1185</ele></trkpt>
   <trkpt lat="45.20964" lon="6.0552"><ele>1184.5</ele></trkpt>
   <trkpt lat="45.209515" lon="6.055532"><ele>1182</ele></trkpt>
   <trkpt lat="45.209411" lon="6.056115"><ele>1180.75</ele></trkpt>
   <trkpt lat="45.209337" lon="6.056699"><ele>1178.75</ele></trkpt>
   <trkpt lat="45.209259" lon="6.057239"><ele>1177.25</ele></trkpt>
   <trkpt lat="45.2092" lon="6.057421"><ele>1175.75</ele></trkpt>
   <trkpt lat="45.209092" lon="6.05756"><ele>1175.75</ele></trkpt>
   <trkpt lat="45.208946" lon="6.057633"><ele>1177</ele></trkpt>
   <trkpt lat="45.208868" lon="6.057681"><ele>1179</ele></trkpt>
   <trkpt lat="45.208805" lon="6.05781"><ele>1183</ele></trkpt>
   <trkpt lat="45.208688" lon="6.058086"><ele>1188</ele></trkpt>
   <trkpt lat="45.20861" lon="6.058485"><ele>1188.5</ele></trkpt>
   <trkpt lat="45.208463" lon="6.059357"><ele>1204</ele></trkpt>
   <trkpt lat="45.207901" lon="6.06287"><ele>1238</ele></trkpt>
   <trkpt lat="45.207869" lon="6.063612"><ele>1240.25</ele></trkpt>
   <trkpt lat="45.207847" lon="6.0639"><ele>1238.75</ele></trkpt>
   <trkpt lat="45.207751" lon="6.064264"><ele>1240</ele></trkpt>
   <trkpt lat="45.207591" lon="6.064718"><ele>1245.75</ele></trkpt>
   <trkpt lat="45.207378" lon="6.065082"><ele>1255</ele></trkpt>
   <trkpt lat="45.207164" lon="6.065658"><ele>1256.5</ele></trkpt>
   <trkpt lat="45.207057" lon="6.065885"><ele>1257.75</ele></trkpt>
   <trkpt lat="45.206791" lon="6.066279"><ele>1266</ele></trkpt>
   <trkpt lat="45.205862" lon="6.068112"><ele>1282.75</ele></trkpt>
   <trkpt lat="45.205798" lon="6.068294"><ele>1285</ele></trkpt>
   <trkpt lat="45.205755" lon="6.068673"><ele>1284.25</ele></trkpt>
   <trkpt lat="45.20567" lon="6.068976"><ele>1287.75</ele></trkpt>
   <trkpt lat="45.204752" lon="6.07143"><ele>1297.25</ele></trkpt>
   <trkpt lat="45.204688" lon="6.0719"><ele>1294.25</ele></trkpt>
   <trkpt lat="45.204592" lon="6.072173"><ele>1294.25</ele></trkpt>
   <trkpt lat="45.204496" lon="6.072385"><ele>1293</ele></trkpt>
   <trkpt lat="45.204314" lon="6.072658"><ele>1293.5</ele></trkpt>
   <trkpt lat="45.204282" lon="6.072839"><ele>1292.5</ele></trkpt>
   <trkpt lat="45.204282" lon="6.072962"><ele>1292.5</ele></trkpt>
   <trkpt lat="45.204302" lon="6.073024"><ele>1292.25</ele></trkpt>
   <trkpt lat="45.204378" lon="6.073415"><ele>1297</ele></trkpt>
   <trkpt lat="45.204378" lon="6.073551"><ele>1299.25</ele></trkpt>
   <trkpt lat="45.204335" lon="6.073673"><ele>1302.25</ele></trkpt>
   <trkpt lat="45.203898" lon="6.07437"><ele>1313</ele></trkpt>
   <trkpt lat="45.203812" lon="6.074551"><ele>1317</ele></trkpt>
   <trkpt lat="45.203738" lon="6.074991"><ele>1322</ele></trkpt>
   <trkpt lat="45.203642" lon="6.075188"><ele>1321.25</ele></trkpt>
   <trkpt lat="45.203348" lon="6.075515"><ele>1323</ele></trkpt>
   <trkpt lat="45.202861" lon="6.075959"><ele>1333.25</ele></trkpt>
   <trkpt lat="45.202729" lon="6.076122"><ele>1335.75</ele></trkpt>
   <trkpt lat="45.202571" lon="6.076414"><ele>1337.5</ele></trkpt>
   <trkpt lat="45.202418" lon="6.076628"><ele>1341.75</ele></trkpt>
   <trkpt lat="45.20228" lon="6.076725"><ele>1343.75</ele></trkpt>
   <trkpt lat="45.202181" lon="6.076729"><ele>1343.5</ele></trkpt>
   <trkpt lat="45.201911" lon="6.076652"><ele>1342.25</ele></trkpt>
   <trkpt lat="45.201845" lon="6.0767"><ele>1342.75</ele></trkpt>
   <trkpt lat="45.20185" lon="6.076809"><ele>1345.5</ele></trkpt>
   <trkpt lat="45.201923" lon="6.076876"><ele>1348</ele></trkpt>
   <trkpt lat="45.202188" lon="6.077069"><ele>1354</ele></trkpt>
   <trkpt lat="45.202307" lon="6.077112"><ele>1356.5</ele></trkpt>
   <trkpt lat="45.202496" lon="6.07706"><ele>1357</ele></trkpt>
   <trkpt lat="45.202876" lon="6.076839"><ele>1359.75</ele></trkpt>
   <trkpt lat="45.203427" lon="6.076494"><ele>1365.5</ele></trkpt>
   <trkpt lat="45.20365" lon="6.076304"><ele>1367</ele></trkpt>
   <trkpt lat="45.203714" lon="6.076309"><ele>1369.75</ele></trkpt>
   <trkpt lat="45.203748" lon="6.076376"><ele>1373</ele></trkpt>
   <trkpt lat="45.203727" lon="6.07646"><ele>1374.5</ele></trkpt>
   <trkpt lat="45.203663" lon="6.076536"><ele>1374.25</ele></trkpt>
   <trkpt lat="45.202616" lon="6.077688"><ele>1387</ele></trkpt>
   <trkpt lat="45.201865" lon="6.078461"><ele>1403.25</ele></trkpt>
   <trkpt lat="45.20157" lon="6.078733"><ele>1398.75</ele></trkpt>
   <trkpt lat="45.201482" lon="6.078911"><ele>1393.75</ele></trkpt>
   <trkpt lat="45.201448" lon="6.07914"><ele>1400</ele></trkpt>
   <trkpt lat="45.2014" lon="6.0799"><ele>1415.5</ele></trkpt>
   <trkpt lat="45.201356" lon="6.080165"><ele>1417.75</ele></trkpt>
   <trkpt lat="45.201214" lon="6.0808"><ele>1418.5</ele></trkpt>
   <trkpt lat="45.201171" lon="6.081103"><ele>1420.5</ele></trkpt>
   <trkpt lat="45.201143" lon="6.081521"><ele>1421.75</ele></trkpt>
   <trkpt lat="45.201293" lon="6.082612"><ele>1426.5</ele></trkpt>
   <trkpt lat="45.201282" lon="6.083203"><ele>1436.5</ele></trkpt>
   <trkpt lat="45.201195" lon="6.083459"><ele>1437.25</ele></trkpt>
   <trkpt lat="45.201084" lon="6.083726"><ele>1435.25</ele></trkpt>
   <trkpt lat="45.201015" lon="6.084172"><ele>1433.5</ele></trkpt>
   <trkpt lat="45.201" lon="6.084442"><ele>1431</ele></trkpt>
   <trkpt lat="45.201143" lon="6.08493"><ele>1439.75</ele></trkpt>
   <trkpt lat="45.201255" lon="6.085281"><ele>1447.5</ele></trkpt>
   <trkpt lat="45.201339" lon="6.08548"><ele>1448.25</ele></trkpt>
   <trkpt lat="45.201773" lon="6.086248"><ele>1453.25</ele></trkpt>
   <trkpt lat="45.202115" lon="6.086672"><ele>1460.25</ele></trkpt>
   <trkpt lat="45.203055" lon="6.087693"><ele>1466</ele></trkpt>
   <trkpt lat="45.203219" lon="6.087887"><ele>1468</ele></trkpt>
   <trkpt lat="45.203377" lon="6.088134"><ele>1466</ele></trkpt>
   <trkpt lat="45.203493" lon="6.088405"><ele>1463.75</ele></trkpt>
   <trkpt lat="45.203592" lon="6.088669"><ele>1463</ele></trkpt>
   <trkpt lat="45.203842" lon="6.089619"><ele>1467.5</ele></trkpt>
   <trkpt lat="45.203847" lon="6.089784"><ele>1470.5</ele></trkpt>
   <trkpt lat="45.203783" lon="6.090035"><ele>1474.75</ele></trkpt>
   <trkpt lat="45.20374" lon="6.090227"><ele>1476.25</ele></trkpt>
   <trkpt lat="45.203725" lon="6.090348"><ele>1477.5</ele></trkpt>
   <trkpt lat="45.203727" lon="6.090526"><ele>1480.75</ele></trkpt>
   <trkpt lat="45.203742" lon="6.090652"><ele>1482</ele></trkpt>
   <trkpt lat="45.203799" lon="6.09085"><ele>1485</ele></trkpt>
   <trkpt lat="45.203921" lon="6.091082"><ele>1487.75</ele></trkpt>
   <trkpt lat="45.203999" lon="6.091245"><ele>1489.5</ele></trkpt>
   <trkpt lat="45.204046" lon="6.091469"><ele>1486.75</ele></trkpt>
   <trkpt lat="45.204082" lon="6.091803"><ele>1484</ele></trkpt>
   <trkpt lat="45.204138" lon="6.092107"><ele>1486.75</ele></trkpt>
   <trkpt lat="45.204324" lon="6.092844"><ele>1493.5</ele></trkpt>
   <trkpt lat="45.204415" lon="6.09312"><ele>1496.25</ele></trkpt>
   <trkpt lat="45.204587" lon="6.093606"><ele>1502.25</ele></trkpt>
   <trkpt lat="45.204648" lon="6.093995"><ele>1504</ele></trkpt>
   <trkpt lat="45.20467" lon="6.094157"><ele>1503.25</ele></trkpt>
   <trkpt lat="45.204701" lon="6.094388"><ele>1503.5</ele></trkpt>
   <trkpt lat="45.204712" lon="6.094606"><ele>1505.75</ele></trkpt>
   <trkpt lat="45.20467" lon="6.09514"><ele>1510.25</ele></trkpt>
   <trkpt lat="45.204548" lon="6.096369"><ele>1520</ele></trkpt>
   <trkpt lat="45.204533" lon="6.096611"><ele>1521.25</ele></trkpt>
   <trkpt lat="45.20456" lon="6.096808"><ele>1523.25</ele></trkpt>
   <trkpt lat="45.204592" lon="6.097248"><ele>1526.5</ele></trkpt>
   <trkpt lat="45.204564" lon="6.097506"><ele>1528.5</ele></trkpt>
   <trkpt lat="45.204367" lon="6.098505"><ele>1536.5</ele></trkpt>
   <trkpt lat="45.204346" lon="6.098945"><ele>1538.75</ele></trkpt>
   <trkpt lat="45.204357" lon="6.0994"><ele>1541.75</ele></trkpt>
   <trkpt lat="45.204444" lon="6.100361"><ele>1549.25</ele></trkpt>
   <trkpt lat="45.204538" lon="6.101763"><ele>1558.5</ele></trkpt>
   <trkpt lat="45.204605" lon="6.102038"><ele>1559.5</ele></trkpt>
   <trkpt lat="45.204983" lon="6.10285"><ele>1565.75</ele></trkpt>
   <trkpt lat="45.205054" lon="6.103088"><ele>1569.25</ele></trkpt>
   <trkpt lat="45.205332" lon="6.103935"><ele>1574.5</ele></trkpt>
   <trkpt lat="45.205574" lon="6.105005"><ele>1582.25</ele></trkpt>
   <trkpt lat="45.205985" lon="6.106074"><ele>1590.75</ele></trkpt>
   <trkpt lat="45.206433" lon="6.107104"><ele>1599</ele></trkpt>
   <trkpt lat="45.206481" lon="6.107263"><ele>1599.25</ele></trkpt>
   <trkpt lat="45.206729" lon="6.10815"><ele>1604.75</ele></trkpt>
   <trkpt lat="45.206749" lon="6.108442"><ele>1603</ele></trkpt>
   <trkpt lat="45.206737" lon="6.108673"><ele>1600.25</ele></trkpt>
   <trkpt lat="45.20675" lon="6.108802"><ele>1599.75</ele></trkpt>
   <trkpt lat="45.206786" lon="6.10888"><ele>1601</ele></trkpt>
   <trkpt lat="45.206814" lon="6.108913"><ele>1601.75</ele></trkpt>
   <trkpt lat="45.206855" lon="6.108932"><ele>1603.75</ele></trkpt>
   <trkpt lat="45.206897" lon="6.108936"><ele>1605.75</ele></trkpt>
   <trkpt lat="45.206935" lon="6.108894"><ele>1608.25</ele></trkpt>
   <trkpt lat="45.206954" lon="6.10883"><ele>1610.25</ele></trkpt>
   <trkpt lat="45.20694" lon="6.108706"><ele>1610.5</ele></trkpt>
   <trkpt lat="45.206868" lon="6.108477"><ele>1609.5</ele></trkpt>
   <trkpt lat="45.206784" lon="6.108035"><ele>1609.75</ele></trkpt>
   <trkpt lat="45.20675" lon="6.107764"><ele>1609.75</ele></trkpt>
   <trkpt lat="45.206736" lon="6.107409"><ele>1612.75</ele></trkpt>
   <trkpt lat="45.206667" lon="6.106974"><ele>1617.25</ele></trkpt>
   <trkpt lat="45.206511" lon="6.106073"><ele>1620.5</ele></trkpt>
   <trkpt lat="45.206496" lon="6.105655"><ele>1626</ele></trkpt>
   <trkpt lat="45.20646" lon="6.105508"><ele>1626.75</ele></trkpt>
   <trkpt lat="45.206305" lon="6.105182"><ele>1627.75</ele></trkpt>
   <trkpt lat="45.20623" lon="6.104995"><ele>1629.25</ele></trkpt>
   <trkpt lat="45.206167" lon="6.104719"><ele>1631.5</ele></trkpt>
   <trkpt lat="45.206087" lon="6.104253"><ele>1632.5</ele></trkpt>
   <trkpt lat="45.206049" lon="6.10409"><ele>1634.25</ele></trkpt>
   <trkpt lat="45.20591" lon="6.103785"><ele>1634.25</ele></trkpt>
   <trkpt lat="45.205711" lon="6.103484"><ele>1626.25</ele></trkpt>
   <trkpt lat="45.20566" lon="6.103319"><ele>1626.75</ele></trkpt>
   <trkpt lat="45.205655" lon="6.103241"><ele>1626.5</ele></trkpt>
   <trkpt lat="45.205714" lon="6.103141"><ele>1630.75</ele></trkpt>
   <trkpt lat="45.20578" lon="6.103145"><ele>1635.5</ele></trkpt>
   <trkpt lat="45.205817" lon="6.103166"><ele>1638</ele></trkpt>
   <trkpt lat="45.205848" lon="6.103214"><ele>1640.75</ele></trkpt>
   <trkpt lat="45.205888" lon="6.103545"><ele>1641</ele></trkpt>
   <trkpt lat="45.206208" lon="6.104267"><ele>1642.5</ele></trkpt>
   <trkpt lat="45.206321" lon="6.104614"><ele>1643.25</ele></trkpt>
   <trkpt lat="45.206499" lon="6.104951"><ele>1647</ele></trkpt>
   <trkpt lat="45.206809" lon="6.105441"><ele>1652.25</ele></trkpt>
   <trkpt lat="45.206909" lon="6.105707"><ele>1651.75</ele></trkpt>
   <trkpt lat="45.207025" lon="6.106181"><ele>1656.75</ele></trkpt>
   <trkpt lat="45.207139" lon="6.10656"><ele>1660.75</ele></trkpt>
   <trkpt lat="45.207417" lon="6.107228"><ele>1667.25</ele></trkpt>
   <trkpt lat="45.207451" lon="6.107366"><ele>1666.75</ele></trkpt>
   <trkpt lat="45.207472" lon="6.107506"><ele>1665</ele></trkpt>
   <trkpt lat="45.207515" lon="6.108006"><ele>1665.25</ele></trkpt>
   <trkpt lat="45.207554" lon="6.108187"><ele>1667.5</ele></trkpt>
   <trkpt lat="45.207708" lon="6.108642"><ele>1671.5</ele></trkpt>
   <trkpt lat="45.207802" lon="6.108974"><ele>1672.75</ele></trkpt>
   <trkpt lat="45.207861" lon="6.109224"><ele>1673</ele></trkpt>
   <trkpt lat="45.207895" lon="6.109423"><ele>1676.5</ele></trkpt>
   <trkpt lat="45.207884" lon="6.109667"><ele>1679</ele></trkpt>
   <trkpt lat="45.207836" lon="6.109987"><ele>1682.5</ele></trkpt>
   <trkpt lat="45.207823" lon="6.110223"><ele>1683.75</ele></trkpt>
   <trkpt lat="45.207831" lon="6.110651"><ele>1685.25</ele></trkpt>
   <trkpt lat="45.207815" lon="6.110932"><ele>1686</ele></trkpt>
   <trkpt lat="45.207735" lon="6.111537"><ele>1685</ele></trkpt>
   <trkpt lat="45.207729" lon="6.11177"><ele>1682.75</ele></trkpt>
   <trkpt lat="45.207749" lon="6.112003"><ele>1682.75</ele></trkpt>
   <trkpt lat="45.207906" lon="6.112752"><ele>1693.5</ele></trkpt>
   <trkpt lat="45.20793" lon="6.112912"><ele>1696</ele></trkpt>
   <trkpt lat="45.20793" lon="6.11307"><ele>1695.75</ele></trkpt>
   <trkpt lat="45.207868" lon="6.113355"><ele>1693.25</ele></trkpt>
   <trkpt lat="45.207852" lon="6.113515"><ele>1693</ele></trkpt>
   <trkpt lat="45.207881" lon="6.113732"><ele>1694.75</ele></trkpt>
   <trkpt lat="45.208004" lon="6.114135"><ele>1697.75</ele></trkpt>
   <trkpt lat="45.208042" lon="6.114376"><ele>1697.5</ele></trkpt>
   <trkpt lat="45.208065" lon="6.114616"><ele>1696</ele></trkpt>
   <trkpt lat="45.208101" lon="6.114727"><ele>1698</ele></trkpt>
   <trkpt lat="45.208154" lon="6.114836"><ele>1701</ele></trkpt>
   <trkpt lat="45.208245" lon="6.115077"><ele>1704</ele></trkpt>
   <trkpt lat="45.208316" lon="6.115343"><ele>1704.75</ele></trkpt>
   <trkpt lat="45.208353" lon="6.115509"><ele>1706.25</ele></trkpt>
   <trkpt lat="45.208446" lon="6.116183"><ele>1711.75</ele></trkpt>
   <trkpt lat="45.208492" lon="6.116779"><ele>1715.75</ele></trkpt>
   <trkpt lat="45.208508" lon="6.117076"><ele>1715.75</ele></trkpt>
   <trkpt lat="45.208506" lon="6.117324"><ele>1713.5</ele></trkpt>
   <trkpt lat="45.208463" lon="6.117794"><ele>1707.5</ele></trkpt>
   <trkpt lat="45.20843" lon="6.118258"><ele>1704</ele></trkpt>
   <trkpt lat="45.208446" lon="6.11842"><ele>1703.5</ele></trkpt>
   <trkpt lat="45.208602" lon="6.118889"><ele>1706.25</ele></trkpt>
   <trkpt lat="45.208629" lon="6.119126"><ele>1705.25</ele></trkpt>
   <trkpt lat="45.208616" lon="6.119415"><ele>1704.25</ele></trkpt>
   <trkpt lat="45.208576" lon="6.119858"><ele>1704</ele></trkpt>
   <trkpt lat="45.20858" lon="6.120148"><ele>1704</ele></trkpt>
   <trkpt lat="45.208616" lon="6.120409"><ele>1704.25</ele></trkpt>
   <trkpt lat="45.208697" lon="6.120816"><ele>1706.25</ele></trkpt>
   <trkpt lat="45.20893" lon="6.121738"><ele>1708.75</ele></trkpt>
   <trkpt lat="45.209016" lon="6.12199"><ele>1709.25</ele></trkpt>
   <trkpt lat="45.209169" lon="6.122345"><ele>1709</ele></trkpt>
   <trkpt lat="45.209203" lon="6.122421"><ele>1710.25</ele></trkpt>
   <trkpt lat="45.209407" lon="6.122883"><ele>1715.5</ele></trkpt>
   <trkpt lat="45.209593" lon="6.123343"><ele>1718.25</ele></trkpt>
   <trkpt lat="45.209855" lon="6.124032"><ele>1724</ele></trkpt>
   <trkpt lat="45.210078" lon="6.124781"><ele>1725.5</ele></trkpt>
   <trkpt lat="45.21016" lon="6.125182"><ele>1727.5</ele></trkpt>
   <trkpt lat="45.210215" lon="6.125451"><ele>1725.75</ele></trkpt>
   <trkpt lat="45.210311" lon="6.125768"><ele>1727.5</ele></trkpt>
   <trkpt lat="45.21041" lon="6.12604"><ele>1729</ele></trkpt>
   <trkpt lat="45.210498" lon="6.126238"><ele>1729.5</ele></trkpt>
   <trkpt lat="45.210818" lon="6.126861"><ele>1731.75</ele></trkpt>
   <trkpt lat="45.210997" lon="6.127225"><ele>1734.5</ele></trkpt>
   <trkpt lat="45.211128" lon="6.127411"><ele>1735.5</ele></trkpt>
   <trkpt lat="45.211278" lon="6.127556"><ele>1735.75</ele></trkpt>
   <trkpt lat="45.211483" lon="6.127655"><ele>1738</ele></trkpt>
   <trkpt lat="45.211662" lon="6.127718"><ele>1739.25</ele></trkpt>
   <trkpt lat="45.211803" lon="6.127854"><ele>1742.25</ele></trkpt>
   <trkpt lat="45.211946" lon="6.128107"><ele>1739.5</ele></trkpt>
   <trkpt lat="45.212082" lon="6.128449"><ele>1743.25</ele></trkpt>
   <trkpt lat="45.212162" lon="6.12861"><ele>1742</ele></trkpt>
   <trkpt lat="45.212264" lon="6.128745"><ele>1744.25</ele></trkpt>
   <trkpt lat="45.212487" lon="6.129006"><ele>1746</ele></trkpt>
   <trkpt lat="45.213083" lon="6.129678"><ele>1751.75</ele></trkpt>
   <trkpt lat="45.213361" lon="6.129974"><ele>1752.5</ele></trkpt>
   <trkpt lat="45.214122" lon="6.130714"><ele>1757.25</ele></trkpt>
   <trkpt lat="45.214305" lon="6.130956"><ele>1756.5</ele></trkpt>
   <trkpt lat="45.214435" lon="6.131104"><ele>1756.75</ele></trkpt>
   <trkpt lat="45.214648" lon="6.131248"><ele>1760.5</ele></trkpt>
   <trkpt lat="45.215048" lon="6.131439"><ele>1760.5</ele></trkpt>
   <trkpt lat="45.215508" lon="6.1317"><ele>1763.75</ele></trkpt>
   <trkpt lat="45.216067" lon="6.132108"><ele>1769.25</ele></trkpt>
   <trkpt lat="45.216654" lon="6.132584"><ele>1771.75</ele></trkpt>
   <trkpt lat="45.216857" lon="6.132774"><ele>1770.75</ele></trkpt>
   <trkpt lat="45.217232" lon="6.133139"><ele>1775.25</ele></trkpt>
   <trkpt lat="45.21748" lon="6.133352"><ele>1774.5</ele></trkpt>
   <trkpt lat="45.218785" lon="6.134315"><ele>1784</ele></trkpt>
   <trkpt lat="45.219137" lon="6.134656"><ele>1786</ele></trkpt>
   <trkpt lat="45.219576" lon="6.135067"><ele>1787.75</ele></trkpt>
   <trkpt lat="45.220008" lon="6.135491"><ele>1789.25</ele></trkpt>
   <trkpt lat="45.220219" lon="6.135634"><ele>1789.5</ele></trkpt>
   <trkpt lat="45.220686" lon="6.135883"><ele>1790.75</ele></trkpt>
   <trkpt lat="45.22096" lon="6.136051"><ele>1791.75</ele></trkpt>
   <trkpt lat="45.221216" lon="6.13628"><ele>1791</ele></trkpt>
   <trkpt lat="45.221372" lon="6.136409"><ele>1789.75</ele></trkpt>
   <trkpt lat="45.221516" lon="6.1365"><ele>1790.25</ele></trkpt>
   <trkpt lat="45.221996" lon="6.136761"><ele>1790</ele></trkpt>
   <trkpt lat="45.222165" lon="6.13694"><ele>1788.5</ele></trkpt>
   <trkpt lat="45.222291" lon="6.137118"><ele>1788.5</ele></trkpt>
   <trkpt lat="45.222385" lon="6.137312"><ele>1787.5</ele></trkpt>
   <trkpt lat="45.222728" lon="6.138184"><ele>1782</ele></trkpt>
   <trkpt lat="45.222875" lon="6.138513"><ele>1782</ele></trkpt>
   <trkpt lat="45.222994" lon="6.138674"><ele>1781</ele></trkpt>
   <trkpt lat="45.223103" lon="6.138756"><ele>1781.25</ele></trkpt>
   <trkpt lat="45.223183" lon="6.138806"><ele>1780.25</ele></trkpt>
   <trkpt lat="45.223242" lon="6.138826"><ele>1780.25</ele></trkpt>
   <trkpt lat="45.223356" lon="6.13884"><ele>1780.25</ele></trkpt>
   <trkpt lat="45.22341" lon="6.138834"><ele>1780</ele></trkpt>
   <trkpt lat="45.223522" lon="6.138801"><ele>1779.5</ele></trkpt>
   <trkpt lat="45.223867" lon="6.138596"><ele>1777.5</ele></trkpt>
   <trkpt lat="45.223958" lon="6.138568"><ele>1777.25</ele></trkpt>
   <trkpt lat="45.224033" lon="6.138566"><ele>1777</ele></trkpt>
   <trkpt lat="45.224101" lon="6.138584"><ele>1776.5</ele></trkpt>
   <trkpt lat="45.224161" lon="6.138622"><ele>1775.75</ele></trkpt>
   <trkpt lat="45.224198" lon="6.138663"><ele>1774</ele></trkpt>
   <trkpt lat="45.224265" lon="6.138765"><ele>1770.5</ele></trkpt>
   <trkpt lat="45.224321" lon="6.138869"><ele>1770.75</ele></trkpt>
   <trkpt lat="45.224423" lon="6.139086"><ele>1771.5</ele></trkpt>
   <trkpt lat="45.224519" lon="6.139289"><ele>1772.5</ele></trkpt>
   <trkpt lat="45.224749" lon="6.139787"><ele>1772.5</ele></trkpt>
   <trkpt lat="45.224867" lon="6.140105"><ele>1772.5</ele></trkpt>
   <trkpt lat="45.224948" lon="6.140387"><ele>1769.5</ele></trkpt>
   <trkpt lat="45.225007" lon="6.140713"><ele>1766.75</ele></trkpt>
   <trkpt lat="45.225186" lon="6.141576"><ele>1763</ele></trkpt>
   <trkpt lat="45.225238" lon="6.141787"><ele>1762</ele></trkpt>
   <trkpt lat="45.225302" lon="6.141984"><ele>1762</ele></trkpt>
   <trkpt lat="45.225396" lon="6.142228"><ele>1760</ele></trkpt>
   <trkpt lat="45.225745" lon="6.143071"><ele>1757</ele></trkpt>
   <trkpt lat="45.225944" lon="6.143586"><ele>1754.5</ele></trkpt>
   <trkpt lat="45.226057" lon="6.143942"><ele>1751</ele></trkpt>
   <trkpt lat="45.226129" lon="6.144234"><ele>1751.75</ele></trkpt>
   <trkpt lat="45.226232" lon="6.144536"><ele>1750</ele></trkpt>
   <trkpt lat="45.226374" lon="6.144874"><ele>1748.5</ele></trkpt>
   <trkpt lat="45.226463" lon="6.145188"><ele>1748.75</ele></trkpt>
   <trkpt lat="45.226525" lon="6.145517"><ele>1747.75</ele></trkpt>
   <trkpt lat="45.226589" lon="6.146311"><ele>1742.75</ele></trkpt>
   <trkpt lat="45.226661" lon="6.14714"><ele>1738</ele></trkpt>
   <trkpt lat="45.226673" lon="6.147285"><ele>1737.5</ele></trkpt>
   <trkpt lat="45.226706" lon="6.147789"><ele>1738.25</ele></trkpt>
   <trkpt lat="45.226703" lon="6.148107"><ele>1737</ele></trkpt>
   <trkpt lat="45.226663" lon="6.148523"><ele>1734</ele></trkpt>
   <trkpt lat="45.226653" lon="6.148774"><ele>1733</ele></trkpt>
   <trkpt lat="45.226676" lon="6.148973"><ele>1732.25</ele></trkpt>
   <trkpt lat="45.226726" lon="6.149151"><ele>1731.25</ele></trkpt>
   <trkpt lat="45.226805" lon="6.149326"><ele>1730</ele></trkpt>
   <trkpt lat="45.22695" lon="6.149533"><ele>1730</ele></trkpt>
   <trkpt lat="45.227085" lon="6.149676"><ele>1729.75</ele></trkpt>
   <trkpt lat="45.227245" lon="6.149875"><ele>1728.5</ele></trkpt>
   <trkpt lat="45.227346" lon="6.15011"><ele>1728.25</ele></trkpt>
   <trkpt lat="45.227384" lon="6.150328"><ele>1726.75</ele></trkpt>
   <trkpt lat="45.227421" lon="6.150818"><ele>1724.5</ele></trkpt>
   <trkpt lat="45.227448" lon="6.151036"><ele>1722.75</ele></trkpt>
   <trkpt lat="45.22751" lon="6.151232"><ele>1723.25</ele></trkpt>
   <trkpt lat="45.227626" lon="6.151393"><ele>1724.25</ele></trkpt>
   <trkpt lat="45.227774" lon="6.151531"><ele>1723.25</ele></trkpt>
   <trkpt lat="45.227881" lon="6.151693"><ele>1725</ele></trkpt>
   <trkpt lat="45.227934" lon="6.151862"><ele>1725.25</ele></trkpt>
   <trkpt lat="45.227993" lon="6.152339"><ele>1723.25</ele></trkpt>
   <trkpt lat="45.228055" lon="6.152581"><ele>1724.25</ele></trkpt>
   <trkpt lat="45.228234" lon="6.152995"><ele>1727</ele></trkpt>
   <trkpt lat="45.228327" lon="6.153225"><ele>1727.75</ele></trkpt>
   <trkpt lat="45.228437" lon="6.15363"><ele>1730.5</ele></trkpt>
   <trkpt lat="45.228547" lon="6.154119"><ele>1732.75</ele></trkpt>
   <trkpt lat="45.228562" lon="6.154265"><ele>1733.75</ele></trkpt>
   <trkpt lat="45.228545" lon="6.154371"><ele>1734.5</ele></trkpt>
   <trkpt lat="45.228463" lon="6.154691"><ele>1736.75</ele></trkpt>
   <trkpt lat="45.228437" lon="6.154877"><ele>1737.5</ele></trkpt>
   <trkpt lat="45.22842" lon="6.155074"><ele>1738.25</ele></trkpt>
   <trkpt lat="45.228443" lon="6.155291"><ele>1739.5</ele></trkpt>
   <trkpt lat="45.228513" lon="6.155448"><ele>1740.5</ele></trkpt>
   <trkpt lat="45.228667" lon="6.155741"><ele>1743.25</ele></trkpt>
   <trkpt lat="45.22881" lon="6.156071"><ele>1744.75</ele></trkpt>
   <trkpt lat="45.229017" lon="6.156449"><ele>1748</ele></trkpt>
   <trkpt lat="45.229568" lon="6.157295"><ele>1756</ele></trkpt>
   <trkpt lat="45.229658" lon="6.157514"><ele>1756.75</ele></trkpt>
   <trkpt lat="45.229706" lon="6.157688"><ele>1757.75</ele></trkpt>
   <trkpt lat="45.229737" lon="6.157943"><ele>1759.5</ele></trkpt>
   <trkpt lat="45.229768" lon="6.158139"><ele>1761</ele></trkpt>
   <trkpt lat="45.230014" lon="6.158849"><ele>1765.25</ele></trkpt>
   <trkpt lat="45.23012" lon="6.15916"><ele>1766</ele></trkpt>
   <trkpt lat="45.230212" lon="6.159281"><ele>1767</ele></trkpt>
   <trkpt lat="45.230436" lon="6.159445"><ele>1769.25</ele></trkpt>
   <trkpt lat="45.230544" lon="6.159546"><ele>1770</ele></trkpt>
   <trkpt lat="45.230648" lon="6.159721"><ele>1771</ele></trkpt>
   <trkpt lat="45.230708" lon="6.159912"><ele>1771.25</ele></trkpt>
   <trkpt lat="45.230784" lon="6.160081"><ele>1772</ele></trkpt>
   <trkpt lat="45.230899" lon="6.160278"><ele>1773.25</ele></trkpt>
   <trkpt lat="45.231099" lon="6.160548"><ele>1775.75</ele></trkpt>
   <trkpt lat="45.231173" lon="6.160701"><ele>1777.25</ele></trkpt>
   <trkpt lat="45.23122" lon="6.160889"><ele>1778</ele></trkpt>
   <trkpt lat="45.23128" lon="6.161036"><ele>1778.75</ele></trkpt>
   <trkpt lat="45.231328" lon="6.161134"><ele>1779.25</ele></trkpt>
   <trkpt lat="45.231586" lon="6.161358"><ele>1782.5</ele></trkpt>
   <trkpt lat="45.231666" lon="6.161481"><ele>1783.5</ele></trkpt>
   <trkpt lat="45.231713" lon="6.161624"><ele>1784.5</ele></trkpt>
   <trkpt lat="45.231913" lon="6.162168"><ele>1788.25</ele></trkpt>
   <trkpt lat="45.231996" lon="6.162711"><ele>1791.5</ele></trkpt>
   <trkpt lat="45.232139" lon="6.163548"><ele>1796.75</ele></trkpt>
   <trkpt lat="45.232189" lon="6.163799"><ele>1798.75</ele></trkpt>
   <trkpt lat="45.232271" lon="6.16408"><ele>1800.75</ele></trkpt>
   <trkpt lat="45.232569" lon="6.165007"><ele>1806</ele></trkpt>
   <trkpt lat="45.232752" lon="6.165841"><ele>1811</ele></trkpt>
   <trkpt lat="45.232852" lon="6.166115"><ele>1812.5</ele></trkpt>
   <trkpt lat="45.232963" lon="6.166354"><ele>1814.25</ele></trkpt>
   <trkpt lat="45.233006" lon="6.166489"><ele>1815.25</ele></trkpt>
   <trkpt lat="45.233035" lon="6.166662"><ele>1816.25</ele></trkpt>
   <trkpt lat="45.233045" lon="6.166864"><ele>1815.75</ele></trkpt>
   <trkpt lat="45.23308" lon="6.167062"><ele>1817</ele></trkpt>
   <trkpt lat="45.233151" lon="6.167356"><ele>1818.75</ele></trkpt>
   <trkpt lat="45.233233" lon="6.16762"><ele>1820</ele></trkpt>
   <trkpt lat="45.233394" lon="6.167976"><ele>1823.5</ele></trkpt>
   <trkpt lat="45.233485" lon="6.168236"><ele>1825.25</ele></trkpt>
   <trkpt lat="45.233514" lon="6.168387"><ele>1825.5</ele></trkpt>
   <trkpt lat="45.233546" lon="6.168626"><ele>1826.5</ele></trkpt>
   <trkpt lat="45.233559" lon="6.168717"><ele>1827</ele></trkpt>
   <trkpt lat="45.233636" lon="6.168947"><ele>1829.25</ele></trkpt>
   <trkpt lat="45.2338" lon="6.169361"><ele>1832.25</ele></trkpt>
   <trkpt lat="45.234039" lon="6.16976"><ele>1835.5</ele></trkpt>
   <trkpt lat="45.234104" lon="6.169901"><ele>1836</ele></trkpt>
   <trkpt lat="45.234169" lon="6.170149"><ele>1837.5</ele></trkpt>
   <trkpt lat="45.234321" lon="6.170785"><ele>1840.75</ele></trkpt>
   <trkpt lat="45.234423" lon="6.171103"><ele>1843.75</ele></trkpt>
   <trkpt lat="45.234703" lon="6.171733"><ele>1849</ele></trkpt>
   <trkpt lat="45.234811" lon="6.171959"><ele>1850.75</ele></trkpt>
   <trkpt lat="45.234868" lon="6.172056"><ele>1851</ele></trkpt>
   <trkpt lat="45.234944" lon="6.172124"><ele>1851.75</ele></trkpt>
   <trkpt lat="45.23548" lon="6.172437"><ele>1855.25</ele></trkpt>
   <trkpt lat="45.235576" lon="6.172525"><ele>1856.25</ele></trkpt>
   <trkpt lat="45.235689" lon="6.172681"><ele>1858.5</ele></trkpt>
   <trkpt lat="45.23583" lon="6.172993"><ele>1859.5</ele></trkpt>
   <trkpt lat="45.235915" lon="6.173209"><ele>1860.75</ele></trkpt>
   <trkpt lat="45.235973" lon="6.173316"><ele>1861.5</ele></trkpt>
   <trkpt lat="45.236053" lon="6.173407"><ele>1862.75</ele></trkpt>
   <trkpt lat="45.236162" lon="6.173487"><ele>1864.25</ele></trkpt>
   <trkpt lat="45.236273" lon="6.173551"><ele>1865.75</ele></trkpt>
   <trkpt lat="45.236337" lon="6.173598"><ele>1866.25</ele></trkpt>
   <trkpt lat="45.2364" lon="6.173677"><ele>1867</ele></trkpt>
   <trkpt lat="45.236432" lon="6.173751"><ele>1867.75</ele></trkpt>
   <trkpt lat="45.236465" lon="6.173876"><ele>1869</ele></trkpt>
   <trkpt lat="45.236489" lon="6.174011"><ele>1870</ele></trkpt>
   <trkpt lat="45.236543" lon="6.174203"><ele>1872</ele></trkpt>
   <trkpt lat="45.236616" lon="6.174396"><ele>1872</ele></trkpt>
   <trkpt lat="45.236684" lon="6.174518"><ele>1872.75</ele></trkpt>
   <trkpt lat="45.236792" lon="6.174652"><ele>1874.25</ele></trkpt>
   <trkpt lat="45.23689" lon="6.174732"><ele>1875.25</ele></trkpt>
   <trkpt lat="45.237151" lon="6.174843"><ele>1881.25</ele></trkpt>
   <trkpt lat="45.237384" lon="6.175042"><ele>1883.5</ele></trkpt>
   <trkpt lat="45.237486" lon="6.175116"><ele>1884.25</ele></trkpt>
   <trkpt lat="45.237631" lon="6.175176"><ele>1885.75</ele></trkpt>
   <trkpt lat="45.23784" lon="6.175245"><ele>1888.5</ele></trkpt>
   <trkpt lat="45.238069" lon="6.175368"><ele>1889.75</ele></trkpt>
   <trkpt lat="45.238211" lon="6.175481"><ele>1891.25</ele></trkpt>
   <trkpt lat="45.238351" lon="6.175609"><ele>1892.75</ele></trkpt>
   <trkpt lat="45.238442" lon="6.175721"><ele>1894</ele></trkpt>
   <trkpt lat="45.23848" lon="6.175832"><ele>1894</ele></trkpt>
   <trkpt lat="45.238491" lon="6.175911"><ele>1894.75</ele></trkpt>
   <trkpt lat="45.238484" lon="6.176122"><ele>1896.25</ele></trkpt>
   <trkpt lat="45.238488" lon="6.176266"><ele>1896.25</ele></trkpt>
   <trkpt lat="45.238509" lon="6.176422"><ele>1897.25</ele></trkpt>
   <trkpt lat="45.238558" lon="6.176622"><ele>1899</ele></trkpt>
   <trkpt lat="45.238684" lon="6.177044"><ele>1904.25</ele></trkpt>
   <trkpt lat="45.238716" lon="6.17718"><ele>1905</ele></trkpt>
   <trkpt lat="45.238724" lon="6.177266"><ele>1905.5</ele></trkpt>
   <trkpt lat="45.238719" lon="6.177386"><ele>1906</ele></trkpt>
   <trkpt lat="45.238687" lon="6.177604"><ele>1906.25</ele></trkpt>
   <trkpt lat="45.238683" lon="6.177695"><ele>1906.5</ele></trkpt>
   <trkpt lat="45.238716" lon="6.177858"><ele>1906.75</ele></trkpt>
   <trkpt lat="45.238746" lon="6.177899"><ele>1907.25</ele></trkpt>
   <trkpt lat="45.238779" lon="6.178064"><ele>1908.25</ele></trkpt>
   <trkpt lat="45.238833" lon="6.178536"><ele>1908.5</ele></trkpt>
   <trkpt lat="45.238925" lon="6.178921"><ele>1913.75</ele></trkpt>
   <trkpt lat="45.238956" lon="6.179121"><ele>1915.25</ele></trkpt>
   <trkpt lat="45.238977" lon="6.17932"><ele>1916.75</ele></trkpt>
   <trkpt lat="45.238985" lon="6.179516"><ele>1917.25</ele></trkpt>
   <trkpt lat="45.238993" lon="6.180073"><ele>1918.75</ele></trkpt>
   <trkpt lat="45.239008" lon="6.180246"><ele>1919.75</ele></trkpt>
   <trkpt lat="45.239077" lon="6.180608"><ele>1921.75</ele></trkpt>
   <trkpt lat="45.239093" lon="6.18072"><ele>1923</ele></trkpt>
   <trkpt lat="45.239096" lon="6.18084"><ele>1923</ele></trkpt>
   <trkpt lat="45.23908" lon="6.181139"><ele>1924.25</ele></trkpt>
   <trkpt lat="45.239087" lon="6.181377"><ele>1925</ele></trkpt>
   <trkpt lat="45.239081" lon="6.181549"><ele>1926.5</ele></trkpt>
   <trkpt lat="45.23906" lon="6.18167"><ele>1926.75</ele></trkpt>
   <trkpt lat="45.238954" lon="6.182072"><ele>1926.5</ele></trkpt>
   <trkpt lat="45.238919" lon="6.182378"><ele>1928.25</ele></trkpt>
   <trkpt lat="45.238911" lon="6.182701"><ele>1929.75</ele></trkpt>
   <trkpt lat="45.238938" lon="6.183346"><ele>1933</ele></trkpt>
   <trkpt lat="45.238943" lon="6.183617"><ele>1933.75</ele></trkpt>
   <trkpt lat="45.238922" lon="6.18383"><ele>1934.75</ele></trkpt>
   <trkpt lat="45.238856" lon="6.184282"><ele>1935</ele></trkpt>
   <trkpt lat="45.238861" lon="6.184422"><ele>1936.25</ele></trkpt>
   <trkpt lat="45.238922" lon="6.184631"><ele>1937.25</ele></trkpt>
   <trkpt lat="45.239186" lon="6.185059"><ele>1941.5</ele></trkpt>
   <trkpt lat="45.239234" lon="6.185199"><ele>1942.75</ele></trkpt>
   <trkpt lat="45.239234" lon="6.185341"><ele>1942.75</ele></trkpt>
   <trkpt lat="45.239197" lon="6.185545"><ele>1944.5</ele></trkpt>
   <trkpt lat="45.239131" lon="6.185633"><ele>1945.25</ele></trkpt>
   <trkpt lat="45.239039" lon="6.18569"><ele>1946.25</ele></trkpt>
   <trkpt lat="45.238859" lon="6.18573"><ele>1947.25</ele></trkpt>
   <trkpt lat="45.238732" lon="6.185793"><ele>1948</ele></trkpt>
   <trkpt lat="45.238613" lon="6.185904"><ele>1950</ele></trkpt>
   <trkpt lat="45.238486" lon="6.186063"><ele>1951</ele></trkpt>
   <trkpt lat="45.238404" lon="6.186212"><ele>1951</ele></trkpt>
   <trkpt lat="45.237865" lon="6.187564"><ele>1960</ele></trkpt>
   <trkpt lat="45.237692" lon="6.187871"><ele>1960.25</ele></trkpt>
   <trkpt lat="45.237632" lon="6.188011"><ele>1961</ele></trkpt>
   <trkpt lat="45.237588" lon="6.188153"><ele>1962</ele></trkpt>
   <trkpt lat="45.237521" lon="6.188572"><ele>1964</ele></trkpt>
   <trkpt lat="45.237446" lon="6.188858"><ele>1964.5</ele></trkpt>
   <trkpt lat="45.237334" lon="6.189164"><ele>1968.5</ele></trkpt>
   <trkpt lat="45.237207" lon="6.189581"><ele>1969</ele></trkpt>
   <trkpt lat="45.236977" lon="6.190517"><ele>1975.5</ele></trkpt>
   <trkpt lat="45.236908" lon="6.190777"><ele>1976</ele></trkpt>
   <trkpt lat="45.236841" lon="6.190899"><ele>1976.75</ele></trkpt>
   <trkpt lat="45.236432" lon="6.191533"><ele>1981.5</ele></trkpt>
   <trkpt lat="45.236229" lon="6.19179"><ele>1982.5</ele></trkpt>
   <trkpt lat="45.236061" lon="6.192057"><ele>1984.75</ele></trkpt>
   <trkpt lat="45.235673" lon="6.192624"><ele>1989.25</ele></trkpt>
   <trkpt lat="45.235544" lon="6.192777"><ele>1989.75</ele></trkpt>
   <trkpt lat="45.235397" lon="6.192875"><ele>1992.75</ele></trkpt>
   <trkpt lat="45.235157" lon="6.192959"><ele>1991.75</ele></trkpt>
   <trkpt lat="45.234935" lon="6.193101"><ele>1994.5</ele></trkpt>
   <trkpt lat="45.234792" lon="6.193176"><ele>1996.75</ele></trkpt>
   <trkpt lat="45.234689" lon="6.193195"><ele>1996.25</ele></trkpt>
   <trkpt lat="45.23425" lon="6.193238"><ele>1996</ele></trkpt>
   <trkpt lat="45.234226" lon="6.19324"><ele>1995.75</ele></trkpt>
   <trkpt lat="45.23418" lon="6.193272"><ele>1996.5</ele></trkpt>
   <trkpt lat="45.23415" lon="6.193327"><ele>1998.25</ele></trkpt>
   <trkpt lat="45.23407" lon="6.19352"><ele>1997.5</ele></trkpt>
   <trkpt lat="45.233957" lon="6.193832"><ele>1998.25</ele></trkpt>
   <trkpt lat="45.233895" lon="6.194024"><ele>2000</ele></trkpt>
   <trkpt lat="45.233826" lon="6.194234"><ele>2000.75</ele></trkpt>
   <trkpt lat="45.233691" lon="6.194573"><ele>2002.25</ele></trkpt>
   <trkpt lat="45.233447" lon="6.195014"><ele>2005</ele></trkpt>
   <trkpt lat="45.233384" lon="6.195195"><ele>2006</ele></trkpt>
   <trkpt lat="45.233331" lon="6.195417"><ele>2007.75</ele></trkpt>
   <trkpt lat="45.233287" lon="6.195669"><ele>2008.75</ele></trkpt>
   <trkpt lat="45.233259" lon="6.196056"><ele>2010.5</ele></trkpt>
   <trkpt lat="45.233228" lon="6.196223"><ele>2011.75</ele></trkpt>
   <trkpt lat="45.233121" lon="6.196481"><ele>2013</ele></trkpt>
   <trkpt lat="45.232899" lon="6.196913"><ele>2017</ele></trkpt>
   <trkpt lat="45.232664" lon="6.197344"><ele>2019.5</ele></trkpt>
   <trkpt lat="45.232443" lon="6.197521"><ele>2019.25</ele></trkpt>
   <trkpt lat="45.23232" lon="6.197656"><ele>2021</ele></trkpt>
   <trkpt lat="45.232057" lon="6.198019"><ele>2024.5</ele></trkpt>
   <trkpt lat="45.231749" lon="6.198407"><ele>2026.25</ele></trkpt>
   <trkpt lat="45.231591" lon="6.198718"><ele>2028.25</ele></trkpt>
   <trkpt lat="45.231158" lon="6.199743"><ele>2035</ele></trkpt>
   <trkpt lat="45.230917" lon="6.200186"><ele>2038.5</ele></trkpt>
   <trkpt lat="45.230486" lon="6.20092"><ele>2042.75</ele></trkpt>
   <trkpt lat="45.229692" lon="6.202025"><ele>2049.5</ele></trkpt>
   <trkpt lat="45.229595" lon="6.202128"><ele>2050.75</ele></trkpt>
   <trkpt lat="45.229519" lon="6.202186"><ele>2051.5</ele></trkpt>
   <trkpt lat="45.229416" lon="6.202219"><ele>2051.75</ele></trkpt>
   <trkpt lat="45.229163" lon="6.202242"><ele>2053.5</ele></trkpt>
   <trkpt lat="45.228957" lon="6.202274"><ele>2054.25</ele></trkpt>
   <trkpt lat="45.228772" lon="6.202323"><ele>2055.5</ele></trkpt>
   <trkpt lat="45.228275" lon="6.202487"><ele>2058.75</ele></trkpt>
   <trkpt lat="45.227867" lon="6.202656"><ele>2061.75</ele></trkpt>
   <trkpt lat="45.227778" lon="6.202702"><ele>2062.25</ele></trkpt>
   <trkpt lat="45.227708" lon="6.202767"><ele>2063.5</ele></trkpt>
   <trkpt lat="45.227648" lon="6.202856"><ele>2064.25</ele></trkpt>
   <trkpt lat="45.227578" lon="6.202979"><ele>2065</ele></trkpt>
   <trkpt lat="45.22755" lon="6.203032"><ele>2065.25</ele></trkpt>
   <trkpt lat="45.227506" lon="6.203169"><ele>2065</ele></trkpt>
   <trkpt lat="45.22749" lon="6.203331"><ele>2065</ele></trkpt>
   <trkpt lat="45.227488" lon="6.203381"><ele>2065</ele></trkpt>
   <trkpt lat="45.227487" lon="6.203467"><ele>2065</ele></trkpt>
   <trkpt lat="45.227485" lon="6.203877"><ele>2065.75</ele></trkpt>

  </trkseg>
 </trk>
</gpx>