<?xml version="1.0" encoding="UTF-8"?>
<!-- track-length = 10248 filtered ascend = 526 plain-ascend = 458 cost=14280 energy=0.2kwh time=1h 32m 16s -->
<gpx 
 xmlns="http://www.topografix.com/GPX/1/1" 
 xmlns:xsi="http://www.w3.org/2001/XMLSchema-instance" 
 xsi:schemaLocation="http://www.topografix.com/GPX/1/1 http://www.topografix.com/GPX/1/1/gpx.xsd" 
 version="1.1" 
 creator="BRouter-Web 0.18.1">
 <trk>
  <name>col de page (10.2km)</name>
  <trkseg>
   <trkpt lat="47.929873" lon="6.964237"><ele>490.25</ele></trkpt>
   <trkpt lat="47.929872" lon="6.964036"><ele>490.25</ele></trkpt>
   <trkpt lat="47.929881" lon="6.963619"><ele>490</ele></trkpt>
   <trkpt lat="47.929889" lon="6.96327"><ele>489.5</ele></trkpt>
   <trkpt lat="47.929899" lon="6.962875"><ele>490</ele></trkpt>
   <trkpt lat="47.929912" lon="6.962342"><ele>489</ele></trkpt>
   <trkpt lat="47.929913" lon="6.962287"><ele>488.75</ele></trkpt>
   <trkpt lat="47.929918" lon="6.961938"><ele>489</ele></trkpt>
   <trkpt lat="47.929926" lon="6.961405"><ele>490</ele></trkpt>
   <trkpt lat="47.929928" lon="6.961278"><ele>490.25</ele></trkpt>
   <trkpt lat="47.929929" lon="6.961245"><ele>490.25</ele></trkpt>
   <trkpt lat="47.92993" lon="6.961134"><ele>490.5</ele></trkpt>
   <trkpt lat="47.929933" lon="6.961021"><ele>490.75</ele></trkpt>
   <trkpt lat="47.929933" lon="6.961"><ele>490.75</ele></trkpt>
   <trkpt lat="47.929947" lon="6.960342"><ele>491.75</ele></trkpt>
   <trkpt lat="47.929971" lon="6.959259"><ele>495.5</ele></trkpt>
   <trkpt lat="47.929954" lon="6.959014"><ele>496.5</ele></trkpt>
   <trkpt lat="47.92991" lon="6.958816"><ele>497.5</ele></trkpt>
   <trkpt lat="47.929848" lon="6.958652"><ele>498.5</ele></trkpt>
   <trkpt lat="47.929783" lon="6.958522"><ele>499.75</ele></trkpt>
   <trkpt lat="47.929673" lon="6.95837"><ele>501.25</ele></trkpt>
   <trkpt lat="47.929533" lon="6.958255"><ele>502.5</ele></trkpt>
   <trkpt lat="47.929409" lon="6.958215"><ele>503</ele></trkpt>
   <trkpt lat="47.929275" lon="6.958193"><ele>503.75</ele></trkpt>
   <trkpt lat="47.929117" lon="6.958196"><ele>504.5</ele></trkpt>
   <trkpt lat="47.929026" lon="6.958203"><ele>505.5</ele></trkpt>
   <trkpt lat="47.927772" lon="6.958389"><ele>511.75</ele></trkpt>
   <trkpt lat="47.927641" lon="6.95843"><ele>514.5</ele></trkpt>
   <trkpt lat="47.927381" lon="6.958565"><ele>516.25</ele></trkpt>
   <trkpt lat="47.927257" lon="6.958616"><ele>516</ele></trkpt>
   <trkpt lat="47.92692" lon="6.958729"><ele>518.5</ele></trkpt>
   <trkpt lat="47.926619" lon="6.958802"><ele>521</ele></trkpt>
   <trkpt lat="47.926345" lon="6.958824"><ele>524</ele></trkpt>
   <trkpt lat="47.926209" lon="6.958864"><ele>523.5</ele></trkpt>
   <trkpt lat="47.926046" lon="6.958942"><ele>521.25</ele></trkpt>
   <trkpt lat="47.925898" lon="6.958962"><ele>522.25</ele></trkpt>
   <trkpt lat="47.925694" lon="6.958914"><ele>524.75</ele></trkpt>
   <trkpt lat="47.925513" lon="6.958837"><ele>526.25</ele></trkpt>
   <trkpt lat="47.925208" lon="6.958617"><ele>529.5</ele></trkpt>
   <trkpt lat="47.925124" lon="6.958573"><ele>531</ele></trkpt>
   <trkpt lat="47.92496" lon="6.958537"><ele>532</ele></trkpt>
   <trkpt lat="47.924491" lon="6.95855"><ele>534.5</ele></trkpt>
   <trkpt lat="47.924006" lon="6.958578"><ele>537.5</ele></trkpt>
   <trkpt lat="47.923146" lon="6.95855"><ele>543</ele></trkpt>
   <trkpt lat="47.922951" lon="6.958574"><ele>544.5</ele></trkpt>
   <trkpt lat="47.922715" lon="6.958631"><ele>544.25</ele></trkpt>
   <trkpt lat="47.922571" lon="6.958654"><ele>543.75</ele></trkpt>
   <trkpt lat="47.921482" lon="6.958723"><ele>551</ele></trkpt>
   <trkpt lat="47.92133" lon="6.95869"><ele>551.75</ele></trkpt>
   <trkpt lat="47.921222" lon="6.958626"><ele>553.25</ele></trkpt>
   <trkpt lat="47.921112" lon="6.958509"><ele>555</ele></trkpt>
   <trkpt lat="47.921016" lon="6.958336"><ele>554.25</ele></trkpt>
   <trkpt lat="47.920823" lon="6.957749"><ele>558.75</ele></trkpt>
   <trkpt lat="47.920695" lon="6.95714"><ele>562</ele></trkpt>
   <trkpt lat="47.920633" lon="6.957031"><ele>563.25</ele></trkpt>
   <trkpt lat="47.920445" lon="6.956903"><ele>563.75</ele></trkpt>
   <trkpt lat="47.920293" lon="6.956753"><ele>564</ele></trkpt>
   <trkpt lat="47.920191" lon="6.956601"><ele>564</ele></trkpt>
   <trkpt lat="47.919954" lon="6.956196"><ele>567.25</ele></trkpt>
   <trkpt lat="47.919879" lon="6.956037"><ele>567</ele></trkpt>
   <trkpt lat="47.91985" lon="6.955914"><ele>568</ele></trkpt>
   <trkpt lat="47.919837" lon="6.95578"><ele>569</ele></trkpt>
   <trkpt lat="47.919843" lon="6.95556"><ele>570.25</ele></trkpt>
   <trkpt lat="47.919861" lon="6.955293"><ele>572.75</ele></trkpt>
   <trkpt lat="47.91986" lon="6.955083"><ele>574</ele></trkpt>
   <trkpt lat="47.919842" lon="6.95497"><ele>574.25</ele></trkpt>
   <trkpt lat="47.919816" lon="6.954865"><ele>575</ele></trkpt>
   <trkpt lat="47.919744" lon="6.954699"><ele>575</ele></trkpt>
   <trkpt lat="47.919705" lon="6.954648"><ele>574.75</ele></trkpt>
   <trkpt lat="47.919604" lon="6.954568"><ele>575.75</ele></trkpt>
   <trkpt lat="47.919518" lon="6.95453"><ele>576.25</ele></trkpt>
   <trkpt lat="47.919327" lon="6.954498"><ele>577.75</ele></trkpt>
   <trkpt lat="47.918932" lon="6.954498"><ele>580</ele></trkpt>
   <trkpt lat="47.918836" lon="6.954463"><ele>581.25</ele></trkpt>
   <trkpt lat="47.918731" lon="6.954404"><ele>582.5</ele></trkpt>
   <trkpt lat="47.918645" lon="6.954342"><ele>583.5</ele></trkpt>
   <trkpt lat="47.918467" lon="6.954151"><ele>585</ele></trkpt>
   <trkpt lat="47.918402" lon="6.954054"><ele>585.75</ele></trkpt>
   <trkpt lat="47.918248" lon="6.953844"><ele>587.75</ele></trkpt>
   <trkpt lat="47.918132" lon="6.953645"><ele>588.75</ele></trkpt>
   <trkpt lat="47.918098" lon="6.95354"><ele>589</ele></trkpt>
   <trkpt lat="47.918084" lon="6.953436"><ele>589.5</ele></trkpt>
   <trkpt lat="47.91809" lon="6.953292"><ele>590.25</ele></trkpt>
   <trkpt lat="47.918117" lon="6.953165"><ele>590.5</ele></trkpt>
   <trkpt lat="47.918217" lon="6.952855"><ele>591.25</ele></trkpt>
   <trkpt lat="47.918253" lon="6.952687"><ele>591.5</ele></trkpt>
   <trkpt lat="47.91826" lon="6.952527"><ele>591.5</ele></trkpt>
   <trkpt lat="47.918245" lon="6.952275"><ele>591.75</ele></trkpt>
   <trkpt lat="47.917795" lon="6.949742"><ele>598.75</ele></trkpt>
   <trkpt lat="47.917735" lon="6.949549"><ele>599</ele></trkpt>
   <trkpt lat="47.917414" lon="6.948925"><ele>603</ele></trkpt>
   <trkpt lat="47.917401" lon="6.948863"><ele>603.25</ele></trkpt>
   <trkpt lat="47.917405" lon="6.948694"><ele>604.25</ele></trkpt>
   <trkpt lat="47.917447" lon="6.948613"><ele>604.75</ele></trkpt>
   <trkpt lat="47.917506" lon="6.948554"><ele>606</ele></trkpt>
   <trkpt lat="47.917561" lon="6.948527"><ele>606.5</ele></trkpt>
   <trkpt lat="47.917919" lon="6.948417"><ele>608.75</ele></trkpt>
   <trkpt lat="47.917996" lon="6.948419"><ele>608.5</ele></trkpt>
   <trkpt lat="47.918071" lon="6.948446"><ele>608.5</ele></trkpt>
   <trkpt lat="47.918128" lon="6.948498"><ele>609.5</ele></trkpt>
   <trkpt lat="47.9182" lon="6.948607"><ele>610</ele></trkpt>
   <trkpt lat="47.918275" lon="6.948799"><ele>609.5</ele></trkpt>
   <trkpt lat="47.918619" lon="6.949818"><ele>610.5</ele></trkpt>
   <trkpt lat="47.918683" lon="6.950116"><ele>612</ele></trkpt>
   <trkpt lat="47.918876" lon="6.951259"><ele>615</ele></trkpt>
   <trkpt lat="47.918921" lon="6.951433"><ele>615.5</ele></trkpt>
   <trkpt lat="47.919002" lon="6.951594"><ele>615.25</ele></trkpt>
   <trkpt lat="47.919157" lon="6.951736"><ele>618.75</ele></trkpt>
   <trkpt lat="47.919412" lon="6.951947"><ele>619.5</ele></trkpt>
   <trkpt lat="47.919476" lon="6.95205"><ele>620.25</ele></trkpt>
   <trkpt lat="47.919563" lon="6.952323"><ele>621.25</ele></trkpt>
   <trkpt lat="47.919611" lon="6.95259"><ele>622.75</ele></trkpt>
   <trkpt lat="47.91966" lon="6.952818"><ele>623.5</ele></trkpt>
   <trkpt lat="47.919717" lon="6.952905"><ele>623.25</ele></trkpt>
   <trkpt lat="47.919805" lon="6.952933"><ele>624.5</ele></trkpt>
   <trkpt lat="47.919887" lon="6.952893"><ele>625.75</ele></trkpt>
   <trkpt lat="47.919935" lon="6.952817"><ele>626.75</ele></trkpt>
   <trkpt lat="47.919956" lon="6.952686"><ele>627.25</ele></trkpt>
   <trkpt lat="47.919952" lon="6.952526"><ele>627.25</ele></trkpt>
   <trkpt lat="47.919834" lon="6.951941"><ele>630.75</ele></trkpt>
   <trkpt lat="47.919762" lon="6.951744"><ele>631</ele></trkpt>
   <trkpt lat="47.919669" lon="6.951581"><ele>632.25</ele></trkpt>
   <trkpt lat="47.919552" lon="6.951445"><ele>634</ele></trkpt>
   <trkpt lat="47.919252" lon="6.951293"><ele>633.25</ele></trkpt>
   <trkpt lat="47.919212" lon="6.951265"><ele>633</ele></trkpt>
   <trkpt lat="47.919154" lon="6.951198"><ele>633</ele></trkpt>
   <trkpt lat="47.919103" lon="6.951071"><ele>631.75</ele></trkpt>
   <trkpt lat="47.919084" lon="6.950848"><ele>632</ele></trkpt>
   <trkpt lat="47.919095" lon="6.950629"><ele>633</ele></trkpt>
   <trkpt lat="47.919294" lon="6.949896"><ele>637.75</ele></trkpt>
   <trkpt lat="47.919326" lon="6.949691"><ele>638.5</ele></trkpt>
   <trkpt lat="47.919325" lon="6.949432"><ele>639.5</ele></trkpt>
   <trkpt lat="47.919308" lon="6.949255"><ele>640.25</ele></trkpt>
   <trkpt lat="47.919267" lon="6.949058"><ele>641.25</ele></trkpt>
   <trkpt lat="47.918986" lon="6.948131"><ele>647.25</ele></trkpt>
   <trkpt lat="47.918604" lon="6.947143"><ele>649.5</ele></trkpt>
   <trkpt lat="47.918597" lon="6.947054"><ele>650.5</ele></trkpt>
   <trkpt lat="47.918621" lon="6.946952"><ele>652</ele></trkpt>
   <trkpt lat="47.918681" lon="6.946897"><ele>654</ele></trkpt>
   <trkpt lat="47.918755" lon="6.946897"><ele>654.75</ele></trkpt>
   <trkpt lat="47.918802" lon="6.946937"><ele>654.25</ele></trkpt>
   <trkpt lat="47.918844" lon="6.947032"><ele>654</ele></trkpt>
   <trkpt lat="47.918915" lon="6.947421"><ele>655</ele></trkpt>
   <trkpt lat="47.918984" lon="6.947654"><ele>655</ele></trkpt>
   <trkpt lat="47.919109" lon="6.947926"><ele>656.5</ele></trkpt>
   <trkpt lat="47.919225" lon="6.948095"><ele>658</ele></trkpt>
   <trkpt lat="47.919546" lon="6.948326"><ele>661.5</ele></trkpt>
   <trkpt lat="47.919742" lon="6.948467"><ele>662.25</ele></trkpt>
   <trkpt lat="47.920141" lon="6.948786"><ele>663</ele></trkpt>
   <trkpt lat="47.920283" lon="6.948965"><ele>664.5</ele></trkpt>
   <trkpt lat="47.920347" lon="6.949107"><ele>665</ele></trkpt>
   <trkpt lat="47.920371" lon="6.949236"><ele>665.75</ele></trkpt>
   <trkpt lat="47.92037" lon="6.949431"><ele>666.25</ele></trkpt>
   <trkpt lat="47.920328" lon="6.949723"><ele>667.75</ele></trkpt>
   <trkpt lat="47.920287" lon="6.949911"><ele>668.25</ele></trkpt>
   <trkpt lat="47.920225" lon="6.95009"><ele>668.5</ele></trkpt>
   <trkpt lat="47.920007" lon="6.950503"><ele>669.75</ele></trkpt>
   <trkpt lat="47.919991" lon="6.950596"><ele>669.75</ele></trkpt>
   <trkpt lat="47.919995" lon="6.950672"><ele>669.25</ele></trkpt>
   <trkpt lat="47.920029" lon="6.950726"><ele>670</ele></trkpt>
   <trkpt lat="47.920074" lon="6.95075"><ele>671</ele></trkpt>
   <trkpt lat="47.92014" lon="6.950729"><ele>673</ele></trkpt>
   <trkpt lat="47.920195" lon="6.950632"><ele>674.5</ele></trkpt>
   <trkpt lat="47.920493" lon="6.949951"><ele>675.5</ele></trkpt>
   <trkpt lat="47.920615" lon="6.949726"><ele>678.5</ele></trkpt>
   <trkpt lat="47.920887" lon="6.949376"><ele>680</ele></trkpt>
   <trkpt lat="47.92105" lon="6.949127"><ele>680.75</ele></trkpt>
   <trkpt lat="47.921121" lon="6.948963"><ele>683</ele></trkpt>
   <trkpt lat="47.921145" lon="6.948798"><ele>684.25</ele></trkpt>
   <trkpt lat="47.921132" lon="6.948622"><ele>684.5</ele></trkpt>
   <trkpt lat="47.921067" lon="6.948382"><ele>684.5</ele></trkpt>
   <trkpt lat="47.920977" lon="6.948219"><ele>686.5</ele></trkpt>
   <trkpt lat="47.920895" lon="6.94812"><ele>687.5</ele></trkpt>
   <trkpt lat="47.920792" lon="6.948042"><ele>688.75</ele></trkpt>
   <trkpt lat="47.920524" lon="6.947941"><ele>691</ele></trkpt>
   <trkpt lat="47.920414" lon="6.947842"><ele>690.75</ele></trkpt>
   <trkpt lat="47.920359" lon="6.947736"><ele>691.5</ele></trkpt>
   <trkpt lat="47.920324" lon="6.947566"><ele>693</ele></trkpt>
   <trkpt lat="47.920239" lon="6.946729"><ele>694.5</ele></trkpt>
   <trkpt lat="47.920186" lon="6.946315"><ele>698</ele></trkpt>
   <trkpt lat="47.920145" lon="6.946182"><ele>698.5</ele></trkpt>
   <trkpt lat="47.920104" lon="6.946102"><ele>698.5</ele></trkpt>
   <trkpt lat="47.920033" lon="6.94602"><ele>700</ele></trkpt>
   <trkpt lat="47.919788" lon="6.945827"><ele>702</ele></trkpt>
   <trkpt lat="47.919671" lon="6.945708"><ele>702.75</ele></trkpt>
   <trkpt lat="47.919555" lon="6.94554"><ele>704.25</ele></trkpt>
   <trkpt lat="47.919493" lon="6.945435"><ele>703.75</ele></trkpt>
   <trkpt lat="47.91946" lon="6.945332"><ele>703.75</ele></trkpt>
   <trkpt lat="47.919431" lon="6.944507"><ele>708.25</ele></trkpt>
   <trkpt lat="47.919424" lon="6.944126"><ele>709.25</ele></trkpt>
   <trkpt lat="47.919435" lon="6.943855"><ele>710.75</ele></trkpt>
   <trkpt lat="47.919507" lon="6.943343"><ele>716.25</ele></trkpt>
   <trkpt lat="47.919584" lon="6.942875"><ele>715.25</ele></trkpt>
   <trkpt lat="47.919784" lon="6.942213"><ele>716.75</ele></trkpt>
   <trkpt lat="47.919967" lon="6.941783"><ele>720.5</ele></trkpt>
   <trkpt lat="47.920389" lon="6.940878"><ele>725.75</ele></trkpt>
   <trkpt lat="47.92054" lon="6.940578"><ele>727.5</ele></trkpt>
   <trkpt lat="47.920694" lon="6.940213"><ele>731.75</ele></trkpt>
   <trkpt lat="47.920792" lon="6.939931"><ele>731.75</ele></trkpt>
   <trkpt lat="47.920837" lon="6.939716"><ele>731.25</ele></trkpt>
   <trkpt lat="47.920845" lon="6.939529"><ele>732.5</ele></trkpt>
   <trkpt lat="47.920806" lon="6.938824"><ele>734</ele></trkpt>
   <trkpt lat="47.920815" lon="6.93855"><ele>735.5</ele></trkpt>
   <trkpt lat="47.920862" lon="6.938193"><ele>741</ele></trkpt>
   <trkpt lat="47.920872" lon="6.937942"><ele>741.5</ele></trkpt>
   <trkpt lat="47.920848" lon="6.937579"><ele>739.75</ele></trkpt>
   <trkpt lat="47.920853" lon="6.937371"><ele>740.5</ele></trkpt>
   <trkpt lat="47.921" lon="6.936397"><ele>745.25</ele></trkpt>
   <trkpt lat="47.921069" lon="6.93604"><ele>745.75</ele></trkpt>
   <trkpt lat="47.921186" lon="6.935631"><ele>748.5</ele></trkpt>
   <trkpt lat="47.921432" lon="6.934915"><ele>753.5</ele></trkpt>
   <trkpt lat="47.921538" lon="6.934447"><ele>755</ele></trkpt>
   <trkpt lat="47.92156" lon="6.93424"><ele>757</ele></trkpt>
   <trkpt lat="47.921644" lon="6.933026"><ele>767.75</ele></trkpt>
   <trkpt lat="47.921764" lon="6.932254"><ele>773</ele></trkpt>
   <trkpt lat="47.921848" lon="6.931611"><ele>783</ele></trkpt>
   <trkpt lat="47.921944" lon="6.931172"><ele>783</ele></trkpt>
   <trkpt lat="47.922036" lon="6.93075"><ele>785</ele></trkpt>
   <trkpt lat="47.922107" lon="6.930362"><ele>785.5</ele></trkpt>
   <trkpt lat="47.922133" lon="6.930144"><ele>786.25</ele></trkpt>
   <trkpt lat="47.922147" lon="6.929961"><ele>787</ele></trkpt>
   <trkpt lat="47.922149" lon="6.929779"><ele>787.5</ele></trkpt>
   <trkpt lat="47.922142" lon="6.92968"><ele>788</ele></trkpt>
   <trkpt lat="47.922104" lon="6.929466"><ele>789.75</ele></trkpt>
   <trkpt lat="47.922039" lon="6.929177"><ele>791.25</ele></trkpt>
   <trkpt lat="47.922032" lon="6.929085"><ele>791.25</ele></trkpt>
   <trkpt lat="47.922032" lon="6.928932"><ele>791.5</ele></trkpt>
   <trkpt lat="47.922054" lon="6.928646"><ele>792.75</ele></trkpt>
   <trkpt lat="47.922074" lon="6.928536"><ele>793.25</ele></trkpt>
   <trkpt lat="47.922105" lon="6.928436"><ele>793.75</ele></trkpt>
   <trkpt lat="47.922144" lon="6.928352"><ele>794.25</ele></trkpt>
   <trkpt lat="47.922309" lon="6.928056"><ele>797</ele></trkpt>
   <trkpt lat="47.922391" lon="6.927823"><ele>799</ele></trkpt>
   <trkpt lat="47.922449" lon="6.927581"><ele>800</ele></trkpt>
   <trkpt lat="47.922459" lon="6.927448"><ele>800.25</ele></trkpt>
   <trkpt lat="47.92245" lon="6.927323"><ele>800.5</ele></trkpt>
   <trkpt lat="47.922434" lon="6.927224"><ele>800.5</ele></trkpt>
   <trkpt lat="47.922379" lon="6.926982"><ele>801</ele></trkpt>
   <trkpt lat="47.922337" lon="6.926796"><ele>802</ele></trkpt>
   <trkpt lat="47.92233" lon="6.926721"><ele>802.5</ele></trkpt>
   <trkpt lat="47.922337" lon="6.926615"><ele>803.25</ele></trkpt>
   <trkpt lat="47.922679" lon="6.925082"><ele>810.5</ele></trkpt>
   <trkpt lat="47.922739" lon="6.924918"><ele>811.25</ele></trkpt>
   <trkpt lat="47.922827" lon="6.924737"><ele>812.5</ele></trkpt>
   <trkpt lat="47.92289" lon="6.924656"><ele>812.25</ele></trkpt>
   <trkpt lat="47.922937" lon="6.924631"><ele>812.5</ele></trkpt>
   <trkpt lat="47.922976" lon="6.92463"><ele>813</ele></trkpt>
   <trkpt lat="47.923011" lon="6.924655"><ele>813.75</ele></trkpt>
   <trkpt lat="47.923032" lon="6.924695"><ele>814.25</ele></trkpt>
   <trkpt lat="47.923046" lon="6.92474"><ele>814.75</ele></trkpt>
   <trkpt lat="47.92305" lon="6.924791"><ele>815</ele></trkpt>
   <trkpt lat="47.92304" lon="6.924866"><ele>815.25</ele></trkpt>
   <trkpt lat="47.922915" lon="6.925234"><ele>816.25</ele></trkpt>
   <trkpt lat="47.922882" lon="6.925364"><ele>816.75</ele></trkpt>
   <trkpt lat="47.922856" lon="6.925491"><ele>817</ele></trkpt>
   <trkpt lat="47.922836" lon="6.925639"><ele>817.5</ele></trkpt>
   <trkpt lat="47.922829" lon="6.925758"><ele>817.75</ele></trkpt>
   <trkpt lat="47.922842" lon="6.926038"><ele>818</ele></trkpt>
   <trkpt lat="47.922908" lon="6.926406"><ele>817.75</ele></trkpt>
   <trkpt lat="47.922914" lon="6.926529"><ele>819.25</ele></trkpt>
   <trkpt lat="47.922906" lon="6.927392"><ele>820.5</ele></trkpt>
   <trkpt lat="47.922877" lon="6.927713"><ele>821.75</ele></trkpt>
   <trkpt lat="47.922876" lon="6.92779"><ele>822.25</ele></trkpt>
   <trkpt lat="47.922884" lon="6.927852"><ele>822.75</ele></trkpt>
   <trkpt lat="47.922923" lon="6.927898"><ele>824</ele></trkpt>
   <trkpt lat="47.922949" lon="6.927906"><ele>824.75</ele></trkpt>
   <trkpt lat="47.922983" lon="6.927899"><ele>826</ele></trkpt>
   <trkpt lat="47.923009" lon="6.927872"><ele>826.5</ele></trkpt>
   <trkpt lat="47.923023" lon="6.927839"><ele>826.5</ele></trkpt>
   <trkpt lat="47.923031" lon="6.927762"><ele>826.25</ele></trkpt>
   <trkpt lat="47.923049" lon="6.927107"><ele>828</ele></trkpt>
   <trkpt lat="47.923059" lon="6.927001"><ele>829</ele></trkpt>
   <trkpt lat="47.923085" lon="6.926877"><ele>830.25</ele></trkpt>
   <trkpt lat="47.923135" lon="6.926722"><ele>831.5</ele></trkpt>
   <trkpt lat="47.923299" lon="6.926352"><ele>832.5</ele></trkpt>
   <trkpt lat="47.923376" lon="6.926154"><ele>835.25</ele></trkpt>
   <trkpt lat="47.923563" lon="6.925559"><ele>838.25</ele></trkpt>
   <trkpt lat="47.92359" lon="6.92533"><ele>839.75</ele></trkpt>
   <trkpt lat="47.923588" lon="6.925149"><ele>840.25</ele></trkpt>
   <trkpt lat="47.923559" lon="6.924778"><ele>841</ele></trkpt>
   <trkpt lat="47.923558" lon="6.924409"><ele>843.75</ele></trkpt>
   <trkpt lat="47.923623" lon="6.92385"><ele>847.75</ele></trkpt>
   <trkpt lat="47.923632" lon="6.923457"><ele>850.25</ele></trkpt>
   <trkpt lat="47.923614" lon="6.923006"><ele>853.5</ele></trkpt>
   <trkpt lat="47.923571" lon="6.922763"><ele>853.5</ele></trkpt>
   <trkpt lat="47.923542" lon="6.922663"><ele>854.75</ele></trkpt>
   <trkpt lat="47.923514" lon="6.922571"><ele>855.75</ele></trkpt>
   <trkpt lat="47.923353" lon="6.922236"><ele>857.25</ele></trkpt>
   <trkpt lat="47.923264" lon="6.922032"><ele>858.5</ele></trkpt>
   <trkpt lat="47.923201" lon="6.921763"><ele>860</ele></trkpt>
   <trkpt lat="47.923193" lon="6.921065"><ele>864.25</ele></trkpt>
   <trkpt lat="47.92317" lon="6.920739"><ele>866.5</ele></trkpt>
   <trkpt lat="47.923118" lon="6.920456"><ele>868.5</ele></trkpt>
   <trkpt lat="47.92275" lon="6.919528"><ele>873.75</ele></trkpt>
   <trkpt lat="47.922709" lon="6.919402"><ele>874.5</ele></trkpt>
   <trkpt lat="47.922686" lon="6.919274"><ele>875</ele></trkpt>
   <trkpt lat="47.922677" lon="6.919188"><ele>875.75</ele></trkpt>
   <trkpt lat="47.922672" lon="6.918617"><ele>879.25</ele></trkpt>
   <trkpt lat="47.922619" lon="6.91811"><ele>883.75</ele></trkpt>
   <trkpt lat="47.922611" lon="6.917979"><ele>884.5</ele></trkpt>
   <trkpt lat="47.922607" lon="6.917843"><ele>884.5</ele></trkpt>
   <trkpt lat="47.922618" lon="6.9177"><ele>884.75</ele></trkpt>
   <trkpt lat="47.922632" lon="6.917602"><ele>885</ele></trkpt>
   <trkpt lat="47.922662" lon="6.917453"><ele>885</ele></trkpt>
   <trkpt lat="47.922687" lon="6.917363"><ele>885</ele></trkpt>
   <trkpt lat="47.922736" lon="6.917237"><ele>884.25</ele></trkpt>
   <trkpt lat="47.922879" lon="6.91694"><ele>884.5</ele></trkpt>
   <trkpt lat="47.922976" lon="6.916785"><ele>883.5</ele></trkpt>
   <trkpt lat="47.923062" lon="6.916677"><ele>882</ele></trkpt>
   <trkpt lat="47.92326" lon="6.916472"><ele>880.5</ele></trkpt>
   <trkpt lat="47.923432" lon="6.916331"><ele>879</ele></trkpt>
   <trkpt lat="47.923493" lon="6.916268"><ele>879</ele></trkpt>
   <trkpt lat="47.923617" lon="6.916116"><ele>878</ele></trkpt>
   <trkpt lat="47.92367" lon="6.916037"><ele>877.25</ele></trkpt>
   <trkpt lat="47.923787" lon="6.915815"><ele>876.5</ele></trkpt>
   <trkpt lat="47.923841" lon="6.915654"><ele>875.75</ele></trkpt>
   <trkpt lat="47.923948" lon="6.915233"><ele>873.75</ele></trkpt>
   <trkpt lat="47.923989" lon="6.915027"><ele>873</ele></trkpt>
   <trkpt lat="47.924021" lon="6.914753"><ele>871.25</ele></trkpt>
   <trkpt lat="47.924049" lon="6.913878"><ele>867.5</ele></trkpt>
   <trkpt lat="47.924065" lon="6.913678"><ele>866.25</ele></trkpt>
   <trkpt lat="47.924084" lon="6.913561"><ele>865.75</ele></trkpt>
   <trkpt lat="47.92412" lon="6.913388"><ele>864.5</ele></trkpt>
   <trkpt lat="47.924232" lon="6.912932"><ele>864.5</ele></trkpt>
   <trkpt lat="47.924345" lon="6.912354"><ele>861</ele></trkpt>
   <trkpt lat="47.924383" lon="6.912187"><ele>860.25</ele></trkpt>
   <trkpt lat="47.924433" lon="6.912006"><ele>859.5</ele></trkpt>
   <trkpt lat="47.924561" lon="6.911599"><ele>858.25</ele></trkpt>
   <trkpt lat="47.92462" lon="6.911383"><ele>856</ele></trkpt>
   <trkpt lat="47.924695" lon="6.911028"><ele>854.75</ele></trkpt>
   <trkpt lat="47.924922" lon="6.909849"><ele>850</ele></trkpt>
   <trkpt lat="47.925079" lon="6.909125"><ele>848</ele></trkpt>
   <trkpt lat="47.925129" lon="6.90894"><ele>847.25</ele></trkpt>
   <trkpt lat="47.925177" lon="6.908792"><ele>846.5</ele></trkpt>
   <trkpt lat="47.925516" lon="6.907887"><ele>843.25</ele></trkpt>
   <trkpt lat="47.926139" lon="6.906188"><ele>836.75</ele></trkpt>
   <trkpt lat="47.926239" lon="6.905901"><ele>836.75</ele></trkpt>
   <trkpt lat="47.926266" lon="6.905802"><ele>836.5</ele></trkpt>
   <trkpt lat="47.926342" lon="6.905475"><ele>835.75</ele></trkpt>
   <trkpt lat="47.926465" lon="6.904815"><ele>834.75</ele></trkpt>
   <trkpt lat="47.926483" lon="6.904681"><ele>834.25</ele></trkpt>
   <trkpt lat="47.926497" lon="6.904516"><ele>833.5</ele></trkpt>
   <trkpt lat="47.926502" lon="6.904339"><ele>832.75</ele></trkpt>
   <trkpt lat="47.926496" lon="6.90394"><ele>832.5</ele></trkpt>
   <trkpt lat="47.926479" lon="6.90344"><ele>831.5</ele></trkpt>
   <trkpt lat="47.926477" lon="6.903017"><ele>829.5</ele></trkpt>
   <trkpt lat="47.926487" lon="6.902729"><ele>827.5</ele></trkpt>
   <trkpt lat="47.926495" lon="6.902555"><ele>826.5</ele></trkpt>
   <trkpt lat="47.926501" lon="6.902331"><ele>826</ele></trkpt>
   <trkpt lat="47.926496" lon="6.902174"><ele>825.75</ele></trkpt>
   <trkpt lat="47.92647" lon="6.901966"><ele>825</ele></trkpt>
   <trkpt lat="47.92643" lon="6.901787"><ele>823.25</ele></trkpt>
   <trkpt lat="47.926308" lon="6.90143"><ele>820.75</ele></trkpt>
   <trkpt lat="47.926285" lon="6.901469"><ele>820.75</ele></trkpt>
   <trkpt lat="47.926179" lon="6.901615"><ele>820.75</ele></trkpt>
   <trkpt lat="47.926113" lon="6.901687"><ele>821</ele></trkpt>
   <trkpt lat="47.926074" lon="6.901712"><ele>821.25</ele></trkpt>
   <trkpt lat="47.925976" lon="6.901749"><ele>822</ele></trkpt>
   <trkpt lat="47.925889" lon="6.901756"><ele>822.75</ele></trkpt>
   <trkpt lat="47.925836" lon="6.90173"><ele>823</ele></trkpt>
   <trkpt lat="47.925785" lon="6.90169"><ele>824</ele></trkpt>
   <trkpt lat="47.925719" lon="6.901621"><ele>825</ele></trkpt>
   <trkpt lat="47.925508" lon="6.901335"><ele>827.25</ele></trkpt>
   <trkpt lat="47.925446" lon="6.901254"><ele>827.5</ele></trkpt>
   <trkpt lat="47.925366" lon="6.901178"><ele>828.25</ele></trkpt>
   <trkpt lat="47.925251" lon="6.901109"><ele>829.25</ele></trkpt>
   <trkpt lat="47.925025" lon="6.900982"><ele>832.5</ele></trkpt>
   <trkpt lat="47.924821" lon="6.900807"><ele>834.75</ele></trkpt>
   <trkpt lat="47.924353" lon="6.90039"><ele>840.25</ele></trkpt>
   <trkpt lat="47.924097" lon="6.900091"><ele>842.25</ele></trkpt>
   <trkpt lat="47.923983" lon="6.899904"><ele>844</ele></trkpt>
   <trkpt lat="47.923514" lon="6.898788"><ele>853.5</ele></trkpt>
   <trkpt lat="47.923293" lon="6.898326"><ele>857.5</ele></trkpt>
   <trkpt lat="47.923238" lon="6.898108"><ele>859</ele></trkpt>
   <trkpt lat="47.923165" lon="6.897736"><ele>859.5</ele></trkpt>
   <trkpt lat="47.923011" lon="6.897191"><ele>862.75</ele></trkpt>
   <trkpt lat="47.922845" lon="6.896667"><ele>865.25</ele></trkpt>
   <trkpt lat="47.922621" lon="6.895618"><ele>873</ele></trkpt>
   <trkpt lat="47.922573" lon="6.895352"><ele>875.75</ele></trkpt>
   <trkpt lat="47.922563" lon="6.895229"><ele>876.5</ele></trkpt>
   <trkpt lat="47.922561" lon="6.895097"><ele>877</ele></trkpt>
   <trkpt lat="47.922545" lon="6.894975"><ele>877.75</ele></trkpt>
   <trkpt lat="47.9225" lon="6.894798"><ele>879.25</ele></trkpt>
   <trkpt lat="47.922414" lon="6.894528"><ele>882.25</ele></trkpt>
   <trkpt lat="47.922299" lon="6.894023"><ele>884.75</ele></trkpt>
   <trkpt lat="47.922262" lon="6.893767"><ele>886</ele></trkpt>
   <trkpt lat="47.922239" lon="6.893499"><ele>888.5</ele></trkpt>
   <trkpt lat="47.922212" lon="6.893367"><ele>890</ele></trkpt>
   <trkpt lat="47.922167" lon="6.89326"><ele>890.5</ele></trkpt>
   <trkpt lat="47.922112" lon="6.893171"><ele>891</ele></trkpt>
   <trkpt lat="47.921881" lon="6.892872"><ele>893.25</ele></trkpt>
   <trkpt lat="47.921738" lon="6.892751"><ele>895</ele></trkpt>
   <trkpt lat="47.921595" lon="6.892687"><ele>896.25</ele></trkpt>
   <trkpt lat="47.921443" lon="6.892651"><ele>897.5</ele></trkpt>
   <trkpt lat="47.921078" lon="6.89265"><ele>901.75</ele></trkpt>
   <trkpt lat="47.920732" lon="6.892752"><ele>906</ele></trkpt>
   <trkpt lat="47.920392" lon="6.89287"><ele>909</ele></trkpt>
   <trkpt lat="47.919456" lon="6.893245"><ele>917.5</ele></trkpt>
   <trkpt lat="47.91909" lon="6.893346"><ele>921.5</ele></trkpt>
   <trkpt lat="47.918557" lon="6.893318"><ele>927</ele></trkpt>
   <trkpt lat="47.91825" lon="6.893234"><ele>929.5</ele></trkpt>
   <trkpt lat="47.917645" lon="6.892912"><ele>936.5</ele></trkpt>
   <trkpt lat="47.917348" lon="6.892686"><ele>939</ele></trkpt>
   <trkpt lat="47.916985" lon="6.892264"><ele>943.5</ele></trkpt>
   <trkpt lat="47.916673" lon="6.891637"><ele>948.5</ele></trkpt>
   <trkpt lat="47.916519" lon="6.891355"><ele>951</ele></trkpt>
   <trkpt lat="47.916433" lon="6.891234"><ele>952.5</ele></trkpt>
   <trkpt lat="47.916338" lon="6.891134"><ele>953.75</ele></trkpt>
   <trkpt lat="47.916269" lon="6.891094"><ele>954.75</ele></trkpt>
   <trkpt lat="47.915881" lon="6.890907"><ele>957.5</ele></trkpt>
  </trkseg>
 </trk>
</gpx>
