<?xml version="1.0" encoding="UTF-8"?>
<!-- track-length = 13199 filtered ascend = 561 plain-ascend = 516 cost=17089 energy=0.2kwh time=1h 41m 38s -->
<gpx 
 xmlns="http://www.topografix.com/GPX/1/1" 
 xmlns:xsi="http://www.w3.org/2001/XMLSchema-instance" 
 xsi:schemaLocation="http://www.topografix.com/GPX/1/1 http://www.topografix.com/GPX/1/1/gpx.xsd" 
 version="1.1" 
 creator="BRouter-Web 0.18.1">
 <trk>
  <name>col de la griffoul (13.2km)</name>
  <trkseg>
      <trkpt lat="45.012253" lon="2.785517"><ele>1002</ele></trkpt>
   <trkpt lat="45.011952" lon="2.786216"><ele>1004.75</ele></trkpt>
   <trkpt lat="45.011768" lon="2.786579"><ele>1008.25</ele></trkpt>
   <trkpt lat="45.011237" lon="2.78747"><ele>1013.75</ele></trkpt>
   <trkpt lat="45.011017" lon="2.787867"><ele>1016.75</ele></trkpt>
   <trkpt lat="45.010895" lon="2.788146"><ele>1018.5</ele></trkpt>
   <trkpt lat="45.010587" lon="2.789134"><ele>1024.5</ele></trkpt>
   <trkpt lat="45.010382" lon="2.789842"><ele>1028.75</ele></trkpt>
   <trkpt lat="45.010322" lon="2.790185"><ele>1030.75</ele></trkpt>
   <trkpt lat="45.010162" lon="2.790883"><ele>1035.25</ele></trkpt>
   <trkpt lat="45.010069" lon="2.791257"><ele>1037.5</ele></trkpt>
   <trkpt lat="45.009978" lon="2.791525"><ele>1038.25</ele></trkpt>
   <trkpt lat="45.009897" lon="2.791838"><ele>1039.5</ele></trkpt>
   <trkpt lat="45.00976" lon="2.792192"><ele>1041.75</ele></trkpt>
   <trkpt lat="45.009651" lon="2.792523"><ele>1045</ele></trkpt>
   <trkpt lat="45.009492" lon="2.793028"><ele>1047.5</ele></trkpt>
   <trkpt lat="45.009437" lon="2.793264"><ele>1048.5</ele></trkpt>
   <trkpt lat="45.009275" lon="2.793898"><ele>1052.25</ele></trkpt>
   <trkpt lat="45.009075" lon="2.794959"><ele>1059.25</ele></trkpt>
   <trkpt lat="45.009014" lon="2.795195"><ele>1061</ele></trkpt>
   <trkpt lat="45.00887" lon="2.795495"><ele>1061.25</ele></trkpt>
   <trkpt lat="45.008744" lon="2.795818"><ele>1064.25</ele></trkpt>
   <trkpt lat="45.008582" lon="2.796386"><ele>1067.25</ele></trkpt>
   <trkpt lat="45.00843" lon="2.797029"><ele>1069.75</ele></trkpt>
   <trkpt lat="45.008392" lon="2.797244"><ele>1070.25</ele></trkpt>
   <trkpt lat="45.008392" lon="2.797544"><ele>1073.5</ele></trkpt>
   <trkpt lat="45.00838" lon="2.797781"><ele>1074.5</ele></trkpt>
   <trkpt lat="45.008332" lon="2.797995"><ele>1075</ele></trkpt>
   <trkpt lat="45.008294" lon="2.798242"><ele>1075.75</ele></trkpt>
   <trkpt lat="45.008294" lon="2.798446"><ele>1077.5</ele></trkpt>
   <trkpt lat="45.008304" lon="2.798672"><ele>1079.5</ele></trkpt>
   <trkpt lat="45.008256" lon="2.798939"><ele>1080.5</ele></trkpt>
   <trkpt lat="45.00821" lon="2.799497"><ele>1083.75</ele></trkpt>
   <trkpt lat="45.00821" lon="2.799733"><ele>1084</ele></trkpt>
   <trkpt lat="45.008241" lon="2.800044"><ele>1084.75</ele></trkpt>
   <trkpt lat="45.008324" lon="2.800259"><ele>1086.5</ele></trkpt>
   <trkpt lat="45.008408" lon="2.800437"><ele>1088.25</ele></trkpt>
   <trkpt lat="45.008554" lon="2.800721"><ele>1088.25</ele></trkpt>
   <trkpt lat="45.008691" lon="2.80085"><ele>1089.75</ele></trkpt>
   <trkpt lat="45.00882" lon="2.800914"><ele>1091</ele></trkpt>
   <trkpt lat="45.009219" lon="2.801042"><ele>1096.25</ele></trkpt>
   <trkpt lat="45.009419" lon="2.801172"><ele>1097.25</ele></trkpt>
   <trkpt lat="45.009866" lon="2.801515"><ele>1101.5</ele></trkpt>
   <trkpt lat="45.010162" lon="2.801655"><ele>1104.75</ele></trkpt>
   <trkpt lat="45.010425" lon="2.801804"><ele>1107</ele></trkpt>
   <trkpt lat="45.010607" lon="2.801943"><ele>1108.5</ele></trkpt>
   <trkpt lat="45.010698" lon="2.802072"><ele>1109.5</ele></trkpt>
   <trkpt lat="45.010807" lon="2.802255"><ele>1109.75</ele></trkpt>
   <trkpt lat="45.010951" lon="2.802363"><ele>1110.5</ele></trkpt>
   <trkpt lat="45.011077" lon="2.802405"><ele>1111.25</ele></trkpt>
   <trkpt lat="45.011244" lon="2.80234"><ele>1113</ele></trkpt>
   <trkpt lat="45.011694" lon="2.802073"><ele>1117.5</ele></trkpt>
   <trkpt lat="45.012124" lon="2.801804"><ele>1121.25</ele></trkpt>
   <trkpt lat="45.012369" lon="2.801665"><ele>1123.5</ele></trkpt>
   <trkpt lat="45.012617" lon="2.8016"><ele>1125.5</ele></trkpt>
   <trkpt lat="45.012972" lon="2.801606"><ele>1127.75</ele></trkpt>
   <trkpt lat="45.013072" lon="2.801611"><ele>1128.5</ele></trkpt>
   <trkpt lat="45.013217" lon="2.801679"><ele>1129.5</ele></trkpt>
   <trkpt lat="45.0133" lon="2.801718"><ele>1130.25</ele></trkpt>
   <trkpt lat="45.013542" lon="2.801868"><ele>1132</ele></trkpt>
   <trkpt lat="45.013778" lon="2.80204"><ele>1134.5</ele></trkpt>
   <trkpt lat="45.014" lon="2.80218"><ele>1136.25</ele></trkpt>
   <trkpt lat="45.014271" lon="2.802244"><ele>1137.5</ele></trkpt>
   <trkpt lat="45.014559" lon="2.802297"><ele>1140</ele></trkpt>
   <trkpt lat="45.014726" lon="2.802351"><ele>1141.75</ele></trkpt>
   <trkpt lat="45.014862" lon="2.802415"><ele>1143</ele></trkpt>
   <trkpt lat="45.01515" lon="2.802641"><ele>1143</ele></trkpt>
   <trkpt lat="45.015257" lon="2.802673"><ele>1143.25</ele></trkpt>
   <trkpt lat="45.01537" lon="2.802662"><ele>1144.25</ele></trkpt>
   <trkpt lat="45.015598" lon="2.802565"><ele>1148.5</ele></trkpt>
   <trkpt lat="45.016121" lon="2.802437"><ele>1154</ele></trkpt>
   <trkpt lat="45.016693" lon="2.802341"><ele>1159.5</ele></trkpt>
   <trkpt lat="45.01691" lon="2.802286"><ele>1160.5</ele></trkpt>
   <trkpt lat="45.017016" lon="2.802319"><ele>1161</ele></trkpt>
   <trkpt lat="45.017115" lon="2.802394"><ele>1161</ele></trkpt>
   <trkpt lat="45.01716" lon="2.802533"><ele>1160</ele></trkpt>
   <trkpt lat="45.01716" lon="2.802716"><ele>1162</ele></trkpt>
   <trkpt lat="45.017092" lon="2.802866"><ele>1163.25</ele></trkpt>
   <trkpt lat="45.016746" lon="2.803285"><ele>1165.25</ele></trkpt>
   <trkpt lat="45.016462" lon="2.803563"><ele>1167.5</ele></trkpt>
   <trkpt lat="45.016212" lon="2.803789"><ele>1169.75</ele></trkpt>
   <trkpt lat="45.015833" lon="2.804067"><ele>1173</ele></trkpt>
   <trkpt lat="45.015365" lon="2.804315"><ele>1177.5</ele></trkpt>
   <trkpt lat="45.015024" lon="2.80453"><ele>1181</ele></trkpt>
   <trkpt lat="45.014779" lon="2.804722"><ele>1183.25</ele></trkpt>
   <trkpt lat="45.014468" lon="2.804861"><ele>1186.25</ele></trkpt>
   <trkpt lat="45.014172" lon="2.804979"><ele>1186</ele></trkpt>
   <trkpt lat="45.013717" lon="2.805312"><ele>1192.75</ele></trkpt>
   <trkpt lat="45.013505" lon="2.805559"><ele>1195.75</ele></trkpt>
   <trkpt lat="45.013277" lon="2.805924"><ele>1199.25</ele></trkpt>
   <trkpt lat="45.013034" lon="2.806406"><ele>1202.5</ele></trkpt>
   <trkpt lat="45.012711" lon="2.80718"><ele>1206.5</ele></trkpt>
   <trkpt lat="45.012589" lon="2.807588"><ele>1210</ele></trkpt>
   <trkpt lat="45.012548" lon="2.807769"><ele>1209.75</ele></trkpt>
   <trkpt lat="45.012549" lon="2.807941"><ele>1208.5</ele></trkpt>
   <trkpt lat="45.01264" lon="2.808252"><ele>1210</ele></trkpt>
   <trkpt lat="45.012792" lon="2.808574"><ele>1212.25</ele></trkpt>
   <trkpt lat="45.012898" lon="2.808724"><ele>1213</ele></trkpt>
   <trkpt lat="45.013064" lon="2.80882"><ele>1216</ele></trkpt>
   <trkpt lat="45.013231" lon="2.808928"><ele>1219</ele></trkpt>
   <trkpt lat="45.013333" lon="2.809025"><ele>1220.5</ele></trkpt>
   <trkpt lat="45.013735" lon="2.809605"><ele>1225.25</ele></trkpt>
   <trkpt lat="45.013785" lon="2.809732"><ele>1226.5</ele></trkpt>
   <trkpt lat="45.013793" lon="2.80985"><ele>1227</ele></trkpt>
   <trkpt lat="45.013793" lon="2.810001"><ele>1227</ele></trkpt>
   <trkpt lat="45.013747" lon="2.810247"><ele>1226.75</ele></trkpt>
   <trkpt lat="45.013726" lon="2.810407"><ele>1227</ele></trkpt>
   <trkpt lat="45.013709" lon="2.810537"><ele>1227.5</ele></trkpt>
   <trkpt lat="45.013709" lon="2.810827"><ele>1230.25</ele></trkpt>
   <trkpt lat="45.01374" lon="2.811417"><ele>1234.25</ele></trkpt>
   <trkpt lat="45.013785" lon="2.812071"><ele>1238.5</ele></trkpt>
   <trkpt lat="45.013788" lon="2.812308"><ele>1239</ele></trkpt>
   <trkpt lat="45.013747" lon="2.81249"><ele>1238.25</ele></trkpt>
   <trkpt lat="45.013641" lon="2.812779"><ele>1241</ele></trkpt>
   <trkpt lat="45.013512" lon="2.813155"><ele>1242.75</ele></trkpt>
   <trkpt lat="45.013406" lon="2.813316"><ele>1244</ele></trkpt>
   <trkpt lat="45.013285" lon="2.813348"><ele>1245</ele></trkpt>
   <trkpt lat="45.01289" lon="2.813294"><ele>1248.25</ele></trkpt>
   <trkpt lat="45.012549" lon="2.813305"><ele>1251</ele></trkpt>
   <trkpt lat="45.012354" lon="2.81321"><ele>1253</ele></trkpt>
   <trkpt lat="45.012192" lon="2.813069"><ele>1254.5</ele></trkpt>
   <trkpt lat="45.012018" lon="2.812972"><ele>1256</ele></trkpt>
   <trkpt lat="45.011927" lon="2.812962"><ele>1257.25</ele></trkpt>
   <trkpt lat="45.011831" lon="2.812995"><ele>1258</ele></trkpt>
   <trkpt lat="45.011525" lon="2.813198"><ele>1261</ele></trkpt>
   <trkpt lat="45.011376" lon="2.813188"><ele>1261</ele></trkpt>
   <trkpt lat="45.011194" lon="2.813102"><ele>1263.75</ele></trkpt>
   <trkpt lat="45.011009" lon="2.813026"><ele>1265.5</ele></trkpt>
   <trkpt lat="45.010799" lon="2.813049"><ele>1267</ele></trkpt>
   <trkpt lat="45.010687" lon="2.813152"><ele>1269.5</ele></trkpt>
   <trkpt lat="45.010687" lon="2.813151"><ele>1267</ele></trkpt>
   <trkpt lat="45.010615" lon="2.813219"><ele>1269.5</ele></trkpt>
   <trkpt lat="45.010508" lon="2.813434"><ele>1271.75</ele></trkpt>
   <trkpt lat="45.010486" lon="2.813627"><ele>1273.25</ele></trkpt>
   <trkpt lat="45.010486" lon="2.813766"><ele>1274.5</ele></trkpt>
   <trkpt lat="45.010531" lon="2.813927"><ele>1275.5</ele></trkpt>
   <trkpt lat="45.010625" lon="2.814186"><ele>1277.25</ele></trkpt>
   <trkpt lat="45.010648" lon="2.814411"><ele>1279.25</ele></trkpt>
   <trkpt lat="45.010633" lon="2.814701"><ele>1281</ele></trkpt>
   <trkpt lat="45.010693" lon="2.814937"><ele>1282.5</ele></trkpt>
   <trkpt lat="45.010815" lon="2.815184"><ele>1283.75</ele></trkpt>
   <trkpt lat="45.011057" lon="2.815452"><ele>1286</ele></trkpt>
   <trkpt lat="45.011368" lon="2.815956"><ele>1289.75</ele></trkpt>
   <trkpt lat="45.011611" lon="2.816439"><ele>1292.5</ele></trkpt>
   <trkpt lat="45.011703" lon="2.816642"><ele>1293.75</ele></trkpt>
   <trkpt lat="45.011881" lon="2.816921"><ele>1295.75</ele></trkpt>
   <trkpt lat="45.012051" lon="2.81704"><ele>1297.25</ele></trkpt>
   <trkpt lat="45.012271" lon="2.817115"><ele>1298.5</ele></trkpt>
   <trkpt lat="45.012534" lon="2.817167"><ele>1300</ele></trkpt>
   <trkpt lat="45.012862" lon="2.817244"><ele>1302.5</ele></trkpt>
   <trkpt lat="45.013173" lon="2.817265"><ele>1304.75</ele></trkpt>
   <trkpt lat="45.014212" lon="2.817222"><ele>1312.25</ele></trkpt>
   <trkpt lat="45.014612" lon="2.817253"><ele>1315.25</ele></trkpt>
   <trkpt lat="45.014786" lon="2.817307"><ele>1316.25</ele></trkpt>
   <trkpt lat="45.015024" lon="2.817362"><ele>1317.5</ele></trkpt>
   <trkpt lat="45.015181" lon="2.817414"><ele>1318.75</ele></trkpt>
   <trkpt lat="45.015325" lon="2.817511"><ele>1320</ele></trkpt>
   <trkpt lat="45.015484" lon="2.817693"><ele>1320.5</ele></trkpt>
   <trkpt lat="45.015704" lon="2.817961"><ele>1322</ele></trkpt>
   <trkpt lat="45.015866" lon="2.818102"><ele>1323.25</ele></trkpt>
   <trkpt lat="45.016056" lon="2.818145"><ele>1324.75</ele></trkpt>
   <trkpt lat="45.016215" lon="2.818134"><ele>1326</ele></trkpt>
   <trkpt lat="45.016622" lon="2.817994"><ele>1328.5</ele></trkpt>
   <trkpt lat="45.016822" lon="2.817952"><ele>1329.75</ele></trkpt>
   <trkpt lat="45.017254" lon="2.817941"><ele>1332.25</ele></trkpt>
   <trkpt lat="45.017448" lon="2.817918"><ele>1333</ele></trkpt>
   <trkpt lat="45.017807" lon="2.817812"><ele>1335</ele></trkpt>
   <trkpt lat="45.017936" lon="2.817834"><ele>1335.5</ele></trkpt>
   <trkpt lat="45.018566" lon="2.81808"><ele>1337</ele></trkpt>
   <trkpt lat="45.018783" lon="2.818144"><ele>1337</ele></trkpt>
   <trkpt lat="45.019264" lon="2.81822"><ele>1335.75</ele></trkpt>
   <trkpt lat="45.019484" lon="2.818284"><ele>1335</ele></trkpt>
   <trkpt lat="45.019741" lon="2.818413"><ele>1334.75</ele></trkpt>
   <trkpt lat="45.020027" lon="2.818594"><ele>1335</ele></trkpt>
   <trkpt lat="45.020262" lon="2.818777"><ele>1334.25</ele></trkpt>
   <trkpt lat="45.020432" lon="2.81896"><ele>1335.25</ele></trkpt>
   <trkpt lat="45.02055" lon="2.819056"><ele>1336.5</ele></trkpt>
   <trkpt lat="45.020656" lon="2.819088"><ele>1337.25</ele></trkpt>
   <trkpt lat="45.020778" lon="2.819099"><ele>1338</ele></trkpt>
   <trkpt lat="45.021015" lon="2.8191"><ele>1339.5</ele></trkpt>
   <trkpt lat="45.021167" lon="2.819121"><ele>1340.5</ele></trkpt>
   <trkpt lat="45.02166" lon="2.819368"><ele>1343.75</ele></trkpt>
   <trkpt lat="45.022616" lon="2.81969"><ele>1351</ele></trkpt>
   <trkpt lat="45.022995" lon="2.81984"><ele>1354</ele></trkpt>
   <trkpt lat="45.023136" lon="2.81986"><ele>1355</ele></trkpt>
   <trkpt lat="45.023351" lon="2.81984"><ele>1356.5</ele></trkpt>
   <trkpt lat="45.023503" lon="2.819807"><ele>1357.5</ele></trkpt>
   <trkpt lat="45.023489" lon="2.819951"><ele>1357.75</ele></trkpt>
   <trkpt lat="45.023444" lon="2.820075"><ele>1358</ele></trkpt>
   <trkpt lat="45.023489" lon="2.819951"><ele>1357.75</ele></trkpt>
   <trkpt lat="45.023503" lon="2.819807"><ele>1357.5</ele></trkpt>
   <trkpt lat="45.023897" lon="2.819722"><ele>1360</ele></trkpt>
   <trkpt lat="45.024319" lon="2.819603"><ele>1362.5</ele></trkpt>
   <trkpt lat="45.024501" lon="2.819603"><ele>1363.75</ele></trkpt>
   <trkpt lat="45.024668" lon="2.819646"><ele>1365.25</ele></trkpt>
   <trkpt lat="45.024827" lon="2.819753"><ele>1366.25</ele></trkpt>
   <trkpt lat="45.024971" lon="2.819925"><ele>1366.75</ele></trkpt>
   <trkpt lat="45.025586" lon="2.82104"><ele>1368.5</ele></trkpt>

  </trkseg>
 </trk>
</gpx>