<?xml version="1.0" encoding="UTF-8"?>
<!-- track-length = 5387 filtered ascend = 390 plain-ascend = 363 cost=7012 energy=0.1kwh time=1h 5m 27s -->
<gpx 
 xmlns="http://www.topografix.com/GPX/1/1" 
 xmlns:xsi="http://www.w3.org/2001/XMLSchema-instance" 
 xsi:schemaLocation="http://www.topografix.com/GPX/1/1 http://www.topografix.com/GPX/1/1/gpx.xsd" 
 version="1.1" 
 creator="BRouter-Web 0.18.1">
 <trk>
  <name>col du pertus (5.4km)</name>
  <trkseg>
      <trkpt lat="45.069921" lon="2.657356"><ele>921.75</ele></trkpt>
   <trkpt lat="45.069913" lon="2.65736"><ele>921.75</ele></trkpt>
   <trkpt lat="45.069754" lon="2.657529"><ele>921.75</ele></trkpt>
   <trkpt lat="45.06971" lon="2.657573"><ele>922</ele></trkpt>
   <trkpt lat="45.069622" lon="2.657662"><ele>922</ele></trkpt>
   <trkpt lat="45.069509" lon="2.657711"><ele>922.5</ele></trkpt>
   <trkpt lat="45.069423" lon="2.657716"><ele>922.75</ele></trkpt>
   <trkpt lat="45.069338" lon="2.657686"><ele>923.25</ele></trkpt>
   <trkpt lat="45.069236" lon="2.657619"><ele>923.5</ele></trkpt>
   <trkpt lat="45.068893" lon="2.657312"><ele>923.25</ele></trkpt>
   <trkpt lat="45.068668" lon="2.657117"><ele>923.5</ele></trkpt>
   <trkpt lat="45.06855" lon="2.656972"><ele>923.25</ele></trkpt>
   <trkpt lat="45.068456" lon="2.656802"><ele>922.75</ele></trkpt>
   <trkpt lat="45.068441" lon="2.656763"><ele>922.5</ele></trkpt>
   <trkpt lat="45.068422" lon="2.656715"><ele>922.5</ele></trkpt>
   <trkpt lat="45.068344" lon="2.656519"><ele>922.25</ele></trkpt>
   <trkpt lat="45.068222" lon="2.656274"><ele>921.75</ele></trkpt>
   <trkpt lat="45.068099" lon="2.65608"><ele>922.25</ele></trkpt>
   <trkpt lat="45.067983" lon="2.655946"><ele>922.75</ele></trkpt>
   <trkpt lat="45.067766" lon="2.655805"><ele>924</ele></trkpt>
   <trkpt lat="45.067686" lon="2.655712"><ele>925.25</ele></trkpt>
   <trkpt lat="45.067621" lon="2.655577"><ele>925.75</ele></trkpt>
   <trkpt lat="45.067541" lon="2.655276"><ele>927.25</ele></trkpt>
   <trkpt lat="45.067459" lon="2.655001"><ele>927.75</ele></trkpt>
   <trkpt lat="45.06742" lon="2.655027"><ele>928.5</ele></trkpt>
   <trkpt lat="45.067371" lon="2.655095"><ele>929.75</ele></trkpt>
   <trkpt lat="45.067335" lon="2.655204"><ele>930.5</ele></trkpt>
   <trkpt lat="45.067306" lon="2.655409"><ele>930.5</ele></trkpt>
   <trkpt lat="45.067292" lon="2.65578"><ele>931</ele></trkpt>
   <trkpt lat="45.067361" lon="2.656279"><ele>935.25</ele></trkpt>
   <trkpt lat="45.067405" lon="2.656621"><ele>937.25</ele></trkpt>
   <trkpt lat="45.067459" lon="2.657067"><ele>938.75</ele></trkpt>
   <trkpt lat="45.067546" lon="2.657908"><ele>943.75</ele></trkpt>
   <trkpt lat="45.067644" lon="2.658278"><ele>945.5</ele></trkpt>
   <trkpt lat="45.067665" lon="2.658404"><ele>946</ele></trkpt>
   <trkpt lat="45.06766" lon="2.65851"><ele>946.75</ele></trkpt>
   <trkpt lat="45.067635" lon="2.658618"><ele>948</ele></trkpt>
   <trkpt lat="45.067611" lon="2.658673"><ele>949.5</ele></trkpt>
   <trkpt lat="45.067582" lon="2.658698"><ele>950.5</ele></trkpt>
   <trkpt lat="45.067545" lon="2.658713"><ele>951.75</ele></trkpt>
   <trkpt lat="45.067509" lon="2.658714"><ele>952.75</ele></trkpt>
   <trkpt lat="45.067457" lon="2.658701"><ele>954.5</ele></trkpt>
   <trkpt lat="45.067388" lon="2.658612"><ele>956.75</ele></trkpt>
   <trkpt lat="45.067256" lon="2.658256"><ele>959.5</ele></trkpt>
   <trkpt lat="45.067034" lon="2.657723"><ele>963.25</ele></trkpt>
   <trkpt lat="45.066866" lon="2.657355"><ele>966.75</ele></trkpt>
   <trkpt lat="45.066746" lon="2.657134"><ele>968.25</ele></trkpt>
   <trkpt lat="45.06667" lon="2.657027"><ele>970.25</ele></trkpt>
   <trkpt lat="45.066607" lon="2.656984"><ele>970.25</ele></trkpt>
   <trkpt lat="45.066551" lon="2.656982"><ele>970.25</ele></trkpt>
   <trkpt lat="45.066486" lon="2.657039"><ele>971.5</ele></trkpt>
   <trkpt lat="45.066436" lon="2.657116"><ele>973.25</ele></trkpt>
   <trkpt lat="45.066413" lon="2.657211"><ele>975.25</ele></trkpt>
   <trkpt lat="45.066424" lon="2.657294"><ele>977</ele></trkpt>
   <trkpt lat="45.066473" lon="2.657413"><ele>979</ele></trkpt>
   <trkpt lat="45.066549" lon="2.657534"><ele>980</ele></trkpt>
   <trkpt lat="45.066617" lon="2.657672"><ele>980.75</ele></trkpt>
   <trkpt lat="45.066679" lon="2.657883"><ele>982.5</ele></trkpt>
   <trkpt lat="45.066717" lon="2.658079"><ele>984.25</ele></trkpt>
   <trkpt lat="45.066729" lon="2.658333"><ele>986.5</ele></trkpt>
   <trkpt lat="45.066714" lon="2.658484"><ele>987</ele></trkpt>
   <trkpt lat="45.066662" lon="2.658728"><ele>989</ele></trkpt>
   <trkpt lat="45.066429" lon="2.659945"><ele>994.5</ele></trkpt>
   <trkpt lat="45.066365" lon="2.660033"><ele>996</ele></trkpt>
   <trkpt lat="45.066284" lon="2.660079"><ele>997</ele></trkpt>
   <trkpt lat="45.066209" lon="2.660039"><ele>998.5</ele></trkpt>
   <trkpt lat="45.066178" lon="2.659996"><ele>999</ele></trkpt>
   <trkpt lat="45.066155" lon="2.659934"><ele>999.25</ele></trkpt>
   <trkpt lat="45.066143" lon="2.659839"><ele>999.25</ele></trkpt>
   <trkpt lat="45.066166" lon="2.659737"><ele>999</ele></trkpt>
   <trkpt lat="45.066222" lon="2.659402"><ele>1002.25</ele></trkpt>
   <trkpt lat="45.066224" lon="2.6588"><ele>1003.75</ele></trkpt>
   <trkpt lat="45.066186" lon="2.658556"><ele>1006</ele></trkpt>
   <trkpt lat="45.06616" lon="2.65848"><ele>1006.5</ele></trkpt>
   <trkpt lat="45.066102" lon="2.658431"><ele>1007.25</ele></trkpt>
   <trkpt lat="45.065972" lon="2.658429"><ele>1007.5</ele></trkpt>
   <trkpt lat="45.065595" lon="2.658628"><ele>1012</ele></trkpt>
   <trkpt lat="45.065398" lon="2.658671"><ele>1014.75</ele></trkpt>
   <trkpt lat="45.065267" lon="2.658643"><ele>1015.5</ele></trkpt>
   <trkpt lat="45.065071" lon="2.65852"><ele>1018</ele></trkpt>
   <trkpt lat="45.064918" lon="2.658347"><ele>1022.5</ele></trkpt>
   <trkpt lat="45.064765" lon="2.658058"><ele>1026</ele></trkpt>
   <trkpt lat="45.06423" lon="2.657213"><ele>1032.75</ele></trkpt>
   <trkpt lat="45.064171" lon="2.657038"><ele>1035.5</ele></trkpt>
   <trkpt lat="45.064163" lon="2.656891"><ele>1037</ele></trkpt>
   <trkpt lat="45.06421" lon="2.656779"><ele>1038</ele></trkpt>
   <trkpt lat="45.064309" lon="2.656597"><ele>1039.25</ele></trkpt>
   <trkpt lat="45.064336" lon="2.656464"><ele>1041</ele></trkpt>
   <trkpt lat="45.064317" lon="2.656331"><ele>1042.5</ele></trkpt>
   <trkpt lat="45.064237" lon="2.656137"><ele>1043.75</ele></trkpt>
   <trkpt lat="45.063779" lon="2.655503"><ele>1051.75</ele></trkpt>
   <trkpt lat="45.063723" lon="2.655425"><ele>1052</ele></trkpt>
   <trkpt lat="45.063701" lon="2.655395"><ele>1052</ele></trkpt>
   <trkpt lat="45.06351" lon="2.655199"><ele>1054</ele></trkpt>
   <trkpt lat="45.063407" lon="2.655142"><ele>1056</ele></trkpt>
   <trkpt lat="45.063291" lon="2.655119"><ele>1057.75</ele></trkpt>
   <trkpt lat="45.063216" lon="2.655142"><ele>1058.5</ele></trkpt>
   <trkpt lat="45.063169" lon="2.655195"><ele>1059.75</ele></trkpt>
   <trkpt lat="45.063091" lon="2.65538"><ele>1062.5</ele></trkpt>
   <trkpt lat="45.063014" lon="2.655752"><ele>1067</ele></trkpt>
   <trkpt lat="45.062935" lon="2.655962"><ele>1069.5</ele></trkpt>
   <trkpt lat="45.062725" lon="2.656322"><ele>1072</ele></trkpt>
   <trkpt lat="45.062529" lon="2.656743"><ele>1075.25</ele></trkpt>
   <trkpt lat="45.062457" lon="2.656981"><ele>1078.5</ele></trkpt>
   <trkpt lat="45.062431" lon="2.657468"><ele>1082.5</ele></trkpt>
   <trkpt lat="45.062401" lon="2.658719"><ele>1096.5</ele></trkpt>
   <trkpt lat="45.062385" lon="2.659189"><ele>1102</ele></trkpt>
   <trkpt lat="45.062335" lon="2.659535"><ele>1105</ele></trkpt>
   <trkpt lat="45.062268" lon="2.659803"><ele>1106.75</ele></trkpt>
   <trkpt lat="45.062124" lon="2.660167"><ele>1110.75</ele></trkpt>
   <trkpt lat="45.061956" lon="2.660386"><ele>1114.25</ele></trkpt>
   <trkpt lat="45.061584" lon="2.660897"><ele>1123.5</ele></trkpt>
   <trkpt lat="45.061348" lon="2.661143"><ele>1125.75</ele></trkpt>
   <trkpt lat="45.061036" lon="2.661367"><ele>1129</ele></trkpt>
   <trkpt lat="45.060834" lon="2.66154"><ele>1130.75</ele></trkpt>
   <trkpt lat="45.060539" lon="2.661973"><ele>1134</ele></trkpt>
   <trkpt lat="45.06044" lon="2.662094"><ele>1135.5</ele></trkpt>
   <trkpt lat="45.06024" lon="2.662247"><ele>1138.75</ele></trkpt>
   <trkpt lat="45.059974" lon="2.662538"><ele>1143.25</ele></trkpt>
   <trkpt lat="45.059697" lon="2.662761"><ele>1148.25</ele></trkpt>
   <trkpt lat="45.059573" lon="2.662936"><ele>1151.75</ele></trkpt>
   <trkpt lat="45.059563" lon="2.663116"><ele>1152.5</ele></trkpt>
   <trkpt lat="45.059652" lon="2.663558"><ele>1154.5</ele></trkpt>
   <trkpt lat="45.059643" lon="2.663639"><ele>1154.75</ele></trkpt>
   <trkpt lat="45.059612" lon="2.663717"><ele>1154.5</ele></trkpt>
   <trkpt lat="45.059287" lon="2.663974"><ele>1157.5</ele></trkpt>
   <trkpt lat="45.058971" lon="2.664567"><ele>1158.25</ele></trkpt>
   <trkpt lat="45.058802" lon="2.665608"><ele>1155</ele></trkpt>
   <trkpt lat="45.058626" lon="2.666055"><ele>1154.25</ele></trkpt>
   <trkpt lat="45.058614" lon="2.666128"><ele>1154</ele></trkpt>
   <trkpt lat="45.058626" lon="2.666219"><ele>1154.25</ele></trkpt>
   <trkpt lat="45.058667" lon="2.66629"><ele>1154.25</ele></trkpt>
   <trkpt lat="45.058729" lon="2.666338"><ele>1153.75</ele></trkpt>
   <trkpt lat="45.058844" lon="2.666393"><ele>1153.5</ele></trkpt>
   <trkpt lat="45.059107" lon="2.666361"><ele>1151.25</ele></trkpt>
   <trkpt lat="45.05922" lon="2.666455"><ele>1150.5</ele></trkpt>
   <trkpt lat="45.059278" lon="2.666607"><ele>1150</ele></trkpt>
   <trkpt lat="45.059251" lon="2.666922"><ele>1148.75</ele></trkpt>
   <trkpt lat="45.059255" lon="2.667025"><ele>1148.5</ele></trkpt>
   <trkpt lat="45.059298" lon="2.667136"><ele>1148.25</ele></trkpt>
   <trkpt lat="45.059374" lon="2.667199"><ele>1149</ele></trkpt>
   <trkpt lat="45.059582" lon="2.667178"><ele>1150</ele></trkpt>
   <trkpt lat="45.059752" lon="2.66711"><ele>1150.5</ele></trkpt>
   <trkpt lat="45.060127" lon="2.666815"><ele>1151.5</ele></trkpt>
   <trkpt lat="45.060235" lon="2.666811"><ele>1152.5</ele></trkpt>
   <trkpt lat="45.060337" lon="2.666857"><ele>1153.25</ele></trkpt>
   <trkpt lat="45.060547" lon="2.667161"><ele>1155</ele></trkpt>
   <trkpt lat="45.060592" lon="2.667293"><ele>1155.25</ele></trkpt>
   <trkpt lat="45.060611" lon="2.667453"><ele>1156</ele></trkpt>
   <trkpt lat="45.060528" lon="2.668092"><ele>1163.75</ele></trkpt>
   <trkpt lat="45.060464" lon="2.668702"><ele>1166.25</ele></trkpt>
   <trkpt lat="45.060429" lon="2.669114"><ele>1165.25</ele></trkpt>
   <trkpt lat="45.060363" lon="2.669773"><ele>1169</ele></trkpt>
   <trkpt lat="45.060417" lon="2.66994"><ele>1169.5</ele></trkpt>
   <trkpt lat="45.060598" lon="2.670182"><ele>1171.25</ele></trkpt>
   <trkpt lat="45.060648" lon="2.670355"><ele>1173.25</ele></trkpt>
   <trkpt lat="45.060654" lon="2.670539"><ele>1176.25</ele></trkpt>
   <trkpt lat="45.060684" lon="2.670615"><ele>1177</ele></trkpt>
   <trkpt lat="45.060727" lon="2.670659"><ele>1177.25</ele></trkpt>
   <trkpt lat="45.060781" lon="2.67068"><ele>1176.75</ele></trkpt>
   <trkpt lat="45.060881" lon="2.670655"><ele>1176.75</ele></trkpt>
   <trkpt lat="45.061086" lon="2.670322"><ele>1179</ele></trkpt>
   <trkpt lat="45.061129" lon="2.670055"><ele>1182.25</ele></trkpt>
   <trkpt lat="45.06119" lon="2.669835"><ele>1182.75</ele></trkpt>
   <trkpt lat="45.061443" lon="2.669584"><ele>1184.75</ele></trkpt>
   <trkpt lat="45.061555" lon="2.669541"><ele>1185.75</ele></trkpt>
   <trkpt lat="45.061661" lon="2.669601"><ele>1189.25</ele></trkpt>
   <trkpt lat="45.061819" lon="2.669858"><ele>1188.25</ele></trkpt>
   <trkpt lat="45.061884" lon="2.670129"><ele>1192.25</ele></trkpt>
   <trkpt lat="45.062074" lon="2.670284"><ele>1195</ele></trkpt>
   <trkpt lat="45.06226" lon="2.670463"><ele>1199.5</ele></trkpt>
   <trkpt lat="45.062398" lon="2.670767"><ele>1203.25</ele></trkpt>
   <trkpt lat="45.062482" lon="2.67092"><ele>1204</ele></trkpt>
   <trkpt lat="45.062569" lon="2.670996"><ele>1206</ele></trkpt>
   <trkpt lat="45.062666" lon="2.671012"><ele>1208.25</ele></trkpt>
   <trkpt lat="45.062772" lon="2.670987"><ele>1209.75</ele></trkpt>
   <trkpt lat="45.062908" lon="2.670857"><ele>1212</ele></trkpt>
   <trkpt lat="45.062995" lon="2.670615"><ele>1212</ele></trkpt>
   <trkpt lat="45.063104" lon="2.670404"><ele>1216</ele></trkpt>
   <trkpt lat="45.06316" lon="2.669682"><ele>1218.75</ele></trkpt>
   <trkpt lat="45.063256" lon="2.669501"><ele>1220</ele></trkpt>
   <trkpt lat="45.063335" lon="2.669439"><ele>1221.75</ele></trkpt>
   <trkpt lat="45.063408" lon="2.669419"><ele>1221</ele></trkpt>
   <trkpt lat="45.063468" lon="2.669438"><ele>1221.25</ele></trkpt>
   <trkpt lat="45.063514" lon="2.669489"><ele>1222</ele></trkpt>
   <trkpt lat="45.063544" lon="2.669573"><ele>1223.25</ele></trkpt>
   <trkpt lat="45.063528" lon="2.669717"><ele>1225.5</ele></trkpt>
   <trkpt lat="45.063523" lon="2.669764"><ele>1226.25</ele></trkpt>
   <trkpt lat="45.06343" lon="2.670081"><ele>1229.5</ele></trkpt>
   <trkpt lat="45.063407" lon="2.670465"><ele>1232.75</ele></trkpt>
   <trkpt lat="45.063318" lon="2.67116"><ele>1235.75</ele></trkpt>
   <trkpt lat="45.06321" lon="2.671492"><ele>1239.5</ele></trkpt>
   <trkpt lat="45.06308" lon="2.671889"><ele>1244.25</ele></trkpt>
   <trkpt lat="45.062997" lon="2.672027"><ele>1245.75</ele></trkpt>
   <trkpt lat="45.06283" lon="2.672111"><ele>1246.5</ele></trkpt>
   <trkpt lat="45.062231" lon="2.672197"><ele>1251.75</ele></trkpt>
   <trkpt lat="45.062095" lon="2.672293"><ele>1255</ele></trkpt>
   <trkpt lat="45.061967" lon="2.672448"><ele>1256.5</ele></trkpt>
   <trkpt lat="45.061924" lon="2.672544"><ele>1256.25</ele></trkpt>
   <trkpt lat="45.061901" lon="2.672755"><ele>1258</ele></trkpt>
   <trkpt lat="45.061912" lon="2.672929"><ele>1260.5</ele></trkpt>
   <trkpt lat="45.061867" lon="2.673076"><ele>1261.5</ele></trkpt>
   <trkpt lat="45.061508" lon="2.673505"><ele>1269.25</ele></trkpt>
   <trkpt lat="45.061245" lon="2.674029"><ele>1273</ele></trkpt>
   <trkpt lat="45.061008" lon="2.674081"><ele>1272</ele></trkpt>
   <trkpt lat="45.060868" lon="2.674162"><ele>1275.5</ele></trkpt>
   <trkpt lat="45.060643" lon="2.674328"><ele>1279</ele></trkpt>
   <trkpt lat="45.060427" lon="2.674349"><ele>1280.5</ele></trkpt>
   <trkpt lat="45.060339" lon="2.674358"><ele>1282</ele></trkpt>
   <trkpt lat="45.060099" lon="2.674436"><ele>1285.5</ele></trkpt>
   <trkpt lat="45.059843" lon="2.674422"><ele>1287.75</ele></trkpt>
   <trkpt lat="45.059599" lon="2.674338"><ele>1291.25</ele></trkpt>
   <trkpt lat="45.059449" lon="2.674126"><ele>1292.25</ele></trkpt>
   <trkpt lat="45.059372" lon="2.673884"><ele>1294.75</ele></trkpt>
   <trkpt lat="45.059247" lon="2.673387"><ele>1297</ele></trkpt>
   <trkpt lat="45.059135" lon="2.673191"><ele>1298.5</ele></trkpt>
   <trkpt lat="45.058999" lon="2.673121"><ele>1300</ele></trkpt>
   <trkpt lat="45.058808" lon="2.673131"><ele>1303</ele></trkpt>
   <trkpt lat="45.058516" lon="2.673254"><ele>1305.75</ele></trkpt>
   <trkpt lat="45.058308" lon="2.67336"><ele>1307.5</ele></trkpt>
   <trkpt lat="45.058183" lon="2.673466"><ele>1309</ele></trkpt>
   <trkpt lat="45.058089" lon="2.673628"><ele>1310</ele></trkpt>

  </trkseg>
 </trk>
</gpx>