<?xml version="1.0" encoding="UTF-8"?>
<gpx 
 xmlns="http://www.topografix.com/GPX/1/1" 
 xmlns:xsi="http://www.w3.org/2001/XMLSchema-instance" 
 xsi:schemaLocation="http://www.topografix.com/GPX/1/1 http://www.topografix.com/GPX/1/1/gpx.xsd" 
 version="1.1" 
 creator="BRouter-Web 0.18.1">
 <trk>
  <name>Colle di Guaitarola (9.9km, trimmed to true summit)</name>
  <trkseg>
   <trkpt lat="44.170825" lon="9.609024"><ele>5.75</ele></trkpt>
   <trkpt lat="44.170845" lon="9.609105"><ele>5.75</ele></trkpt>
   <trkpt lat="44.170883" lon="9.609081"><ele>5.75</ele></trkpt>
   <trkpt lat="44.171185" lon="9.608909"><ele>4.25</ele></trkpt>
   <trkpt lat="44.171447" lon="9.608744"><ele>4</ele></trkpt>
   <trkpt lat="44.171519" lon="9.608696"><ele>4.75</ele></trkpt>
   <trkpt lat="44.171625" lon="9.608624"><ele>5.5</ele></trkpt>
   <trkpt lat="44.171745" lon="9.608569"><ele>6</ele></trkpt>
   <trkpt lat="44.171856" lon="9.608563"><ele>6.5</ele></trkpt>
   <trkpt lat="44.171984" lon="9.608616"><ele>7.25</ele></trkpt>
   <trkpt lat="44.172112" lon="9.608712"><ele>8.25</ele></trkpt>
   <trkpt lat="44.172151" lon="9.608749"><ele>8.5</ele></trkpt>
   <trkpt lat="44.172333" lon="9.60898"><ele>10.75</ele></trkpt>
   <trkpt lat="44.172382" lon="9.60908"><ele>10.5</ele></trkpt>
   <trkpt lat="44.172425" lon="9.609251"><ele>10.25</ele></trkpt>
   <trkpt lat="44.172476" lon="9.609624"><ele>11.25</ele></trkpt>
   <trkpt lat="44.172479" lon="9.609717"><ele>11.5</ele></trkpt>
   <trkpt lat="44.172468" lon="9.609895"><ele>11.75</ele></trkpt>
   <trkpt lat="44.172438" lon="9.610222"><ele>13.25</ele></trkpt>
   <trkpt lat="44.17242" lon="9.610417"><ele>14.75</ele></trkpt>
   <trkpt lat="44.172397" lon="9.610508"><ele>14.75</ele></trkpt>
   <trkpt lat="44.17231" lon="9.610683"><ele>13</ele></trkpt>
   <trkpt lat="44.172289" lon="9.61075"><ele>12.75</ele></trkpt>
   <trkpt lat="44.172285" lon="9.61084"><ele>13</ele></trkpt>
   <trkpt lat="44.172308" lon="9.610944"><ele>13.5</ele></trkpt>
   <trkpt lat="44.172371" lon="9.611153"><ele>14.25</ele></trkpt>
   <trkpt lat="44.172383" lon="9.611178"><ele>14.25</ele></trkpt>
   <trkpt lat="44.172705" lon="9.61159"><ele>17.25</ele></trkpt>
   <trkpt lat="44.172977" lon="9.611939"><ele>19.75</ele></trkpt>
   <trkpt lat="44.173252" lon="9.612316"><ele>23.5</ele></trkpt>
   <trkpt lat="44.173293" lon="9.612356"><ele>24.25</ele></trkpt>
   <trkpt lat="44.173327" lon="9.61237"><ele>24.75</ele></trkpt>
   <trkpt lat="44.173352" lon="9.61236"><ele>25.25</ele></trkpt>
   <trkpt lat="44.173364" lon="9.612342"><ele>25.5</ele></trkpt>
   <trkpt lat="44.17337" lon="9.61231"><ele>25.5</ele></trkpt>
   <trkpt lat="44.173365" lon="9.612274"><ele>25.5</ele></trkpt>
   <trkpt lat="44.173321" lon="9.612137"><ele>25.25</ele></trkpt>
   <trkpt lat="44.172754" lon="9.611034"><ele>28.75</ele></trkpt>
   <trkpt lat="44.172748" lon="9.610993"><ele>29</ele></trkpt>
   <trkpt lat="44.17276" lon="9.610955"><ele>30</ele></trkpt>
   <trkpt lat="44.172772" lon="9.610942"><ele>30.5</ele></trkpt>
   <trkpt lat="44.172802" lon="9.610934"><ele>31.5</ele></trkpt>
   <trkpt lat="44.172829" lon="9.610952"><ele>32</ele></trkpt>
   <trkpt lat="44.173012" lon="9.611205"><ele>32.75</ele></trkpt>
   <trkpt lat="44.173663" lon="9.612055"><ele>35.25</ele></trkpt>
   <trkpt lat="44.173696" lon="9.612072"><ele>35.75</ele></trkpt>
   <trkpt lat="44.173731" lon="9.612055"><ele>37.25</ele></trkpt>
   <trkpt lat="44.173743" lon="9.61202"><ele>38.25</ele></trkpt>
   <trkpt lat="44.173729" lon="9.611955"><ele>39</ele></trkpt>
   <trkpt lat="44.173698" lon="9.611881"><ele>40</ele></trkpt>
   <trkpt lat="44.173472" lon="9.611539"><ele>41</ele></trkpt>
   <trkpt lat="44.173257" lon="9.611125"><ele>43.5</ele></trkpt>
   <trkpt lat="44.173215" lon="9.61097"><ele>44</ele></trkpt>
   <trkpt lat="44.173209" lon="9.6108"><ele>45.5</ele></trkpt>
   <trkpt lat="44.173249" lon="9.610484"><ele>47.25</ele></trkpt>
   <trkpt lat="44.173309" lon="9.60996"><ele>50</ele></trkpt>
   <trkpt lat="44.173304" lon="9.609836"><ele>50.5</ele></trkpt>
   <trkpt lat="44.173285" lon="9.609679"><ele>51.25</ele></trkpt>
   <trkpt lat="44.173166" lon="9.609309"><ele>51.75</ele></trkpt>
   <trkpt lat="44.172919" lon="9.608527"><ele>55.25</ele></trkpt>
   <trkpt lat="44.17285" lon="9.608291"><ele>54.75</ele></trkpt>
   <trkpt lat="44.172837" lon="9.607771"><ele>57.25</ele></trkpt>
   <trkpt lat="44.172835" lon="9.60691"><ele>61.5</ele></trkpt>
   <trkpt lat="44.17288" lon="9.606725"><ele>62</ele></trkpt>
   <trkpt lat="44.173132" lon="9.606133"><ele>66.75</ele></trkpt>
   <trkpt lat="44.173208" lon="9.605907"><ele>67.25</ele></trkpt>
   <trkpt lat="44.173321" lon="9.605736"><ele>70.5</ele></trkpt>
   <trkpt lat="44.173385" lon="9.605678"><ele>71.5</ele></trkpt>
   <trkpt lat="44.173483" lon="9.605627"><ele>73</ele></trkpt>
   <trkpt lat="44.173784" lon="9.605554"><ele>76.75</ele></trkpt>
   <trkpt lat="44.173973" lon="9.605536"><ele>77.75</ele></trkpt>
   <trkpt lat="44.174168" lon="9.605554"><ele>78.75</ele></trkpt>
   <trkpt lat="44.174556" lon="9.605494"><ele>82.75</ele></trkpt>
   <trkpt lat="44.174874" lon="9.605333"><ele>84.25</ele></trkpt>
   <trkpt lat="44.175357" lon="9.605067"><ele>89</ele></trkpt>
   <trkpt lat="44.175703" lon="9.604938"><ele>92.75</ele></trkpt>
   <trkpt lat="44.176001" lon="9.604859"><ele>94.5</ele></trkpt>
   <trkpt lat="44.176306" lon="9.604804"><ele>96.75</ele></trkpt>
   <trkpt lat="44.176607" lon="9.604808"><ele>98.75</ele></trkpt>
   <trkpt lat="44.177015" lon="9.604892"><ele>101.5</ele></trkpt>
   <trkpt lat="44.177248" lon="9.605051"><ele>105.5</ele></trkpt>
   <trkpt lat="44.177682" lon="9.605446"><ele>108.5</ele></trkpt>
   <trkpt lat="44.177891" lon="9.605573"><ele>109.75</ele></trkpt>
   <trkpt lat="44.177932" lon="9.605586"><ele>110.25</ele></trkpt>
   <trkpt lat="44.178153" lon="9.605658"><ele>113.25</ele></trkpt>
   <trkpt lat="44.178253" lon="9.605656"><ele>113.25</ele></trkpt>
   <trkpt lat="44.178351" lon="9.605635"><ele>112.75</ele></trkpt>
   <trkpt lat="44.178421" lon="9.605609"><ele>113.25</ele></trkpt>
   <trkpt lat="44.178494" lon="9.605554"><ele>113.5</ele></trkpt>
   <trkpt lat="44.178528" lon="9.6055"><ele>114</ele></trkpt>
   <trkpt lat="44.178538" lon="9.605473"><ele>114</ele></trkpt>
   <trkpt lat="44.178542" lon="9.605423"><ele>114.25</ele></trkpt>
   <trkpt lat="44.178534" lon="9.605371"><ele>114.5</ele></trkpt>
   <trkpt lat="44.178508" lon="9.605326"><ele>114.5</ele></trkpt>
   <trkpt lat="44.17844" lon="9.605245"><ele>114.75</ele></trkpt>
   <trkpt lat="44.178317" lon="9.605169"><ele>114</ele></trkpt>
   <trkpt lat="44.178277" lon="9.605118"><ele>113.75</ele></trkpt>
   <trkpt lat="44.178226" lon="9.605005"><ele>114.5</ele></trkpt>
   <trkpt lat="44.178192" lon="9.604842"><ele>114.75</ele></trkpt>
   <trkpt lat="44.178166" lon="9.604484"><ele>117.5</ele></trkpt>
   <trkpt lat="44.178129" lon="9.604131"><ele>119.75</ele></trkpt>
   <trkpt lat="44.178117" lon="9.603918"><ele>121</ele></trkpt>
   <trkpt lat="44.178132" lon="9.603745"><ele>122.25</ele></trkpt>
   <trkpt lat="44.178165" lon="9.603492"><ele>124.75</ele></trkpt>
   <trkpt lat="44.178248" lon="9.603121"><ele>127.5</ele></trkpt>
   <trkpt lat="44.178304" lon="9.602821"><ele>128</ele></trkpt>
   <trkpt lat="44.17831" lon="9.602627"><ele>128.5</ele></trkpt>
   <trkpt lat="44.178324" lon="9.602533"><ele>129.25</ele></trkpt>
   <trkpt lat="44.178416" lon="9.602148"><ele>133.75</ele></trkpt>
   <trkpt lat="44.178418" lon="9.602098"><ele>134</ele></trkpt>
   <trkpt lat="44.178411" lon="9.602043"><ele>133.75</ele></trkpt>
   <trkpt lat="44.178351" lon="9.601779"><ele>133.5</ele></trkpt>
   <trkpt lat="44.178342" lon="9.601702"><ele>134</ele></trkpt>
   <trkpt lat="44.178348" lon="9.60163"><ele>134.5</ele></trkpt>
   <trkpt lat="44.178387" lon="9.601523"><ele>136.25</ele></trkpt>
   <trkpt lat="44.178458" lon="9.60136"><ele>139.25</ele></trkpt>
   <trkpt lat="44.178474" lon="9.601264"><ele>139.5</ele></trkpt>
   <trkpt lat="44.178473" lon="9.601175"><ele>139.25</ele></trkpt>
   <trkpt lat="44.178454" lon="9.601088"><ele>138.5</ele></trkpt>
   <trkpt lat="44.178396" lon="9.600934"><ele>137.75</ele></trkpt>
   <trkpt lat="44.17837" lon="9.600807"><ele>138</ele></trkpt>
   <trkpt lat="44.178375" lon="9.600665"><ele>139</ele></trkpt>
   <trkpt lat="44.178406" lon="9.600506"><ele>140.25</ele></trkpt>
   <trkpt lat="44.178478" lon="9.600257"><ele>139.75</ele></trkpt>
   <trkpt lat="44.178585" lon="9.600097"><ele>142.75</ele></trkpt>
   <trkpt lat="44.178987" lon="9.599648"><ele>149.25</ele></trkpt>
   <trkpt lat="44.179059" lon="9.599534"><ele>149.75</ele></trkpt>
   <trkpt lat="44.17907" lon="9.599496"><ele>149.25</ele></trkpt>
   <trkpt lat="44.179073" lon="9.599418"><ele>148.75</ele></trkpt>
   <trkpt lat="44.17906" lon="9.599297"><ele>151.5</ele></trkpt>
   <trkpt lat="44.178998" lon="9.599022"><ele>155.75</ele></trkpt>
   <trkpt lat="44.178943" lon="9.598937"><ele>156</ele></trkpt>
   <trkpt lat="44.178866" lon="9.598839"><ele>157.5</ele></trkpt>
   <trkpt lat="44.178805" lon="9.598783"><ele>159.5</ele></trkpt>
   <trkpt lat="44.178675" lon="9.598709"><ele>162.25</ele></trkpt>
   <trkpt lat="44.178626" lon="9.598697"><ele>163</ele></trkpt>
   <trkpt lat="44.178533" lon="9.598709"><ele>163.75</ele></trkpt>
   <trkpt lat="44.178164" lon="9.598796"><ele>165.75</ele></trkpt>
   <trkpt lat="44.177623" lon="9.5989"><ele>166.5</ele></trkpt>
   <trkpt lat="44.177535" lon="9.598881"><ele>168</ele></trkpt>
   <trkpt lat="44.177446" lon="9.59883"><ele>168.5</ele></trkpt>
   <trkpt lat="44.177269" lon="9.598627"><ele>170.5</ele></trkpt>
   <trkpt lat="44.177229" lon="9.598568"><ele>170.25</ele></trkpt>
   <trkpt lat="44.177211" lon="9.598514"><ele>169.75</ele></trkpt>
   <trkpt lat="44.177205" lon="9.598476"><ele>169.5</ele></trkpt>
   <trkpt lat="44.177205" lon="9.598442"><ele>169.75</ele></trkpt>
   <trkpt lat="44.177214" lon="9.598396"><ele>170.25</ele></trkpt>
   <trkpt lat="44.177231" lon="9.598354"><ele>171</ele></trkpt>
   <trkpt lat="44.177307" lon="9.598264"><ele>171.75</ele></trkpt>
   <trkpt lat="44.177534" lon="9.598081"><ele>174.5</ele></trkpt>
   <trkpt lat="44.177713" lon="9.597969"><ele>174.75</ele></trkpt>
   <trkpt lat="44.177912" lon="9.597879"><ele>177.75</ele></trkpt>
   <trkpt lat="44.178088" lon="9.597852"><ele>181</ele></trkpt>
   <trkpt lat="44.178393" lon="9.597771"><ele>182.25</ele></trkpt>
   <trkpt lat="44.178492" lon="9.597706"><ele>182</ele></trkpt>
   <trkpt lat="44.178646" lon="9.597567"><ele>182</ele></trkpt>
   <trkpt lat="44.178741" lon="9.597377"><ele>183</ele></trkpt>
   <trkpt lat="44.178814" lon="9.597147"><ele>184.75</ele></trkpt>
   <trkpt lat="44.178876" lon="9.5969"><ele>186.5</ele></trkpt>
   <trkpt lat="44.178985" lon="9.59675"><ele>188.75</ele></trkpt>
   <trkpt lat="44.179103" lon="9.596613"><ele>190.25</ele></trkpt>
   <trkpt lat="44.179297" lon="9.596435"><ele>192.25</ele></trkpt>
   <trkpt lat="44.179429" lon="9.596371"><ele>193.5</ele></trkpt>
   <trkpt lat="44.179567" lon="9.596293"><ele>194.5</ele></trkpt>
   <trkpt lat="44.179634" lon="9.596223"><ele>195.25</ele></trkpt>
   <trkpt lat="44.179654" lon="9.596153"><ele>195.5</ele></trkpt>
   <trkpt lat="44.179679" lon="9.596062"><ele>196.25</ele></trkpt>
   <trkpt lat="44.179674" lon="9.59566"><ele>197.5</ele></trkpt>
   <trkpt lat="44.179704" lon="9.594732"><ele>202.25</ele></trkpt>
   <trkpt lat="44.179741" lon="9.594576"><ele>203.5</ele></trkpt>
   <trkpt lat="44.179853" lon="9.594464"><ele>205.75</ele></trkpt>
   <trkpt lat="44.180023" lon="9.594348"><ele>208.5</ele></trkpt>
   <trkpt lat="44.180123" lon="9.594261"><ele>209.75</ele></trkpt>
   <trkpt lat="44.18025" lon="9.59415"><ele>210.25</ele></trkpt>
   <trkpt lat="44.180538" lon="9.593855"><ele>212</ele></trkpt>
   <trkpt lat="44.180811" lon="9.593356"><ele>215.25</ele></trkpt>
   <trkpt lat="44.181146" lon="9.592722"><ele>217.5</ele></trkpt>
   <trkpt lat="44.181264" lon="9.592671"><ele>220.25</ele></trkpt>
   <trkpt lat="44.181435" lon="9.592652"><ele>225</ele></trkpt>
   <trkpt lat="44.181625" lon="9.592676"><ele>227.25</ele></trkpt>
   <trkpt lat="44.181862" lon="9.59273"><ele>229.5</ele></trkpt>
   <trkpt lat="44.181906" lon="9.592704"><ele>228.75</ele></trkpt>
   <trkpt lat="44.181983" lon="9.592554"><ele>226.25</ele></trkpt>
   <trkpt lat="44.182194" lon="9.592055"><ele>229.25</ele></trkpt>
   <trkpt lat="44.182316" lon="9.591932"><ele>231.75</ele></trkpt>
   <trkpt lat="44.182436" lon="9.591885"><ele>234.25</ele></trkpt>
   <trkpt lat="44.182873" lon="9.591794"><ele>238.75</ele></trkpt>
   <trkpt lat="44.18295" lon="9.591723"><ele>239.25</ele></trkpt>
   <trkpt lat="44.183032" lon="9.5916"><ele>239.75</ele></trkpt>
   <trkpt lat="44.183118" lon="9.59143"><ele>240.5</ele></trkpt>
   <trkpt lat="44.183179" lon="9.591291"><ele>241</ele></trkpt>
   <trkpt lat="44.183281" lon="9.590987"><ele>241</ele></trkpt>
   <trkpt lat="44.183342" lon="9.590824"><ele>242</ele></trkpt>
   <trkpt lat="44.183388" lon="9.590759"><ele>242.5</ele></trkpt>
   <trkpt lat="44.183438" lon="9.590716"><ele>243.25</ele></trkpt>
   <trkpt lat="44.183502" lon="9.590685"><ele>244.5</ele></trkpt>
   <trkpt lat="44.18364" lon="9.590678"><ele>247.25</ele></trkpt>
   <trkpt lat="44.183724" lon="9.590742"><ele>247.75</ele></trkpt>
   <trkpt lat="44.18385" lon="9.590892"><ele>249.75</ele></trkpt>
   <trkpt lat="44.184052" lon="9.591224"><ele>251.5</ele></trkpt>
   <trkpt lat="44.1841" lon="9.591331"><ele>252.25</ele></trkpt>
   <trkpt lat="44.184127" lon="9.591426"><ele>253.25</ele></trkpt>
   <trkpt lat="44.184189" lon="9.591708"><ele>255.25</ele></trkpt>
   <trkpt lat="44.184226" lon="9.591823"><ele>256</ele></trkpt>
   <trkpt lat="44.184319" lon="9.591997"><ele>256.75</ele></trkpt>
   <trkpt lat="44.185031" lon="9.593156"><ele>264</ele></trkpt>
   <trkpt lat="44.185106" lon="9.593244"><ele>265.75</ele></trkpt>
   <trkpt lat="44.185168" lon="9.593273"><ele>265.5</ele></trkpt>
   <trkpt lat="44.185276" lon="9.593248"><ele>261.5</ele></trkpt>
   <trkpt lat="44.185382" lon="9.593176"><ele>260.75</ele></trkpt>
   <trkpt lat="44.185512" lon="9.593144"><ele>263.25</ele></trkpt>
   <trkpt lat="44.185602" lon="9.593219"><ele>265.25</ele></trkpt>
   <trkpt lat="44.185666" lon="9.593426"><ele>268.75</ele></trkpt>
   <trkpt lat="44.185759" lon="9.593568"><ele>269.25</ele></trkpt>
   <trkpt lat="44.186004" lon="9.593797"><ele>272.75</ele></trkpt>
   <trkpt lat="44.186046" lon="9.593816"><ele>272.25</ele></trkpt>
   <trkpt lat="44.186088" lon="9.593816"><ele>271.25</ele></trkpt>
   <trkpt lat="44.186128" lon="9.593797"><ele>270.5</ele></trkpt>
   <trkpt lat="44.186375" lon="9.593579"><ele>271.5</ele></trkpt>
   <trkpt lat="44.186454" lon="9.593492"><ele>271.75</ele></trkpt>
   <trkpt lat="44.186605" lon="9.593365"><ele>273</ele></trkpt>
   <trkpt lat="44.186715" lon="9.593343"><ele>274.25</ele></trkpt>
   <trkpt lat="44.186817" lon="9.593402"><ele>276.25</ele></trkpt>
   <trkpt lat="44.186954" lon="9.593552"><ele>280</ele></trkpt>
   <trkpt lat="44.187044" lon="9.593748"><ele>283.5</ele></trkpt>
   <trkpt lat="44.18715" lon="9.593939"><ele>285</ele></trkpt>
   <trkpt lat="44.187298" lon="9.594088"><ele>284</ele></trkpt>
   <trkpt lat="44.187502" lon="9.594276"><ele>286</ele></trkpt>
   <trkpt lat="44.187683" lon="9.594502"><ele>287.75</ele></trkpt>
   <trkpt lat="44.187769" lon="9.594668"><ele>288.25</ele></trkpt>
   <trkpt lat="44.187844" lon="9.594848"><ele>288.75</ele></trkpt>
   <trkpt lat="44.187896" lon="9.595098"><ele>290.25</ele></trkpt>
   <trkpt lat="44.187889" lon="9.595338"><ele>293.5</ele></trkpt>
   <trkpt lat="44.187896" lon="9.595414"><ele>294.5</ele></trkpt>
   <trkpt lat="44.187918" lon="9.595483"><ele>295</ele></trkpt>
   <trkpt lat="44.187953" lon="9.595521"><ele>294.75</ele></trkpt>
   <trkpt lat="44.188001" lon="9.595541"><ele>294</ele></trkpt>
   <trkpt lat="44.188174" lon="9.595574"><ele>293</ele></trkpt>
   <trkpt lat="44.188287" lon="9.595689"><ele>295.5</ele></trkpt>
   <trkpt lat="44.188367" lon="9.595835"><ele>297.75</ele></trkpt>
   <trkpt lat="44.188453" lon="9.596222"><ele>300.75</ele></trkpt>
   <trkpt lat="44.188531" lon="9.596665"><ele>302.5</ele></trkpt>
   <trkpt lat="44.188591" lon="9.596896"><ele>304</ele></trkpt>
   <trkpt lat="44.188639" lon="9.596935"><ele>304</ele></trkpt>
   <trkpt lat="44.188698" lon="9.59693"><ele>304.25</ele></trkpt>
   <trkpt lat="44.188758" lon="9.596889"><ele>303.75</ele></trkpt>
   <trkpt lat="44.188815" lon="9.596832"><ele>303</ele></trkpt>
   <trkpt lat="44.188914" lon="9.596669"><ele>301.25</ele></trkpt>
   <trkpt lat="44.189021" lon="9.596447"><ele>302</ele></trkpt>
   <trkpt lat="44.189136" lon="9.59633"><ele>305</ele></trkpt>
   <trkpt lat="44.189301" lon="9.596229"><ele>306</ele></trkpt>
   <trkpt lat="44.189604" lon="9.596144"><ele>310.5</ele></trkpt>
   <trkpt lat="44.189903" lon="9.596028"><ele>312.25</ele></trkpt>
   <trkpt lat="44.190028" lon="9.596012"><ele>312.5</ele></trkpt>
   <trkpt lat="44.190131" lon="9.596024"><ele>313.5</ele></trkpt>
   <trkpt lat="44.190225" lon="9.596087"><ele>315.75</ele></trkpt>
   <trkpt lat="44.190303" lon="9.596169"><ele>317.75</ele></trkpt>
   <trkpt lat="44.190387" lon="9.596324"><ele>319.75</ele></trkpt>
   <trkpt lat="44.190462" lon="9.596522"><ele>322.25</ele></trkpt>
   <trkpt lat="44.190542" lon="9.596769"><ele>325</ele></trkpt>
   <trkpt lat="44.190654" lon="9.596987"><ele>326.5</ele></trkpt>
   <trkpt lat="44.190746" lon="9.597087"><ele>326</ele></trkpt>
   <trkpt lat="44.190821" lon="9.597156"><ele>324.5</ele></trkpt>
   <trkpt lat="44.190923" lon="9.597187"><ele>325.25</ele></trkpt>
   <trkpt lat="44.191122" lon="9.597219"><ele>326.75</ele></trkpt>
   <trkpt lat="44.191475" lon="9.597376"><ele>331.25</ele></trkpt>
   <trkpt lat="44.19157" lon="9.597428"><ele>332.25</ele></trkpt>
   <trkpt lat="44.191671" lon="9.59745"><ele>332</ele></trkpt>
   <trkpt lat="44.191727" lon="9.597432"><ele>332.5</ele></trkpt>
   <trkpt lat="44.19178" lon="9.597384"><ele>332.75</ele></trkpt>
   <trkpt lat="44.191799" lon="9.597325"><ele>332.5</ele></trkpt>
   <trkpt lat="44.191808" lon="9.597262"><ele>332.25</ele></trkpt>
   <trkpt lat="44.191798" lon="9.597195"><ele>332.25</ele></trkpt>
   <trkpt lat="44.191515" lon="9.596744"><ele>333.25</ele></trkpt>
   <trkpt lat="44.191472" lon="9.596666"><ele>333.5</ele></trkpt>
   <trkpt lat="44.19145" lon="9.596601"><ele>333</ele></trkpt>
   <trkpt lat="44.191445" lon="9.596502"><ele>333</ele></trkpt>
   <trkpt lat="44.191487" lon="9.59642"><ele>334.25</ele></trkpt>
   <trkpt lat="44.191562" lon="9.596356"><ele>335.5</ele></trkpt>
   <trkpt lat="44.192223" lon="9.596116"><ele>342</ele></trkpt>
   <trkpt lat="44.192321" lon="9.596032"><ele>343</ele></trkpt>
   <trkpt lat="44.192412" lon="9.595919"><ele>343.75</ele></trkpt>
   <trkpt lat="44.192443" lon="9.595903"><ele>344.25</ele></trkpt>
   <trkpt lat="44.19247" lon="9.595901"><ele>345</ele></trkpt>
   <trkpt lat="44.192491" lon="9.595912"><ele>345.5</ele></trkpt>
   <trkpt lat="44.192506" lon="9.595936"><ele>346</ele></trkpt>
   <trkpt lat="44.192517" lon="9.596"><ele>347</ele></trkpt>
   <trkpt lat="44.192492" lon="9.596064"><ele>347.25</ele></trkpt>
   <trkpt lat="44.192326" lon="9.596272"><ele>347.5</ele></trkpt>
   <trkpt lat="44.192165" lon="9.596506"><ele>349</ele></trkpt>
   <trkpt lat="44.192146" lon="9.596547"><ele>349</ele></trkpt>
   <trkpt lat="44.19214" lon="9.596626"><ele>349.75</ele></trkpt>
   <trkpt lat="44.192161" lon="9.59667"><ele>350.5</ele></trkpt>
   <trkpt lat="44.192204" lon="9.596663"><ele>351.5</ele></trkpt>
   <trkpt lat="44.19225" lon="9.596615"><ele>351.75</ele></trkpt>
   <trkpt lat="44.19236" lon="9.596453"><ele>351.25</ele></trkpt>
   <trkpt lat="44.192682" lon="9.596105"><ele>352.25</ele></trkpt>
   <trkpt lat="44.192791" lon="9.596045"><ele>353.75</ele></trkpt>
   <trkpt lat="44.193" lon="9.595969"><ele>355.75</ele></trkpt>
   <trkpt lat="44.193089" lon="9.5959"><ele>356</ele></trkpt>
   <trkpt lat="44.19319" lon="9.595742"><ele>357.25</ele></trkpt>
   <trkpt lat="44.193307" lon="9.59551"><ele>356.5</ele></trkpt>
   <trkpt lat="44.193445" lon="9.595363"><ele>359.25</ele></trkpt>
   <trkpt lat="44.193514" lon="9.595256"><ele>359.75</ele></trkpt>
   <trkpt lat="44.193527" lon="9.595201"><ele>361.25</ele></trkpt>
   <trkpt lat="44.193521" lon="9.595152"><ele>362.5</ele></trkpt>
   <trkpt lat="44.193505" lon="9.595114"><ele>363.25</ele></trkpt>
   <trkpt lat="44.193473" lon="9.59508"><ele>363.75</ele></trkpt>
   <trkpt lat="44.193435" lon="9.595061"><ele>363.75</ele></trkpt>
   <trkpt lat="44.193038" lon="9.594986"><ele>366</ele></trkpt>
   <trkpt lat="44.192682" lon="9.594693"><ele>369.75</ele></trkpt>
   <trkpt lat="44.19244" lon="9.594559"><ele>373</ele></trkpt>
   <trkpt lat="44.192217" lon="9.594506"><ele>371.25</ele></trkpt>
   <trkpt lat="44.192085" lon="9.594439"><ele>371</ele></trkpt>
   <trkpt lat="44.191899" lon="9.594222"><ele>372.5</ele></trkpt>
   <trkpt lat="44.191826" lon="9.594061"><ele>372</ele></trkpt>
   <trkpt lat="44.191803" lon="9.593656"><ele>374.75</ele></trkpt>
   <trkpt lat="44.191645" lon="9.592878"><ele>380.75</ele></trkpt>
   <trkpt lat="44.19164" lon="9.592798"><ele>381.75</ele></trkpt>
   <trkpt lat="44.19166" lon="9.592713"><ele>381.75</ele></trkpt>
   <trkpt lat="44.191697" lon="9.592654"><ele>381.75</ele></trkpt>
   <trkpt lat="44.191757" lon="9.592596"><ele>382.5</ele></trkpt>
   <trkpt lat="44.19197" lon="9.592486"><ele>387</ele></trkpt>
   <trkpt lat="44.192143" lon="9.592316"><ele>386.25</ele></trkpt>
   <trkpt lat="44.192536" lon="9.591683"><ele>391.25</ele></trkpt>
   <trkpt lat="44.192668" lon="9.591563"><ele>392.5</ele></trkpt>
   <trkpt lat="44.192931" lon="9.591439"><ele>397</ele></trkpt>
   <trkpt lat="44.193194" lon="9.591157"><ele>398.5</ele></trkpt>
   <trkpt lat="44.193283" lon="9.591103"><ele>399.5</ele></trkpt>
   <trkpt lat="44.193388" lon="9.591143"><ele>401.25</ele></trkpt>
   <trkpt lat="44.193562" lon="9.591315"><ele>403.75</ele></trkpt>
   <trkpt lat="44.193665" lon="9.591345"><ele>404.25</ele></trkpt>
   <trkpt lat="44.193715" lon="9.59135"><ele>404.5</ele></trkpt>
   <trkpt lat="44.193925" lon="9.591378"><ele>405.75</ele></trkpt>
   <trkpt lat="44.194152" lon="9.591423"><ele>408.25</ele></trkpt>
   <trkpt lat="44.194389" lon="9.591533"><ele>412.25</ele></trkpt>
   <trkpt lat="44.194616" lon="9.591575"><ele>413.75</ele></trkpt>
   <trkpt lat="44.194785" lon="9.591622"><ele>414.5</ele></trkpt>
   <trkpt lat="44.195026" lon="9.591785"><ele>417.75</ele></trkpt>
   <trkpt lat="44.195177" lon="9.591789"><ele>417.25</ele></trkpt>
   <trkpt lat="44.195309" lon="9.591836"><ele>417.25</ele></trkpt>
   <trkpt lat="44.195389" lon="9.591956"><ele>418.75</ele></trkpt>
   <trkpt lat="44.195442" lon="9.592154"><ele>423</ele></trkpt>
   <trkpt lat="44.19549" lon="9.592288"><ele>424.5</ele></trkpt>
   <trkpt lat="44.195536" lon="9.592343"><ele>423.75</ele></trkpt>
   <trkpt lat="44.195565" lon="9.592366"><ele>423.75</ele></trkpt>
   <trkpt lat="44.195599" lon="9.592376"><ele>424.5</ele></trkpt>
   <trkpt lat="44.19564" lon="9.59237"><ele>425.25</ele></trkpt>
   <trkpt lat="44.195714" lon="9.592313"><ele>425.25</ele></trkpt>
   <trkpt lat="44.195793" lon="9.592238"><ele>424</ele></trkpt>
   <trkpt lat="44.196029" lon="9.591846"><ele>424.25</ele></trkpt>
   <trkpt lat="44.196149" lon="9.591734"><ele>426.5</ele></trkpt>
   <trkpt lat="44.196287" lon="9.591645"><ele>428.5</ele></trkpt>
   <trkpt lat="44.196388" lon="9.591607"><ele>430.75</ele></trkpt>
   <trkpt lat="44.19649" lon="9.591602"><ele>431.5</ele></trkpt>
   <trkpt lat="44.19669" lon="9.591645"><ele>435</ele></trkpt>
   <trkpt lat="44.196822" lon="9.591648"><ele>435.75</ele></trkpt>
   <trkpt lat="44.196962" lon="9.591613"><ele>435</ele></trkpt>
   <trkpt lat="44.197098" lon="9.591546"><ele>436.25</ele></trkpt>
   <trkpt lat="44.197156" lon="9.591442"><ele>436</ele></trkpt>
   <trkpt lat="44.197223" lon="9.591274"><ele>437.5</ele></trkpt>
   <trkpt lat="44.197303" lon="9.591128"><ele>440</ele></trkpt>
   <trkpt lat="44.197407" lon="9.591026"><ele>441.75</ele></trkpt>
   <trkpt lat="44.197602" lon="9.590938"><ele>443.75</ele></trkpt>
   <trkpt lat="44.197728" lon="9.59091"><ele>444.75</ele></trkpt>
   <trkpt lat="44.197895" lon="9.590928"><ele>447</ele></trkpt>
   <trkpt lat="44.198023" lon="9.590979"><ele>448.25</ele></trkpt>
   <trkpt lat="44.198065" lon="9.590976"><ele>448.75</ele></trkpt>
   <trkpt lat="44.198103" lon="9.590961"><ele>449.75</ele></trkpt>
   <trkpt lat="44.198143" lon="9.590924"><ele>450.5</ele></trkpt>
   <trkpt lat="44.198623" lon="9.590091"><ele>452.75</ele></trkpt>
   <trkpt lat="44.1988" lon="9.5899"><ele>454.5</ele></trkpt>
   <trkpt lat="44.198939" lon="9.589786"><ele>455.5</ele></trkpt>
   <trkpt lat="44.199014" lon="9.589753"><ele>456</ele></trkpt>
   <trkpt lat="44.199089" lon="9.589755"><ele>457.25</ele></trkpt>
   <trkpt lat="44.199145" lon="9.589781"><ele>459</ele></trkpt>
   <trkpt lat="44.199187" lon="9.589852"><ele>460</ele></trkpt>
   <trkpt lat="44.199301" lon="9.590096"><ele>461.75</ele></trkpt>
   <trkpt lat="44.199609" lon="9.590783"><ele>470.75</ele></trkpt>
   <trkpt lat="44.199921" lon="9.59123"><ele>471</ele></trkpt>
   <trkpt lat="44.200159" lon="9.591744"><ele>475</ele></trkpt>
   <trkpt lat="44.200383" lon="9.591911"><ele>475.25</ele></trkpt>
   <trkpt lat="44.200536" lon="9.592056"><ele>477</ele></trkpt>
   <trkpt lat="44.200655" lon="9.592082"><ele>477.5</ele></trkpt>
   <trkpt lat="44.200775" lon="9.592074"><ele>478.25</ele></trkpt>
   <trkpt lat="44.201111" lon="9.591948"><ele>480</ele></trkpt>
   <trkpt lat="44.201191" lon="9.591928"><ele>480</ele></trkpt>
   <trkpt lat="44.201244" lon="9.591942"><ele>480.75</ele></trkpt>
   <trkpt lat="44.201334" lon="9.592024"><ele>482.5</ele></trkpt>
   <trkpt lat="44.201816" lon="9.593016"><ele>490</ele></trkpt>
   <trkpt lat="44.20184" lon="9.593147"><ele>491.5</ele></trkpt>
   <trkpt lat="44.201861" lon="9.593686"><ele>496.25</ele></trkpt>
   <trkpt lat="44.201873" lon="9.593804"><ele>496.25</ele></trkpt>
   <trkpt lat="44.2019" lon="9.593882"><ele>495.5</ele></trkpt>
   <trkpt lat="44.201948" lon="9.593899"><ele>494</ele></trkpt>
   <trkpt lat="44.202093" lon="9.593831"><ele>495</ele></trkpt>
   <trkpt lat="44.202159" lon="9.593862"><ele>496.25</ele></trkpt>
   <trkpt lat="44.202191" lon="9.593951"><ele>498.25</ele></trkpt>
   <trkpt lat="44.202248" lon="9.594248"><ele>503.25</ele></trkpt>
   <trkpt lat="44.202421" lon="9.594849"><ele>507.5</ele></trkpt>
   <trkpt lat="44.20244" lon="9.59487"><ele>506.75</ele></trkpt>
   <trkpt lat="44.20249" lon="9.594881"><ele>504.75</ele></trkpt>
   <trkpt lat="44.202519" lon="9.594869"><ele>505</ele></trkpt>
   <trkpt lat="44.202563" lon="9.594783"><ele>505.5</ele></trkpt>
   <trkpt lat="44.202606" lon="9.594642"><ele>505</ele></trkpt>
   <trkpt lat="44.202647" lon="9.594574"><ele>505.25</ele></trkpt>
   <trkpt lat="44.202684" lon="9.594539"><ele>505.75</ele></trkpt>
   <trkpt lat="44.202735" lon="9.594528"><ele>507</ele></trkpt>
   <trkpt lat="44.202951" lon="9.594589"><ele>511.25</ele></trkpt>
   <trkpt lat="44.203121" lon="9.594586"><ele>512</ele></trkpt>
   <trkpt lat="44.203259" lon="9.594622"><ele>513.25</ele></trkpt>
   <trkpt lat="44.20339" lon="9.59471"><ele>515.25</ele></trkpt>
   <trkpt lat="44.203516" lon="9.594827"><ele>518.25</ele></trkpt>
   <trkpt lat="44.203559" lon="9.594835"><ele>517.75</ele></trkpt>
   <trkpt lat="44.203602" lon="9.594827"><ele>516.75</ele></trkpt>
   <trkpt lat="44.203634" lon="9.594797"><ele>516.25</ele></trkpt>
   <trkpt lat="44.203652" lon="9.594757"><ele>515.75</ele></trkpt>
   <trkpt lat="44.203648" lon="9.594689"><ele>515.5</ele></trkpt>
   <trkpt lat="44.203555" lon="9.594509"><ele>515</ele></trkpt>
   <trkpt lat="44.203317" lon="9.594112"><ele>515.25</ele></trkpt>
   <trkpt lat="44.20328" lon="9.593989"><ele>516.25</ele></trkpt>
   <trkpt lat="44.203281" lon="9.593917"><ele>517.75</ele></trkpt>
   <trkpt lat="44.203308" lon="9.593868"><ele>518.75</ele></trkpt>
   <trkpt lat="44.203407" lon="9.593798"><ele>519.75</ele></trkpt>
   <trkpt lat="44.203869" lon="9.593628"><ele>527.25</ele></trkpt>
   <trkpt lat="44.204008" lon="9.593579"><ele>528.5</ele></trkpt>
   <trkpt lat="44.204068" lon="9.593522"><ele>529</ele></trkpt>
   <trkpt lat="44.204071" lon="9.593443"><ele>528</ele></trkpt>
   <trkpt lat="44.204045" lon="9.593369"><ele>526.5</ele></trkpt>
   <trkpt lat="44.20394" lon="9.59325"><ele>526</ele></trkpt>
   <trkpt lat="44.203822" lon="9.593135"><ele>527</ele></trkpt>
   <trkpt lat="44.203683" lon="9.592976"><ele>528</ele></trkpt>
   <trkpt lat="44.203644" lon="9.592884"><ele>529.5</ele></trkpt>
   <trkpt lat="44.203641" lon="9.592788"><ele>532.5</ele></trkpt>
   <trkpt lat="44.203673" lon="9.592657"><ele>531.75</ele></trkpt>
   <trkpt lat="44.203824" lon="9.59247"><ele>534.5</ele></trkpt>
   <trkpt lat="44.204009" lon="9.592294"><ele>536.5</ele></trkpt>
   <trkpt lat="44.204166" lon="9.592186"><ele>539</ele></trkpt>
   <trkpt lat="44.204259" lon="9.592182"><ele>539.5</ele></trkpt>
   <trkpt lat="44.204509" lon="9.592286"><ele>543</ele></trkpt>
   <trkpt lat="44.204561" lon="9.592269"><ele>542.5</ele></trkpt>
   <trkpt lat="44.204612" lon="9.592215"><ele>541.25</ele></trkpt>
   <trkpt lat="44.204631" lon="9.592142"><ele>541.25</ele></trkpt>
   <trkpt lat="44.204632" lon="9.592064"><ele>541.25</ele></trkpt>
   <trkpt lat="44.204536" lon="9.59176"><ele>539</ele></trkpt>
   <trkpt lat="44.204549" lon="9.591631"><ele>540.25</ele></trkpt>
   <trkpt lat="44.204609" lon="9.591503"><ele>542.25</ele></trkpt>
   <trkpt lat="44.204747" lon="9.591315"><ele>544.5</ele></trkpt>
   <trkpt lat="44.204835" lon="9.59126"><ele>545</ele></trkpt>
   <trkpt lat="44.204982" lon="9.591238"><ele>547.75</ele></trkpt>
   <trkpt lat="44.205111" lon="9.591216"><ele>549.75</ele></trkpt>
   <trkpt lat="44.205223" lon="9.591148"><ele>551.25</ele></trkpt>
   <trkpt lat="44.205431" lon="9.590868"><ele>552</ele></trkpt>
   <trkpt lat="44.205471" lon="9.590862"><ele>552.5</ele></trkpt>
   <trkpt lat="44.205501" lon="9.590899"><ele>553.5</ele></trkpt>
   <trkpt lat="44.205502" lon="9.590953"><ele>553.75</ele></trkpt>
   <trkpt lat="44.205396" lon="9.591492"><ele>556.5</ele></trkpt>
   <trkpt lat="44.205458" lon="9.591979"><ele>558.5</ele></trkpt>
   <trkpt lat="44.205491" lon="9.592132"><ele>558.25</ele></trkpt>
   <trkpt lat="44.205516" lon="9.592166"><ele>558.75</ele></trkpt>
   <trkpt lat="44.205561" lon="9.592164"><ele>560.25</ele></trkpt>
   <trkpt lat="44.205587" lon="9.592121"><ele>560.75</ele></trkpt>
   <trkpt lat="44.2056" lon="9.592037"><ele>561.5</ele></trkpt>
   <trkpt lat="44.205599" lon="9.591834"><ele>561.75</ele></trkpt>
   <trkpt lat="44.20564" lon="9.591603"><ele>562.5</ele></trkpt>
   <trkpt lat="44.205705" lon="9.591405"><ele>563.25</ele></trkpt>
   <trkpt lat="44.205813" lon="9.591203"><ele>565.5</ele></trkpt>
   <trkpt lat="44.20595" lon="9.591039"><ele>566.5</ele></trkpt>
   <trkpt lat="44.206115" lon="9.590901"><ele>567.75</ele></trkpt>
   <trkpt lat="44.206282" lon="9.590871"><ele>569.75</ele></trkpt>
   <trkpt lat="44.206501" lon="9.590878"><ele>571.5</ele></trkpt>
   <trkpt lat="44.207022" lon="9.591048"><ele>576</ele></trkpt>
   <trkpt lat="44.207165" lon="9.591057"><ele>576.75</ele></trkpt>
   <trkpt lat="44.207358" lon="9.591022"><ele>578.25</ele></trkpt>
   <trkpt lat="44.20763" lon="9.590975"><ele>580.75</ele></trkpt>
   <trkpt lat="44.207701" lon="9.590962"><ele>581.5</ele></trkpt>
   <trkpt lat="44.207789" lon="9.590982"><ele>582.5</ele></trkpt>
   <trkpt lat="44.20819" lon="9.591207"><ele>584</ele></trkpt>
   <trkpt lat="44.208362" lon="9.591376"><ele>584.5</ele></trkpt>
   <trkpt lat="44.208462" lon="9.591589"><ele>583.75</ele></trkpt>
   <trkpt lat="44.208551" lon="9.591901"><ele>585</ele></trkpt>
   <trkpt lat="44.2087" lon="9.592025"><ele>585.75</ele></trkpt>
   <trkpt lat="44.208854" lon="9.592047"><ele>586</ele></trkpt>
   <trkpt lat="44.208974" lon="9.592008"><ele>586.25</ele></trkpt>
   <trkpt lat="44.209017" lon="9.591963"><ele>586</ele></trkpt>
   <trkpt lat="44.20903" lon="9.591898"><ele>586</ele></trkpt>
   <trkpt lat="44.209021" lon="9.59182"><ele>585.75</ele></trkpt>
   <trkpt lat="44.208978" lon="9.591703"><ele>584.25</ele></trkpt>
   <trkpt lat="44.208963" lon="9.591577"><ele>583.5</ele></trkpt>
   <trkpt lat="44.20898" lon="9.591459"><ele>584</ele></trkpt>
   <trkpt lat="44.20902" lon="9.591375"><ele>585</ele></trkpt>
   <trkpt lat="44.209101" lon="9.591308"><ele>586</ele></trkpt>
   <trkpt lat="44.209308" lon="9.591231"><ele>587.75</ele></trkpt>
   <trkpt lat="44.209346" lon="9.591196"><ele>588</ele></trkpt>
   <trkpt lat="44.209371" lon="9.59112"><ele>587.5</ele></trkpt>
   <trkpt lat="44.209401" lon="9.590916"><ele>587.25</ele></trkpt>
   <trkpt lat="44.209419" lon="9.59083"><ele>587.75</ele></trkpt>
   <trkpt lat="44.209451" lon="9.590788"><ele>587.5</ele></trkpt>
   <trkpt lat="44.209486" lon="9.590756"><ele>586.75</ele></trkpt>
   <trkpt lat="44.209528" lon="9.590752"><ele>586.75</ele></trkpt>
   <trkpt lat="44.20962" lon="9.590802"><ele>588.75</ele></trkpt>
   <trkpt lat="44.209826" lon="9.590958"><ele>591.25</ele></trkpt>
   <trkpt lat="44.209882" lon="9.590956"><ele>591</ele></trkpt>
   <trkpt lat="44.209913" lon="9.590932"><ele>590.5</ele></trkpt>
   <trkpt lat="44.209935" lon="9.590886"><ele>589.75</ele></trkpt>
   <trkpt lat="44.209921" lon="9.590782"><ele>589.25</ele></trkpt>
   <trkpt lat="44.209792" lon="9.590515"><ele>586.75</ele></trkpt>
   <trkpt lat="44.209532" lon="9.590093"><ele>586.25</ele></trkpt>
   <trkpt lat="44.209375" lon="9.589476"><ele>592</ele></trkpt>
   <trkpt lat="44.209304" lon="9.589344"><ele>593</ele></trkpt>
   <trkpt lat="44.209102" lon="9.58912"><ele>593.75</ele></trkpt>
   <trkpt lat="44.209015" lon="9.588928"><ele>594</ele></trkpt>
   <trkpt lat="44.209018" lon="9.588752"><ele>595.25</ele></trkpt>
   <trkpt lat="44.209036" lon="9.588588"><ele>596.75</ele></trkpt>
   <trkpt lat="44.209069" lon="9.588509"><ele>598</ele></trkpt>
   <trkpt lat="44.209118" lon="9.588454"><ele>598.75</ele></trkpt>
   <trkpt lat="44.209175" lon="9.588415"><ele>599.25</ele></trkpt>
   <trkpt lat="44.209253" lon="9.588444"><ele>599.75</ele></trkpt>
   <trkpt lat="44.20952" lon="9.588597"><ele>603.5</ele></trkpt>
   <trkpt lat="44.209578" lon="9.588611"><ele>603.5</ele></trkpt>
   <trkpt lat="44.209628" lon="9.58859"><ele>603</ele></trkpt>
   <trkpt lat="44.209672" lon="9.588549"><ele>602.5</ele></trkpt>
   <trkpt lat="44.209698" lon="9.588491"><ele>602</ele></trkpt>
   <trkpt lat="44.20979" lon="9.588175"><ele>602.25</ele></trkpt>
   <trkpt lat="44.209874" lon="9.587932"><ele>603.5</ele></trkpt>
   <trkpt lat="44.209975" lon="9.58771"><ele>605.25</ele></trkpt>
   <trkpt lat="44.210145" lon="9.587542"><ele>606</ele></trkpt>
   <trkpt lat="44.210375" lon="9.587408"><ele>608.5</ele></trkpt>
   <trkpt lat="44.210421" lon="9.587396"><ele>608.75</ele></trkpt>
   <trkpt lat="44.210473" lon="9.587417"><ele>609</ele></trkpt>
   <trkpt lat="44.210524" lon="9.587489"><ele>609.5</ele></trkpt>
   <trkpt lat="44.210594" lon="9.587648"><ele>611</ele></trkpt>
   <trkpt lat="44.210696" lon="9.587796"><ele>612</ele></trkpt>
   <trkpt lat="44.210878" lon="9.587921"><ele>612.75</ele></trkpt>
   <trkpt lat="44.211049" lon="9.587986"><ele>613.75</ele></trkpt>
   <trkpt lat="44.21133" lon="9.58795"><ele>613.25</ele></trkpt>
   <trkpt lat="44.21152" lon="9.587897"><ele>613.75</ele></trkpt>
   <trkpt lat="44.211568" lon="9.587869"><ele>614</ele></trkpt>
   <trkpt lat="44.211616" lon="9.587824"><ele>613.75</ele></trkpt>
   <trkpt lat="44.211702" lon="9.587633"><ele>612</ele></trkpt>
   <trkpt lat="44.211806" lon="9.587514"><ele>612.5</ele></trkpt>
   <trkpt lat="44.21186" lon="9.587494"><ele>613.75</ele></trkpt>
   <trkpt lat="44.211925" lon="9.587482"><ele>615</ele></trkpt>
   <trkpt lat="44.212071" lon="9.587466"><ele>615.5</ele></trkpt>
   <trkpt lat="44.212114" lon="9.587438"><ele>615.25</ele></trkpt>
   <trkpt lat="44.212137" lon="9.587397"><ele>615.25</ele></trkpt>
   <trkpt lat="44.212151" lon="9.587312"><ele>614.75</ele></trkpt>
   <trkpt lat="44.212138" lon="9.587231"><ele>614</ele></trkpt>
   <trkpt lat="44.211785" lon="9.586375"><ele>615</ele></trkpt>
   <trkpt lat="44.21176" lon="9.586281"><ele>614.25</ele></trkpt>
   <trkpt lat="44.211763" lon="9.586204"><ele>613.75</ele></trkpt>
   <trkpt lat="44.211784" lon="9.586139"><ele>614</ele></trkpt>
   <trkpt lat="44.212059" lon="9.585502"><ele>618.25</ele></trkpt>
   <trkpt lat="44.212323" lon="9.584957"><ele>618.5</ele></trkpt>
  </trkseg>
 </trk>
</gpx>
