<?xml version="1.0" encoding="UTF-8"?>
<!-- track-length = 6002 filtered ascend = 207 plain-ascend = 156 cost=8190 energy=0.1kwh time=38m 25s -->
<gpx 
 xmlns="http://www.topografix.com/GPX/1/1" 
 xmlns:xsi="http://www.w3.org/2001/XMLSchema-instance" 
 xsi:schemaLocation="http://www.topografix.com/GPX/1/1 http://www.topografix.com/GPX/1/1/gpx.xsd" 
 version="1.1" 
 creator="BRouter-Web 0.18.1">
 <trk>
  <name>collado garcia (6km)</name>
  <trkseg>
   <trkpt lat="37.232265" lon="-2.2968"><ele>1043</ele></trkpt>
   <trkpt lat="37.231757" lon="-2.296544"><ele>1044.75</ele></trkpt>
   <trkpt lat="37.231629" lon="-2.296495"><ele>1046.75</ele></trkpt>
   <trkpt lat="37.23152" lon="-2.296451"><ele>1047.75</ele></trkpt>
   <trkpt lat="37.231422" lon="-2.296434"><ele>1048.25</ele></trkpt>
   <trkpt lat="37.231333" lon="-2.296435"><ele>1048.75</ele></trkpt>
   <trkpt lat="37.231246" lon="-2.296451"><ele>1049.75</ele></trkpt>
   <trkpt lat="37.231153" lon="-2.296478"><ele>1051.25</ele></trkpt>
   <trkpt lat="37.231034" lon="-2.296526"><ele>1052</ele></trkpt>
   <trkpt lat="37.230941" lon="-2.296589"><ele>1051.5</ele></trkpt>
   <trkpt lat="37.230761" lon="-2.296732"><ele>1048.5</ele></trkpt>
   <trkpt lat="37.230635" lon="-2.296844"><ele>1048.75</ele></trkpt>
   <trkpt lat="37.230541" lon="-2.296914"><ele>1049</ele></trkpt>
   <trkpt lat="37.230335" lon="-2.297008"><ele>1048</ele></trkpt>
   <trkpt lat="37.230126" lon="-2.297047"><ele>1049.25</ele></trkpt>
   <trkpt lat="37.230031" lon="-2.29704"><ele>1052.25</ele></trkpt>
   <trkpt lat="37.229933" lon="-2.297031"><ele>1052.25</ele></trkpt>
   <trkpt lat="37.229788" lon="-2.296943"><ele>1054</ele></trkpt>
   <trkpt lat="37.229651" lon="-2.2968"><ele>1056.5</ele></trkpt>
   <trkpt lat="37.229533" lon="-2.296609"><ele>1058.5</ele></trkpt>
   <trkpt lat="37.228501" lon="-2.294503"><ele>1073</ele></trkpt>
   <trkpt lat="37.228338" lon="-2.294202"><ele>1073</ele></trkpt>
   <trkpt lat="37.22823" lon="-2.294037"><ele>1074</ele></trkpt>
   <trkpt lat="37.228123" lon="-2.293906"><ele>1074</ele></trkpt>
   <trkpt lat="37.228014" lon="-2.293813"><ele>1075.75</ele></trkpt>
   <trkpt lat="37.227917" lon="-2.293752"><ele>1077.25</ele></trkpt>
   <trkpt lat="37.227827" lon="-2.293713"><ele>1078.25</ele></trkpt>
   <trkpt lat="37.227704" lon="-2.293678"><ele>1078</ele></trkpt>
   <trkpt lat="37.227546" lon="-2.29367"><ele>1076.75</ele></trkpt>
   <trkpt lat="37.227415" lon="-2.293689"><ele>1075.5</ele></trkpt>
   <trkpt lat="37.227283" lon="-2.293726"><ele>1074</ele></trkpt>
   <trkpt lat="37.227172" lon="-2.293777"><ele>1073.25</ele></trkpt>
   <trkpt lat="37.227048" lon="-2.293872"><ele>1075</ele></trkpt>
   <trkpt lat="37.226935" lon="-2.293997"><ele>1077.75</ele></trkpt>
   <trkpt lat="37.226838" lon="-2.294139"><ele>1079.75</ele></trkpt>
   <trkpt lat="37.22676" lon="-2.294282"><ele>1080</ele></trkpt>
   <trkpt lat="37.226611" lon="-2.294641"><ele>1078</ele></trkpt>
   <trkpt lat="37.226531" lon="-2.294869"><ele>1078.25</ele></trkpt>
   <trkpt lat="37.226484" lon="-2.294978"><ele>1077.75</ele></trkpt>
   <trkpt lat="37.226441" lon="-2.295057"><ele>1076.75</ele></trkpt>
   <trkpt lat="37.226392" lon="-2.295136"><ele>1075.5</ele></trkpt>
   <trkpt lat="37.226327" lon="-2.295217"><ele>1074.5</ele></trkpt>
   <trkpt lat="37.226251" lon="-2.295288"><ele>1074.5</ele></trkpt>
   <trkpt lat="37.226178" lon="-2.295348"><ele>1074.5</ele></trkpt>
   <trkpt lat="37.226084" lon="-2.295409"><ele>1074.5</ele></trkpt>
   <trkpt lat="37.225746" lon="-2.295595"><ele>1078</ele></trkpt>
   <trkpt lat="37.225616" lon="-2.295677"><ele>1079.25</ele></trkpt>
   <trkpt lat="37.225514" lon="-2.295764"><ele>1079.75</ele></trkpt>
   <trkpt lat="37.225444" lon="-2.295858"><ele>1080.25</ele></trkpt>
   <trkpt lat="37.225387" lon="-2.295958"><ele>1081.5</ele></trkpt>
   <trkpt lat="37.22535" lon="-2.296082"><ele>1083</ele></trkpt>
   <trkpt lat="37.225328" lon="-2.296208"><ele>1083.5</ele></trkpt>
   <trkpt lat="37.225309" lon="-2.296372"><ele>1083.75</ele></trkpt>
   <trkpt lat="37.225307" lon="-2.296561"><ele>1084.75</ele></trkpt>
   <trkpt lat="37.225372" lon="-2.297235"><ele>1089</ele></trkpt>
   <trkpt lat="37.225351" lon="-2.297523"><ele>1090.5</ele></trkpt>
   <trkpt lat="37.225276" lon="-2.297776"><ele>1089.75</ele></trkpt>
   <trkpt lat="37.225093" lon="-2.298038"><ele>1093.75</ele></trkpt>
   <trkpt lat="37.224112" lon="-2.299062"><ele>1101.5</ele></trkpt>
   <trkpt lat="37.223916" lon="-2.299211"><ele>1102.5</ele></trkpt>
   <trkpt lat="37.223726" lon="-2.299273"><ele>1103</ele></trkpt>
   <trkpt lat="37.223571" lon="-2.299286"><ele>1101.75</ele></trkpt>
   <trkpt lat="37.223385" lon="-2.299234"><ele>1101.25</ele></trkpt>
   <trkpt lat="37.223246" lon="-2.299146"><ele>1102</ele></trkpt>
   <trkpt lat="37.223106" lon="-2.298991"><ele>1102.25</ele></trkpt>
   <trkpt lat="37.223021" lon="-2.298803"><ele>1105</ele></trkpt>
   <trkpt lat="37.222972" lon="-2.298608"><ele>1107</ele></trkpt>
   <trkpt lat="37.222967" lon="-2.298411"><ele>1107.25</ele></trkpt>
   <trkpt lat="37.223001" lon="-2.297679"><ele>1109</ele></trkpt>
   <trkpt lat="37.222944" lon="-2.297361"><ele>1112</ele></trkpt>
   <trkpt lat="37.22283" lon="-2.297141"><ele>1109</ele></trkpt>
   <trkpt lat="37.222541" lon="-2.296745"><ele>1109</ele></trkpt>
   <trkpt lat="37.222399" lon="-2.296499"><ele>1111.5</ele></trkpt>
   <trkpt lat="37.222301" lon="-2.296285"><ele>1111.5</ele></trkpt>
   <trkpt lat="37.222239" lon="-2.296081"><ele>1110.75</ele></trkpt>
   <trkpt lat="37.222144" lon="-2.295663"><ele>1112</ele></trkpt>
   <trkpt lat="37.222015" lon="-2.294869"><ele>1113.5</ele></trkpt>
   <trkpt lat="37.221989" lon="-2.294552"><ele>1112.75</ele></trkpt>
   <trkpt lat="37.222018" lon="-2.294199"><ele>1112.25</ele></trkpt>
   <trkpt lat="37.222152" lon="-2.293463"><ele>1116.5</ele></trkpt>
   <trkpt lat="37.222144" lon="-2.293223"><ele>1117.5</ele></trkpt>
   <trkpt lat="37.222097" lon="-2.292993"><ele>1117</ele></trkpt>
   <trkpt lat="37.222005" lon="-2.292822"><ele>1117.25</ele></trkpt>
   <trkpt lat="37.221834" lon="-2.292631"><ele>1119</ele></trkpt>
   <trkpt lat="37.221656" lon="-2.29254"><ele>1119.75</ele></trkpt>
   <trkpt lat="37.221523" lon="-2.292514"><ele>1119.75</ele></trkpt>
   <trkpt lat="37.221455" lon="-2.292501"><ele>1119.75</ele></trkpt>
   <trkpt lat="37.221246" lon="-2.292543"><ele>1122</ele></trkpt>
   <trkpt lat="37.22112" lon="-2.292631"><ele>1123.25</ele></trkpt>
   <trkpt lat="37.220942" lon="-2.292851"><ele>1123.5</ele></trkpt>
   <trkpt lat="37.220805" lon="-2.293104"><ele>1123.25</ele></trkpt>
   <trkpt lat="37.220671" lon="-2.293385"><ele>1126.75</ele></trkpt>
   <trkpt lat="37.220521" lon="-2.293658"><ele>1125.5</ele></trkpt>
   <trkpt lat="37.217956" lon="-2.297335"><ele>1142.25</ele></trkpt>
   <trkpt lat="37.217778" lon="-2.297578"><ele>1142.25</ele></trkpt>
   <trkpt lat="37.217564" lon="-2.297724"><ele>1142.75</ele></trkpt>
   <trkpt lat="37.217399" lon="-2.297776"><ele>1144.5</ele></trkpt>
   <trkpt lat="37.217123" lon="-2.297773"><ele>1146.25</ele></trkpt>
   <trkpt lat="37.216945" lon="-2.297708"><ele>1146.5</ele></trkpt>
   <trkpt lat="37.216777" lon="-2.297588"><ele>1147</ele></trkpt>
   <trkpt lat="37.21663" lon="-2.297403"><ele>1147.25</ele></trkpt>
   <trkpt lat="37.216519" lon="-2.297196"><ele>1147.5</ele></trkpt>
   <trkpt lat="37.216463" lon="-2.296982"><ele>1150</ele></trkpt>
   <trkpt lat="37.216452" lon="-2.296684"><ele>1151.25</ele></trkpt>
   <trkpt lat="37.216486" lon="-2.296438"><ele>1153.5</ele></trkpt>
   <trkpt lat="37.21696" lon="-2.294756"><ele>1158.25</ele></trkpt>
   <trkpt lat="37.217022" lon="-2.294471"><ele>1160</ele></trkpt>
   <trkpt lat="37.217038" lon="-2.29426"><ele>1160</ele></trkpt>
   <trkpt lat="37.217007" lon="-2.29404"><ele>1160.5</ele></trkpt>
   <trkpt lat="37.216932" lon="-2.293852"><ele>1162</ele></trkpt>
   <trkpt lat="37.216806" lon="-2.293658"><ele>1163</ele></trkpt>
   <trkpt lat="37.216671" lon="-2.293544"><ele>1163</ele></trkpt>
   <trkpt lat="37.216512" lon="-2.293486"><ele>1163.75</ele></trkpt>
   <trkpt lat="37.216344" lon="-2.293473"><ele>1164.25</ele></trkpt>
   <trkpt lat="37.216244" lon="-2.293494"><ele>1164.5</ele></trkpt>
   <trkpt lat="37.216202" lon="-2.293502"><ele>1164.5</ele></trkpt>
   <trkpt lat="37.216037" lon="-2.29358"><ele>1165.5</ele></trkpt>
   <trkpt lat="37.215916" lon="-2.29369"><ele>1167</ele></trkpt>
   <trkpt lat="37.215789" lon="-2.293846"><ele>1166.5</ele></trkpt>
   <trkpt lat="37.215258" lon="-2.294892"><ele>1176</ele></trkpt>
   <trkpt lat="37.215087" lon="-2.29507"><ele>1177.5</ele></trkpt>
   <trkpt lat="37.214873" lon="-2.29519"><ele>1177.75</ele></trkpt>
   <trkpt lat="37.214677" lon="-2.295213"><ele>1177.75</ele></trkpt>
   <trkpt lat="37.21452" lon="-2.295177"><ele>1179</ele></trkpt>
   <trkpt lat="37.214354" lon="-2.295083"><ele>1181.5</ele></trkpt>
   <trkpt lat="37.214169" lon="-2.294892"><ele>1184.5</ele></trkpt>
   <trkpt lat="37.213885" lon="-2.294494"><ele>1187.25</ele></trkpt>
   <trkpt lat="37.213691" lon="-2.294273"><ele>1186.5</ele></trkpt>
   <trkpt lat="37.213271" lon="-2.293891"><ele>1190.5</ele></trkpt>
   <trkpt lat="37.213144" lon="-2.293761"><ele>1190</ele></trkpt>
   <trkpt lat="37.213031" lon="-2.293596"><ele>1191.75</ele></trkpt>
   <trkpt lat="37.212951" lon="-2.293379"><ele>1193</ele></trkpt>
   <trkpt lat="37.212925" lon="-2.293104"><ele>1198.25</ele></trkpt>
   <trkpt lat="37.212951" lon="-2.292569"><ele>1201.5</ele></trkpt>
   <trkpt lat="37.212922" lon="-2.292258"><ele>1202.75</ele></trkpt>
   <trkpt lat="37.212868" lon="-2.291992"><ele>1202</ele></trkpt>
   <trkpt lat="37.212791" lon="-2.291778"><ele>1203</ele></trkpt>
   <trkpt lat="37.212682" lon="-2.291594"><ele>1206</ele></trkpt>
   <trkpt lat="37.212239" lon="-2.290988"><ele>1208.25</ele></trkpt>
   <trkpt lat="37.212128" lon="-2.290784"><ele>1211.5</ele></trkpt>
   <trkpt lat="37.212035" lon="-2.290531"><ele>1210.25</ele></trkpt>
   <trkpt lat="37.211981" lon="-2.290256"><ele>1212.5</ele></trkpt>
   <trkpt lat="37.21197" lon="-2.290003"><ele>1214.25</ele></trkpt>
   <trkpt lat="37.211981" lon="-2.289773"><ele>1215</ele></trkpt>
   <trkpt lat="37.212024" lon="-2.28953"><ele>1216</ele></trkpt>
   <trkpt lat="37.212091" lon="-2.289303"><ele>1219.25</ele></trkpt>
   <trkpt lat="37.212458" lon="-2.288613"><ele>1224.75</ele></trkpt>
   <trkpt lat="37.212595" lon="-2.288302"><ele>1226.25</ele></trkpt>
   <trkpt lat="37.212649" lon="-2.288049"><ele>1229.25</ele></trkpt>
   <trkpt lat="37.212669" lon="-2.287819"><ele>1228.75</ele></trkpt>
   <trkpt lat="37.212654" lon="-2.287524"><ele>1228</ele></trkpt>
   <trkpt lat="37.212471" lon="-2.285898"><ele>1231.5</ele></trkpt>
   <trkpt lat="37.212419" lon="-2.285574"><ele>1233.75</ele></trkpt>
   <trkpt lat="37.212381" lon="-2.285428"><ele>1234.75</ele></trkpt>
   <trkpt lat="37.212329" lon="-2.285285"><ele>1235</ele></trkpt>
   <trkpt lat="37.212208" lon="-2.285065"><ele>1236.5</ele></trkpt>
   <trkpt lat="37.212078" lon="-2.284906"><ele>1238</ele></trkpt>
   <trkpt lat="37.21188" lon="-2.284712"><ele>1238.25</ele></trkpt>
   <trkpt lat="37.211661" lon="-2.284589"><ele>1240</ele></trkpt>
   <trkpt lat="37.21149" lon="-2.28453"><ele>1241.5</ele></trkpt>
   <trkpt lat="37.21125" lon="-2.284508"><ele>1243</ele></trkpt>
   <trkpt lat="37.211067" lon="-2.284524"><ele>1243.5</ele></trkpt>
   <trkpt lat="37.210892" lon="-2.284579"><ele>1243.5</ele></trkpt>
   <trkpt lat="37.210719" lon="-2.28467"><ele>1244.5</ele></trkpt>
   <trkpt lat="37.210584" lon="-2.284782"><ele>1245.75</ele></trkpt>
   <trkpt lat="37.21052" lon="-2.284835"><ele>1246</ele></trkpt>
   <trkpt lat="37.210376" lon="-2.284994"><ele>1246.5</ele></trkpt>
   
  </trkseg>
 </trk>
</gpx>
