<?xml version="1.0" encoding="UTF-8"?>
<!-- track-length = 10639 filtered ascend = 734 plain-ascend = 712 cost=17485 energy=0.2kwh time=1h 55m 25s -->
<gpx 
 xmlns="http://www.topografix.com/GPX/1/1" 
 xmlns:xsi="http://www.w3.org/2001/XMLSchema-instance" 
 xsi:schemaLocation="http://www.topografix.com/GPX/1/1 http://www.topografix.com/GPX/1/1/gpx.xsd" 
 version="1.1" 
 creator="BRouter-Web 0.18.1">
 <trk>
  <name>Col de Ordino (10.6km)</name>
  <trkseg>
   <trkpt lat="42.554577" lon="1.529121"><ele>1264</ele></trkpt>
   <trkpt lat="42.554673" lon="1.529206"><ele>1264.5</ele></trkpt>
   <trkpt lat="42.554792" lon="1.529343"><ele>1265</ele></trkpt>
   <trkpt lat="42.554877" lon="1.529466"><ele>1265.5</ele></trkpt>
   <trkpt lat="42.554979" lon="1.529642"><ele>1266.75</ele></trkpt>
   <trkpt lat="42.555247" lon="1.530223"><ele>1270</ele></trkpt>
   <trkpt lat="42.555645" lon="1.531114"><ele>1275.25</ele></trkpt>
   <trkpt lat="42.555694" lon="1.531246"><ele>1275.75</ele></trkpt>
   <trkpt lat="42.555726" lon="1.531396"><ele>1277.25</ele></trkpt>
   <trkpt lat="42.555743" lon="1.53154"><ele>1278.25</ele></trkpt>
   <trkpt lat="42.555745" lon="1.531656"><ele>1279.25</ele></trkpt>
   <trkpt lat="42.555695" lon="1.531656"><ele>1280.25</ele></trkpt>
   <trkpt lat="42.555686" lon="1.531879"><ele>1281</ele></trkpt>
   <trkpt lat="42.555649" lon="1.532249"><ele>1281.75</ele></trkpt>
   <trkpt lat="42.555638" lon="1.532338"><ele>1282.25</ele></trkpt>
   <trkpt lat="42.555626" lon="1.532431"><ele>1282.75</ele></trkpt>
   <trkpt lat="42.555597" lon="1.532545"><ele>1283.75</ele></trkpt>
   <trkpt lat="42.555587" lon="1.532632"><ele>1284.5</ele></trkpt>
   <trkpt lat="42.555576" lon="1.532713"><ele>1285.25</ele></trkpt>
   <trkpt lat="42.555572" lon="1.532811"><ele>1285.75</ele></trkpt>
   <trkpt lat="42.555552" lon="1.532831"><ele>1286</ele></trkpt>
   <trkpt lat="42.555538" lon="1.53286"><ele>1286.25</ele></trkpt>
   <trkpt lat="42.555532" lon="1.532893"><ele>1286.5</ele></trkpt>
   <trkpt lat="42.555535" lon="1.532927"><ele>1286.5</ele></trkpt>
   <trkpt lat="42.555523" lon="1.532944"><ele>1286.75</ele></trkpt>
   <trkpt lat="42.555513" lon="1.532982"><ele>1287</ele></trkpt>
   <trkpt lat="42.555465" lon="1.533042"><ele>1287.5</ele></trkpt>
   <trkpt lat="42.555442" lon="1.533052"><ele>1287.75</ele></trkpt>
   <trkpt lat="42.555411" lon="1.53309"><ele>1288.25</ele></trkpt>
   <trkpt lat="42.555407" lon="1.533096"><ele>1288.25</ele></trkpt>
   <trkpt lat="42.555394" lon="1.533157"><ele>1288.5</ele></trkpt>
   <trkpt lat="42.555405" lon="1.533213"><ele>1288.75</ele></trkpt>
   <trkpt lat="42.555433" lon="1.533255"><ele>1288.75</ele></trkpt>
   <trkpt lat="42.555474" lon="1.533274"><ele>1288.5</ele></trkpt>
   <trkpt lat="42.555502" lon="1.533271"><ele>1288.25</ele></trkpt>
   <trkpt lat="42.555528" lon="1.533255"><ele>1287.75</ele></trkpt>
   <trkpt lat="42.555556" lon="1.533216"><ele>1287.5</ele></trkpt>
   <trkpt lat="42.555567" lon="1.533157"><ele>1287.25</ele></trkpt>
   <trkpt lat="42.555566" lon="1.533142"><ele>1287</ele></trkpt>
   <trkpt lat="42.555555" lon="1.533097"><ele>1287</ele></trkpt>
   <trkpt lat="42.555532" lon="1.533062"><ele>1287</ele></trkpt>
   <trkpt lat="42.5555" lon="1.533043"><ele>1287.25</ele></trkpt>
   <trkpt lat="42.555465" lon="1.533042"><ele>1287.5</ele></trkpt>
   <trkpt lat="42.555442" lon="1.533052"><ele>1287.75</ele></trkpt>
   <trkpt lat="42.55539" lon="1.53302"><ele>1288</ele></trkpt>
   <trkpt lat="42.555352" lon="1.532992"><ele>1288.25</ele></trkpt>
   <trkpt lat="42.555293" lon="1.532954"><ele>1288.75</ele></trkpt>
   <trkpt lat="42.55521" lon="1.532868"><ele>1289.25</ele></trkpt>
   <trkpt lat="42.555041" lon="1.53274"><ele>1289.75</ele></trkpt>
   <trkpt lat="42.554926" lon="1.53264"><ele>1290.5</ele></trkpt>
   <trkpt lat="42.554846" lon="1.532545"><ele>1290.75</ele></trkpt>
   <trkpt lat="42.554704" lon="1.532387"><ele>1290.5</ele></trkpt>
   <trkpt lat="42.554621" lon="1.532312"><ele>1290.5</ele></trkpt>
   <trkpt lat="42.554544" lon="1.532256"><ele>1290.25</ele></trkpt>
   <trkpt lat="42.554335" lon="1.532148"><ele>1290</ele></trkpt>
   <trkpt lat="42.55423" lon="1.532096"><ele>1290.25</ele></trkpt>
   <trkpt lat="42.553915" lon="1.531956"><ele>1290.75</ele></trkpt>
   <trkpt lat="42.553842" lon="1.531922"><ele>1290.75</ele></trkpt>
   <trkpt lat="42.553826" lon="1.531914"><ele>1290.75</ele></trkpt>
   <trkpt lat="42.553755" lon="1.531877"><ele>1290.5</ele></trkpt>
   <trkpt lat="42.553706" lon="1.531852"><ele>1290.25</ele></trkpt>
   <trkpt lat="42.553684" lon="1.531818"><ele>1290</ele></trkpt>
   <trkpt lat="42.553667" lon="1.531806"><ele>1289.75</ele></trkpt>
   <trkpt lat="42.553642" lon="1.53179"><ele>1289.75</ele></trkpt>
   <trkpt lat="42.553609" lon="1.531789"><ele>1289.75</ele></trkpt>
   <trkpt lat="42.553586" lon="1.531798"><ele>1290</ele></trkpt>
   <trkpt lat="42.553564" lon="1.531814"><ele>1290.25</ele></trkpt>
   <trkpt lat="42.553532" lon="1.531864"><ele>1290.75</ele></trkpt>
   <trkpt lat="42.553522" lon="1.531906"><ele>1291.25</ele></trkpt>
   <trkpt lat="42.553523" lon="1.531952"><ele>1291.5</ele></trkpt>
   <trkpt lat="42.553535" lon="1.531995"><ele>1292</ele></trkpt>
   <trkpt lat="42.553557" lon="1.53203"><ele>1292.5</ele></trkpt>
   <trkpt lat="42.553586" lon="1.532053"><ele>1292.5</ele></trkpt>
   <trkpt lat="42.553631" lon="1.53206"><ele>1292.5</ele></trkpt>
   <trkpt lat="42.553673" lon="1.532108"><ele>1293</ele></trkpt>
   <trkpt lat="42.553709" lon="1.532144"><ele>1293.25</ele></trkpt>
   <trkpt lat="42.553723" lon="1.532189"><ele>1293.75</ele></trkpt>
   <trkpt lat="42.553783" lon="1.5323"><ele>1295</ele></trkpt>
   <trkpt lat="42.553812" lon="1.532377"><ele>1295.5</ele></trkpt>
   <trkpt lat="42.553853" lon="1.532553"><ele>1296.5</ele></trkpt>
   <trkpt lat="42.553972" lon="1.533387"><ele>1303.5</ele></trkpt>
   <trkpt lat="42.553992" lon="1.533576"><ele>1304.75</ele></trkpt>
   <trkpt lat="42.553981" lon="1.533705"><ele>1305</ele></trkpt>
   <trkpt lat="42.553954" lon="1.533759"><ele>1305.25</ele></trkpt>
   <trkpt lat="42.553895" lon="1.533824"><ele>1305.5</ele></trkpt>
   <trkpt lat="42.553855" lon="1.533841"><ele>1306.25</ele></trkpt>
   <trkpt lat="42.553807" lon="1.533841"><ele>1307</ele></trkpt>
   <trkpt lat="42.553767" lon="1.533824"><ele>1307.75</ele></trkpt>
   <trkpt lat="42.553732" lon="1.533796"><ele>1308</ele></trkpt>
   <trkpt lat="42.553677" lon="1.53373"><ele>1308.25</ele></trkpt>
   <trkpt lat="42.553599" lon="1.533619"><ele>1308.25</ele></trkpt>
   <trkpt lat="42.553284" lon="1.533234"><ele>1311</ele></trkpt>
   <trkpt lat="42.553217" lon="1.533162"><ele>1311.5</ele></trkpt>
   <trkpt lat="42.553127" lon="1.533085"><ele>1312.25</ele></trkpt>
   <trkpt lat="42.553068" lon="1.533056"><ele>1312.75</ele></trkpt>
   <trkpt lat="42.552861" lon="1.533011"><ele>1315</ele></trkpt>
   <trkpt lat="42.552782" lon="1.532971"><ele>1315.5</ele></trkpt>
   <trkpt lat="42.552735" lon="1.53294"><ele>1319.75</ele></trkpt>
   <trkpt lat="42.552359" lon="1.5327"><ele>1319.75</ele></trkpt>
   <trkpt lat="42.552303" lon="1.532642"><ele>1320.5</ele></trkpt>
   <trkpt lat="42.552269" lon="1.532576"><ele>1321</ele></trkpt>
   <trkpt lat="42.55223" lon="1.532444"><ele>1321.25</ele></trkpt>
   <trkpt lat="42.552192" lon="1.532267"><ele>1320.75</ele></trkpt>
   <trkpt lat="42.552143" lon="1.532099"><ele>1320.75</ele></trkpt>
   <trkpt lat="42.552091" lon="1.531954"><ele>1321.75</ele></trkpt>
   <trkpt lat="42.551928" lon="1.531405"><ele>1324.5</ele></trkpt>
   <trkpt lat="42.551849" lon="1.531142"><ele>1324.25</ele></trkpt>
   <trkpt lat="42.551762" lon="1.530928"><ele>1326.25</ele></trkpt>
   <trkpt lat="42.551637" lon="1.530749"><ele>1329</ele></trkpt>
   <trkpt lat="42.551556" lon="1.530687"><ele>1330</ele></trkpt>
   <trkpt lat="42.551434" lon="1.53064"><ele>1331.5</ele></trkpt>
   <trkpt lat="42.551332" lon="1.5306"><ele>1334.25</ele></trkpt>
   <trkpt lat="42.551273" lon="1.530545"><ele>1336</ele></trkpt>
   <trkpt lat="42.551247" lon="1.5305"><ele>1337</ele></trkpt>
   <trkpt lat="42.551225" lon="1.53044"><ele>1337.5</ele></trkpt>
   <trkpt lat="42.551211" lon="1.530375"><ele>1337.75</ele></trkpt>
   <trkpt lat="42.551209" lon="1.530364"><ele>1337.75</ele></trkpt>
   <trkpt lat="42.551194" lon="1.530296"><ele>1337.75</ele></trkpt>
   <trkpt lat="42.551127" lon="1.529646"><ele>1340.5</ele></trkpt>
   <trkpt lat="42.551098" lon="1.529569"><ele>1340.75</ele></trkpt>
   <trkpt lat="42.550937" lon="1.52925"><ele>1343.25</ele></trkpt>
   <trkpt lat="42.550919" lon="1.529196"><ele>1343.5</ele></trkpt>
   <trkpt lat="42.550905" lon="1.529152"><ele>1343.75</ele></trkpt>
   <trkpt lat="42.550881" lon="1.528996"><ele>1345</ele></trkpt>
   <trkpt lat="42.550859" lon="1.528764"><ele>1346.75</ele></trkpt>
   <trkpt lat="42.550831" lon="1.528629"><ele>1349</ele></trkpt>
   <trkpt lat="42.55079" lon="1.528522"><ele>1347.75</ele></trkpt>
   <trkpt lat="42.55074" lon="1.528469"><ele>1348.5</ele></trkpt>
   <trkpt lat="42.550693" lon="1.52845"><ele>1350</ele></trkpt>
   <trkpt lat="42.550644" lon="1.528453"><ele>1352.25</ele></trkpt>
   <trkpt lat="42.550612" lon="1.52848"><ele>1353.75</ele></trkpt>
   <trkpt lat="42.550575" lon="1.528549"><ele>1355.25</ele></trkpt>
   <trkpt lat="42.550558" lon="1.528656"><ele>1355.75</ele></trkpt>
   <trkpt lat="42.55054" lon="1.528893"><ele>1356.75</ele></trkpt>
   <trkpt lat="42.550528" lon="1.528982"><ele>1357.5</ele></trkpt>
   <trkpt lat="42.550498" lon="1.529134"><ele>1359</ele></trkpt>
   <trkpt lat="42.550409" lon="1.529449"><ele>1364.25</ele></trkpt>
   <trkpt lat="42.550379" lon="1.529677"><ele>1366.25</ele></trkpt>
   <trkpt lat="42.550376" lon="1.52981"><ele>1366.75</ele></trkpt>
   <trkpt lat="42.550381" lon="1.529941"><ele>1367.25</ele></trkpt>
   <trkpt lat="42.550392" lon="1.530038"><ele>1368</ele></trkpt>
   <trkpt lat="42.550421" lon="1.530202"><ele>1369.75</ele></trkpt>
   <trkpt lat="42.550526" lon="1.530577"><ele>1372.25</ele></trkpt>
   <trkpt lat="42.550546" lon="1.53067"><ele>1372.5</ele></trkpt>
   <trkpt lat="42.550554" lon="1.530789"><ele>1373.5</ele></trkpt>
   <trkpt lat="42.550533" lon="1.531355"><ele>1376.5</ele></trkpt>
   <trkpt lat="42.550504" lon="1.532331"><ele>1381.75</ele></trkpt>
   <trkpt lat="42.550502" lon="1.532517"><ele>1382.5</ele></trkpt>
   <trkpt lat="42.55051" lon="1.532574"><ele>1383</ele></trkpt>
   <trkpt lat="42.550544" lon="1.532737"><ele>1383.75</ele></trkpt>
   <trkpt lat="42.550765" lon="1.533352"><ele>1384</ele></trkpt>
   <trkpt lat="42.550783" lon="1.533476"><ele>1384.75</ele></trkpt>
   <trkpt lat="42.550785" lon="1.533666"><ele>1386.25</ele></trkpt>
   <trkpt lat="42.550763" lon="1.53407"><ele>1388.25</ele></trkpt>
   <trkpt lat="42.550727" lon="1.534516"><ele>1391.25</ele></trkpt>
   <trkpt lat="42.550726" lon="1.534786"><ele>1394.5</ele></trkpt>
   <trkpt lat="42.550766" lon="1.534987"><ele>1395.75</ele></trkpt>
   <trkpt lat="42.550858" lon="1.535342"><ele>1398</ele></trkpt>
   <trkpt lat="42.550954" lon="1.53562"><ele>1399.25</ele></trkpt>
   <trkpt lat="42.551236" lon="1.536133"><ele>1398.75</ele></trkpt>
   <trkpt lat="42.551387" lon="1.536478"><ele>1400.5</ele></trkpt>
   <trkpt lat="42.551537" lon="1.536728"><ele>1399</ele></trkpt>
   <trkpt lat="42.551593" lon="1.536875"><ele>1399.25</ele></trkpt>
   <trkpt lat="42.551662" lon="1.537201"><ele>1400.75</ele></trkpt>
   <trkpt lat="42.551667" lon="1.53723"><ele>1408.5</ele></trkpt>
   <trkpt lat="42.551867" lon="1.538323"><ele>1408.5</ele></trkpt>
   <trkpt lat="42.55198" lon="1.538897"><ele>1414.25</ele></trkpt>
   <trkpt lat="42.552071" lon="1.539306"><ele>1417.5</ele></trkpt>
   <trkpt lat="42.552131" lon="1.539498"><ele>1419</ele></trkpt>
   <trkpt lat="42.552185" lon="1.539597"><ele>1419</ele></trkpt>
   <trkpt lat="42.55224" lon="1.539688"><ele>1419.75</ele></trkpt>
   <trkpt lat="42.552434" lon="1.53993"><ele>1421.75</ele></trkpt>
   <trkpt lat="42.552758" lon="1.540294"><ele>1423.5</ele></trkpt>
   <trkpt lat="42.553019" lon="1.540564"><ele>1426.25</ele></trkpt>
   <trkpt lat="42.553109" lon="1.540643"><ele>1428.5</ele></trkpt>
   <trkpt lat="42.553183" lon="1.540678"><ele>1429</ele></trkpt>
   <trkpt lat="42.553631" lon="1.54075"><ele>1429.25</ele></trkpt>
   <trkpt lat="42.553729" lon="1.540796"><ele>1428.75</ele></trkpt>
   <trkpt lat="42.553815" lon="1.540885"><ele>1430.5</ele></trkpt>
   <trkpt lat="42.55396" lon="1.541103"><ele>1433.5</ele></trkpt>
   <trkpt lat="42.554079" lon="1.541263"><ele>1435.5</ele></trkpt>
   <trkpt lat="42.554138" lon="1.541308"><ele>1435.25</ele></trkpt>
   <trkpt lat="42.554189" lon="1.541318"><ele>1435</ele></trkpt>
   <trkpt lat="42.554268" lon="1.541315"><ele>1436.5</ele></trkpt>
   <trkpt lat="42.554379" lon="1.541277"><ele>1437</ele></trkpt>
   <trkpt lat="42.554473" lon="1.541219"><ele>1437.25</ele></trkpt>
   <trkpt lat="42.554592" lon="1.54114"><ele>1439.75</ele></trkpt>
   <trkpt lat="42.554817" lon="1.540941"><ele>1440.75</ele></trkpt>
   <trkpt lat="42.554934" lon="1.540873"><ele>1442</ele></trkpt>
   <trkpt lat="42.555001" lon="1.54085"><ele>1443.5</ele></trkpt>
   <trkpt lat="42.555074" lon="1.540845"><ele>1443</ele></trkpt>
   <trkpt lat="42.555128" lon="1.540856"><ele>1443</ele></trkpt>
   <trkpt lat="42.555216" lon="1.540916"><ele>1444.25</ele></trkpt>
   <trkpt lat="42.555259" lon="1.540966"><ele>1445</ele></trkpt>
   <trkpt lat="42.555303" lon="1.541036"><ele>1445.5</ele></trkpt>
   <trkpt lat="42.555335" lon="1.541112"><ele>1446</ele></trkpt>
   <trkpt lat="42.55573" lon="1.542795"><ele>1461</ele></trkpt>
   <trkpt lat="42.555749" lon="1.542949"><ele>1462.25</ele></trkpt>
   <trkpt lat="42.555755" lon="1.543207"><ele>1465.25</ele></trkpt>
   <trkpt lat="42.555774" lon="1.543503"><ele>1468</ele></trkpt>
   <trkpt lat="42.555807" lon="1.543703"><ele>1468.75</ele></trkpt>
   <trkpt lat="42.555861" lon="1.54384"><ele>1468.5</ele></trkpt>
   <trkpt lat="42.555993" lon="1.544105"><ele>1471.25</ele></trkpt>
   <trkpt lat="42.556055" lon="1.544298"><ele>1472.75</ele></trkpt>
   <trkpt lat="42.556073" lon="1.544444"><ele>1474.25</ele></trkpt>
   <trkpt lat="42.556074" lon="1.544534"><ele>1475</ele></trkpt>
   <trkpt lat="42.55602" lon="1.545208"><ele>1479</ele></trkpt>
   <trkpt lat="42.556034" lon="1.545403"><ele>1481.25</ele></trkpt>
   <trkpt lat="42.556082" lon="1.545509"><ele>1481.75</ele></trkpt>
   <trkpt lat="42.556326" lon="1.545753"><ele>1483.5</ele></trkpt>
   <trkpt lat="42.556592" lon="1.545997"><ele>1485.25</ele></trkpt>
   <trkpt lat="42.556633" lon="1.546059"><ele>1486</ele></trkpt>
   <trkpt lat="42.556644" lon="1.546182"><ele>1487.75</ele></trkpt>
   <trkpt lat="42.556636" lon="1.546251"><ele>1488.25</ele></trkpt>
   <trkpt lat="42.556593" lon="1.546292"><ele>1489.25</ele></trkpt>
   <trkpt lat="42.55654" lon="1.54631"><ele>1490.25</ele></trkpt>
   <trkpt lat="42.556477" lon="1.54628"><ele>1491</ele></trkpt>
   <trkpt lat="42.556358" lon="1.546177"><ele>1491.5</ele></trkpt>
   <trkpt lat="42.556049" lon="1.54586"><ele>1492.75</ele></trkpt>
   <trkpt lat="42.555975" lon="1.545799"><ele>1493</ele></trkpt>
   <trkpt lat="42.555899" lon="1.545773"><ele>1494.25</ele></trkpt>
   <trkpt lat="42.555851" lon="1.54578"><ele>1495.75</ele></trkpt>
   <trkpt lat="42.555804" lon="1.545826"><ele>1498.5</ele></trkpt>
   <trkpt lat="42.555773" lon="1.545878"><ele>1501.25</ele></trkpt>
   <trkpt lat="42.555775" lon="1.545978"><ele>1502.75</ele></trkpt>
   <trkpt lat="42.555813" lon="1.546064"><ele>1501.5</ele></trkpt>
   <trkpt lat="42.555901" lon="1.546149"><ele>1501</ele></trkpt>
   <trkpt lat="42.555994" lon="1.546225"><ele>1501</ele></trkpt>
   <trkpt lat="42.556074" lon="1.546309"><ele>1500.75</ele></trkpt>
   <trkpt lat="42.556196" lon="1.546533"><ele>1501.75</ele></trkpt>
   <trkpt lat="42.556321" lon="1.546886"><ele>1504.25</ele></trkpt>
   <trkpt lat="42.556352" lon="1.547026"><ele>1505</ele></trkpt>
   <trkpt lat="42.556402" lon="1.547354"><ele>1508</ele></trkpt>
   <trkpt lat="42.55647" lon="1.547475"><ele>1509.5</ele></trkpt>
   <trkpt lat="42.556571" lon="1.547567"><ele>1511</ele></trkpt>
   <trkpt lat="42.556909" lon="1.54775"><ele>1512.25</ele></trkpt>
   <trkpt lat="42.557083" lon="1.547872"><ele>1514</ele></trkpt>
   <trkpt lat="42.557438" lon="1.548227"><ele>1518.25</ele></trkpt>
   <trkpt lat="42.557627" lon="1.548602"><ele>1522</ele></trkpt>
   <trkpt lat="42.557785" lon="1.548858"><ele>1522.5</ele></trkpt>
   <trkpt lat="42.557821" lon="1.548945"><ele>1521.5</ele></trkpt>
   <trkpt lat="42.557853" lon="1.549045"><ele>1520.75</ele></trkpt>
   <trkpt lat="42.557864" lon="1.549118"><ele>1521.25</ele></trkpt>
   <trkpt lat="42.557868" lon="1.549196"><ele>1522.25</ele></trkpt>
   <trkpt lat="42.557854" lon="1.549276"><ele>1523.75</ele></trkpt>
   <trkpt lat="42.557828" lon="1.549316"><ele>1525.5</ele></trkpt>
   <trkpt lat="42.557789" lon="1.549354"><ele>1528</ele></trkpt>
   <trkpt lat="42.557736" lon="1.549355"><ele>1529.75</ele></trkpt>
   <trkpt lat="42.557688" lon="1.549339"><ele>1531.25</ele></trkpt>
   <trkpt lat="42.557618" lon="1.54922"><ele>1532.25</ele></trkpt>
   <trkpt lat="42.557546" lon="1.548951"><ele>1532</ele></trkpt>
   <trkpt lat="42.557494" lon="1.548846"><ele>1532</ele></trkpt>
   <trkpt lat="42.557388" lon="1.548733"><ele>1533</ele></trkpt>
   <trkpt lat="42.556748" lon="1.548397"><ele>1540.5</ele></trkpt>
   <trkpt lat="42.556589" lon="1.548318"><ele>1542.25</ele></trkpt>
   <trkpt lat="42.55648" lon="1.548276"><ele>1543.25</ele></trkpt>
   <trkpt lat="42.555969" lon="1.548028"><ele>1547.5</ele></trkpt>
   <trkpt lat="42.555677" lon="1.547873"><ele>1552.5</ele></trkpt>
   <trkpt lat="42.555621" lon="1.547809"><ele>1552.5</ele></trkpt>
   <trkpt lat="42.555375" lon="1.547393"><ele>1554.5</ele></trkpt>
   <trkpt lat="42.555219" lon="1.547076"><ele>1558.75</ele></trkpt>
   <trkpt lat="42.555049" lon="1.546621"><ele>1560.5</ele></trkpt>
   <trkpt lat="42.554978" lon="1.546484"><ele>1562</ele></trkpt>
   <trkpt lat="42.554906" lon="1.546371"><ele>1563.75</ele></trkpt>
   <trkpt lat="42.554863" lon="1.546306"><ele>1563.75</ele></trkpt>
   <trkpt lat="42.554792" lon="1.546235"><ele>1564.75</ele></trkpt>
   <trkpt lat="42.554539" lon="1.546059"><ele>1567.25</ele></trkpt>
   <trkpt lat="42.554445" lon="1.545984"><ele>1568.75</ele></trkpt>
   <trkpt lat="42.554388" lon="1.545922"><ele>1570.75</ele></trkpt>
   <trkpt lat="42.554361" lon="1.545847"><ele>1571.75</ele></trkpt>
   <trkpt lat="42.554362" lon="1.545783"><ele>1572.75</ele></trkpt>
   <trkpt lat="42.554459" lon="1.545477"><ele>1572.25</ele></trkpt>
   <trkpt lat="42.554478" lon="1.545397"><ele>1572.25</ele></trkpt>
   <trkpt lat="42.554493" lon="1.545297"><ele>1573</ele></trkpt>
   <trkpt lat="42.554478" lon="1.544819"><ele>1576.75</ele></trkpt>
   <trkpt lat="42.554495" lon="1.54455"><ele>1575.5</ele></trkpt>
   <trkpt lat="42.554508" lon="1.544437"><ele>1574.5</ele></trkpt>
   <trkpt lat="42.554504" lon="1.544378"><ele>1574.5</ele></trkpt>
   <trkpt lat="42.554493" lon="1.544323"><ele>1574.75</ele></trkpt>
   <trkpt lat="42.554457" lon="1.544225"><ele>1576.5</ele></trkpt>
   <trkpt lat="42.554406" lon="1.54415"><ele>1577.75</ele></trkpt>
   <trkpt lat="42.554271" lon="1.544025"><ele>1579.25</ele></trkpt>
   <trkpt lat="42.554219" lon="1.544005"><ele>1580.5</ele></trkpt>
   <trkpt lat="42.55416" lon="1.543997"><ele>1582</ele></trkpt>
   <trkpt lat="42.554079" lon="1.544017"><ele>1581.5</ele></trkpt>
   <trkpt lat="42.554027" lon="1.544057"><ele>1582.25</ele></trkpt>
   <trkpt lat="42.553751" lon="1.544321"><ele>1587.5</ele></trkpt>
   <trkpt lat="42.553512" lon="1.54448"><ele>1590</ele></trkpt>
   <trkpt lat="42.55344" lon="1.544506"><ele>1590.75</ele></trkpt>
   <trkpt lat="42.553368" lon="1.544518"><ele>1591</ele></trkpt>
   <trkpt lat="42.553294" lon="1.54452"><ele>1592.25</ele></trkpt>
   <trkpt lat="42.553218" lon="1.544489"><ele>1593.5</ele></trkpt>
   <trkpt lat="42.553129" lon="1.54437"><ele>1593.5</ele></trkpt>
   <trkpt lat="42.553016" lon="1.544175"><ele>1595.25</ele></trkpt>
   <trkpt lat="42.552934" lon="1.543922"><ele>1593</ele></trkpt>
   <trkpt lat="42.552908" lon="1.543864"><ele>1592.5</ele></trkpt>
   <trkpt lat="42.552861" lon="1.54382"><ele>1593</ele></trkpt>
   <trkpt lat="42.552808" lon="1.543791"><ele>1594.5</ele></trkpt>
   <trkpt lat="42.552545" lon="1.543736"><ele>1597.5</ele></trkpt>
   <trkpt lat="42.552335" lon="1.543709"><ele>1598</ele></trkpt>
   <trkpt lat="42.552245" lon="1.543705"><ele>1598.25</ele></trkpt>
   <trkpt lat="42.55198" lon="1.543778"><ele>1601.5</ele></trkpt>
   <trkpt lat="42.551855" lon="1.543781"><ele>1602.75</ele></trkpt>
   <trkpt lat="42.551469" lon="1.543693"><ele>1604.5</ele></trkpt>
   <trkpt lat="42.55135" lon="1.543687"><ele>1605.75</ele></trkpt>
   <trkpt lat="42.551245" lon="1.543698"><ele>1606.75</ele></trkpt>
   <trkpt lat="42.55114" lon="1.543721"><ele>1608.5</ele></trkpt>
   <trkpt lat="42.551075" lon="1.543717"><ele>1610.25</ele></trkpt>
   <trkpt lat="42.551015" lon="1.543701"><ele>1612</ele></trkpt>
   <trkpt lat="42.55098" lon="1.543672"><ele>1612.5</ele></trkpt>
   <trkpt lat="42.550955" lon="1.543634"><ele>1612.25</ele></trkpt>
   <trkpt lat="42.550885" lon="1.543345"><ele>1610.25</ele></trkpt>
   <trkpt lat="42.550815" lon="1.543158"><ele>1612.75</ele></trkpt>
   <trkpt lat="42.550782" lon="1.543033"><ele>1613</ele></trkpt>
   <trkpt lat="42.550737" lon="1.542916"><ele>1612.5</ele></trkpt>
   <trkpt lat="42.550642" lon="1.542805"><ele>1614.25</ele></trkpt>
   <trkpt lat="42.550529" lon="1.542725"><ele>1617.25</ele></trkpt>
   <trkpt lat="42.550317" lon="1.542514"><ele>1617</ele></trkpt>
   <trkpt lat="42.550244" lon="1.542454"><ele>1616.25</ele></trkpt>
   <trkpt lat="42.550189" lon="1.542436"><ele>1616</ele></trkpt>
   <trkpt lat="42.550111" lon="1.542434"><ele>1617</ele></trkpt>
   <trkpt lat="42.549874" lon="1.542459"><ele>1622</ele></trkpt>
   <trkpt lat="42.549825" lon="1.542453"><ele>1622.75</ele></trkpt>
   <trkpt lat="42.549785" lon="1.542429"><ele>1622.75</ele></trkpt>
   <trkpt lat="42.549744" lon="1.542389"><ele>1622.5</ele></trkpt>
   <trkpt lat="42.549683" lon="1.542294"><ele>1623.25</ele></trkpt>
   <trkpt lat="42.549595" lon="1.54207"><ele>1624.5</ele></trkpt>
   <trkpt lat="42.54955" lon="1.541857"><ele>1624.25</ele></trkpt>
   <trkpt lat="42.549502" lon="1.541572"><ele>1625.25</ele></trkpt>
   <trkpt lat="42.549494" lon="1.541375"><ele>1625.25</ele></trkpt>
   <trkpt lat="42.549502" lon="1.540962"><ele>1624.75</ele></trkpt>
   <trkpt lat="42.549484" lon="1.540909"><ele>1626</ele></trkpt>
   <trkpt lat="42.549445" lon="1.540868"><ele>1628.75</ele></trkpt>
   <trkpt lat="42.549412" lon="1.54086"><ele>1631</ele></trkpt>
   <trkpt lat="42.549383" lon="1.540864"><ele>1632.75</ele></trkpt>
   <trkpt lat="42.549357" lon="1.540892"><ele>1634.5</ele></trkpt>
   <trkpt lat="42.549339" lon="1.540928"><ele>1635.5</ele></trkpt>
   <trkpt lat="42.549327" lon="1.541026"><ele>1636.25</ele></trkpt>
   <trkpt lat="42.549338" lon="1.541297"><ele>1635.75</ele></trkpt>
   <trkpt lat="42.549335" lon="1.541607"><ele>1637</ele></trkpt>
   <trkpt lat="42.549376" lon="1.542007"><ele>1638.25</ele></trkpt>
   <trkpt lat="42.549466" lon="1.542459"><ele>1640.75</ele></trkpt>
   <trkpt lat="42.549497" lon="1.542722"><ele>1645</ele></trkpt>
   <trkpt lat="42.549538" lon="1.542887"><ele>1649.5</ele></trkpt>
   <trkpt lat="42.549595" lon="1.542927"><ele>1650</ele></trkpt>
   <trkpt lat="42.549691" lon="1.542955"><ele>1650</ele></trkpt>
   <trkpt lat="42.549778" lon="1.542954"><ele>1649.75</ele></trkpt>
   <trkpt lat="42.549967" lon="1.542906"><ele>1648.5</ele></trkpt>
   <trkpt lat="42.550068" lon="1.542913"><ele>1647</ele></trkpt>
   <trkpt lat="42.550172" lon="1.543027"><ele>1649.25</ele></trkpt>
   <trkpt lat="42.550329" lon="1.543262"><ele>1651.75</ele></trkpt>
   <trkpt lat="42.550408" lon="1.543462"><ele>1652.5</ele></trkpt>
   <trkpt lat="42.550435" lon="1.543639"><ele>1654.5</ele></trkpt>
   <trkpt lat="42.550453" lon="1.543873"><ele>1656</ele></trkpt>
   <trkpt lat="42.550461" lon="1.544325"><ele>1662</ele></trkpt>
   <trkpt lat="42.550521" lon="1.544537"><ele>1662.5</ele></trkpt>
   <trkpt lat="42.550598" lon="1.544633"><ele>1663.75</ele></trkpt>
   <trkpt lat="42.550713" lon="1.544656"><ele>1664.5</ele></trkpt>
   <trkpt lat="42.550966" lon="1.544679"><ele>1665.5</ele></trkpt>
   <trkpt lat="42.551177" lon="1.544729"><ele>1666.75</ele></trkpt>
   <trkpt lat="42.551644" lon="1.545053"><ele>1671.25</ele></trkpt>
   <trkpt lat="42.551778" lon="1.545128"><ele>1669.75</ele></trkpt>
   <trkpt lat="42.551865" lon="1.545219"><ele>1669.75</ele></trkpt>
   <trkpt lat="42.551984" lon="1.545719"><ele>1676.25</ele></trkpt>
   <trkpt lat="42.55223" lon="1.546199"><ele>1678.5</ele></trkpt>
   <trkpt lat="42.552348" lon="1.546491"><ele>1679.25</ele></trkpt>
   <trkpt lat="42.552488" lon="1.54695"><ele>1682.5</ele></trkpt>
   <trkpt lat="42.552556" lon="1.547153"><ele>1684.25</ele></trkpt>
   <trkpt lat="42.552628" lon="1.547323"><ele>1685.75</ele></trkpt>
   <trkpt lat="42.552728" lon="1.547468"><ele>1686.5</ele></trkpt>
   <trkpt lat="42.55291" lon="1.547704"><ele>1689.25</ele></trkpt>
   <trkpt lat="42.553097" lon="1.547901"><ele>1690.25</ele></trkpt>
   <trkpt lat="42.553285" lon="1.548012"><ele>1690.25</ele></trkpt>
   <trkpt lat="42.553378" lon="1.548134"><ele>1691.5</ele></trkpt>
   <trkpt lat="42.553519" lon="1.548353"><ele>1692.25</ele></trkpt>
   <trkpt lat="42.553584" lon="1.548539"><ele>1693.75</ele></trkpt>
   <trkpt lat="42.553634" lon="1.548845"><ele>1697.75</ele></trkpt>
   <trkpt lat="42.55375" lon="1.549169"><ele>1700.5</ele></trkpt>
   <trkpt lat="42.553827" lon="1.549296"><ele>1701.25</ele></trkpt>
   <trkpt lat="42.553945" lon="1.549446"><ele>1700</ele></trkpt>
   <trkpt lat="42.554015" lon="1.549653"><ele>1701.5</ele></trkpt>
   <trkpt lat="42.554055" lon="1.549898"><ele>1704.5</ele></trkpt>
   <trkpt lat="42.554153" lon="1.550378"><ele>1708</ele></trkpt>
   <trkpt lat="42.554229" lon="1.550591"><ele>1708.25</ele></trkpt>
   <trkpt lat="42.554356" lon="1.550859"><ele>1709.25</ele></trkpt>
   <trkpt lat="42.554577" lon="1.55125"><ele>1711.25</ele></trkpt>
   <trkpt lat="42.554949" lon="1.551948"><ele>1718</ele></trkpt>
   <trkpt lat="42.555062" lon="1.552196"><ele>1719</ele></trkpt>
   <trkpt lat="42.555098" lon="1.552306"><ele>1719</ele></trkpt>
   <trkpt lat="42.555117" lon="1.552399"><ele>1719</ele></trkpt>
   <trkpt lat="42.55512" lon="1.552534"><ele>1719.5</ele></trkpt>
   <trkpt lat="42.554975" lon="1.553087"><ele>1723.25</ele></trkpt>
   <trkpt lat="42.554896" lon="1.553428"><ele>1726.5</ele></trkpt>
   <trkpt lat="42.554863" lon="1.553635"><ele>1728</ele></trkpt>
   <trkpt lat="42.554827" lon="1.553954"><ele>1729.5</ele></trkpt>
   <trkpt lat="42.554792" lon="1.554386"><ele>1732</ele></trkpt>
   <trkpt lat="42.55479" lon="1.55456"><ele>1733.25</ele></trkpt>
   <trkpt lat="42.554799" lon="1.554617"><ele>1733.25</ele></trkpt>
   <trkpt lat="42.554861" lon="1.554786"><ele>1730.5</ele></trkpt>
   <trkpt lat="42.554873" lon="1.554912"><ele>1731</ele></trkpt>
   <trkpt lat="42.554875" lon="1.554989"><ele>1731.75</ele></trkpt>
   <trkpt lat="42.554853" lon="1.555342"><ele>1737.5</ele></trkpt>
   <trkpt lat="42.554863" lon="1.555409"><ele>1738.25</ele></trkpt>
   <trkpt lat="42.554884" lon="1.555488"><ele>1738.5</ele></trkpt>
   <trkpt lat="42.554951" lon="1.555647"><ele>1739.25</ele></trkpt>
   <trkpt lat="42.555026" lon="1.555742"><ele>1739.5</ele></trkpt>
   <trkpt lat="42.555109" lon="1.555792"><ele>1740.5</ele></trkpt>
   <trkpt lat="42.555178" lon="1.555811"><ele>1741</ele></trkpt>
   <trkpt lat="42.555247" lon="1.55582"><ele>1741.25</ele></trkpt>
   <trkpt lat="42.555355" lon="1.555798"><ele>1741.75</ele></trkpt>
   <trkpt lat="42.555875" lon="1.555629"><ele>1744</ele></trkpt>
   <trkpt lat="42.555941" lon="1.555633"><ele>1744</ele></trkpt>
   <trkpt lat="42.556004" lon="1.555659"><ele>1744.5</ele></trkpt>
   <trkpt lat="42.556058" lon="1.555719"><ele>1745.5</ele></trkpt>
   <trkpt lat="42.556116" lon="1.555815"><ele>1746.5</ele></trkpt>
   <trkpt lat="42.55617" lon="1.555968"><ele>1747</ele></trkpt>
   <trkpt lat="42.556203" lon="1.556097"><ele>1748</ele></trkpt>
   <trkpt lat="42.556231" lon="1.556344"><ele>1750</ele></trkpt>
   <trkpt lat="42.556253" lon="1.556697"><ele>1753</ele></trkpt>
   <trkpt lat="42.556251" lon="1.556798"><ele>1753.5</ele></trkpt>
   <trkpt lat="42.556238" lon="1.55688"><ele>1754.25</ele></trkpt>
   <trkpt lat="42.556135" lon="1.55724"><ele>1757.25</ele></trkpt>
   <trkpt lat="42.556098" lon="1.557421"><ele>1758.5</ele></trkpt>
   <trkpt lat="42.556087" lon="1.557534"><ele>1759.25</ele></trkpt>
   <trkpt lat="42.556088" lon="1.557639"><ele>1760</ele></trkpt>
   <trkpt lat="42.556123" lon="1.557983"><ele>1761</ele></trkpt>
   <trkpt lat="42.556173" lon="1.558613"><ele>1765</ele></trkpt>
   <trkpt lat="42.556167" lon="1.558771"><ele>1765.75</ele></trkpt>
   <trkpt lat="42.556069" lon="1.559311"><ele>1769.25</ele></trkpt>
   <trkpt lat="42.555993" lon="1.559921"><ele>1771.75</ele></trkpt>
   <trkpt lat="42.555958" lon="1.560253"><ele>1772</ele></trkpt>
   <trkpt lat="42.555941" lon="1.56055"><ele>1776</ele></trkpt>
   <trkpt lat="42.555923" lon="1.561091"><ele>1780.25</ele></trkpt>
   <trkpt lat="42.555926" lon="1.561685"><ele>1781.75</ele></trkpt>
   <trkpt lat="42.555922" lon="1.561846"><ele>1782.5</ele></trkpt>
   <trkpt lat="42.555892" lon="1.561949"><ele>1784</ele></trkpt>
   <trkpt lat="42.555861" lon="1.562004"><ele>1785.5</ele></trkpt>
   <trkpt lat="42.555803" lon="1.562023"><ele>1787.25</ele></trkpt>
   <trkpt lat="42.555747" lon="1.562005"><ele>1788.25</ele></trkpt>
   <trkpt lat="42.555703" lon="1.561957"><ele>1788.75</ele></trkpt>
   <trkpt lat="42.555681" lon="1.561906"><ele>1789</ele></trkpt>
   <trkpt lat="42.555664" lon="1.561835"><ele>1789.5</ele></trkpt>
   <trkpt lat="42.555651" lon="1.561713"><ele>1789.5</ele></trkpt>
   <trkpt lat="42.55565" lon="1.561561"><ele>1789.75</ele></trkpt>
   <trkpt lat="42.555659" lon="1.561414"><ele>1789.75</ele></trkpt>
   <trkpt lat="42.555663" lon="1.561123"><ele>1790</ele></trkpt>
   <trkpt lat="42.555636" lon="1.561018"><ele>1790.25</ele></trkpt>
   <trkpt lat="42.555603" lon="1.560932"><ele>1791</ele></trkpt>
   <trkpt lat="42.555539" lon="1.560855"><ele>1792.25</ele></trkpt>
   <trkpt lat="42.555429" lon="1.560741"><ele>1793.25</ele></trkpt>
   <trkpt lat="42.555244" lon="1.560582"><ele>1795.75</ele></trkpt>
   <trkpt lat="42.555175" lon="1.560508"><ele>1797</ele></trkpt>
   <trkpt lat="42.555132" lon="1.560425"><ele>1797.5</ele></trkpt>
   <trkpt lat="42.555098" lon="1.560247"><ele>1797.75</ele></trkpt>
   <trkpt lat="42.555065" lon="1.559799"><ele>1800</ele></trkpt>
   <trkpt lat="42.555047" lon="1.559651"><ele>1801</ele></trkpt>
   <trkpt lat="42.554876" lon="1.55888"><ele>1807</ele></trkpt>
   <trkpt lat="42.554793" lon="1.558538"><ele>1808</ele></trkpt>
   <trkpt lat="42.55472" lon="1.558281"><ele>1809</ele></trkpt>
   <trkpt lat="42.55466" lon="1.558115"><ele>1810</ele></trkpt>
   <trkpt lat="42.554398" lon="1.557743"><ele>1813.5</ele></trkpt>
   <trkpt lat="42.554068" lon="1.557362"><ele>1815.75</ele></trkpt>
   <trkpt lat="42.553866" lon="1.557164"><ele>1817.25</ele></trkpt>
   <trkpt lat="42.553743" lon="1.557057"><ele>1818.75</ele></trkpt>
   <trkpt lat="42.55361" lon="1.556912"><ele>1820.5</ele></trkpt>
   <trkpt lat="42.553484" lon="1.556686"><ele>1822.75</ele></trkpt>
   <trkpt lat="42.553291" lon="1.556183"><ele>1825</ele></trkpt>
   <trkpt lat="42.553156" lon="1.55591"><ele>1827</ele></trkpt>
   <trkpt lat="42.553053" lon="1.555677"><ele>1828.75</ele></trkpt>
   <trkpt lat="42.552932" lon="1.555208"><ele>1831.25</ele></trkpt>
   <trkpt lat="42.552886" lon="1.554958"><ele>1832.5</ele></trkpt>
   <trkpt lat="42.552843" lon="1.554595"><ele>1834.5</ele></trkpt>
   <trkpt lat="42.552836" lon="1.554413"><ele>1835</ele></trkpt>
   <trkpt lat="42.552837" lon="1.554222"><ele>1835.75</ele></trkpt>
   <trkpt lat="42.552882" lon="1.553823"><ele>1837.5</ele></trkpt>
   <trkpt lat="42.552899" lon="1.553601"><ele>1838</ele></trkpt>
   <trkpt lat="42.552896" lon="1.553499"><ele>1838.5</ele></trkpt>
   <trkpt lat="42.552879" lon="1.553315"><ele>1839.75</ele></trkpt>
   <trkpt lat="42.552838" lon="1.553013"><ele>1841.5</ele></trkpt>
   <trkpt lat="42.552775" lon="1.552775"><ele>1844</ele></trkpt>
   <trkpt lat="42.552696" lon="1.552561"><ele>1844.75</ele></trkpt>
   <trkpt lat="42.55264" lon="1.552449"><ele>1845.25</ele></trkpt>
   <trkpt lat="42.552522" lon="1.552268"><ele>1846.75</ele></trkpt>
   <trkpt lat="42.552342" lon="1.551968"><ele>1847.5</ele></trkpt>
   <trkpt lat="42.552299" lon="1.551941"><ele>1848.25</ele></trkpt>
   <trkpt lat="42.552265" lon="1.551943"><ele>1849</ele></trkpt>
   <trkpt lat="42.552237" lon="1.551954"><ele>1849.75</ele></trkpt>
   <trkpt lat="42.552182" lon="1.552012"><ele>1850.5</ele></trkpt>
   <trkpt lat="42.552167" lon="1.552097"><ele>1851.5</ele></trkpt>
   <trkpt lat="42.552173" lon="1.55214"><ele>1851.75</ele></trkpt>
   <trkpt lat="42.552208" lon="1.552213"><ele>1852</ele></trkpt>
   <trkpt lat="42.552253" lon="1.552258"><ele>1852</ele></trkpt>
   <trkpt lat="42.552346" lon="1.552374"><ele>1852.25</ele></trkpt>
   <trkpt lat="42.552404" lon="1.55251"><ele>1852.75</ele></trkpt>
   <trkpt lat="42.552433" lon="1.552659"><ele>1853.75</ele></trkpt>
   <trkpt lat="42.552434" lon="1.552793"><ele>1855</ele></trkpt>
   <trkpt lat="42.552411" lon="1.552919"><ele>1856</ele></trkpt>
   <trkpt lat="42.552359" lon="1.55306"><ele>1857.5</ele></trkpt>
   <trkpt lat="42.552217" lon="1.553324"><ele>1859.25</ele></trkpt>
   <trkpt lat="42.552129" lon="1.553525"><ele>1862</ele></trkpt>
   <trkpt lat="42.552084" lon="1.55373"><ele>1863.25</ele></trkpt>
   <trkpt lat="42.551998" lon="1.554296"><ele>1866</ele></trkpt>
   <trkpt lat="42.551971" lon="1.554537"><ele>1868.5</ele></trkpt>
   <trkpt lat="42.551963" lon="1.554841"><ele>1871</ele></trkpt>
   <trkpt lat="42.551974" lon="1.55507"><ele>1872</ele></trkpt>
   <trkpt lat="42.552" lon="1.555412"><ele>1873.5</ele></trkpt>
   <trkpt lat="42.55204" lon="1.55576"><ele>1876</ele></trkpt>
   <trkpt lat="42.552116" lon="1.556094"><ele>1877.75</ele></trkpt>
   <trkpt lat="42.552173" lon="1.556234"><ele>1877.5</ele></trkpt>
   <trkpt lat="42.552201" lon="1.556349"><ele>1878.25</ele></trkpt>
   <trkpt lat="42.55227" lon="1.55676"><ele>1881.25</ele></trkpt>
   <trkpt lat="42.552329" lon="1.556964"><ele>1882.5</ele></trkpt>
   <trkpt lat="42.552389" lon="1.557101"><ele>1883.5</ele></trkpt>
   <trkpt lat="42.552551" lon="1.557358"><ele>1884</ele></trkpt>
   <trkpt lat="42.552611" lon="1.557529"><ele>1885.5</ele></trkpt>
   <trkpt lat="42.552629" lon="1.557656"><ele>1887</ele></trkpt>
   <trkpt lat="42.552634" lon="1.557875"><ele>1889.75</ele></trkpt>
   <trkpt lat="42.552637" lon="1.557957"><ele>1893.5</ele></trkpt>
   <trkpt lat="42.552676" lon="1.558813"><ele>1893.5</ele></trkpt>
   <trkpt lat="42.552643" lon="1.55909"><ele>1895</ele></trkpt>
   <trkpt lat="42.552601" lon="1.559258"><ele>1895.75</ele></trkpt>
   <trkpt lat="42.552467" lon="1.559596"><ele>1900</ele></trkpt>
   <trkpt lat="42.552368" lon="1.559902"><ele>1901.5</ele></trkpt>
   <trkpt lat="42.552189" lon="1.560288"><ele>1906</ele></trkpt>
   <trkpt lat="42.552137" lon="1.560435"><ele>1907.5</ele></trkpt>
   <trkpt lat="42.552103" lon="1.560589"><ele>1907.75</ele></trkpt>
   <trkpt lat="42.552064" lon="1.560841"><ele>1908.25</ele></trkpt>
   <trkpt lat="42.55204" lon="1.561157"><ele>1910.5</ele></trkpt>
   <trkpt lat="42.552044" lon="1.561474"><ele>1911</ele></trkpt>
   <trkpt lat="42.551977" lon="1.562016"><ele>1915.5</ele></trkpt>
   <trkpt lat="42.551918" lon="1.562466"><ele>1918.75</ele></trkpt>
   <trkpt lat="42.551921" lon="1.562799"><ele>1919.75</ele></trkpt>
   <trkpt lat="42.551937" lon="1.563062"><ele>1921.5</ele></trkpt>
   <trkpt lat="42.551977" lon="1.563287"><ele>1922</ele></trkpt>
   <trkpt lat="42.552049" lon="1.563588"><ele>1924.25</ele></trkpt>
   <trkpt lat="42.552254" lon="1.564042"><ele>1927.25</ele></trkpt>
   <trkpt lat="42.552561" lon="1.564638"><ele>1931.75</ele></trkpt>
   <trkpt lat="42.552702" lon="1.564856"><ele>1934</ele></trkpt>
   <trkpt lat="42.552878" lon="1.565084"><ele>1936.25</ele></trkpt>
   <trkpt lat="42.553025" lon="1.565314"><ele>1938.5</ele></trkpt>
   <trkpt lat="42.553121" lon="1.565553"><ele>1940.5</ele></trkpt>
   <trkpt lat="42.553222" lon="1.565884"><ele>1943.5</ele></trkpt>
   <trkpt lat="42.553325" lon="1.56629"><ele>1944.75</ele></trkpt>
   <trkpt lat="42.553433" lon="1.566624"><ele>1947.25</ele></trkpt>
   <trkpt lat="42.553637" lon="1.567088"><ele>1950.25</ele></trkpt>
   <trkpt lat="42.553828" lon="1.567388"><ele>1953</ele></trkpt>
   <trkpt lat="42.554275" lon="1.567865"><ele>1956.5</ele></trkpt>
   <trkpt lat="42.554474" lon="1.568121"><ele>1959</ele></trkpt>
   <trkpt lat="42.554604" lon="1.568344"><ele>1960.75</ele></trkpt>
   <trkpt lat="42.554651" lon="1.568466"><ele>1961.75</ele></trkpt>
   <trkpt lat="42.554804" lon="1.569032"><ele>1964.25</ele></trkpt>
   <trkpt lat="42.554956" lon="1.569626"><ele>1967</ele></trkpt>
   <trkpt lat="42.555053" lon="1.570052"><ele>1969</ele></trkpt>
   <trkpt lat="42.555151" lon="1.570348"><ele>1971</ele></trkpt>
   <trkpt lat="42.555313" lon="1.570774"><ele>1973.5</ele></trkpt>
   <trkpt lat="42.555356" lon="1.570892"><ele>1974</ele></trkpt>
   <trkpt lat="42.555424" lon="1.571033"><ele>1974.75</ele></trkpt>
   <trkpt lat="42.555482" lon="1.571124"><ele>1975</ele></trkpt>
   <trkpt lat="42.555546" lon="1.571188"><ele>1974.75</ele></trkpt>
   <trkpt lat="42.555702" lon="1.571328"><ele>1974.5</ele></trkpt>
   <trkpt lat="42.555809" lon="1.571402"><ele>1975.25</ele></trkpt>
   <trkpt lat="42.556036" lon="1.571595"><ele>1977.5</ele></trkpt>
   <trkpt lat="42.556094" lon="1.571669"><ele>1978.75</ele></trkpt>
   <trkpt lat="42.55612" lon="1.571742"><ele>1979.75</ele></trkpt>
   <trkpt lat="42.55614" lon="1.571832"><ele>1981</ele></trkpt>
   <trkpt lat="42.55614" lon="1.571963"><ele>1982</ele></trkpt>
   <trkpt lat="42.556127" lon="1.5721"><ele>1982.5</ele></trkpt>
   <trkpt lat="42.556087" lon="1.572308"><ele>1983</ele></trkpt>
   
  </trkseg>
 </trk>
</gpx>
