<?xml version="1.0" encoding="UTF-8"?>
<!-- track-length = 18511 filtered ascend = 1191 plain-ascend = 1040 cost=40702 energy=0.3kwh time=3h 12m 43s -->
<gpx 
 xmlns="http://www.topografix.com/GPX/1/1" 
 xmlns:xsi="http://www.w3.org/2001/XMLSchema-instance" 
 xsi:schemaLocation="http://www.topografix.com/GPX/1/1 http://www.topografix.com/GPX/1/1/gpx.xsd" 
 version="1.1" 
 creator="BRouter-Web 0.18.1">
 <trk>
  <name>collado del aguacil (18.5km)</name>
  <trkseg>
   <trkpt lat="37.157602" lon="-3.436108"><ele>1071.5</ele></trkpt>
   <trkpt lat="37.157754" lon="-3.435976"><ele>1075.5</ele></trkpt>
   <trkpt lat="37.157902" lon="-3.435851"><ele>1079</ele></trkpt>
   <trkpt lat="37.15786" lon="-3.43563"><ele>1082</ele></trkpt>
   <trkpt lat="37.157847" lon="-3.435533"><ele>1083.5</ele></trkpt>
   <trkpt lat="37.157885" lon="-3.435415"><ele>1086</ele></trkpt>
   <trkpt lat="37.157793" lon="-3.435309"><ele>1085.75</ele></trkpt>
   <trkpt lat="37.15773" lon="-3.435185"><ele>1085.25</ele></trkpt>
   <trkpt lat="37.157667" lon="-3.435007"><ele>1084.75</ele></trkpt>
   <trkpt lat="37.157611" lon="-3.434748"><ele>1087.25</ele></trkpt>
   <trkpt lat="37.157574" lon="-3.43454"><ele>1087.5</ele></trkpt>
   <trkpt lat="37.157548" lon="-3.434366"><ele>1087.75</ele></trkpt>
   <trkpt lat="37.157527" lon="-3.434176"><ele>1088.5</ele></trkpt>
   <trkpt lat="37.157497" lon="-3.43407"><ele>1088.75</ele></trkpt>
   <trkpt lat="37.15742" lon="-3.433794"><ele>1088.75</ele></trkpt>
   <trkpt lat="37.157313" lon="-3.433565"><ele>1089</ele></trkpt>
   <trkpt lat="37.157265" lon="-3.433414"><ele>1090</ele></trkpt>
   <trkpt lat="37.157259" lon="-3.433147"><ele>1093.5</ele></trkpt>
   <trkpt lat="37.157226" lon="-3.43288"><ele>1094.75</ele></trkpt>
   <trkpt lat="37.157261" lon="-3.432767"><ele>1096.75</ele></trkpt>
   <trkpt lat="37.157308" lon="-3.432652"><ele>1098.75</ele></trkpt>
   <trkpt lat="37.157311" lon="-3.43255"><ele>1098.5</ele></trkpt>
   <trkpt lat="37.157286" lon="-3.432465"><ele>1098.75</ele></trkpt>
   <trkpt lat="37.157216" lon="-3.432384"><ele>1100.75</ele></trkpt>
   <trkpt lat="37.157123" lon="-3.432347"><ele>1101</ele></trkpt>
   <trkpt lat="37.156943" lon="-3.432127"><ele>1102.5</ele></trkpt>
   <trkpt lat="37.156911" lon="-3.432013"><ele>1103.5</ele></trkpt>
   <trkpt lat="37.156893" lon="-3.431897"><ele>1104.75</ele></trkpt>
   <trkpt lat="37.156973" lon="-3.431773"><ele>1109.75</ele></trkpt>
   <trkpt lat="37.157003" lon="-3.431639"><ele>1113.75</ele></trkpt>
   <trkpt lat="37.157003" lon="-3.431467"><ele>1116.25</ele></trkpt>
   <trkpt lat="37.156972" lon="-3.431274"><ele>1117.5</ele></trkpt>
   <trkpt lat="37.156896" lon="-3.430982"><ele>1123.25</ele></trkpt>
   <trkpt lat="37.156802" lon="-3.430901"><ele>1124.5</ele></trkpt>
   <trkpt lat="37.15666" lon="-3.43086"><ele>1123.25</ele></trkpt>
   <trkpt lat="37.156497" lon="-3.430914"><ele>1122.75</ele></trkpt>
   <trkpt lat="37.156439" lon="-3.430914"><ele>1123.25</ele></trkpt>
   <trkpt lat="37.15638" lon="-3.430884"><ele>1124</ele></trkpt>
   <trkpt lat="37.155989" lon="-3.430307"><ele>1123.75</ele></trkpt>
   <trkpt lat="37.155905" lon="-3.429962"><ele>1123.75</ele></trkpt>
   <trkpt lat="37.155897" lon="-3.429825"><ele>1125</ele></trkpt>
   <trkpt lat="37.155886" lon="-3.429621"><ele>1125</ele></trkpt>
   <trkpt lat="37.15578" lon="-3.429216"><ele>1130</ele></trkpt>
   <trkpt lat="37.155555" lon="-3.428574"><ele>1134.5</ele></trkpt>
   <trkpt lat="37.155504" lon="-3.428498"><ele>1135.5</ele></trkpt>
   <trkpt lat="37.155461" lon="-3.428455"><ele>1135.75</ele></trkpt>
   <trkpt lat="37.155418" lon="-3.428397"><ele>1136</ele></trkpt>
   <trkpt lat="37.155229" lon="-3.428016"><ele>1138</ele></trkpt>
   <trkpt lat="37.155125" lon="-3.427832"><ele>1140</ele></trkpt>
   <trkpt lat="37.15506" lon="-3.427673"><ele>1141.5</ele></trkpt>
   <trkpt lat="37.155008" lon="-3.427519"><ele>1142.75</ele></trkpt>
   <trkpt lat="37.154959" lon="-3.427421"><ele>1144.25</ele></trkpt>
   <trkpt lat="37.154735" lon="-3.427211"><ele>1146.5</ele></trkpt>
   <trkpt lat="37.154638" lon="-3.427101"><ele>1147.75</ele></trkpt>
   <trkpt lat="37.154567" lon="-3.42698"><ele>1149.5</ele></trkpt>
   <trkpt lat="37.154503" lon="-3.426823"><ele>1152</ele></trkpt>
   <trkpt lat="37.154409" lon="-3.426714"><ele>1152.75</ele></trkpt>
   <trkpt lat="37.154358" lon="-3.426643"><ele>1152.75</ele></trkpt>
   <trkpt lat="37.154338" lon="-3.426566"><ele>1153.5</ele></trkpt>
   <trkpt lat="37.154292" lon="-3.426328"><ele>1156.75</ele></trkpt>
   <trkpt lat="37.154242" lon="-3.42618"><ele>1159.5</ele></trkpt>
   <trkpt lat="37.15417" lon="-3.426032"><ele>1161.75</ele></trkpt>
   <trkpt lat="37.154119" lon="-3.425888"><ele>1163.5</ele></trkpt>
   <trkpt lat="37.154049" lon="-3.42563"><ele>1167.25</ele></trkpt>
   <trkpt lat="37.154028" lon="-3.425407"><ele>1172.25</ele></trkpt>
   <trkpt lat="37.153908" lon="-3.424934"><ele>1175.5</ele></trkpt>
   <trkpt lat="37.1539" lon="-3.424786"><ele>1176.75</ele></trkpt>
   <trkpt lat="37.153925" lon="-3.424684"><ele>1178</ele></trkpt>
   <trkpt lat="37.153951" lon="-3.42461"><ele>1178.5</ele></trkpt>
   <trkpt lat="37.154044" lon="-3.424442"><ele>1181</ele></trkpt>
   <trkpt lat="37.154222" lon="-3.424214"><ele>1183.5</ele></trkpt>
   <trkpt lat="37.154287" lon="-3.424088"><ele>1185.5</ele></trkpt>
   <trkpt lat="37.154328" lon="-3.423827"><ele>1184.25</ele></trkpt>
   <trkpt lat="37.15437" lon="-3.423706"><ele>1184.25</ele></trkpt>
   <trkpt lat="37.154549" lon="-3.423481"><ele>1189.25</ele></trkpt>
   <trkpt lat="37.1547" lon="-3.423264"><ele>1190.5</ele></trkpt>
   <trkpt lat="37.154822" lon="-3.423167"><ele>1193.75</ele></trkpt>
   <trkpt lat="37.154845" lon="-3.423048"><ele>1192.5</ele></trkpt>
   <trkpt lat="37.154853" lon="-3.422946"><ele>1193</ele></trkpt>
   <trkpt lat="37.154866" lon="-3.422867"><ele>1193.5</ele></trkpt>
   <trkpt lat="37.154905" lon="-3.422739"><ele>1195.5</ele></trkpt>
   <trkpt lat="37.154981" lon="-3.422542"><ele>1199</ele></trkpt>
   <trkpt lat="37.154983" lon="-3.422458"><ele>1200</ele></trkpt>
   <trkpt lat="37.154919" lon="-3.422123"><ele>1204.75</ele></trkpt>
   <trkpt lat="37.15488" lon="-3.422033"><ele>1205.25</ele></trkpt>
   <trkpt lat="37.154844" lon="-3.42198"><ele>1205.25</ele></trkpt>
   <trkpt lat="37.154799" lon="-3.421914"><ele>1205</ele></trkpt>
   <trkpt lat="37.154684" lon="-3.421745"><ele>1205.5</ele></trkpt>
   <trkpt lat="37.154675" lon="-3.421718"><ele>1205.75</ele></trkpt>
   <trkpt lat="37.154568" lon="-3.421424"><ele>1209</ele></trkpt>
   <trkpt lat="37.154509" lon="-3.421159"><ele>1209.5</ele></trkpt>
   <trkpt lat="37.154501" lon="-3.421"><ele>1212.25</ele></trkpt>
   <trkpt lat="37.15444" lon="-3.420848"><ele>1213.25</ele></trkpt>
   <trkpt lat="37.154387" lon="-3.420773"><ele>1213.25</ele></trkpt>
   <trkpt lat="37.154196" lon="-3.420252"><ele>1217.75</ele></trkpt>
   <trkpt lat="37.154165" lon="-3.42012"><ele>1216.75</ele></trkpt>
   <trkpt lat="37.154196" lon="-3.419995"><ele>1219.5</ele></trkpt>
   <trkpt lat="37.154295" lon="-3.419729"><ele>1221.75</ele></trkpt>
   <trkpt lat="37.15443" lon="-3.419367"><ele>1226</ele></trkpt>
   <trkpt lat="37.154587" lon="-3.418945"><ele>1229.75</ele></trkpt>
   <trkpt lat="37.15462" lon="-3.41884"><ele>1232.25</ele></trkpt>
   <trkpt lat="37.154597" lon="-3.418743"><ele>1233.5</ele></trkpt>
   <trkpt lat="37.154494" lon="-3.418535"><ele>1233</ele></trkpt>
   <trkpt lat="37.154469" lon="-3.418419"><ele>1233.75</ele></trkpt>
   <trkpt lat="37.154473" lon="-3.418331"><ele>1235.5</ele></trkpt>
   <trkpt lat="37.154537" lon="-3.417992"><ele>1237.75</ele></trkpt>
   <trkpt lat="37.154605" lon="-3.41782"><ele>1240.5</ele></trkpt>
   <trkpt lat="37.154597" lon="-3.417678"><ele>1240.5</ele></trkpt>
   <trkpt lat="37.154627" lon="-3.417257"><ele>1245.75</ele></trkpt>
   <trkpt lat="37.15463" lon="-3.416927"><ele>1248.25</ele></trkpt>
   <trkpt lat="37.154622" lon="-3.416606"><ele>1249.75</ele></trkpt>
   <trkpt lat="37.154367" lon="-3.415981"><ele>1254.75</ele></trkpt>
   <trkpt lat="37.154307" lon="-3.415736"><ele>1256.75</ele></trkpt>
   <trkpt lat="37.154297" lon="-3.415558"><ele>1258</ele></trkpt>
   <trkpt lat="37.154316" lon="-3.415298"><ele>1260.25</ele></trkpt>
   <trkpt lat="37.154402" lon="-3.414852"><ele>1264.5</ele></trkpt>
   <trkpt lat="37.15443" lon="-3.41471"><ele>1264.5</ele></trkpt>
   <trkpt lat="37.15466" lon="-3.413902"><ele>1270</ele></trkpt>
   <trkpt lat="37.154708" lon="-3.413656"><ele>1272.25</ele></trkpt>
   <trkpt lat="37.154711" lon="-3.413393"><ele>1273.25</ele></trkpt>
   <trkpt lat="37.154756" lon="-3.41321"><ele>1274.75</ele></trkpt>
   <trkpt lat="37.154891" lon="-3.412952"><ele>1279.25</ele></trkpt>
   <trkpt lat="37.155044" lon="-3.412484"><ele>1283.75</ele></trkpt>
   <trkpt lat="37.155076" lon="-3.412395"><ele>1285.5</ele></trkpt>
   <trkpt lat="37.155077" lon="-3.4122"><ele>1284.5</ele></trkpt>
   <trkpt lat="37.155129" lon="-3.411999"><ele>1285.5</ele></trkpt>
   <trkpt lat="37.155299" lon="-3.411688"><ele>1289.5</ele></trkpt>
   <trkpt lat="37.155365" lon="-3.41152"><ele>1290</ele></trkpt>
   <trkpt lat="37.155408" lon="-3.411459"><ele>1290.25</ele></trkpt>
   <trkpt lat="37.155504" lon="-3.411383"><ele>1291.25</ele></trkpt>
   <trkpt lat="37.155613" lon="-3.41133"><ele>1292.5</ele></trkpt>
   <trkpt lat="37.155739" lon="-3.411292"><ele>1294.25</ele></trkpt>
   <trkpt lat="37.155816" lon="-3.411269"><ele>1295.25</ele></trkpt>
   <trkpt lat="37.155868" lon="-3.411228"><ele>1296.25</ele></trkpt>
   <trkpt lat="37.156148" lon="-3.410876"><ele>1301</ele></trkpt>
   <trkpt lat="37.156173" lon="-3.410832"><ele>1301.5</ele></trkpt>
   <trkpt lat="37.156201" lon="-3.410757"><ele>1302.5</ele></trkpt>
   <trkpt lat="37.156285" lon="-3.410484"><ele>1304.5</ele></trkpt>
   <trkpt lat="37.156397" lon="-3.41021"><ele>1304.5</ele></trkpt>
   <trkpt lat="37.15651" lon="-3.41003"><ele>1307.25</ele></trkpt>
   <trkpt lat="37.156628" lon="-3.409928"><ele>1309</ele></trkpt>
   <trkpt lat="37.156719" lon="-3.409861"><ele>1309.25</ele></trkpt>
   <trkpt lat="37.157158" lon="-3.409736"><ele>1315</ele></trkpt>
   <trkpt lat="37.157337" lon="-3.409659"><ele>1317.25</ele></trkpt>
   <trkpt lat="37.157521" lon="-3.409549"><ele>1319.5</ele></trkpt>
   <trkpt lat="37.157734" lon="-3.409377"><ele>1322</ele></trkpt>
   <trkpt lat="37.157822" lon="-3.409274"><ele>1323</ele></trkpt>
   <trkpt lat="37.157894" lon="-3.409166"><ele>1323.25</ele></trkpt>
   <trkpt lat="37.158232" lon="-3.40892"><ele>1328.25</ele></trkpt>
   <trkpt lat="37.158362" lon="-3.408796"><ele>1330.25</ele></trkpt>
   <trkpt lat="37.158484" lon="-3.408622"><ele>1332.25</ele></trkpt>
   <trkpt lat="37.158532" lon="-3.408525"><ele>1333.5</ele></trkpt>
   <trkpt lat="37.158625" lon="-3.408192"><ele>1334.5</ele></trkpt>
   <trkpt lat="37.158671" lon="-3.408093"><ele>1334.75</ele></trkpt>
   <trkpt lat="37.158734" lon="-3.408002"><ele>1335</ele></trkpt>
   <trkpt lat="37.158869" lon="-3.407875"><ele>1337.75</ele></trkpt>
   <trkpt lat="37.159239" lon="-3.407567"><ele>1343</ele></trkpt>
   <trkpt lat="37.159515" lon="-3.407389"><ele>1345.75</ele></trkpt>
   <trkpt lat="37.160118" lon="-3.40697"><ele>1353.5</ele></trkpt>
   <trkpt lat="37.160323" lon="-3.406823"><ele>1354.75</ele></trkpt>
   <trkpt lat="37.160569" lon="-3.406616"><ele>1357</ele></trkpt>
   <trkpt lat="37.160766" lon="-3.406487"><ele>1360</ele></trkpt>
   <trkpt lat="37.160857" lon="-3.40644"><ele>1361.5</ele></trkpt>
   <trkpt lat="37.161025" lon="-3.406397"><ele>1363.5</ele></trkpt>
   <trkpt lat="37.161098" lon="-3.406347"><ele>1364</ele></trkpt>
   <trkpt lat="37.161246" lon="-3.406236"><ele>1365.75</ele></trkpt>
   <trkpt lat="37.161362" lon="-3.406173"><ele>1367.5</ele></trkpt>
   <trkpt lat="37.16154" lon="-3.406125"><ele>1369.25</ele></trkpt>
   <trkpt lat="37.161629" lon="-3.406126"><ele>1370.75</ele></trkpt>
   <trkpt lat="37.161667" lon="-3.406133"><ele>1371.25</ele></trkpt>
   <trkpt lat="37.161702" lon="-3.406161"><ele>1373</ele></trkpt>
   <trkpt lat="37.16172" lon="-3.406213"><ele>1374.5</ele></trkpt>
   <trkpt lat="37.161723" lon="-3.406279"><ele>1376</ele></trkpt>
   <trkpt lat="37.1617" lon="-3.40635"><ele>1377</ele></trkpt>
   <trkpt lat="37.16157" lon="-3.406559"><ele>1378</ele></trkpt>
   <trkpt lat="37.161546" lon="-3.406633"><ele>1378.75</ele></trkpt>
   <trkpt lat="37.161507" lon="-3.406815"><ele>1380.75</ele></trkpt>
   <trkpt lat="37.161475" lon="-3.406897"><ele>1381.25</ele></trkpt>
   <trkpt lat="37.16127" lon="-3.407173"><ele>1384</ele></trkpt>
   <trkpt lat="37.16119" lon="-3.407355"><ele>1386</ele></trkpt>
   <trkpt lat="37.161187" lon="-3.407479"><ele>1387.5</ele></trkpt>
   <trkpt lat="37.161222" lon="-3.40755"><ele>1389.25</ele></trkpt>
   <trkpt lat="37.161305" lon="-3.40762"><ele>1391.75</ele></trkpt>
   <trkpt lat="37.161401" lon="-3.407626"><ele>1393</ele></trkpt>
   <trkpt lat="37.161489" lon="-3.407607"><ele>1394.5</ele></trkpt>
   <trkpt lat="37.161598" lon="-3.407541"><ele>1395.5</ele></trkpt>
   <trkpt lat="37.161751" lon="-3.407406"><ele>1396.25</ele></trkpt>
   <trkpt lat="37.162039" lon="-3.407239"><ele>1401.25</ele></trkpt>
   <trkpt lat="37.162151" lon="-3.407156"><ele>1403.25</ele></trkpt>
   <trkpt lat="37.162361" lon="-3.406925"><ele>1404.5</ele></trkpt>
   <trkpt lat="37.162455" lon="-3.406844"><ele>1405.75</ele></trkpt>
   <trkpt lat="37.1626" lon="-3.406764"><ele>1408.75</ele></trkpt>
   <trkpt lat="37.162717" lon="-3.406671"><ele>1411</ele></trkpt>
   <trkpt lat="37.162763" lon="-3.406608"><ele>1412.25</ele></trkpt>
   <trkpt lat="37.162796" lon="-3.406549"><ele>1413.25</ele></trkpt>
   <trkpt lat="37.162841" lon="-3.406336"><ele>1414.25</ele></trkpt>
   <trkpt lat="37.162871" lon="-3.406267"><ele>1415</ele></trkpt>
   <trkpt lat="37.162993" lon="-3.40611"><ele>1417.75</ele></trkpt>
   <trkpt lat="37.16307" lon="-3.405974"><ele>1419.75</ele></trkpt>
   <trkpt lat="37.163151" lon="-3.405759"><ele>1422</ele></trkpt>
   <trkpt lat="37.163197" lon="-3.405538"><ele>1421.75</ele></trkpt>
   <trkpt lat="37.16329" lon="-3.40535"><ele>1424.75</ele></trkpt>
   <trkpt lat="37.163313" lon="-3.405214"><ele>1427.25</ele></trkpt>
   <trkpt lat="37.163281" lon="-3.405071"><ele>1429</ele></trkpt>
   <trkpt lat="37.163184" lon="-3.404784"><ele>1432.75</ele></trkpt>
   <trkpt lat="37.163105" lon="-3.404509"><ele>1435.5</ele></trkpt>
   <trkpt lat="37.163076" lon="-3.404344"><ele>1436.25</ele></trkpt>
   <trkpt lat="37.163055" lon="-3.404131"><ele>1437.75</ele></trkpt>
   <trkpt lat="37.163002" lon="-3.403838"><ele>1441.25</ele></trkpt>
   <trkpt lat="37.162941" lon="-3.403402"><ele>1446</ele></trkpt>
   <trkpt lat="37.16283" lon="-3.402847"><ele>1449.25</ele></trkpt>
   <trkpt lat="37.162841" lon="-3.402746"><ele>1450</ele></trkpt>
   <trkpt lat="37.162895" lon="-3.402662"><ele>1449.75</ele></trkpt>
   <trkpt lat="37.162964" lon="-3.402631"><ele>1450.75</ele></trkpt>
   <trkpt lat="37.163182" lon="-3.402532"><ele>1455.75</ele></trkpt>
   <trkpt lat="37.163588" lon="-3.402169"><ele>1458.5</ele></trkpt>
   <trkpt lat="37.16369" lon="-3.402183"><ele>1462.5</ele></trkpt>
   <trkpt lat="37.163794" lon="-3.402187"><ele>1465.5</ele></trkpt>
   <trkpt lat="37.163832" lon="-3.40217"><ele>1466</ele></trkpt>
   <trkpt lat="37.163879" lon="-3.402122"><ele>1466.5</ele></trkpt>
   <trkpt lat="37.163937" lon="-3.402017"><ele>1466.5</ele></trkpt>
   <trkpt lat="37.163989" lon="-3.401905"><ele>1466</ele></trkpt>
   <trkpt lat="37.16404" lon="-3.401848"><ele>1466.5</ele></trkpt>
   <trkpt lat="37.164099" lon="-3.401821"><ele>1467.75</ele></trkpt>
   <trkpt lat="37.16415" lon="-3.401814"><ele>1469.5</ele></trkpt>
   <trkpt lat="37.164222" lon="-3.40183"><ele>1470.75</ele></trkpt>
   <trkpt lat="37.164362" lon="-3.401905"><ele>1474</ele></trkpt>
   <trkpt lat="37.164432" lon="-3.401923"><ele>1475</ele></trkpt>
   <trkpt lat="37.164496" lon="-3.401914"><ele>1477</ele></trkpt>
   <trkpt lat="37.164554" lon="-3.401872"><ele>1477.75</ele></trkpt>
   <trkpt lat="37.164629" lon="-3.401769"><ele>1477</ele></trkpt>
   <trkpt lat="37.164687" lon="-3.401714"><ele>1477.25</ele></trkpt>
   <trkpt lat="37.164756" lon="-3.401676"><ele>1478.5</ele></trkpt>
   <trkpt lat="37.164862" lon="-3.401643"><ele>1481.25</ele></trkpt>
   <trkpt lat="37.164894" lon="-3.401615"><ele>1481.75</ele></trkpt>
   <trkpt lat="37.164931" lon="-3.401535"><ele>1482</ele></trkpt>
   <trkpt lat="37.165043" lon="-3.40124"><ele>1484.75</ele></trkpt>
   <trkpt lat="37.165064" lon="-3.401141"><ele>1484.75</ele></trkpt>
   <trkpt lat="37.165112" lon="-3.400749"><ele>1486.25</ele></trkpt>
   <trkpt lat="37.165162" lon="-3.400591"><ele>1487.25</ele></trkpt>
   <trkpt lat="37.165346" lon="-3.400196"><ele>1492.5</ele></trkpt>
   <trkpt lat="37.165354" lon="-3.400177"><ele>1493</ele></trkpt>
   <trkpt lat="37.165409" lon="-3.400047"><ele>1493</ele></trkpt>
   <trkpt lat="37.165538" lon="-3.399862"><ele>1497.75</ele></trkpt>
   <trkpt lat="37.165688" lon="-3.399514"><ele>1501.75</ele></trkpt>
   <trkpt lat="37.165704" lon="-3.39942"><ele>1502.75</ele></trkpt>
   <trkpt lat="37.165704" lon="-3.399353"><ele>1503</ele></trkpt>
   <trkpt lat="37.165685" lon="-3.399249"><ele>1502.75</ele></trkpt>
   <trkpt lat="37.165679" lon="-3.399173"><ele>1503.25</ele></trkpt>
   <trkpt lat="37.165691" lon="-3.399079"><ele>1503.25</ele></trkpt>
   <trkpt lat="37.165766" lon="-3.398839"><ele>1505.25</ele></trkpt>
   <trkpt lat="37.165831" lon="-3.39866"><ele>1507.75</ele></trkpt>
   <trkpt lat="37.165908" lon="-3.398522"><ele>1509.5</ele></trkpt>
   <trkpt lat="37.166078" lon="-3.398378"><ele>1512.75</ele></trkpt>
   <trkpt lat="37.166153" lon="-3.398232"><ele>1515</ele></trkpt>
   <trkpt lat="37.166155" lon="-3.397881"><ele>1516.75</ele></trkpt>
   <trkpt lat="37.16618" lon="-3.397828"><ele>1517.75</ele></trkpt>
   <trkpt lat="37.166194" lon="-3.397798"><ele>1518.25</ele></trkpt>
   <trkpt lat="37.166376" lon="-3.397658"><ele>1521.25</ele></trkpt>
   <trkpt lat="37.166543" lon="-3.397503"><ele>1524.25</ele></trkpt>
   <trkpt lat="37.166584" lon="-3.397421"><ele>1525.25</ele></trkpt>
   <trkpt lat="37.166603" lon="-3.397341"><ele>1525.75</ele></trkpt>
   <trkpt lat="37.16661" lon="-3.397243"><ele>1525.75</ele></trkpt>
   <trkpt lat="37.16659" lon="-3.397108"><ele>1526</ele></trkpt>
   <trkpt lat="37.166599" lon="-3.397053"><ele>1526.5</ele></trkpt>
   <trkpt lat="37.166631" lon="-3.396986"><ele>1527.5</ele></trkpt>
   <trkpt lat="37.166703" lon="-3.396929"><ele>1529</ele></trkpt>
   <trkpt lat="37.166816" lon="-3.396875"><ele>1529.25</ele></trkpt>
   <trkpt lat="37.166898" lon="-3.396864"><ele>1530</ele></trkpt>
   <trkpt lat="37.16701" lon="-3.396877"><ele>1531.5</ele></trkpt>
   <trkpt lat="37.167185" lon="-3.396924"><ele>1534</ele></trkpt>
   <trkpt lat="37.167279" lon="-3.396937"><ele>1535.25</ele></trkpt>
   <trkpt lat="37.167471" lon="-3.396921"><ele>1536.75</ele></trkpt>
   <trkpt lat="37.16757" lon="-3.396933"><ele>1538</ele></trkpt>
   <trkpt lat="37.167787" lon="-3.397009"><ele>1541.5</ele></trkpt>
   <trkpt lat="37.167851" lon="-3.397031"><ele>1543</ele></trkpt>
   <trkpt lat="37.167894" lon="-3.397033"><ele>1543.75</ele></trkpt>
   <trkpt lat="37.167943" lon="-3.397019"><ele>1544.25</ele></trkpt>
   <trkpt lat="37.167995" lon="-3.396973"><ele>1544.25</ele></trkpt>
   <trkpt lat="37.168067" lon="-3.396857"><ele>1545.75</ele></trkpt>
   <trkpt lat="37.1681" lon="-3.396703"><ele>1548</ele></trkpt>
   <trkpt lat="37.168092" lon="-3.396585"><ele>1548.25</ele></trkpt>
   <trkpt lat="37.168052" lon="-3.396465"><ele>1548</ele></trkpt>
   <trkpt lat="37.168061" lon="-3.396336"><ele>1548.75</ele></trkpt>
   <trkpt lat="37.1681" lon="-3.396256"><ele>1549.5</ele></trkpt>
   <trkpt lat="37.168156" lon="-3.39619"><ele>1550.5</ele></trkpt>
   <trkpt lat="37.168237" lon="-3.39616"><ele>1551.75</ele></trkpt>
   <trkpt lat="37.168435" lon="-3.396154"><ele>1555</ele></trkpt>
   <trkpt lat="37.168617" lon="-3.396115"><ele>1556</ele></trkpt>
   <trkpt lat="37.168681" lon="-3.396122"><ele>1556.5</ele></trkpt>
   <trkpt lat="37.168745" lon="-3.396167"><ele>1557.75</ele></trkpt>
   <trkpt lat="37.16882" lon="-3.396285"><ele>1560.25</ele></trkpt>
   <trkpt lat="37.168864" lon="-3.396312"><ele>1560.5</ele></trkpt>
   <trkpt lat="37.168931" lon="-3.396316"><ele>1562</ele></trkpt>
   <trkpt lat="37.168993" lon="-3.396297"><ele>1564</ele></trkpt>
   <trkpt lat="37.169048" lon="-3.396261"><ele>1565.25</ele></trkpt>
   <trkpt lat="37.169121" lon="-3.396121"><ele>1565.5</ele></trkpt>
   <trkpt lat="37.169136" lon="-3.395969"><ele>1567</ele></trkpt>
   <trkpt lat="37.169099" lon="-3.39569"><ele>1568.75</ele></trkpt>
   <trkpt lat="37.169103" lon="-3.395564"><ele>1570.5</ele></trkpt>
   <trkpt lat="37.169128" lon="-3.395476"><ele>1570</ele></trkpt>
   <trkpt lat="37.169173" lon="-3.395405"><ele>1570</ele></trkpt>
   <trkpt lat="37.169244" lon="-3.395346"><ele>1571.25</ele></trkpt>
   <trkpt lat="37.169415" lon="-3.395268"><ele>1574.75</ele></trkpt>
   <trkpt lat="37.169855" lon="-3.39498"><ele>1581.75</ele></trkpt>
   <trkpt lat="37.169898" lon="-3.39494"><ele>1583.25</ele></trkpt>
   <trkpt lat="37.169915" lon="-3.394897"><ele>1584</ele></trkpt>
   <trkpt lat="37.169913" lon="-3.394819"><ele>1584.5</ele></trkpt>
   <trkpt lat="37.169884" lon="-3.39472"><ele>1583.75</ele></trkpt>
   <trkpt lat="37.169688" lon="-3.394351"><ele>1584.75</ele></trkpt>
   <trkpt lat="37.16964" lon="-3.394241"><ele>1584.5</ele></trkpt>
   <trkpt lat="37.169623" lon="-3.394158"><ele>1585</ele></trkpt>
   <trkpt lat="37.169638" lon="-3.393835"><ele>1589.25</ele></trkpt>
   <trkpt lat="37.16969" lon="-3.393507"><ele>1592.25</ele></trkpt>
   <trkpt lat="37.16977" lon="-3.393168"><ele>1597.75</ele></trkpt>
   <trkpt lat="37.169773" lon="-3.393034"><ele>1599</ele></trkpt>
   <trkpt lat="37.16975" lon="-3.392404"><ele>1603.25</ele></trkpt>
   <trkpt lat="37.169774" lon="-3.392189"><ele>1605.5</ele></trkpt>
   <trkpt lat="37.169872" lon="-3.391967"><ele>1608.25</ele></trkpt>
   <trkpt lat="37.17002" lon="-3.391669"><ele>1612.25</ele></trkpt>
   <trkpt lat="37.170116" lon="-3.391439"><ele>1615</ele></trkpt>
   <trkpt lat="37.170115" lon="-3.39135"><ele>1614.75</ele></trkpt>
   <trkpt lat="37.170095" lon="-3.39125"><ele>1615.75</ele></trkpt>
   <trkpt lat="37.17008" lon="-3.391065"><ele>1617.75</ele></trkpt>
   <trkpt lat="37.1701" lon="-3.390898"><ele>1618.75</ele></trkpt>
   <trkpt lat="37.170195" lon="-3.390634"><ele>1622.5</ele></trkpt>
   <trkpt lat="37.170199" lon="-3.390564"><ele>1622</ele></trkpt>
   <trkpt lat="37.170181" lon="-3.390449"><ele>1624.25</ele></trkpt>
   <trkpt lat="37.170059" lon="-3.390078"><ele>1628.75</ele></trkpt>
   <trkpt lat="37.169997" lon="-3.389935"><ele>1630</ele></trkpt>
   <trkpt lat="37.169854" lon="-3.389744"><ele>1631.5</ele></trkpt>
   <trkpt lat="37.169802" lon="-3.389647"><ele>1632</ele></trkpt>
   <trkpt lat="37.169672" lon="-3.389282"><ele>1635.25</ele></trkpt>
   <trkpt lat="37.169435" lon="-3.388822"><ele>1639.75</ele></trkpt>
   <trkpt lat="37.169327" lon="-3.388685"><ele>1641.25</ele></trkpt>
   <trkpt lat="37.169186" lon="-3.388521"><ele>1643.25</ele></trkpt>
   <trkpt lat="37.169145" lon="-3.388423"><ele>1644.25</ele></trkpt>
   <trkpt lat="37.169136" lon="-3.388249"><ele>1645.75</ele></trkpt>
   <trkpt lat="37.169168" lon="-3.388079"><ele>1647.75</ele></trkpt>
   <trkpt lat="37.169223" lon="-3.387927"><ele>1650.25</ele></trkpt>
   <trkpt lat="37.169244" lon="-3.387265"><ele>1658</ele></trkpt>
   <trkpt lat="37.169235" lon="-3.387145"><ele>1659</ele></trkpt>
   <trkpt lat="37.16916" lon="-3.386815"><ele>1659.5</ele></trkpt>
   <trkpt lat="37.169138" lon="-3.386631"><ele>1660.75</ele></trkpt>
   <trkpt lat="37.169149" lon="-3.386387"><ele>1663</ele></trkpt>
   <trkpt lat="37.169196" lon="-3.386112"><ele>1667.25</ele></trkpt>
   <trkpt lat="37.16926" lon="-3.38585"><ele>1670.5</ele></trkpt>
   <trkpt lat="37.169281" lon="-3.385466"><ele>1674.75</ele></trkpt>
   <trkpt lat="37.169302" lon="-3.385294"><ele>1677</ele></trkpt>
   <trkpt lat="37.169283" lon="-3.385184"><ele>1677.75</ele></trkpt>
   <trkpt lat="37.169219" lon="-3.384943"><ele>1679.25</ele></trkpt>
   <trkpt lat="37.1692" lon="-3.384818"><ele>1680</ele></trkpt>
   <trkpt lat="37.16921" lon="-3.384586"><ele>1681.75</ele></trkpt>
   <trkpt lat="37.169248" lon="-3.384385"><ele>1683.75</ele></trkpt>
   <trkpt lat="37.169308" lon="-3.38418"><ele>1686</ele></trkpt>
   <trkpt lat="37.169345" lon="-3.38408"><ele>1687.25</ele></trkpt>
   <trkpt lat="37.169382" lon="-3.383869"><ele>1689.75</ele></trkpt>
   <trkpt lat="37.169388" lon="-3.383543"><ele>1692.25</ele></trkpt>
   <trkpt lat="37.169417" lon="-3.383445"><ele>1693.75</ele></trkpt>
   <trkpt lat="37.169457" lon="-3.383359"><ele>1695.5</ele></trkpt>
   <trkpt lat="37.169472" lon="-3.383265"><ele>1697</ele></trkpt>
   <trkpt lat="37.169465" lon="-3.383162"><ele>1698.25</ele></trkpt>
   <trkpt lat="37.16944" lon="-3.38306"><ele>1698.5</ele></trkpt>
   <trkpt lat="37.169369" lon="-3.382908"><ele>1699</ele></trkpt>
   <trkpt lat="37.169324" lon="-3.382787"><ele>1700.25</ele></trkpt>
   <trkpt lat="37.169289" lon="-3.382662"><ele>1701.5</ele></trkpt>
   <trkpt lat="37.169251" lon="-3.382271"><ele>1706.75</ele></trkpt>
   <trkpt lat="37.169231" lon="-3.381744"><ele>1711.5</ele></trkpt>
   <trkpt lat="37.169301" lon="-3.380814"><ele>1720.75</ele></trkpt>
   <trkpt lat="37.169294" lon="-3.380409"><ele>1724.5</ele></trkpt>
   <trkpt lat="37.169343" lon="-3.380118"><ele>1728</ele></trkpt>
   <trkpt lat="37.169345" lon="-3.379974"><ele>1729</ele></trkpt>
   <trkpt lat="37.169324" lon="-3.379825"><ele>1732</ele></trkpt>
   <trkpt lat="37.169268" lon="-3.379714"><ele>1733.5</ele></trkpt>
   <trkpt lat="37.169165" lon="-3.379625"><ele>1733</ele></trkpt>
   <trkpt lat="37.169083" lon="-3.379496"><ele>1732.5</ele></trkpt>
   <trkpt lat="37.169076" lon="-3.379353"><ele>1733.25</ele></trkpt>
   <trkpt lat="37.169112" lon="-3.379241"><ele>1734.5</ele></trkpt>
   <trkpt lat="37.169184" lon="-3.379131"><ele>1736.25</ele></trkpt>
   <trkpt lat="37.169319" lon="-3.379048"><ele>1737.75</ele></trkpt>
   <trkpt lat="37.169566" lon="-3.378966"><ele>1742</ele></trkpt>
   <trkpt lat="37.169769" lon="-3.378935"><ele>1746</ele></trkpt>
   <trkpt lat="37.169851" lon="-3.378893"><ele>1747.75</ele></trkpt>
   <trkpt lat="37.169905" lon="-3.378773"><ele>1748</ele></trkpt>
   <trkpt lat="37.169984" lon="-3.378544"><ele>1749.75</ele></trkpt>
   <trkpt lat="37.1701" lon="-3.3784"><ele>1752</ele></trkpt>
   <trkpt lat="37.17041" lon="-3.378092"><ele>1757</ele></trkpt>
   <trkpt lat="37.170832" lon="-3.37777"><ele>1762.5</ele></trkpt>
   <trkpt lat="37.170853" lon="-3.377753"><ele>1762.5</ele></trkpt>
   <trkpt lat="37.170909" lon="-3.377726"><ele>1763</ele></trkpt>
   <trkpt lat="37.170966" lon="-3.377712"><ele>1763.75</ele></trkpt>
   <trkpt lat="37.171037" lon="-3.377707"><ele>1765.25</ele></trkpt>
   <trkpt lat="37.171155" lon="-3.377733"><ele>1768.5</ele></trkpt>
   <trkpt lat="37.171233" lon="-3.377742"><ele>1769.75</ele></trkpt>
   <trkpt lat="37.17128" lon="-3.377735"><ele>1770.25</ele></trkpt>
   <trkpt lat="37.171324" lon="-3.377703"><ele>1770.25</ele></trkpt>
   <trkpt lat="37.171374" lon="-3.377631"><ele>1770.5</ele></trkpt>
   <trkpt lat="37.171455" lon="-3.377494"><ele>1772</ele></trkpt>
   <trkpt lat="37.171633" lon="-3.377307"><ele>1773.75</ele></trkpt>
   <trkpt lat="37.17243" lon="-3.376875"><ele>1784</ele></trkpt>
   <trkpt lat="37.172683" lon="-3.37683"><ele>1790.75</ele></trkpt>
   <trkpt lat="37.17305" lon="-3.37666"><ele>1792.5</ele></trkpt>
   <trkpt lat="37.173248" lon="-3.376589"><ele>1796.75</ele></trkpt>
   <trkpt lat="37.173386" lon="-3.376483"><ele>1799.5</ele></trkpt>
   <trkpt lat="37.173503" lon="-3.376284"><ele>1801</ele></trkpt>
   <trkpt lat="37.173606" lon="-3.376064"><ele>1801.75</ele></trkpt>
   <trkpt lat="37.17367" lon="-3.37588"><ele>1803.25</ele></trkpt>
   <trkpt lat="37.173765" lon="-3.375762"><ele>1807.25</ele></trkpt>
   <trkpt lat="37.173813" lon="-3.375614"><ele>1808</ele></trkpt>
   <trkpt lat="37.173831" lon="-3.375254"><ele>1812</ele></trkpt>
   <trkpt lat="37.173835" lon="-3.375128"><ele>1812.75</ele></trkpt>
   <trkpt lat="37.173872" lon="-3.374834"><ele>1816.25</ele></trkpt>
   <trkpt lat="37.173891" lon="-3.374048"><ele>1826.25</ele></trkpt>
   <trkpt lat="37.173866" lon="-3.373908"><ele>1827.25</ele></trkpt>
   <trkpt lat="37.173593" lon="-3.373409"><ele>1831.75</ele></trkpt>
   <trkpt lat="37.173491" lon="-3.373193"><ele>1834.5</ele></trkpt>
   <trkpt lat="37.173342" lon="-3.372941"><ele>1837.5</ele></trkpt>
   <trkpt lat="37.173192" lon="-3.372735"><ele>1838.75</ele></trkpt>
   <trkpt lat="37.173122" lon="-3.372592"><ele>1840.25</ele></trkpt>
   <trkpt lat="37.173071" lon="-3.372452"><ele>1841.75</ele></trkpt>
   <trkpt lat="37.173033" lon="-3.372285"><ele>1843.25</ele></trkpt>
   <trkpt lat="37.17302" lon="-3.372107"><ele>1844.75</ele></trkpt>
   <trkpt lat="37.173026" lon="-3.371994"><ele>1846</ele></trkpt>
   <trkpt lat="37.173044" lon="-3.37188"><ele>1847</ele></trkpt>
   <trkpt lat="37.173089" lon="-3.371723"><ele>1848.75</ele></trkpt>
   <trkpt lat="37.173151" lon="-3.3716"><ele>1850</ele></trkpt>
   <trkpt lat="37.173235" lon="-3.3715"><ele>1851.25</ele></trkpt>
   <trkpt lat="37.173341" lon="-3.371418"><ele>1853</ele></trkpt>
   <trkpt lat="37.173819" lon="-3.371203"><ele>1859</ele></trkpt>
   <trkpt lat="37.173878" lon="-3.371193"><ele>1860.25</ele></trkpt>
   <trkpt lat="37.173987" lon="-3.371214"><ele>1860.75</ele></trkpt>
   <trkpt lat="37.174116" lon="-3.371277"><ele>1862</ele></trkpt>
   <trkpt lat="37.174257" lon="-3.371382"><ele>1864.75</ele></trkpt>
   <trkpt lat="37.174304" lon="-3.371389"><ele>1865</ele></trkpt>
   <trkpt lat="37.174344" lon="-3.371365"><ele>1864.75</ele></trkpt>
   <trkpt lat="37.174369" lon="-3.371323"><ele>1864.5</ele></trkpt>
   <trkpt lat="37.174388" lon="-3.371262"><ele>1864.5</ele></trkpt>
   <trkpt lat="37.174407" lon="-3.371079"><ele>1864.75</ele></trkpt>
   <trkpt lat="37.174505" lon="-3.370362"><ele>1874</ele></trkpt>
   <trkpt lat="37.174534" lon="-3.369527"><ele>1879.75</ele></trkpt>
   <trkpt lat="37.174575" lon="-3.369136"><ele>1884.5</ele></trkpt>
   <trkpt lat="37.174602" lon="-3.368976"><ele>1886.25</ele></trkpt>
   <trkpt lat="37.174627" lon="-3.36856"><ele>1891</ele></trkpt>
   <trkpt lat="37.174601" lon="-3.368133"><ele>1893</ele></trkpt>
   
  </trkseg>
 </trk>
</gpx>
