<?xml version="1.0" encoding="UTF-8"?>
<!-- track-length = 7586 filtered ascend = 579 plain-ascend = 549 cost=13190 energy=0.2kwh time=1h 32m 20s -->
<gpx 
 xmlns="http://www.topografix.com/GPX/1/1" 
 xmlns:xsi="http://www.w3.org/2001/XMLSchema-instance" 
 xsi:schemaLocation="http://www.topografix.com/GPX/1/1 http://www.topografix.com/GPX/1/1/gpx.xsd" 
 version="1.1" 
 creator="BRouter-Web 0.18.1">
 <trk>
  <name>collada de beixalis(7.6km)</name>
  <trkseg>
   <trkpt lat="42.530047" lon="1.57039"><ele>1218</ele></trkpt>
   <trkpt lat="42.530065" lon="1.570361"><ele>1218.5</ele></trkpt>
   <trkpt lat="42.530089" lon="1.570342"><ele>1219</ele></trkpt>
   <trkpt lat="42.530122" lon="1.570331"><ele>1219.75</ele></trkpt>
   <trkpt lat="42.530193" lon="1.570356"><ele>1221</ele></trkpt>
   <trkpt lat="42.530315" lon="1.570454"><ele>1221.25</ele></trkpt>
   <trkpt lat="42.530453" lon="1.570542"><ele>1221.75</ele></trkpt>
   <trkpt lat="42.530513" lon="1.570569"><ele>1222</ele></trkpt>
   <trkpt lat="42.530692" lon="1.570635"><ele>1222.75</ele></trkpt>
   <trkpt lat="42.531178" lon="1.57076"><ele>1227.25</ele></trkpt>
   <trkpt lat="42.531275" lon="1.570791"><ele>1227.25</ele></trkpt>
   <trkpt lat="42.532186" lon="1.5713"><ele>1230</ele></trkpt>
   <trkpt lat="42.532322" lon="1.571375"><ele>1231</ele></trkpt>
   <trkpt lat="42.53244" lon="1.571463"><ele>1231.25</ele></trkpt>
   <trkpt lat="42.532494" lon="1.571531"><ele>1230.75</ele></trkpt>
   <trkpt lat="42.532618" lon="1.571748"><ele>1230</ele></trkpt>
   <trkpt lat="42.532809" lon="1.572108"><ele>1229.25</ele></trkpt>
   <trkpt lat="42.532841" lon="1.572189"><ele>1228.75</ele></trkpt>
   <trkpt lat="42.532922" lon="1.572448"><ele>1229.75</ele></trkpt>
   <trkpt lat="42.532987" lon="1.572578"><ele>1231.5</ele></trkpt>
   <trkpt lat="42.533032" lon="1.57263"><ele>1232.75</ele></trkpt>
   <trkpt lat="42.533111" lon="1.572704"><ele>1234</ele></trkpt>
   <trkpt lat="42.533239" lon="1.572825"><ele>1235.25</ele></trkpt>
   <trkpt lat="42.533347" lon="1.572963"><ele>1236.5</ele></trkpt>
   <trkpt lat="42.533405" lon="1.573059"><ele>1237</ele></trkpt>
   <trkpt lat="42.533436" lon="1.573128"><ele>1237</ele></trkpt>
   <trkpt lat="42.533461" lon="1.573213"><ele>1237.25</ele></trkpt>
   <trkpt lat="42.533511" lon="1.573434"><ele>1237.25</ele></trkpt>
   <trkpt lat="42.533528" lon="1.5735"><ele>1237.25</ele></trkpt>
   <trkpt lat="42.533498" lon="1.573551"><ele>1236.75</ele></trkpt>
   <trkpt lat="42.533488" lon="1.573615"><ele>1236.5</ele></trkpt>
   <trkpt lat="42.5335" lon="1.573678"><ele>1236.25</ele></trkpt>
   <trkpt lat="42.533514" lon="1.573705"><ele>1236.25</ele></trkpt>
   <trkpt lat="42.533552" lon="1.573744"><ele>1236.25</ele></trkpt>
   <trkpt lat="42.533576" lon="1.573753"><ele>1236.5</ele></trkpt>
   <trkpt lat="42.533624" lon="1.57375"><ele>1237</ele></trkpt>
   <trkpt lat="42.533665" lon="1.573718"><ele>1238</ele></trkpt>
   <trkpt lat="42.533687" lon="1.573681"><ele>1238.75</ele></trkpt>
   <trkpt lat="42.533698" lon="1.573636"><ele>1239.25</ele></trkpt>
   <trkpt lat="42.533698" lon="1.573589"><ele>1239.5</ele></trkpt>
   <trkpt lat="42.533687" lon="1.573544"><ele>1239.5</ele></trkpt>
   <trkpt lat="42.533666" lon="1.573507"><ele>1239.25</ele></trkpt>
   <trkpt lat="42.533637" lon="1.573481"><ele>1238.75</ele></trkpt>
   <trkpt lat="42.533653" lon="1.573391"><ele>1239.5</ele></trkpt>
   <trkpt lat="42.533655" lon="1.573314"><ele>1240</ele></trkpt>
   <trkpt lat="42.533652" lon="1.573298"><ele>1239.75</ele></trkpt>
   <trkpt lat="42.533691" lon="1.573282"><ele>1240.75</ele></trkpt>
   <trkpt lat="42.533705" lon="1.573357"><ele>1240.75</ele></trkpt>
   <trkpt lat="42.533698" lon="1.573419"><ele>1240.25</ele></trkpt>
   <trkpt lat="42.533709" lon="1.573477"><ele>1240.25</ele></trkpt>
   <trkpt lat="42.533722" lon="1.573514"><ele>1240.5</ele></trkpt>
   <trkpt lat="42.533709" lon="1.573477"><ele>1240.25</ele></trkpt>
   <trkpt lat="42.533698" lon="1.573419"><ele>1240.25</ele></trkpt>
   <trkpt lat="42.533705" lon="1.573357"><ele>1240.75</ele></trkpt>
   <trkpt lat="42.533691" lon="1.573282"><ele>1240.75</ele></trkpt>
   <trkpt lat="42.533652" lon="1.573298"><ele>1239.75</ele></trkpt>
   <trkpt lat="42.533567" lon="1.572744"><ele>1241.25</ele></trkpt>
   <trkpt lat="42.533566" lon="1.572693"><ele>1241.5</ele></trkpt>
   <trkpt lat="42.533572" lon="1.57265"><ele>1241.75</ele></trkpt>
   <trkpt lat="42.533589" lon="1.572606"><ele>1242.25</ele></trkpt>
   <trkpt lat="42.533631" lon="1.572553"><ele>1243</ele></trkpt>
   <trkpt lat="42.533761" lon="1.572428"><ele>1246.25</ele></trkpt>
   <trkpt lat="42.53408" lon="1.572145"><ele>1255.5</ele></trkpt>
   <trkpt lat="42.534101" lon="1.572107"><ele>1255.75</ele></trkpt>
   <trkpt lat="42.534106" lon="1.572001"><ele>1255.25</ele></trkpt>
   <trkpt lat="42.534102" lon="1.571959"><ele>1255</ele></trkpt>
   <trkpt lat="42.534082" lon="1.571882"><ele>1256</ele></trkpt>
   <trkpt lat="42.534063" lon="1.571861"><ele>1256.25</ele></trkpt>
   <trkpt lat="42.534041" lon="1.571844"><ele>1256.5</ele></trkpt>
   <trkpt lat="42.533993" lon="1.571825"><ele>1256.5</ele></trkpt>
   <trkpt lat="42.533847" lon="1.571791"><ele>1256</ele></trkpt>
   <trkpt lat="42.533755" lon="1.571754"><ele>1255.5</ele></trkpt>
   <trkpt lat="42.533713" lon="1.57172"><ele>1255.5</ele></trkpt>
   <trkpt lat="42.533685" lon="1.571685"><ele>1256</ele></trkpt>
   <trkpt lat="42.53361" lon="1.571539"><ele>1257.25</ele></trkpt>
   <trkpt lat="42.53357" lon="1.571408"><ele>1258.25</ele></trkpt>
   <trkpt lat="42.533536" lon="1.571263"><ele>1258.75</ele></trkpt>
   <trkpt lat="42.533399" lon="1.57062"><ele>1258.5</ele></trkpt>
   <trkpt lat="42.533396" lon="1.570571"><ele>1258.5</ele></trkpt>
   <trkpt lat="42.533415" lon="1.570479"><ele>1259.25</ele></trkpt>
   <trkpt lat="42.533453" lon="1.570401"><ele>1260.25</ele></trkpt>
   <trkpt lat="42.533484" lon="1.570359"><ele>1261.25</ele></trkpt>
   <trkpt lat="42.533514" lon="1.570296"><ele>1262</ele></trkpt>
   <trkpt lat="42.533532" lon="1.570237"><ele>1262.5</ele></trkpt>
   <trkpt lat="42.53353" lon="1.570159"><ele>1262.25</ele></trkpt>
   <trkpt lat="42.533516" lon="1.570088"><ele>1262</ele></trkpt>
   <trkpt lat="42.533472" lon="1.570001"><ele>1260.75</ele></trkpt>
   <trkpt lat="42.533432" lon="1.569956"><ele>1260.75</ele></trkpt>
   <trkpt lat="42.533326" lon="1.569858"><ele>1261.5</ele></trkpt>
   <trkpt lat="42.533268" lon="1.569824"><ele>1263</ele></trkpt>
   <trkpt lat="42.533181" lon="1.569827"><ele>1263.75</ele></trkpt>
   <trkpt lat="42.532987" lon="1.569871"><ele>1264</ele></trkpt>
   <trkpt lat="42.532937" lon="1.569864"><ele>1264.5</ele></trkpt>
   <trkpt lat="42.532865" lon="1.569827"><ele>1266</ele></trkpt>
   <trkpt lat="42.532828" lon="1.56979"><ele>1267</ele></trkpt>
   <trkpt lat="42.532736" lon="1.569662"><ele>1271</ele></trkpt>
   <trkpt lat="42.532675" lon="1.569605"><ele>1272.75</ele></trkpt>
   <trkpt lat="42.532566" lon="1.569565"><ele>1274.5</ele></trkpt>
   <trkpt lat="42.532504" lon="1.56956"><ele>1275</ele></trkpt>
   <trkpt lat="42.532272" lon="1.569587"><ele>1276</ele></trkpt>
   <trkpt lat="42.532214" lon="1.569579"><ele>1276.25</ele></trkpt>
   <trkpt lat="42.532162" lon="1.569551"><ele>1276.25</ele></trkpt>
   <trkpt lat="42.532121" lon="1.569505"><ele>1277</ele></trkpt>
   <trkpt lat="42.532082" lon="1.569434"><ele>1278</ele></trkpt>
   <trkpt lat="42.532063" lon="1.569385"><ele>1278.75</ele></trkpt>
   <trkpt lat="42.532056" lon="1.569327"><ele>1279.5</ele></trkpt>
   <trkpt lat="42.532057" lon="1.569246"><ele>1281</ele></trkpt>
   <trkpt lat="42.532082" lon="1.569123"><ele>1283.25</ele></trkpt>
   <trkpt lat="42.532118" lon="1.569077"><ele>1284.5</ele></trkpt>
   <trkpt lat="42.532576" lon="1.568693"><ele>1292.5</ele></trkpt>
   <trkpt lat="42.532634" lon="1.56866"><ele>1293.25</ele></trkpt>
   <trkpt lat="42.532787" lon="1.568593"><ele>1294.25</ele></trkpt>
   <trkpt lat="42.532849" lon="1.568575"><ele>1295.25</ele></trkpt>
   <trkpt lat="42.532953" lon="1.568567"><ele>1296</ele></trkpt>
   <trkpt lat="42.533003" lon="1.56854"><ele>1296.75</ele></trkpt>
   <trkpt lat="42.533041" lon="1.568478"><ele>1298.25</ele></trkpt>
   <trkpt lat="42.533048" lon="1.568431"><ele>1299</ele></trkpt>
   <trkpt lat="42.533046" lon="1.568391"><ele>1299.75</ele></trkpt>
   <trkpt lat="42.533033" lon="1.568358"><ele>1300.25</ele></trkpt>
   <trkpt lat="42.532968" lon="1.568297"><ele>1301.75</ele></trkpt>
   <trkpt lat="42.532291" lon="1.568095"><ele>1305.25</ele></trkpt>
   <trkpt lat="42.532069" lon="1.568016"><ele>1305.5</ele></trkpt>
   <trkpt lat="42.531822" lon="1.567885"><ele>1305.5</ele></trkpt>
   <trkpt lat="42.53168" lon="1.56778"><ele>1306</ele></trkpt>
   <trkpt lat="42.531571" lon="1.567682"><ele>1306</ele></trkpt>
   <trkpt lat="42.531515" lon="1.567609"><ele>1306.5</ele></trkpt>
   <trkpt lat="42.531488" lon="1.567558"><ele>1306.75</ele></trkpt>
   <trkpt lat="42.531457" lon="1.567328"><ele>1309</ele></trkpt>
   <trkpt lat="42.531449" lon="1.567106"><ele>1311</ele></trkpt>
   <trkpt lat="42.53145" lon="1.566896"><ele>1312</ele></trkpt>
   <trkpt lat="42.531463" lon="1.566761"><ele>1311.75</ele></trkpt>
   <trkpt lat="42.531547" lon="1.56643"><ele>1313</ele></trkpt>
   <trkpt lat="42.531584" lon="1.56635"><ele>1314.25</ele></trkpt>
   <trkpt lat="42.531979" lon="1.565603"><ele>1316.5</ele></trkpt>
   <trkpt lat="42.532055" lon="1.565455"><ele>1319.75</ele></trkpt>
   <trkpt lat="42.532082" lon="1.565384"><ele>1320.75</ele></trkpt>
   <trkpt lat="42.532087" lon="1.565331"><ele>1320.75</ele></trkpt>
   <trkpt lat="42.532077" lon="1.565266"><ele>1320.5</ele></trkpt>
   <trkpt lat="42.532034" lon="1.565201"><ele>1320.75</ele></trkpt>
   <trkpt lat="42.532007" lon="1.565193"><ele>1320.25</ele></trkpt>
   <trkpt lat="42.531803" lon="1.565236"><ele>1318</ele></trkpt>
   <trkpt lat="42.53175" lon="1.565229"><ele>1318.25</ele></trkpt>
   <trkpt lat="42.531691" lon="1.565202"><ele>1319.5</ele></trkpt>
   <trkpt lat="42.531626" lon="1.565144"><ele>1321.75</ele></trkpt>
   <trkpt lat="42.531595" lon="1.56512"><ele>1322.5</ele></trkpt>
   <trkpt lat="42.531499" lon="1.565076"><ele>1323.5</ele></trkpt>
   <trkpt lat="42.531471" lon="1.565044"><ele>1324.25</ele></trkpt>
   <trkpt lat="42.531456" lon="1.565005"><ele>1325.25</ele></trkpt>
   <trkpt lat="42.531445" lon="1.564942"><ele>1326.25</ele></trkpt>
   <trkpt lat="42.531441" lon="1.564857"><ele>1328</ele></trkpt>
   <trkpt lat="42.531447" lon="1.564764"><ele>1329.75</ele></trkpt>
   <trkpt lat="42.531455" lon="1.564708"><ele>1331</ele></trkpt>
   <trkpt lat="42.531488" lon="1.564651"><ele>1332.5</ele></trkpt>
   <trkpt lat="42.531518" lon="1.564626"><ele>1333.5</ele></trkpt>
   <trkpt lat="42.531594" lon="1.564609"><ele>1335</ele></trkpt>
   <trkpt lat="42.531794" lon="1.56464"><ele>1336</ele></trkpt>
   <trkpt lat="42.531943" lon="1.564654"><ele>1336.5</ele></trkpt>
   <trkpt lat="42.532054" lon="1.564641"><ele>1337.25</ele></trkpt>
   <trkpt lat="42.532109" lon="1.564616"><ele>1338</ele></trkpt>
   <trkpt lat="42.532151" lon="1.564581"><ele>1339</ele></trkpt>
   <trkpt lat="42.532185" lon="1.564523"><ele>1340.75</ele></trkpt>
   <trkpt lat="42.532196" lon="1.56446"><ele>1342.5</ele></trkpt>
   <trkpt lat="42.532228" lon="1.564358"><ele>1346</ele></trkpt>
   <trkpt lat="42.532259" lon="1.564301"><ele>1347.75</ele></trkpt>
   <trkpt lat="42.532341" lon="1.56423"><ele>1349.25</ele></trkpt>
   <trkpt lat="42.532424" lon="1.564187"><ele>1349.5</ele></trkpt>
   <trkpt lat="42.532462" lon="1.564162"><ele>1349.5</ele></trkpt>
   <trkpt lat="42.532476" lon="1.564143"><ele>1350.25</ele></trkpt>
   <trkpt lat="42.53248" lon="1.564112"><ele>1351.25</ele></trkpt>
   <trkpt lat="42.532473" lon="1.564078"><ele>1352.75</ele></trkpt>
   <trkpt lat="42.532458" lon="1.564056"><ele>1354</ele></trkpt>
   <trkpt lat="42.532389" lon="1.56405"><ele>1355.5</ele></trkpt>
   <trkpt lat="42.532354" lon="1.564065"><ele>1355.5</ele></trkpt>
   <trkpt lat="42.532162" lon="1.564166"><ele>1354</ele></trkpt>
   <trkpt lat="42.532083" lon="1.564228"><ele>1352.75</ele></trkpt>
   <trkpt lat="42.532037" lon="1.564228"><ele>1353.5</ele></trkpt>
   <trkpt lat="42.532001" lon="1.564214"><ele>1354.75</ele></trkpt>
   <trkpt lat="42.53195" lon="1.564168"><ele>1357.75</ele></trkpt>
   <trkpt lat="42.531905" lon="1.564106"><ele>1359</ele></trkpt>
   <trkpt lat="42.531648" lon="1.563586"><ele>1368.25</ele></trkpt>
   <trkpt lat="42.531506" lon="1.563359"><ele>1371</ele></trkpt>
   <trkpt lat="42.531393" lon="1.563215"><ele>1372.25</ele></trkpt>
   <trkpt lat="42.531327" lon="1.563097"><ele>1374.25</ele></trkpt>
   <trkpt lat="42.531217" lon="1.562851"><ele>1377</ele></trkpt>
   <trkpt lat="42.531191" lon="1.562779"><ele>1378</ele></trkpt>
   <trkpt lat="42.531185" lon="1.562736"><ele>1379</ele></trkpt>
   <trkpt lat="42.531195" lon="1.562689"><ele>1380.75</ele></trkpt>
   <trkpt lat="42.531203" lon="1.562678"><ele>1381.5</ele></trkpt>
   <trkpt lat="42.531234" lon="1.562654"><ele>1383.5</ele></trkpt>
   <trkpt lat="42.531253" lon="1.562654"><ele>1384.25</ele></trkpt>
   <trkpt lat="42.531285" lon="1.56267"><ele>1385</ele></trkpt>
   <trkpt lat="42.531329" lon="1.562734"><ele>1385</ele></trkpt>
   <trkpt lat="42.531382" lon="1.56284"><ele>1383.75</ele></trkpt>
   <trkpt lat="42.531397" lon="1.562863"><ele>1383.75</ele></trkpt>
   <trkpt lat="42.53143" lon="1.562893"><ele>1384</ele></trkpt>
   <trkpt lat="42.531485" lon="1.562933"><ele>1384.75</ele></trkpt>
   <trkpt lat="42.531719" lon="1.563042"><ele>1389</ele></trkpt>
   <trkpt lat="42.531871" lon="1.563127"><ele>1393</ele></trkpt>
   <trkpt lat="42.532019" lon="1.563265"><ele>1393.25</ele></trkpt>
   <trkpt lat="42.532056" lon="1.563287"><ele>1393.25</ele></trkpt>
   <trkpt lat="42.532107" lon="1.563291"><ele>1393.75</ele></trkpt>
   <trkpt lat="42.532246" lon="1.563217"><ele>1398.75</ele></trkpt>
   <trkpt lat="42.532304" lon="1.563201"><ele>1398.75</ele></trkpt>
   <trkpt lat="42.532379" lon="1.563192"><ele>1398.5</ele></trkpt>
   <trkpt lat="42.532435" lon="1.563168"><ele>1399.25</ele></trkpt>
   <trkpt lat="42.532484" lon="1.563134"><ele>1400.25</ele></trkpt>
   <trkpt lat="42.53252" lon="1.563083"><ele>1401.75</ele></trkpt>
   <trkpt lat="42.5327" lon="1.562698"><ele>1407.5</ele></trkpt>
   <trkpt lat="42.53278" lon="1.562469"><ele>1412</ele></trkpt>
   <trkpt lat="42.532862" lon="1.562305"><ele>1415</ele></trkpt>
   <trkpt lat="42.532953" lon="1.56215"><ele>1417.5</ele></trkpt>
   <trkpt lat="42.533049" lon="1.562006"><ele>1419.5</ele></trkpt>
   <trkpt lat="42.533199" lon="1.561827"><ele>1422.5</ele></trkpt>
   <trkpt lat="42.533355" lon="1.56157"><ele>1426.5</ele></trkpt>
   <trkpt lat="42.533373" lon="1.561528"><ele>1428</ele></trkpt>
   <trkpt lat="42.533376" lon="1.561491"><ele>1428.75</ele></trkpt>
   <trkpt lat="42.533369" lon="1.561453"><ele>1429.25</ele></trkpt>
   <trkpt lat="42.533342" lon="1.561416"><ele>1428.75</ele></trkpt>
   <trkpt lat="42.53331" lon="1.561402"><ele>1429.25</ele></trkpt>
   <trkpt lat="42.533272" lon="1.561404"><ele>1430.25</ele></trkpt>
   <trkpt lat="42.53323" lon="1.561416"><ele>1431</ele></trkpt>
   <trkpt lat="42.533196" lon="1.561435"><ele>1431.75</ele></trkpt>
   <trkpt lat="42.533163" lon="1.561465"><ele>1432.25</ele></trkpt>
   <trkpt lat="42.533153" lon="1.561486"><ele>1432.25</ele></trkpt>
   <trkpt lat="42.533137" lon="1.561522"><ele>1432</ele></trkpt>
   <trkpt lat="42.533119" lon="1.561641"><ele>1431.25</ele></trkpt>
   <trkpt lat="42.533108" lon="1.561665"><ele>1431.25</ele></trkpt>
   <trkpt lat="42.533073" lon="1.561707"><ele>1430.75</ele></trkpt>
   <trkpt lat="42.532994" lon="1.561796"><ele>1430.75</ele></trkpt>
   <trkpt lat="42.53294" lon="1.561845"><ele>1431.25</ele></trkpt>
   <trkpt lat="42.532887" lon="1.561887"><ele>1432</ele></trkpt>
   <trkpt lat="42.532694" lon="1.56201"><ele>1434.5</ele></trkpt>
   <trkpt lat="42.532331" lon="1.562118"><ele>1439</ele></trkpt>
   <trkpt lat="42.532148" lon="1.562123"><ele>1440.25</ele></trkpt>
   <trkpt lat="42.532073" lon="1.562118"><ele>1440.5</ele></trkpt>
   <trkpt lat="42.532028" lon="1.562103"><ele>1441</ele></trkpt>
   <trkpt lat="42.532009" lon="1.562079"><ele>1442</ele></trkpt>
   <trkpt lat="42.532005" lon="1.562036"><ele>1443.75</ele></trkpt>
   <trkpt lat="42.532012" lon="1.562004"><ele>1445.25</ele></trkpt>
   <trkpt lat="42.532029" lon="1.56197"><ele>1446.5</ele></trkpt>
   <trkpt lat="42.532059" lon="1.561956"><ele>1447</ele></trkpt>
   <trkpt lat="42.532146" lon="1.561949"><ele>1447</ele></trkpt>
   <trkpt lat="42.532273" lon="1.561906"><ele>1447.5</ele></trkpt>
   <trkpt lat="42.532526" lon="1.561732"><ele>1450.5</ele></trkpt>
   <trkpt lat="42.532647" lon="1.561635"><ele>1450.25</ele></trkpt>
   <trkpt lat="42.532663" lon="1.561589"><ele>1450.75</ele></trkpt>
   <trkpt lat="42.532665" lon="1.561544"><ele>1451.5</ele></trkpt>
   <trkpt lat="42.532651" lon="1.561509"><ele>1452.75</ele></trkpt>
   <trkpt lat="42.532624" lon="1.561488"><ele>1454.25</ele></trkpt>
   <trkpt lat="42.532415" lon="1.561561"><ele>1458</ele></trkpt>
   <trkpt lat="42.53233" lon="1.561566"><ele>1458.75</ele></trkpt>
   <trkpt lat="42.532173" lon="1.561555"><ele>1460.75</ele></trkpt>
   <trkpt lat="42.532067" lon="1.561535"><ele>1462</ele></trkpt>
   <trkpt lat="42.531934" lon="1.561494"><ele>1463.5</ele></trkpt>
   <trkpt lat="42.531845" lon="1.561446"><ele>1462.25</ele></trkpt>
   <trkpt lat="42.531806" lon="1.561408"><ele>1462.75</ele></trkpt>
   <trkpt lat="42.531781" lon="1.561377"><ele>1463</ele></trkpt>
   <trkpt lat="42.531751" lon="1.5613"><ele>1464.25</ele></trkpt>
   <trkpt lat="42.531721" lon="1.561199"><ele>1466</ele></trkpt>
   <trkpt lat="42.531693" lon="1.561051"><ele>1468.5</ele></trkpt>
   <trkpt lat="42.531683" lon="1.560965"><ele>1469.5</ele></trkpt>
   <trkpt lat="42.531719" lon="1.560719"><ele>1474.75</ele></trkpt>
   <trkpt lat="42.531706" lon="1.560643"><ele>1475.5</ele></trkpt>
   <trkpt lat="42.531689" lon="1.560599"><ele>1475.25</ele></trkpt>
   <trkpt lat="42.531582" lon="1.560458"><ele>1475</ele></trkpt>
   <trkpt lat="42.531344" lon="1.560068"><ele>1481</ele></trkpt>
   <trkpt lat="42.531261" lon="1.559955"><ele>1483.5</ele></trkpt>
   <trkpt lat="42.531194" lon="1.559857"><ele>1485.25</ele></trkpt>
   <trkpt lat="42.53118" lon="1.559813"><ele>1486.5</ele></trkpt>
   <trkpt lat="42.53118" lon="1.559767"><ele>1487.75</ele></trkpt>
   <trkpt lat="42.531188" lon="1.559745"><ele>1488.5</ele></trkpt>
   <trkpt lat="42.531209" lon="1.559727"><ele>1489.5</ele></trkpt>
   <trkpt lat="42.531236" lon="1.559717"><ele>1490.25</ele></trkpt>
   <trkpt lat="42.531275" lon="1.559732"><ele>1490.5</ele></trkpt>
   <trkpt lat="42.531307" lon="1.559766"><ele>1490</ele></trkpt>
   <trkpt lat="42.531379" lon="1.559879"><ele>1487.75</ele></trkpt>
   <trkpt lat="42.531429" lon="1.559929"><ele>1487.5</ele></trkpt>
   <trkpt lat="42.531471" lon="1.559953"><ele>1487.75</ele></trkpt>
   <trkpt lat="42.531619" lon="1.560002"><ele>1490.5</ele></trkpt>
   <trkpt lat="42.531669" lon="1.560034"><ele>1490.75</ele></trkpt>
   <trkpt lat="42.531696" lon="1.560063"><ele>1491</ele></trkpt>
   <trkpt lat="42.531851" lon="1.560287"><ele>1491.25</ele></trkpt>
   <trkpt lat="42.531873" lon="1.560307"><ele>1491.75</ele></trkpt>
   <trkpt lat="42.531937" lon="1.560334"><ele>1494</ele></trkpt>
   <trkpt lat="42.532045" lon="1.560348"><ele>1494.25</ele></trkpt>
   <trkpt lat="42.532183" lon="1.560343"><ele>1494.5</ele></trkpt>
   <trkpt lat="42.532255" lon="1.560329"><ele>1493.75</ele></trkpt>
   <trkpt lat="42.532288" lon="1.560303"><ele>1493.25</ele></trkpt>
   <trkpt lat="42.532307" lon="1.560278"><ele>1493</ele></trkpt>
   <trkpt lat="42.532333" lon="1.560218"><ele>1493.5</ele></trkpt>
   <trkpt lat="42.532341" lon="1.560128"><ele>1495.25</ele></trkpt>
   <trkpt lat="42.532338" lon="1.560034"><ele>1497.25</ele></trkpt>
   <trkpt lat="42.532324" lon="1.559947"><ele>1499.25</ele></trkpt>
   <trkpt lat="42.532299" lon="1.559884"><ele>1500.75</ele></trkpt>
   <trkpt lat="42.53223" lon="1.559757"><ele>1503.5</ele></trkpt>
   <trkpt lat="42.532213" lon="1.5597"><ele>1504.5</ele></trkpt>
   <trkpt lat="42.532211" lon="1.559652"><ele>1505.5</ele></trkpt>
   <trkpt lat="42.532221" lon="1.559616"><ele>1506.25</ele></trkpt>
   <trkpt lat="42.532249" lon="1.55958"><ele>1506.75</ele></trkpt>
   <trkpt lat="42.53229" lon="1.559567"><ele>1506.75</ele></trkpt>
   <trkpt lat="42.532378" lon="1.559563"><ele>1506</ele></trkpt>
   <trkpt lat="42.532492" lon="1.559574"><ele>1504.75</ele></trkpt>
   <trkpt lat="42.532579" lon="1.559523"><ele>1505.25</ele></trkpt>
   <trkpt lat="42.532626" lon="1.559458"><ele>1506.25</ele></trkpt>
   <trkpt lat="42.532648" lon="1.559381"><ele>1507.5</ele></trkpt>
   <trkpt lat="42.532662" lon="1.559255"><ele>1510</ele></trkpt>
   <trkpt lat="42.532686" lon="1.559169"><ele>1511.5</ele></trkpt>
   <trkpt lat="42.532735" lon="1.559147"><ele>1511.75</ele></trkpt>
   <trkpt lat="42.53287" lon="1.559164"><ele>1512.25</ele></trkpt>
   <trkpt lat="42.533182" lon="1.559278"><ele>1513.75</ele></trkpt>
   <trkpt lat="42.533241" lon="1.559279"><ele>1514.5</ele></trkpt>
   <trkpt lat="42.533287" lon="1.55927"><ele>1515.25</ele></trkpt>
   <trkpt lat="42.533317" lon="1.559249"><ele>1516.25</ele></trkpt>
   <trkpt lat="42.533342" lon="1.559194"><ele>1518.5</ele></trkpt>
   <trkpt lat="42.533344" lon="1.559133"><ele>1520.5</ele></trkpt>
   <trkpt lat="42.533337" lon="1.559102"><ele>1521.25</ele></trkpt>
   <trkpt lat="42.533312" lon="1.559058"><ele>1522.25</ele></trkpt>
   <trkpt lat="42.533266" lon="1.559016"><ele>1522.75</ele></trkpt>
   <trkpt lat="42.533068" lon="1.558866"><ele>1522</ele></trkpt>
   <trkpt lat="42.532968" lon="1.558814"><ele>1522.75</ele></trkpt>
   <trkpt lat="42.532841" lon="1.55877"><ele>1522.75</ele></trkpt>
   <trkpt lat="42.532049" lon="1.558642"><ele>1525.75</ele></trkpt>
   <trkpt lat="42.531892" lon="1.558618"><ele>1527</ele></trkpt>
   <trkpt lat="42.531527" lon="1.558569"><ele>1529.5</ele></trkpt>
   <trkpt lat="42.53138" lon="1.558522"><ele>1531.5</ele></trkpt>
   <trkpt lat="42.53129" lon="1.558478"><ele>1533.25</ele></trkpt>
   <trkpt lat="42.531216" lon="1.558439"><ele>1534.5</ele></trkpt>
   <trkpt lat="42.531113" lon="1.558357"><ele>1535.5</ele></trkpt>
   <trkpt lat="42.531017" lon="1.558249"><ele>1538.75</ele></trkpt>
   <trkpt lat="42.530923" lon="1.558159"><ele>1540.75</ele></trkpt>
   <trkpt lat="42.530841" lon="1.558133"><ele>1540.75</ele></trkpt>
   <trkpt lat="42.530781" lon="1.558144"><ele>1542.25</ele></trkpt>
   <trkpt lat="42.530732" lon="1.558164"><ele>1543</ele></trkpt>
   <trkpt lat="42.530623" lon="1.558225"><ele>1544.25</ele></trkpt>
   <trkpt lat="42.530539" lon="1.558276"><ele>1544.5</ele></trkpt>
   <trkpt lat="42.530302" lon="1.558445"><ele>1546</ele></trkpt>
   <trkpt lat="42.530219" lon="1.558489"><ele>1546</ele></trkpt>
   <trkpt lat="42.530194" lon="1.558489"><ele>1546.25</ele></trkpt>
   <trkpt lat="42.530177" lon="1.558478"><ele>1546.5</ele></trkpt>
   <trkpt lat="42.530156" lon="1.55846"><ele>1547.25</ele></trkpt>
   <trkpt lat="42.530141" lon="1.558434"><ele>1548.25</ele></trkpt>
   <trkpt lat="42.530142" lon="1.558378"><ele>1550</ele></trkpt>
   <trkpt lat="42.530155" lon="1.558353"><ele>1550.5</ele></trkpt>
   <trkpt lat="42.530212" lon="1.558282"><ele>1552.25</ele></trkpt>
   <trkpt lat="42.530312" lon="1.558125"><ele>1555.75</ele></trkpt>
   <trkpt lat="42.530372" lon="1.558049"><ele>1556.75</ele></trkpt>
   <trkpt lat="42.530636" lon="1.557783"><ele>1562</ele></trkpt>
   <trkpt lat="42.53073" lon="1.557638"><ele>1564</ele></trkpt>
   <trkpt lat="42.530759" lon="1.557612"><ele>1564</ele></trkpt>
   <trkpt lat="42.530783" lon="1.557594"><ele>1564.25</ele></trkpt>
   <trkpt lat="42.530813" lon="1.557591"><ele>1563.75</ele></trkpt>
   <trkpt lat="42.530879" lon="1.557638"><ele>1562.5</ele></trkpt>
   <trkpt lat="42.530929" lon="1.557664"><ele>1562.25</ele></trkpt>
   <trkpt lat="42.531012" lon="1.557675"><ele>1563</ele></trkpt>
   <trkpt lat="42.53114" lon="1.557676"><ele>1564.5</ele></trkpt>
   <trkpt lat="42.531322" lon="1.557692"><ele>1566.5</ele></trkpt>
   <trkpt lat="42.531372" lon="1.557685"><ele>1567.25</ele></trkpt>
   <trkpt lat="42.531418" lon="1.557662"><ele>1567.75</ele></trkpt>
   <trkpt lat="42.531447" lon="1.557623"><ele>1568.5</ele></trkpt>
   <trkpt lat="42.531459" lon="1.557566"><ele>1570</ele></trkpt>
   <trkpt lat="42.531453" lon="1.557523"><ele>1571.5</ele></trkpt>
   <trkpt lat="42.531431" lon="1.55749"><ele>1572.75</ele></trkpt>
   <trkpt lat="42.531352" lon="1.557404"><ele>1574.5</ele></trkpt>
   <trkpt lat="42.531322" lon="1.557353"><ele>1575</ele></trkpt>
   <trkpt lat="42.531275" lon="1.557209"><ele>1577</ele></trkpt>
   <trkpt lat="42.53122" lon="1.556989"><ele>1578.75</ele></trkpt>
   <trkpt lat="42.531218" lon="1.556936"><ele>1579.25</ele></trkpt>
   <trkpt lat="42.531223" lon="1.556901"><ele>1579.75</ele></trkpt>
   <trkpt lat="42.53125" lon="1.556868"><ele>1580.75</ele></trkpt>
   <trkpt lat="42.531283" lon="1.556861"><ele>1581.5</ele></trkpt>
   <trkpt lat="42.531316" lon="1.556872"><ele>1582</ele></trkpt>
   <trkpt lat="42.531362" lon="1.556957"><ele>1582</ele></trkpt>
   <trkpt lat="42.531433" lon="1.557105"><ele>1581.25</ele></trkpt>
   <trkpt lat="42.531466" lon="1.557121"><ele>1581.5</ele></trkpt>
   <trkpt lat="42.531497" lon="1.557118"><ele>1582.25</ele></trkpt>
   <trkpt lat="42.531513" lon="1.557104"><ele>1582.75</ele></trkpt>
   <trkpt lat="42.531521" lon="1.557084"><ele>1583.25</ele></trkpt>
   <trkpt lat="42.531525" lon="1.557036"><ele>1584.25</ele></trkpt>
   <trkpt lat="42.531521" lon="1.556954"><ele>1586</ele></trkpt>
   <trkpt lat="42.531528" lon="1.556883"><ele>1587</ele></trkpt>
   <trkpt lat="42.531563" lon="1.556786"><ele>1589.75</ele></trkpt>
   <trkpt lat="42.531576" lon="1.556751"><ele>1589.75</ele></trkpt>
   <trkpt lat="42.531579" lon="1.556716"><ele>1590.25</ele></trkpt>
   <trkpt lat="42.531583" lon="1.55668"><ele>1590.5</ele></trkpt>
   <trkpt lat="42.531574" lon="1.556595"><ele>1591.25</ele></trkpt>
   <trkpt lat="42.531552" lon="1.556469"><ele>1591.75</ele></trkpt>
   <trkpt lat="42.53149" lon="1.556244"><ele>1593.25</ele></trkpt>
   <trkpt lat="42.531422" lon="1.556084"><ele>1594</ele></trkpt>
   <trkpt lat="42.531322" lon="1.5559"><ele>1594.5</ele></trkpt>
   <trkpt lat="42.531289" lon="1.555808"><ele>1595</ele></trkpt>
   <trkpt lat="42.531291" lon="1.555751"><ele>1596</ele></trkpt>
   <trkpt lat="42.531319" lon="1.555696"><ele>1597.25</ele></trkpt>
   <trkpt lat="42.53134" lon="1.555682"><ele>1597.75</ele></trkpt>
   <trkpt lat="42.531373" lon="1.555674"><ele>1598.25</ele></trkpt>
   <trkpt lat="42.531413" lon="1.555677"><ele>1599.25</ele></trkpt>
   <trkpt lat="42.531457" lon="1.555698"><ele>1600.25</ele></trkpt>
   <trkpt lat="42.531486" lon="1.555741"><ele>1600.5</ele></trkpt>
   <trkpt lat="42.531504" lon="1.555779"><ele>1600.5</ele></trkpt>
   <trkpt lat="42.531554" lon="1.555939"><ele>1599.5</ele></trkpt>
   <trkpt lat="42.531646" lon="1.556158"><ele>1598.75</ele></trkpt>
   <trkpt lat="42.531771" lon="1.5563"><ele>1600.5</ele></trkpt>
   <trkpt lat="42.531835" lon="1.556436"><ele>1600.5</ele></trkpt>
   <trkpt lat="42.531895" lon="1.556532"><ele>1600.5</ele></trkpt>
   <trkpt lat="42.531941" lon="1.556577"><ele>1600.75</ele></trkpt>
   <trkpt lat="42.531981" lon="1.556603"><ele>1600.25</ele></trkpt>
   <trkpt lat="42.532045" lon="1.556595"><ele>1600.5</ele></trkpt>
   <trkpt lat="42.532102" lon="1.556571"><ele>1601.25</ele></trkpt>
   <trkpt lat="42.532163" lon="1.556525"><ele>1602.75</ele></trkpt>
   <trkpt lat="42.532221" lon="1.55645"><ele>1605</ele></trkpt>
   <trkpt lat="42.532247" lon="1.556367"><ele>1607.25</ele></trkpt>
   <trkpt lat="42.532245" lon="1.556273"><ele>1608.25</ele></trkpt>
   <trkpt lat="42.532231" lon="1.5562"><ele>1609</ele></trkpt>
   <trkpt lat="42.532202" lon="1.556138"><ele>1609.5</ele></trkpt>
   <trkpt lat="42.532141" lon="1.556042"><ele>1611</ele></trkpt>
   <trkpt lat="42.532061" lon="1.55594"><ele>1612</ele></trkpt>
   <trkpt lat="42.531964" lon="1.555798"><ele>1612.25</ele></trkpt>
   <trkpt lat="42.531903" lon="1.555684"><ele>1613</ele></trkpt>
   <trkpt lat="42.531818" lon="1.555498"><ele>1614</ele></trkpt>
   <trkpt lat="42.531737" lon="1.555232"><ele>1616.5</ele></trkpt>
   <trkpt lat="42.531701" lon="1.555075"><ele>1618</ele></trkpt>
   <trkpt lat="42.531657" lon="1.554941"><ele>1619</ele></trkpt>
   <trkpt lat="42.531587" lon="1.554825"><ele>1620.25</ele></trkpt>
   <trkpt lat="42.5315" lon="1.55473"><ele>1620.75</ele></trkpt>
   <trkpt lat="42.531409" lon="1.554668"><ele>1621.25</ele></trkpt>
   <trkpt lat="42.531328" lon="1.554626"><ele>1622</ele></trkpt>
   <trkpt lat="42.531201" lon="1.5546"><ele>1621.75</ele></trkpt>
   <trkpt lat="42.530853" lon="1.554565"><ele>1621</ele></trkpt>
   <trkpt lat="42.530539" lon="1.554494"><ele>1622.75</ele></trkpt>
   <trkpt lat="42.530087" lon="1.554296"><ele>1626.25</ele></trkpt>
   <trkpt lat="42.529997" lon="1.554234"><ele>1627.75</ele></trkpt>
   <trkpt lat="42.52993" lon="1.55419"><ele>1629</ele></trkpt>
   <trkpt lat="42.529856" lon="1.554139"><ele>1630</ele></trkpt>
   <trkpt lat="42.529796" lon="1.554114"><ele>1630.25</ele></trkpt>
   <trkpt lat="42.529706" lon="1.554114"><ele>1630</ele></trkpt>
   <trkpt lat="42.529469" lon="1.554148"><ele>1631</ele></trkpt>
   <trkpt lat="42.529351" lon="1.554141"><ele>1631.75</ele></trkpt>
   <trkpt lat="42.52928" lon="1.55412"><ele>1632.5</ele></trkpt>
   <trkpt lat="42.529236" lon="1.554089"><ele>1633</ele></trkpt>
   <trkpt lat="42.529177" lon="1.554012"><ele>1634</ele></trkpt>
   <trkpt lat="42.529138" lon="1.553905"><ele>1636.75</ele></trkpt>
   <trkpt lat="42.529128" lon="1.553823"><ele>1638</ele></trkpt>
   <trkpt lat="42.52913" lon="1.553696"><ele>1638.75</ele></trkpt>
   <trkpt lat="42.529145" lon="1.553626"><ele>1638.25</ele></trkpt>
   <trkpt lat="42.529166" lon="1.553566"><ele>1637.75</ele></trkpt>
   <trkpt lat="42.529197" lon="1.553512"><ele>1638.5</ele></trkpt>
   <trkpt lat="42.529233" lon="1.553472"><ele>1639.25</ele></trkpt>
   <trkpt lat="42.529275" lon="1.553442"><ele>1639.75</ele></trkpt>
   <trkpt lat="42.529345" lon="1.553414"><ele>1640</ele></trkpt>
   <trkpt lat="42.529391" lon="1.553403"><ele>1640</ele></trkpt>
   <trkpt lat="42.529443" lon="1.553405"><ele>1639.75</ele></trkpt>
   <trkpt lat="42.529527" lon="1.553439"><ele>1640.5</ele></trkpt>
   <trkpt lat="42.529863" lon="1.553633"><ele>1641</ele></trkpt>
   <trkpt lat="42.529932" lon="1.553674"><ele>1641.25</ele></trkpt>
   <trkpt lat="42.529946" lon="1.553682"><ele>1641.25</ele></trkpt>
   <trkpt lat="42.530136" lon="1.5537"><ele>1642</ele></trkpt>
   <trkpt lat="42.530246" lon="1.553677"><ele>1643</ele></trkpt>
   <trkpt lat="42.530349" lon="1.553632"><ele>1643.75</ele></trkpt>
   <trkpt lat="42.530615" lon="1.553482"><ele>1646.5</ele></trkpt>
   <trkpt lat="42.530725" lon="1.553435"><ele>1647.75</ele></trkpt>
   <trkpt lat="42.530857" lon="1.553409"><ele>1648.5</ele></trkpt>
   <trkpt lat="42.53095" lon="1.553401"><ele>1649.25</ele></trkpt>
   <trkpt lat="42.53109" lon="1.553411"><ele>1650.25</ele></trkpt>
   <trkpt lat="42.531212" lon="1.553436"><ele>1651</ele></trkpt>
   <trkpt lat="42.531307" lon="1.55347"><ele>1651.25</ele></trkpt>
   <trkpt lat="42.531452" lon="1.553553"><ele>1652.5</ele></trkpt>
   <trkpt lat="42.531592" lon="1.553664"><ele>1654.75</ele></trkpt>
   <trkpt lat="42.53204" lon="1.554133"><ele>1657.75</ele></trkpt>
   <trkpt lat="42.532133" lon="1.554257"><ele>1658</ele></trkpt>
   <trkpt lat="42.532197" lon="1.554378"><ele>1658</ele></trkpt>
   <trkpt lat="42.532303" lon="1.55462"><ele>1656.5</ele></trkpt>
   <trkpt lat="42.532379" lon="1.554767"><ele>1657</ele></trkpt>
   <trkpt lat="42.532499" lon="1.55495"><ele>1660.5</ele></trkpt>
   <trkpt lat="42.532573" lon="1.555019"><ele>1660.25</ele></trkpt>
   <trkpt lat="42.532683" lon="1.555074"><ele>1659.25</ele></trkpt>
   <trkpt lat="42.532759" lon="1.555082"><ele>1659.75</ele></trkpt>
   <trkpt lat="42.532832" lon="1.555078"><ele>1661</ele></trkpt>
   <trkpt lat="42.532882" lon="1.555057"><ele>1662.5</ele></trkpt>
   <trkpt lat="42.532931" lon="1.555008"><ele>1664.75</ele></trkpt>
   <trkpt lat="42.532943" lon="1.554966"><ele>1665.75</ele></trkpt>
   <trkpt lat="42.53295" lon="1.554903"><ele>1666.75</ele></trkpt>
   <trkpt lat="42.532942" lon="1.55485"><ele>1667.75</ele></trkpt>
   <trkpt lat="42.532922" lon="1.554802"><ele>1668.25</ele></trkpt>
   <trkpt lat="42.532875" lon="1.554754"><ele>1668.25</ele></trkpt>
   <trkpt lat="42.532646" lon="1.554609"><ele>1668.25</ele></trkpt>
   <trkpt lat="42.532569" lon="1.554537"><ele>1668.5</ele></trkpt>
   <trkpt lat="42.532519" lon="1.554477"><ele>1668.75</ele></trkpt>
   <trkpt lat="42.532467" lon="1.554398"><ele>1668.5</ele></trkpt>
   <trkpt lat="42.532321" lon="1.554119"><ele>1668.5</ele></trkpt>
   <trkpt lat="42.532107" lon="1.553719"><ele>1671.25</ele></trkpt>
   <trkpt lat="42.531986" lon="1.553429"><ele>1673</ele></trkpt>
   <trkpt lat="42.531853" lon="1.553079"><ele>1673.75</ele></trkpt>
   <trkpt lat="42.531776" lon="1.552917"><ele>1675</ele></trkpt>
   <trkpt lat="42.53168" lon="1.552769"><ele>1675.75</ele></trkpt>
   <trkpt lat="42.531617" lon="1.552689"><ele>1676.75</ele></trkpt>
   <trkpt lat="42.531535" lon="1.552617"><ele>1677.75</ele></trkpt>
   <trkpt lat="42.531425" lon="1.552544"><ele>1678.5</ele></trkpt>
   <trkpt lat="42.531257" lon="1.552464"><ele>1679.25</ele></trkpt>
   <trkpt lat="42.5311" lon="1.55242"><ele>1678.75</ele></trkpt>
   <trkpt lat="42.530933" lon="1.552395"><ele>1680</ele></trkpt>
   <trkpt lat="42.530805" lon="1.552397"><ele>1680.25</ele></trkpt>
   <trkpt lat="42.530556" lon="1.552449"><ele>1682.25</ele></trkpt>
   <trkpt lat="42.530431" lon="1.552453"><ele>1682.5</ele></trkpt>
   <trkpt lat="42.530331" lon="1.552428"><ele>1683.5</ele></trkpt>
   <trkpt lat="42.530238" lon="1.552389"><ele>1684.25</ele></trkpt>
   <trkpt lat="42.530167" lon="1.552339"><ele>1684.75</ele></trkpt>
   <trkpt lat="42.529939" lon="1.552108"><ele>1687.75</ele></trkpt>
   <trkpt lat="42.529854" lon="1.551978"><ele>1688.75</ele></trkpt>
   <trkpt lat="42.529608" lon="1.551545"><ele>1693.25</ele></trkpt>
   <trkpt lat="42.529554" lon="1.551477"><ele>1693.75</ele></trkpt>
   <trkpt lat="42.529387" lon="1.551331"><ele>1694.75</ele></trkpt>
   <trkpt lat="42.528965" lon="1.551126"><ele>1699.25</ele></trkpt>
   <trkpt lat="42.52889" lon="1.551099"><ele>1700.25</ele></trkpt>
   <trkpt lat="42.528862" lon="1.551089"><ele>1700.75</ele></trkpt>
   <trkpt lat="42.528579" lon="1.551086"><ele>1703.75</ele></trkpt>
   <trkpt lat="42.528327" lon="1.551127"><ele>1705.75</ele></trkpt>
   <trkpt lat="42.528235" lon="1.551177"><ele>1707</ele></trkpt>
   <trkpt lat="42.528175" lon="1.551241"><ele>1707.25</ele></trkpt>
   <trkpt lat="42.52808" lon="1.551381"><ele>1707.5</ele></trkpt>
   <trkpt lat="42.52796" lon="1.55158"><ele>1708.5</ele></trkpt>
   <trkpt lat="42.527831" lon="1.551746"><ele>1710</ele></trkpt>
   <trkpt lat="42.527742" lon="1.551849"><ele>1711</ele></trkpt>
   <trkpt lat="42.527637" lon="1.551953"><ele>1711.25</ele></trkpt>
   <trkpt lat="42.527569" lon="1.552002"><ele>1711.75</ele></trkpt>
   <trkpt lat="42.527495" lon="1.55203"><ele>1712.25</ele></trkpt>
   <trkpt lat="42.527443" lon="1.552019"><ele>1712</ele></trkpt>
   <trkpt lat="42.5274" lon="1.55198"><ele>1712.25</ele></trkpt>
   <trkpt lat="42.527379" lon="1.551942"><ele>1713</ele></trkpt>
   <trkpt lat="42.52737" lon="1.551897"><ele>1713.75</ele></trkpt>
   <trkpt lat="42.527367" lon="1.551823"><ele>1714.75</ele></trkpt>
   <trkpt lat="42.527379" lon="1.551725"><ele>1716.5</ele></trkpt>
   <trkpt lat="42.527417" lon="1.551638"><ele>1717.75</ele></trkpt>
   <trkpt lat="42.527655" lon="1.551328"><ele>1720</ele></trkpt>
   <trkpt lat="42.527676" lon="1.551255"><ele>1720.75</ele></trkpt>
   <trkpt lat="42.527689" lon="1.551139"><ele>1722</ele></trkpt>
   <trkpt lat="42.527688" lon="1.551017"><ele>1723</ele></trkpt>
   <trkpt lat="42.527702" lon="1.550762"><ele>1724.25</ele></trkpt>
   <trkpt lat="42.527719" lon="1.550655"><ele>1725.25</ele></trkpt>
   <trkpt lat="42.527743" lon="1.550563"><ele>1726</ele></trkpt>
   <trkpt lat="42.527786" lon="1.550477"><ele>1726.75</ele></trkpt>
   <trkpt lat="42.527826" lon="1.550426"><ele>1727.25</ele></trkpt>
   <trkpt lat="42.52791" lon="1.550344"><ele>1728</ele></trkpt>
   <trkpt lat="42.528253" lon="1.550029"><ele>1731.25</ele></trkpt>
   <trkpt lat="42.528365" lon="1.549962"><ele>1731.75</ele></trkpt>
   <trkpt lat="42.528437" lon="1.549935"><ele>1732.75</ele></trkpt>
   <trkpt lat="42.528508" lon="1.549917"><ele>1733.5</ele></trkpt>
   <trkpt lat="42.528581" lon="1.549893"><ele>1734.5</ele></trkpt>
   <trkpt lat="42.528889" lon="1.549764"><ele>1737</ele></trkpt>
   <trkpt lat="42.529031" lon="1.549678"><ele>1739.75</ele></trkpt>
   <trkpt lat="42.52911" lon="1.549663"><ele>1740.5</ele></trkpt>
   <trkpt lat="42.529516" lon="1.549666"><ele>1744.75</ele></trkpt>
   <trkpt lat="42.529592" lon="1.549688"><ele>1745.5</ele></trkpt>
   <trkpt lat="42.529668" lon="1.549721"><ele>1745.75</ele></trkpt>
   <trkpt lat="42.529738" lon="1.549778"><ele>1746</ele></trkpt>
   <trkpt lat="42.530192" lon="1.550249"><ele>1748.5</ele></trkpt>
   <trkpt lat="42.530315" lon="1.550392"><ele>1749.25</ele></trkpt>
   <trkpt lat="42.530401" lon="1.550449"><ele>1749.5</ele></trkpt>
   <trkpt lat="42.530494" lon="1.550467"><ele>1750.25</ele></trkpt>
   <trkpt lat="42.530518" lon="1.550457"><ele>1750.75</ele></trkpt>
   <trkpt lat="42.530542" lon="1.550431"><ele>1751.5</ele></trkpt>
   <trkpt lat="42.530557" lon="1.550402"><ele>1752.25</ele></trkpt>
   <trkpt lat="42.530575" lon="1.550328"><ele>1754</ele></trkpt>
   <trkpt lat="42.530574" lon="1.550241"><ele>1755.5</ele></trkpt>
   <trkpt lat="42.530557" lon="1.550166"><ele>1756.25</ele></trkpt>
   <trkpt lat="42.530533" lon="1.550128"><ele>1756.75</ele></trkpt>
   <trkpt lat="42.530494" lon="1.550089"><ele>1757.25</ele></trkpt>
   <trkpt lat="42.530431" lon="1.550044"><ele>1757.25</ele></trkpt>
   <trkpt lat="42.530219" lon="1.549916"><ele>1757.75</ele></trkpt>
   <trkpt lat="42.53014" lon="1.549847"><ele>1758.25</ele></trkpt>
   <trkpt lat="42.529935" lon="1.549559"><ele>1761.75</ele></trkpt>
   <trkpt lat="42.529764" lon="1.549269"><ele>1764.5</ele></trkpt>
   <trkpt lat="42.52961" lon="1.549043"><ele>1768.5</ele></trkpt>
   <trkpt lat="42.529541" lon="1.548979"><ele>1769.25</ele></trkpt>
   <trkpt lat="42.529474" lon="1.548937"><ele>1769</ele></trkpt>
   <trkpt lat="42.529007" lon="1.548711"><ele>1772.75</ele></trkpt>
   <trkpt lat="42.528927" lon="1.548692"><ele>1772.75</ele></trkpt>
   <trkpt lat="42.528859" lon="1.548702"><ele>1773</ele></trkpt>
   <trkpt lat="42.528632" lon="1.548758"><ele>1776.75</ele></trkpt>
   <trkpt lat="42.528525" lon="1.548757"><ele>1776</ele></trkpt>
   <trkpt lat="42.528436" lon="1.548724"><ele>1776</ele></trkpt>
   <trkpt lat="42.528358" lon="1.548661"><ele>1777.25</ele></trkpt>
   <trkpt lat="42.528236" lon="1.548532"><ele>1781</ele></trkpt>
   <trkpt lat="42.528127" lon="1.548429"><ele>1783</ele></trkpt>
   <trkpt lat="42.528076" lon="1.548406"><ele>1782.5</ele></trkpt>
   <trkpt lat="42.528028" lon="1.548404"><ele>1782.5</ele></trkpt>
   <trkpt lat="42.527954" lon="1.548413"><ele>1783.75</ele></trkpt>
   <trkpt lat="42.527892" lon="1.548438"><ele>1784.25</ele></trkpt>
   <trkpt lat="42.527586" lon="1.548696"><ele>1785</ele></trkpt>
   <trkpt lat="42.527353" lon="1.548821"><ele>1786.25</ele></trkpt>
   <trkpt lat="42.527208" lon="1.548885"><ele>1787.25</ele></trkpt>
   <trkpt lat="42.527152" lon="1.548895"><ele>1787.75</ele></trkpt>
   <trkpt lat="42.527111" lon="1.548886"><ele>1788.5</ele></trkpt>
   <trkpt lat="42.527071" lon="1.548853"><ele>1790</ele></trkpt>
   <trkpt lat="42.527064" lon="1.54883"><ele>1790.75</ele></trkpt>
   <trkpt lat="42.527055" lon="1.548793"><ele>1792</ele></trkpt>
   <trkpt lat="42.527058" lon="1.548744"><ele>1793.25</ele></trkpt>
   <trkpt lat="42.527073" lon="1.548696"><ele>1794.25</ele></trkpt>
   <trkpt lat="42.5271" lon="1.548651"><ele>1795</ele></trkpt>
   <trkpt lat="42.527205" lon="1.548553"><ele>1794.75</ele></trkpt>
   <trkpt lat="42.527295" lon="1.548505"><ele>1794.75</ele></trkpt>
   <trkpt lat="42.527424" lon="1.54841"><ele>1795.25</ele></trkpt>
   <trkpt lat="42.527521" lon="1.548314"><ele>1795.5</ele></trkpt>
   
  </trkseg>
 </trk>
</gpx>
