<?xml version="1.0" encoding="UTF-8"?>
<!-- track-length = 10224 filtered ascend = 422 plain-ascend = 418 cost=15626 energy=0.1kwh time=1h 15m 2s -->
<gpx 
 xmlns="http://www.topografix.com/GPX/1/1" 
 xmlns:xsi="http://www.w3.org/2001/XMLSchema-instance" 
 xsi:schemaLocation="http://www.topografix.com/GPX/1/1 http://www.topografix.com/GPX/1/1/gpx.xsd" 
 version="1.1" 
 creator="BRouter-Web 0.18.1">
 <trk>
  <name>Évian-les-Bains -&gt; Larringes (10.2km)</name>
  <trkseg>
   <trkpt lat="46.40152" lon="6.595893"><ele>375.25</ele></trkpt>
   <trkpt lat="46.401521" lon="6.595899"><ele>374.75</ele></trkpt>
   <trkpt lat="46.40154" lon="6.595982"><ele>374.75</ele></trkpt>
   <trkpt lat="46.401542" lon="6.596076"><ele>374.5</ele></trkpt>
   <trkpt lat="46.401528" lon="6.596148"><ele>374.5</ele></trkpt>
   <trkpt lat="46.401502" lon="6.596203"><ele>374.5</ele></trkpt>
   <trkpt lat="46.401481" lon="6.59621"><ele>374.75</ele></trkpt>
   <trkpt lat="46.401445" lon="6.596243"><ele>374.75</ele></trkpt>
   <trkpt lat="46.401362" lon="6.596192"><ele>375.5</ele></trkpt>
   <trkpt lat="46.401318" lon="6.596125"><ele>376.5</ele></trkpt>
   <trkpt lat="46.401306" lon="6.596083"><ele>376.75</ele></trkpt>
   <trkpt lat="46.401301" lon="6.596037"><ele>376.75</ele></trkpt>
   <trkpt lat="46.401316" lon="6.59591"><ele>376.5</ele></trkpt>
   <trkpt lat="46.401317" lon="6.595859"><ele>376.5</ele></trkpt>
   <trkpt lat="46.401305" lon="6.595759"><ele>376.25</ele></trkpt>
   <trkpt lat="46.401203" lon="6.595379"><ele>377.25</ele></trkpt>
   <trkpt lat="46.401184" lon="6.595319"><ele>377.25</ele></trkpt>
   <trkpt lat="46.401166" lon="6.595267"><ele>377.25</ele></trkpt>
   <trkpt lat="46.401119" lon="6.595171"><ele>377.75</ele></trkpt>
   <trkpt lat="46.40109" lon="6.595129"><ele>378</ele></trkpt>
   <trkpt lat="46.401035" lon="6.595064"><ele>378.5</ele></trkpt>
   <trkpt lat="46.400973" lon="6.595013"><ele>379</ele></trkpt>
   <trkpt lat="46.400962" lon="6.595005"><ele>379</ele></trkpt>
   <trkpt lat="46.40086" lon="6.594963"><ele>379.75</ele></trkpt>
   <trkpt lat="46.400773" lon="6.594955"><ele>380.25</ele></trkpt>
   <trkpt lat="46.400693" lon="6.594969"><ele>381</ele></trkpt>
   <trkpt lat="46.400618" lon="6.595004"><ele>381.5</ele></trkpt>
   <trkpt lat="46.400543" lon="6.595061"><ele>382.25</ele></trkpt>
   <trkpt lat="46.400476" lon="6.59514"><ele>383.75</ele></trkpt>
   <trkpt lat="46.400416" lon="6.595243"><ele>385</ele></trkpt>
   <trkpt lat="46.400395" lon="6.595303"><ele>385.25</ele></trkpt>
   <trkpt lat="46.40036" lon="6.595462"><ele>386.25</ele></trkpt>
   <trkpt lat="46.400329" lon="6.595662"><ele>386.75</ele></trkpt>
   <trkpt lat="46.4003" lon="6.595769"><ele>386.75</ele></trkpt>
   <trkpt lat="46.400257" lon="6.595898"><ele>387.5</ele></trkpt>
   <trkpt lat="46.400215" lon="6.59605"><ele>388.75</ele></trkpt>
   <trkpt lat="46.4002" lon="6.596128"><ele>389.25</ele></trkpt>
   <trkpt lat="46.400119" lon="6.596514"><ele>391</ele></trkpt>
   <trkpt lat="46.400009" lon="6.597103"><ele>392.25</ele></trkpt>
   <trkpt lat="46.399938" lon="6.597435"><ele>394.5</ele></trkpt>
   <trkpt lat="46.399928" lon="6.597478"><ele>394.75</ele></trkpt>
   <trkpt lat="46.399856" lon="6.597784"><ele>395.5</ele></trkpt>
   <trkpt lat="46.399821" lon="6.597927"><ele>396.5</ele></trkpt>
   <trkpt lat="46.399781" lon="6.598125"><ele>397.5</ele></trkpt>
   <trkpt lat="46.399634" lon="6.598884"><ele>401.25</ele></trkpt>
   <trkpt lat="46.399617" lon="6.598979"><ele>401.25</ele></trkpt>
   <trkpt lat="46.399609" lon="6.599029"><ele>401.25</ele></trkpt>
   <trkpt lat="46.399594" lon="6.599122"><ele>401.25</ele></trkpt>
   <trkpt lat="46.39955" lon="6.599366"><ele>403.25</ele></trkpt>
   <trkpt lat="46.399499" lon="6.599655"><ele>405</ele></trkpt>
   <trkpt lat="46.399471" lon="6.599916"><ele>405.25</ele></trkpt>
   <trkpt lat="46.399427" lon="6.600769"><ele>408</ele></trkpt>
   <trkpt lat="46.399425" lon="6.600809"><ele>408.25</ele></trkpt>
   <trkpt lat="46.399418" lon="6.60088"><ele>408.5</ele></trkpt>
   <trkpt lat="46.399394" lon="6.601122"><ele>409.5</ele></trkpt>
   <trkpt lat="46.399374" lon="6.601539"><ele>410.5</ele></trkpt>
   <trkpt lat="46.399338" lon="6.60235"><ele>414.5</ele></trkpt>
   <trkpt lat="46.399336" lon="6.602516"><ele>415.25</ele></trkpt>
   <trkpt lat="46.399337" lon="6.602568"><ele>415.25</ele></trkpt>
   <trkpt lat="46.399358" lon="6.602976"><ele>415.5</ele></trkpt>
   <trkpt lat="46.399371" lon="6.603114"><ele>416</ele></trkpt>
   <trkpt lat="46.399418" lon="6.603462"><ele>418</ele></trkpt>
   <trkpt lat="46.399428" lon="6.603589"><ele>418.25</ele></trkpt>
   <trkpt lat="46.399426" lon="6.603653"><ele>418.25</ele></trkpt>
   <trkpt lat="46.39941" lon="6.603778"><ele>418.75</ele></trkpt>
   <trkpt lat="46.399367" lon="6.603942"><ele>419.75</ele></trkpt>
   <trkpt lat="46.399299" lon="6.604194"><ele>421.75</ele></trkpt>
   <trkpt lat="46.399285" lon="6.604311"><ele>422.5</ele></trkpt>
   <trkpt lat="46.399284" lon="6.604371"><ele>423</ele></trkpt>
   <trkpt lat="46.399293" lon="6.60449"><ele>423</ele></trkpt>
   <trkpt lat="46.399347" lon="6.604867"><ele>422.5</ele></trkpt>
   <trkpt lat="46.399364" lon="6.60531"><ele>423</ele></trkpt>
   <trkpt lat="46.399365" lon="6.605434"><ele>423.25</ele></trkpt>
   <trkpt lat="46.399374" lon="6.606016"><ele>425.5</ele></trkpt>
   <trkpt lat="46.399375" lon="6.606136"><ele>426.25</ele></trkpt>
   <trkpt lat="46.39938" lon="6.606728"><ele>430</ele></trkpt>
   <trkpt lat="46.399375" lon="6.607611"><ele>431</ele></trkpt>
   <trkpt lat="46.399361" lon="6.607768"><ele>432</ele></trkpt>
   <trkpt lat="46.399325" lon="6.607917"><ele>432.5</ele></trkpt>
   <trkpt lat="46.399271" lon="6.608054"><ele>433</ele></trkpt>
   <trkpt lat="46.3992" lon="6.608174"><ele>434</ele></trkpt>
   <trkpt lat="46.399068" lon="6.60835"><ele>434.75</ele></trkpt>
   <trkpt lat="46.399029" lon="6.608413"><ele>434.75</ele></trkpt>
   <trkpt lat="46.399028" lon="6.608414"><ele>434.75</ele></trkpt>
   <trkpt lat="46.398991" lon="6.608481"><ele>434.75</ele></trkpt>
   <trkpt lat="46.398985" lon="6.608492"><ele>434.75</ele></trkpt>
   <trkpt lat="46.398923" lon="6.608643"><ele>435.25</ele></trkpt>
   <trkpt lat="46.398883" lon="6.608802"><ele>436</ele></trkpt>
   <trkpt lat="46.398859" lon="6.608968"><ele>436.75</ele></trkpt>
   <trkpt lat="46.398809" lon="6.610177"><ele>441.25</ele></trkpt>
   <trkpt lat="46.398806" lon="6.61024"><ele>441.5</ele></trkpt>
   <trkpt lat="46.398803" lon="6.610329"><ele>441.5</ele></trkpt>
   <trkpt lat="46.398791" lon="6.610419"><ele>441.5</ele></trkpt>
   <trkpt lat="46.398773" lon="6.610415"><ele>441.75</ele></trkpt>
   <trkpt lat="46.398737" lon="6.610424"><ele>442</ele></trkpt>
   <trkpt lat="46.398721" lon="6.610437"><ele>442</ele></trkpt>
   <trkpt lat="46.398697" lon="6.610477"><ele>442.25</ele></trkpt>
   <trkpt lat="46.398687" lon="6.61053"><ele>442.25</ele></trkpt>
   <trkpt lat="46.398695" lon="6.610584"><ele>442.25</ele></trkpt>
   <trkpt lat="46.398705" lon="6.610607"><ele>442.25</ele></trkpt>
   <trkpt lat="46.39867" lon="6.61065"><ele>442.5</ele></trkpt>
   <trkpt lat="46.398634" lon="6.610685"><ele>442.75</ele></trkpt>
   <trkpt lat="46.398555" lon="6.610739"><ele>443.25</ele></trkpt>
   <trkpt lat="46.398471" lon="6.610768"><ele>443.75</ele></trkpt>
   <trkpt lat="46.398385" lon="6.610783"><ele>444.25</ele></trkpt>
   <trkpt lat="46.398088" lon="6.610789"><ele>446.25</ele></trkpt>
   <trkpt lat="46.397997" lon="6.610808"><ele>447.25</ele></trkpt>
   <trkpt lat="46.397954" lon="6.610831"><ele>447.75</ele></trkpt>
   <trkpt lat="46.397877" lon="6.610902"><ele>447.5</ele></trkpt>
   <trkpt lat="46.397845" lon="6.610949"><ele>447.25</ele></trkpt>
   <trkpt lat="46.397817" lon="6.611006"><ele>447</ele></trkpt>
   <trkpt lat="46.397796" lon="6.611071"><ele>446.75</ele></trkpt>
   <trkpt lat="46.397784" lon="6.611142"><ele>446.75</ele></trkpt>
   <trkpt lat="46.39778" lon="6.611215"><ele>447.25</ele></trkpt>
   <trkpt lat="46.397784" lon="6.611291"><ele>447.25</ele></trkpt>
   <trkpt lat="46.397796" lon="6.611362"><ele>447.5</ele></trkpt>
   <trkpt lat="46.397841" lon="6.611495"><ele>449.5</ele></trkpt>
   <trkpt lat="46.397946" lon="6.611723"><ele>452.25</ele></trkpt>
   <trkpt lat="46.398009" lon="6.611888"><ele>451.25</ele></trkpt>
   <trkpt lat="46.398054" lon="6.612066"><ele>450.75</ele></trkpt>
   <trkpt lat="46.39808" lon="6.612252"><ele>451.5</ele></trkpt>
   <trkpt lat="46.398084" lon="6.612402"><ele>452</ele></trkpt>
   <trkpt lat="46.398046" lon="6.612993"><ele>454.25</ele></trkpt>
   <trkpt lat="46.398041" lon="6.61316"><ele>454.75</ele></trkpt>
   <trkpt lat="46.398059" lon="6.613407"><ele>455.25</ele></trkpt>
   <trkpt lat="46.398115" lon="6.613819"><ele>456.5</ele></trkpt>
   <trkpt lat="46.398106" lon="6.614025"><ele>457.25</ele></trkpt>
   <trkpt lat="46.398086" lon="6.614196"><ele>458</ele></trkpt>
   <trkpt lat="46.398042" lon="6.614357"><ele>459</ele></trkpt>
   <trkpt lat="46.39798" lon="6.614504"><ele>459.25</ele></trkpt>
   <trkpt lat="46.397945" lon="6.614573"><ele>459.25</ele></trkpt>
   <trkpt lat="46.397915" lon="6.614626"><ele>459.25</ele></trkpt>
   <trkpt lat="46.397821" lon="6.614758"><ele>459.5</ele></trkpt>
   <trkpt lat="46.397768" lon="6.614817"><ele>460</ele></trkpt>
   <trkpt lat="46.397608" lon="6.614964"><ele>461</ele></trkpt>
   <trkpt lat="46.397432" lon="6.61512"><ele>462.25</ele></trkpt>
   <trkpt lat="46.397362" lon="6.615191"><ele>462.75</ele></trkpt>
   <trkpt lat="46.397299" lon="6.615276"><ele>463</ele></trkpt>
   <trkpt lat="46.397243" lon="6.615371"><ele>463.25</ele></trkpt>
   <trkpt lat="46.397171" lon="6.615491"><ele>464</ele></trkpt>
   <trkpt lat="46.39713" lon="6.615546"><ele>464.5</ele></trkpt>
   <trkpt lat="46.397058" lon="6.615671"><ele>465.25</ele></trkpt>
   <trkpt lat="46.397003" lon="6.615812"><ele>465.25</ele></trkpt>
   <trkpt lat="46.396947" lon="6.615977"><ele>465.25</ele></trkpt>
   <trkpt lat="46.396921" lon="6.616037"><ele>465.5</ele></trkpt>
   <trkpt lat="46.396892" lon="6.616094"><ele>465.5</ele></trkpt>
   <trkpt lat="46.396671" lon="6.616275"><ele>467.25</ele></trkpt>
   <trkpt lat="46.396633" lon="6.616307"><ele>468.25</ele></trkpt>
   <trkpt lat="46.396671" lon="6.616275"><ele>467.25</ele></trkpt>
   <trkpt lat="46.396625" lon="6.616194"><ele>468</ele></trkpt>
   <trkpt lat="46.396502" lon="6.616025"><ele>469.25</ele></trkpt>
   <trkpt lat="46.396446" lon="6.61591"><ele>469.5</ele></trkpt>
   <trkpt lat="46.396424" lon="6.615847"><ele>469.75</ele></trkpt>
   <trkpt lat="46.396382" lon="6.615225"><ele>472</ele></trkpt>
   <trkpt lat="46.396371" lon="6.615056"><ele>472</ele></trkpt>
   <trkpt lat="46.39633" lon="6.614477"><ele>473.25</ele></trkpt>
   <trkpt lat="46.396319" lon="6.614366"><ele>473.75</ele></trkpt>
   <trkpt lat="46.396284" lon="6.614148"><ele>474.5</ele></trkpt>
   <trkpt lat="46.396251" lon="6.613984"><ele>474.75</ele></trkpt>
   <trkpt lat="46.396165" lon="6.613681"><ele>476</ele></trkpt>
   <trkpt lat="46.396113" lon="6.613536"><ele>476.75</ele></trkpt>
   <trkpt lat="46.396055" lon="6.613397"><ele>477.25</ele></trkpt>
   <trkpt lat="46.395992" lon="6.613263"><ele>477.5</ele></trkpt>
   <trkpt lat="46.395922" lon="6.613135"><ele>477.75</ele></trkpt>
   <trkpt lat="46.395736" lon="6.612826"><ele>479</ele></trkpt>
   <trkpt lat="46.395622" lon="6.612636"><ele>480.25</ele></trkpt>
   <trkpt lat="46.395597" lon="6.612593"><ele>480.5</ele></trkpt>
   <trkpt lat="46.395518" lon="6.61246"><ele>481.25</ele></trkpt>
   <trkpt lat="46.395495" lon="6.612422"><ele>481.25</ele></trkpt>
   <trkpt lat="46.39543" lon="6.61232"><ele>482</ele></trkpt>
   <trkpt lat="46.395304" lon="6.612127"><ele>483</ele></trkpt>
   <trkpt lat="46.394923" lon="6.611534"><ele>484.75</ele></trkpt>
   <trkpt lat="46.394858" lon="6.611438"><ele>484.75</ele></trkpt>
   <trkpt lat="46.394689" lon="6.61117"><ele>486.5</ele></trkpt>
   <trkpt lat="46.394508" lon="6.610847"><ele>488.25</ele></trkpt>
   <trkpt lat="46.394463" lon="6.610738"><ele>488.5</ele></trkpt>
   <trkpt lat="46.394448" lon="6.610679"><ele>488.75</ele></trkpt>
   <trkpt lat="46.39444" lon="6.610616"><ele>489</ele></trkpt>
   <trkpt lat="46.394442" lon="6.610477"><ele>489</ele></trkpt>
   <trkpt lat="46.394469" lon="6.610344"><ele>488.5</ele></trkpt>
   <trkpt lat="46.394635" lon="6.609892"><ele>490.75</ele></trkpt>
   <trkpt lat="46.394683" lon="6.609733"><ele>492</ele></trkpt>
   <trkpt lat="46.394714" lon="6.609586"><ele>492</ele></trkpt>
   <trkpt lat="46.394722" lon="6.609508"><ele>492</ele></trkpt>
   <trkpt lat="46.39473" lon="6.609385"><ele>492</ele></trkpt>
   <trkpt lat="46.394729" lon="6.609122"><ele>493</ele></trkpt>
   <trkpt lat="46.394717" lon="6.608712"><ele>494</ele></trkpt>
   <trkpt lat="46.394707" lon="6.60857"><ele>494.25</ele></trkpt>
   <trkpt lat="46.394692" lon="6.608432"><ele>495</ele></trkpt>
   <trkpt lat="46.394669" lon="6.608294"><ele>495.5</ele></trkpt>
   <trkpt lat="46.394602" lon="6.608022"><ele>496.25</ele></trkpt>
   <trkpt lat="46.394288" lon="6.606873"><ele>500</ele></trkpt>
   <trkpt lat="46.394149" lon="6.606415"><ele>502</ele></trkpt>
   <trkpt lat="46.394116" lon="6.606297"><ele>502.25</ele></trkpt>
   <trkpt lat="46.394105" lon="6.606258"><ele>502.5</ele></trkpt>
   <trkpt lat="46.394073" lon="6.606143"><ele>502.75</ele></trkpt>
   <trkpt lat="46.394058" lon="6.606091"><ele>503</ele></trkpt>
   <trkpt lat="46.393995" lon="6.605848"><ele>503.5</ele></trkpt>
   <trkpt lat="46.393957" lon="6.605683"><ele>503.75</ele></trkpt>
   <trkpt lat="46.393748" lon="6.604921"><ele>507</ele></trkpt>
   <trkpt lat="46.393737" lon="6.604886"><ele>507</ele></trkpt>
   <trkpt lat="46.393709" lon="6.604802"><ele>507.25</ele></trkpt>
   <trkpt lat="46.39368" lon="6.604721"><ele>507.5</ele></trkpt>
   <trkpt lat="46.393585" lon="6.604445"><ele>509</ele></trkpt>
   <trkpt lat="46.393498" lon="6.60419"><ele>509.75</ele></trkpt>
   <trkpt lat="46.39349" lon="6.604161"><ele>509.75</ele></trkpt>
   <trkpt lat="46.393451" lon="6.604023"><ele>510.25</ele></trkpt>
   <trkpt lat="46.393334" lon="6.603601"><ele>512</ele></trkpt>
   <trkpt lat="46.393297" lon="6.603489"><ele>512.25</ele></trkpt>
   <trkpt lat="46.393227" lon="6.603309"><ele>512.75</ele></trkpt>
   <trkpt lat="46.393176" lon="6.603198"><ele>513</ele></trkpt>
   <trkpt lat="46.393087" lon="6.60303"><ele>514.5</ele></trkpt>
   <trkpt lat="46.393031" lon="6.602929"><ele>515.5</ele></trkpt>
   <trkpt lat="46.393006" lon="6.602884"><ele>515.75</ele></trkpt>
   <trkpt lat="46.392813" lon="6.602527"><ele>517.5</ele></trkpt>
   <trkpt lat="46.392733" lon="6.602354"><ele>518.25</ele></trkpt>
   <trkpt lat="46.392637" lon="6.602082"><ele>519.75</ele></trkpt>
   <trkpt lat="46.392547" lon="6.601809"><ele>521.25</ele></trkpt>
   <trkpt lat="46.392247" lon="6.600843"><ele>525.75</ele></trkpt>
   <trkpt lat="46.392208" lon="6.600706"><ele>526</ele></trkpt>
   <trkpt lat="46.392193" lon="6.600654"><ele>526.25</ele></trkpt>
   <trkpt lat="46.392155" lon="6.60054"><ele>526.5</ele></trkpt>
   <trkpt lat="46.392138" lon="6.600492"><ele>526.75</ele></trkpt>
   <trkpt lat="46.391996" lon="6.600091"><ele>529.25</ele></trkpt>
   <trkpt lat="46.391899" lon="6.599837"><ele>530.25</ele></trkpt>
   <trkpt lat="46.391874" lon="6.599772"><ele>530.75</ele></trkpt>
   <trkpt lat="46.391678" lon="6.599218"><ele>532.75</ele></trkpt>
   <trkpt lat="46.391609" lon="6.599031"><ele>533.75</ele></trkpt>
   <trkpt lat="46.391599" lon="6.599002"><ele>534</ele></trkpt>
   <trkpt lat="46.39154" lon="6.598817"><ele>535</ele></trkpt>
   <trkpt lat="46.391458" lon="6.598532"><ele>536</ele></trkpt>
   <trkpt lat="46.391329" lon="6.598083"><ele>537.75</ele></trkpt>
   <trkpt lat="46.391234" lon="6.597748"><ele>538.5</ele></trkpt>
   <trkpt lat="46.390876" lon="6.596454"><ele>545</ele></trkpt>
   <trkpt lat="46.390846" lon="6.596267"><ele>546</ele></trkpt>
   <trkpt lat="46.390793" lon="6.596084"><ele>547.5</ele></trkpt>
   <trkpt lat="46.390719" lon="6.595831"><ele>548.25</ele></trkpt>
   <trkpt lat="46.390671" lon="6.595726"><ele>549</ele></trkpt>
   <trkpt lat="46.39051" lon="6.595142"><ele>551.75</ele></trkpt>
   <trkpt lat="46.390444" lon="6.594904"><ele>553</ele></trkpt>
   <trkpt lat="46.390391" lon="6.594713"><ele>553.75</ele></trkpt>
   <trkpt lat="46.390363" lon="6.594609"><ele>554</ele></trkpt>
   <trkpt lat="46.390362" lon="6.594608"><ele>554</ele></trkpt>
   <trkpt lat="46.390337" lon="6.594519"><ele>554.25</ele></trkpt>
   <trkpt lat="46.39033" lon="6.594493"><ele>554.25</ele></trkpt>
   <trkpt lat="46.390202" lon="6.594044"><ele>557.5</ele></trkpt>
   <trkpt lat="46.390111" lon="6.593721"><ele>558.5</ele></trkpt>
   <trkpt lat="46.390054" lon="6.593519"><ele>559</ele></trkpt>
   <trkpt lat="46.390043" lon="6.593483"><ele>559</ele></trkpt>
   <trkpt lat="46.390033" lon="6.593447"><ele>559.25</ele></trkpt>
   <trkpt lat="46.389967" lon="6.593235"><ele>560.25</ele></trkpt>
   <trkpt lat="46.389887" lon="6.592978"><ele>561.25</ele></trkpt>
   <trkpt lat="46.38983" lon="6.592776"><ele>561.5</ele></trkpt>
   <trkpt lat="46.38982" lon="6.59274"><ele>561.75</ele></trkpt>
   <trkpt lat="46.389812" lon="6.592703"><ele>561.75</ele></trkpt>
   <trkpt lat="46.389732" lon="6.592327"><ele>563.5</ele></trkpt>
   <trkpt lat="46.389649" lon="6.592026"><ele>564.25</ele></trkpt>
   <trkpt lat="46.389557" lon="6.591728"><ele>565.5</ele></trkpt>
   <trkpt lat="46.389452" lon="6.591454"><ele>567.75</ele></trkpt>
   <trkpt lat="46.389313" lon="6.591165"><ele>568.5</ele></trkpt>
   <trkpt lat="46.389158" lon="6.590892"><ele>571</ele></trkpt>
   <trkpt lat="46.389117" lon="6.590822"><ele>571.25</ele></trkpt>
   <trkpt lat="46.389044" lon="6.590697"><ele>571.75</ele></trkpt>
   <trkpt lat="46.389013" lon="6.590597"><ele>572</ele></trkpt>
   <trkpt lat="46.388861" lon="6.590325"><ele>573.25</ele></trkpt>
   <trkpt lat="46.388841" lon="6.590253"><ele>573.5</ele></trkpt>
   <trkpt lat="46.388832" lon="6.590181"><ele>573.5</ele></trkpt>
   <trkpt lat="46.388842" lon="6.590136"><ele>573.5</ele></trkpt>
   <trkpt lat="46.388842" lon="6.590087"><ele>573.5</ele></trkpt>
   <trkpt lat="46.388833" lon="6.590041"><ele>573.5</ele></trkpt>
   <trkpt lat="46.388814" lon="6.590002"><ele>573.75</ele></trkpt>
   <trkpt lat="46.388787" lon="6.589973"><ele>574</ele></trkpt>
   <trkpt lat="46.388753" lon="6.589956"><ele>574.25</ele></trkpt>
   <trkpt lat="46.388717" lon="6.589956"><ele>574.75</ele></trkpt>
   <trkpt lat="46.388683" lon="6.589973"><ele>575</ele></trkpt>
   <trkpt lat="46.388645" lon="6.58994"><ele>575.5</ele></trkpt>
   <trkpt lat="46.388611" lon="6.589897"><ele>576</ele></trkpt>
   <trkpt lat="46.388483" lon="6.589691"><ele>577.25</ele></trkpt>
   <trkpt lat="46.388399" lon="6.589594"><ele>578.25</ele></trkpt>
   <trkpt lat="46.388291" lon="6.58936"><ele>579.75</ele></trkpt>
   <trkpt lat="46.388235" lon="6.589211"><ele>580.75</ele></trkpt>
   <trkpt lat="46.388145" lon="6.5889"><ele>581.25</ele></trkpt>
   <trkpt lat="46.388097" lon="6.588702"><ele>582.25</ele></trkpt>
   <trkpt lat="46.388077" lon="6.588615"><ele>582.5</ele></trkpt>
   <trkpt lat="46.387834" lon="6.587569"><ele>586.75</ele></trkpt>
   <trkpt lat="46.387793" lon="6.587411"><ele>587.5</ele></trkpt>
   <trkpt lat="46.387703" lon="6.587107"><ele>589</ele></trkpt>
   <trkpt lat="46.387562" lon="6.586677"><ele>591.5</ele></trkpt>
   <trkpt lat="46.38755" lon="6.58664"><ele>591.75</ele></trkpt>
   <trkpt lat="46.387404" lon="6.586193"><ele>593.75</ele></trkpt>
   <trkpt lat="46.387239" lon="6.585666"><ele>596.5</ele></trkpt>
   <trkpt lat="46.387142" lon="6.585341"><ele>598.5</ele></trkpt>
   <trkpt lat="46.386737" lon="6.583887"><ele>603.75</ele></trkpt>
   <trkpt lat="46.386617" lon="6.583445"><ele>606.75</ele></trkpt>
   <trkpt lat="46.386518" lon="6.583019"><ele>608.5</ele></trkpt>
   <trkpt lat="46.386136" lon="6.581205"><ele>614.25</ele></trkpt>
   <trkpt lat="46.386089" lon="6.580927"><ele>616</ele></trkpt>
   <trkpt lat="46.386053" lon="6.580671"><ele>617</ele></trkpt>
   <trkpt lat="46.38596" lon="6.579898"><ele>616.25</ele></trkpt>
   <trkpt lat="46.385937" lon="6.579675"><ele>616.25</ele></trkpt>
   <trkpt lat="46.385848" lon="6.579745"><ele>619.5</ele></trkpt>
   <trkpt lat="46.385816" lon="6.579762"><ele>620</ele></trkpt>
   <trkpt lat="46.385749" lon="6.579782"><ele>620.5</ele></trkpt>
   <trkpt lat="46.385579" lon="6.579809"><ele>621.75</ele></trkpt>
   <trkpt lat="46.385535" lon="6.579839"><ele>622.5</ele></trkpt>
   <trkpt lat="46.385511" lon="6.579791"><ele>623.5</ele></trkpt>
   <trkpt lat="46.385476" lon="6.579719"><ele>624.75</ele></trkpt>
   <trkpt lat="46.385456" lon="6.579632"><ele>625.5</ele></trkpt>
   <trkpt lat="46.385399" lon="6.579045"><ele>625.75</ele></trkpt>
   <trkpt lat="46.385368" lon="6.578822"><ele>626</ele></trkpt>
   <trkpt lat="46.385287" lon="6.578382"><ele>626.75</ele></trkpt>
   <trkpt lat="46.385189" lon="6.57795"><ele>628.5</ele></trkpt>
   <trkpt lat="46.38507" lon="6.577528"><ele>630</ele></trkpt>
   <trkpt lat="46.384916" lon="6.577044"><ele>631</ele></trkpt>
   <trkpt lat="46.384874" lon="6.57684"><ele>631.5</ele></trkpt>
   <trkpt lat="46.384861" lon="6.576735"><ele>632</ele></trkpt>
   <trkpt lat="46.384853" lon="6.576522"><ele>632.25</ele></trkpt>
   <trkpt lat="46.384858" lon="6.576415"><ele>632</ele></trkpt>
   <trkpt lat="46.384904" lon="6.575986"><ele>635</ele></trkpt>
   <trkpt lat="46.384906" lon="6.575872"><ele>634.75</ele></trkpt>
   <trkpt lat="46.384895" lon="6.575647"><ele>634.5</ele></trkpt>
   <trkpt lat="46.384863" lon="6.575427"><ele>635.25</ele></trkpt>
   <trkpt lat="46.38484" lon="6.575319"><ele>636</ele></trkpt>
   <trkpt lat="46.384792" lon="6.575143"><ele>637</ele></trkpt>
   <trkpt lat="46.384262" lon="6.573372"><ele>641.5</ele></trkpt>
   <trkpt lat="46.383982" lon="6.57233"><ele>644.25</ele></trkpt>
   <trkpt lat="46.38397" lon="6.572282"><ele>644.25</ele></trkpt>
   <trkpt lat="46.383945" lon="6.572295"><ele>645</ele></trkpt>
   <trkpt lat="46.383891" lon="6.572343"><ele>646.25</ele></trkpt>
   <trkpt lat="46.383869" lon="6.572377"><ele>647</ele></trkpt>
   <trkpt lat="46.383854" lon="6.572414"><ele>647.5</ele></trkpt>
   <trkpt lat="46.383869" lon="6.572377"><ele>647</ele></trkpt>
   <trkpt lat="46.383891" lon="6.572343"><ele>646.25</ele></trkpt>
   <trkpt lat="46.383945" lon="6.572295"><ele>645</ele></trkpt>
   <trkpt lat="46.38397" lon="6.572282"><ele>644.25</ele></trkpt>
   <trkpt lat="46.383924" lon="6.5721"><ele>644.75</ele></trkpt>
   <trkpt lat="46.383348" lon="6.569832"><ele>649.75</ele></trkpt>
   <trkpt lat="46.383256" lon="6.56951"><ele>651.25</ele></trkpt>
   <trkpt lat="46.383212" lon="6.569376"><ele>651.25</ele></trkpt>
   <trkpt lat="46.382972" lon="6.568713"><ele>653.25</ele></trkpt>
   <trkpt lat="46.382816" lon="6.568294"><ele>654.75</ele></trkpt>
   <trkpt lat="46.382742" lon="6.568072"><ele>655.75</ele></trkpt>
   <trkpt lat="46.382664" lon="6.567804"><ele>656.5</ele></trkpt>
   <trkpt lat="46.382572" lon="6.567452"><ele>657.25</ele></trkpt>
   <trkpt lat="46.382249" lon="6.566117"><ele>659.5</ele></trkpt>
   <trkpt lat="46.382118" lon="6.565561"><ele>661.5</ele></trkpt>
   <trkpt lat="46.381935" lon="6.564826"><ele>664</ele></trkpt>
   <trkpt lat="46.381706" lon="6.564035"><ele>665.5</ele></trkpt>
   <trkpt lat="46.381106" lon="6.562142"><ele>670</ele></trkpt>
   <trkpt lat="46.380806" lon="6.561266"><ele>673</ele></trkpt>
   <trkpt lat="46.380518" lon="6.560544"><ele>674.5</ele></trkpt>
   <trkpt lat="46.380346" lon="6.560144"><ele>675.75</ele></trkpt>
   <trkpt lat="46.380216" lon="6.559816"><ele>676.25</ele></trkpt>
   <trkpt lat="46.380054" lon="6.559378"><ele>677.25</ele></trkpt>
   <trkpt lat="46.379326" lon="6.556976"><ele>680.75</ele></trkpt>
   <trkpt lat="46.379264" lon="6.556807"><ele>680.75</ele></trkpt>
   <trkpt lat="46.379178" lon="6.556646"><ele>681.5</ele></trkpt>
   <trkpt lat="46.379136" lon="6.556589"><ele>682</ele></trkpt>
   <trkpt lat="46.379045" lon="6.55648"><ele>682.5</ele></trkpt>
   <trkpt lat="46.378977" lon="6.556415"><ele>682.5</ele></trkpt>
   <trkpt lat="46.378908" lon="6.556367"><ele>682.5</ele></trkpt>
   <trkpt lat="46.378771" lon="6.556295"><ele>682.25</ele></trkpt>
   <trkpt lat="46.378655" lon="6.556257"><ele>682.25</ele></trkpt>
   <trkpt lat="46.378523" lon="6.556251"><ele>682.5</ele></trkpt>
   <trkpt lat="46.378184" lon="6.556281"><ele>682.75</ele></trkpt>
   <trkpt lat="46.378067" lon="6.556299"><ele>683</ele></trkpt>
   <trkpt lat="46.377978" lon="6.556312"><ele>683</ele></trkpt>
   <trkpt lat="46.377955" lon="6.556316"><ele>683</ele></trkpt>
   <trkpt lat="46.37785" lon="6.556336"><ele>682.75</ele></trkpt>
   <trkpt lat="46.377709" lon="6.556368"><ele>682.75</ele></trkpt>
   <trkpt lat="46.377547" lon="6.556399"><ele>683</ele></trkpt>
   <trkpt lat="46.377428" lon="6.556401"><ele>683.25</ele></trkpt>
   <trkpt lat="46.377312" lon="6.556367"><ele>683.75</ele></trkpt>
   <trkpt lat="46.377187" lon="6.556295"><ele>684.25</ele></trkpt>
   <trkpt lat="46.3771" lon="6.556235"><ele>684.75</ele></trkpt>
   <trkpt lat="46.377077" lon="6.556219"><ele>684.75</ele></trkpt>
   <trkpt lat="46.376965" lon="6.556143"><ele>684.75</ele></trkpt>
   <trkpt lat="46.376862" lon="6.556072"><ele>685</ele></trkpt>
   <trkpt lat="46.376835" lon="6.556053"><ele>685</ele></trkpt>
   <trkpt lat="46.37681" lon="6.556036"><ele>685</ele></trkpt>
   <trkpt lat="46.376695" lon="6.555957"><ele>685</ele></trkpt>
   <trkpt lat="46.37627" lon="6.555662"><ele>686.25</ele></trkpt>
   <trkpt lat="46.376202" lon="6.555615"><ele>686.5</ele></trkpt>
   <trkpt lat="46.376059" lon="6.555502"><ele>687.25</ele></trkpt>
   <trkpt lat="46.375952" lon="6.555396"><ele>687.75</ele></trkpt>
   <trkpt lat="46.375841" lon="6.555248"><ele>688</ele></trkpt>
   <trkpt lat="46.3756" lon="6.554844"><ele>689</ele></trkpt>
   <trkpt lat="46.375392" lon="6.554484"><ele>690.75</ele></trkpt>
   <trkpt lat="46.375284" lon="6.554321"><ele>691.25</ele></trkpt>
   <trkpt lat="46.375165" lon="6.554175"><ele>692.25</ele></trkpt>
   <trkpt lat="46.374824" lon="6.55386"><ele>694.5</ele></trkpt>
   <trkpt lat="46.374754" lon="6.553796"><ele>694.75</ele></trkpt>
   <trkpt lat="46.374605" lon="6.55368"><ele>695.75</ele></trkpt>
   <trkpt lat="46.374436" lon="6.553584"><ele>697</ele></trkpt>
   <trkpt lat="46.374329" lon="6.553542"><ele>697.5</ele></trkpt>
   <trkpt lat="46.374169" lon="6.553505"><ele>698.5</ele></trkpt>
   <trkpt lat="46.374016" lon="6.553495"><ele>699.25</ele></trkpt>
   <trkpt lat="46.373845" lon="6.5535"><ele>700.25</ele></trkpt>
   <trkpt lat="46.373666" lon="6.553506"><ele>701.25</ele></trkpt>
   <trkpt lat="46.373506" lon="6.553498"><ele>702.25</ele></trkpt>
   <trkpt lat="46.373349" lon="6.553464"><ele>703.25</ele></trkpt>
   <trkpt lat="46.373271" lon="6.553437"><ele>703.5</ele></trkpt>
   <trkpt lat="46.373149" lon="6.553385"><ele>704.25</ele></trkpt>
   <trkpt lat="46.373006" lon="6.553311"><ele>705.5</ele></trkpt>
   <trkpt lat="46.372628" lon="6.553087"><ele>708.5</ele></trkpt>
   <trkpt lat="46.372352" lon="6.552905"><ele>710.5</ele></trkpt>
   <trkpt lat="46.372287" lon="6.552863"><ele>710.5</ele></trkpt>
   <trkpt lat="46.372255" lon="6.552848"><ele>710.75</ele></trkpt>
   <trkpt lat="46.372186" lon="6.55284"><ele>711.25</ele></trkpt>
   <trkpt lat="46.37213" lon="6.552851"><ele>711.5</ele></trkpt>
   <trkpt lat="46.372076" lon="6.552874"><ele>712</ele></trkpt>
   <trkpt lat="46.371973" lon="6.552944"><ele>713</ele></trkpt>
   <trkpt lat="46.371927" lon="6.552991"><ele>713.5</ele></trkpt>
   <trkpt lat="46.371506" lon="6.55356"><ele>719</ele></trkpt>
   <trkpt lat="46.37145" lon="6.553645"><ele>719.5</ele></trkpt>
   <trkpt lat="46.371363" lon="6.553822"><ele>720</ele></trkpt>
   <trkpt lat="46.371325" lon="6.553922"><ele>720</ele></trkpt>
   <trkpt lat="46.371295" lon="6.554025"><ele>720.25</ele></trkpt>
   <trkpt lat="46.371266" lon="6.554184"><ele>720.25</ele></trkpt>
   <trkpt lat="46.37126" lon="6.554257"><ele>720.5</ele></trkpt>
   <trkpt lat="46.371255" lon="6.55436"><ele>720.75</ele></trkpt>
   <trkpt lat="46.371238" lon="6.55484"><ele>721.75</ele></trkpt>
   <trkpt lat="46.37122" lon="6.555371"><ele>724.5</ele></trkpt>
   <trkpt lat="46.371198" lon="6.555999"><ele>728.25</ele></trkpt>
   <trkpt lat="46.371197" lon="6.556042"><ele>728.5</ele></trkpt>
   <trkpt lat="46.371193" lon="6.556156"><ele>729.25</ele></trkpt>
   <trkpt lat="46.37118" lon="6.55648"><ele>730.5</ele></trkpt>
   <trkpt lat="46.37113" lon="6.557022"><ele>732</ele></trkpt>
   <trkpt lat="46.371098" lon="6.557267"><ele>733.25</ele></trkpt>
   <trkpt lat="46.37106" lon="6.557427"><ele>734.25</ele></trkpt>
   <trkpt lat="46.371045" lon="6.557477"><ele>734.5</ele></trkpt>
   <trkpt lat="46.370926" lon="6.557822"><ele>735.25</ele></trkpt>
   <trkpt lat="46.370878" lon="6.557972"><ele>736.25</ele></trkpt>
   <trkpt lat="46.370848" lon="6.558113"><ele>737</ele></trkpt>
   <trkpt lat="46.370836" lon="6.558239"><ele>737.5</ele></trkpt>
   <trkpt lat="46.370841" lon="6.558373"><ele>738</ele></trkpt>
   <trkpt lat="46.370875" lon="6.558586"><ele>738.5</ele></trkpt>
   <trkpt lat="46.37092" lon="6.558772"><ele>739</ele></trkpt>
   <trkpt lat="46.37094" lon="6.558844"><ele>739.25</ele></trkpt>
   <trkpt lat="46.370976" lon="6.558966"><ele>740</ele></trkpt>
   <trkpt lat="46.371078" lon="6.559313"><ele>742.5</ele></trkpt>
   <trkpt lat="46.371095" lon="6.559368"><ele>742.75</ele></trkpt>
   <trkpt lat="46.371107" lon="6.559407"><ele>742.75</ele></trkpt>
   <trkpt lat="46.371169" lon="6.559591"><ele>743.5</ele></trkpt>
   <trkpt lat="46.371213" lon="6.559701"><ele>744</ele></trkpt>
   <trkpt lat="46.371537" lon="6.560454"><ele>747.5</ele></trkpt>
   <trkpt lat="46.371561" lon="6.560529"><ele>747.75</ele></trkpt>
   <trkpt lat="46.371576" lon="6.560603"><ele>748.25</ele></trkpt>
   <trkpt lat="46.371585" lon="6.560752"><ele>749</ele></trkpt>
   <trkpt lat="46.371576" lon="6.560828"><ele>749.5</ele></trkpt>
   <trkpt lat="46.371554" lon="6.560896"><ele>750</ele></trkpt>
   <trkpt lat="46.371517" lon="6.560959"><ele>750.5</ele></trkpt>
   <trkpt lat="46.371466" lon="6.561018"><ele>751</ele></trkpt>
   <trkpt lat="46.371407" lon="6.561069"><ele>751.5</ele></trkpt>
   <trkpt lat="46.371374" lon="6.561017"><ele>751.5</ele></trkpt>
   <trkpt lat="46.371271" lon="6.560913"><ele>748.75</ele></trkpt>
   <trkpt lat="46.371374" lon="6.561017"><ele>751.5</ele></trkpt>
   <trkpt lat="46.371407" lon="6.561069"><ele>751.5</ele></trkpt>
   <trkpt lat="46.371071" lon="6.561315"><ele>753.5</ele></trkpt>
   <trkpt lat="46.371032" lon="6.561344"><ele>753.75</ele></trkpt>
   <trkpt lat="46.370575" lon="6.561681"><ele>757.75</ele></trkpt>
   <trkpt lat="46.370397" lon="6.561835"><ele>758.75</ele></trkpt>
   <trkpt lat="46.370097" lon="6.562163"><ele>761.5</ele></trkpt>
   <trkpt lat="46.36974" lon="6.562572"><ele>764.5</ele></trkpt>
   <trkpt lat="46.369558" lon="6.562754"><ele>765.75</ele></trkpt>
   <trkpt lat="46.369102" lon="6.563084"><ele>768</ele></trkpt>
   <trkpt lat="46.368977" lon="6.563217"><ele>768.25</ele></trkpt>
   <trkpt lat="46.368794" lon="6.563465"><ele>769</ele></trkpt>
   <trkpt lat="46.368642" lon="6.563628"><ele>769.75</ele></trkpt>
   <trkpt lat="46.368449" lon="6.563775"><ele>770.75</ele></trkpt>
   <trkpt lat="46.368367" lon="6.563822"><ele>771.25</ele></trkpt>
   <trkpt lat="46.368058" lon="6.563952"><ele>772</ele></trkpt>
   <trkpt lat="46.367993" lon="6.563986"><ele>772.75</ele></trkpt>
   <trkpt lat="46.367838" lon="6.564108"><ele>774.25</ele></trkpt>
   <trkpt lat="46.367754" lon="6.5642"><ele>775.25</ele></trkpt>
   <trkpt lat="46.367728" lon="6.564242"><ele>775.75</ele></trkpt>
   <trkpt lat="46.367707" lon="6.564303"><ele>776.25</ele></trkpt>
   <trkpt lat="46.367674" lon="6.564461"><ele>777.75</ele></trkpt>
   <trkpt lat="46.367603" lon="6.56526"><ele>780.5</ele></trkpt>
   <trkpt lat="46.36758" lon="6.565558"><ele>781</ele></trkpt>
   <trkpt lat="46.367553" lon="6.565739"><ele>781</ele></trkpt>
   <trkpt lat="46.367531" lon="6.565822"><ele>781</ele></trkpt>
   <trkpt lat="46.367483" lon="6.565936"><ele>781</ele></trkpt>
   <trkpt lat="46.367382" lon="6.566099"><ele>781.25</ele></trkpt>
   <trkpt lat="46.367095" lon="6.566493"><ele>783</ele></trkpt>
   <trkpt lat="46.367009" lon="6.56663"><ele>783.5</ele></trkpt>
   <trkpt lat="46.366927" lon="6.566779"><ele>784</ele></trkpt>
   <trkpt lat="46.366906" lon="6.56684"><ele>784</ele></trkpt>
   <trkpt lat="46.366886" lon="6.566942"><ele>784</ele></trkpt>
   <trkpt lat="46.366881" lon="6.567037"><ele>784.25</ele></trkpt>
   <trkpt lat="46.366889" lon="6.567136"><ele>784.5</ele></trkpt>
   <trkpt lat="46.366923" lon="6.567274"><ele>784.75</ele></trkpt>
   <trkpt lat="46.367103" lon="6.56777"><ele>785.5</ele></trkpt>
   <trkpt lat="46.367121" lon="6.567812"><ele>785.5</ele></trkpt>
   <trkpt lat="46.367143" lon="6.567866"><ele>785.75</ele></trkpt>
   <trkpt lat="46.367217" lon="6.568037"><ele>786.75</ele></trkpt>
   <trkpt lat="46.367338" lon="6.568317"><ele>787.25</ele></trkpt>
   <trkpt lat="46.36739" lon="6.568459"><ele>787.25</ele></trkpt>
   <trkpt lat="46.367396" lon="6.568476"><ele>787.25</ele></trkpt>
   <trkpt lat="46.367441" lon="6.5686"><ele>787.5</ele></trkpt>
   <trkpt lat="46.367454" lon="6.568637"><ele>787.5</ele></trkpt>
   <trkpt lat="46.367469" lon="6.568678"><ele>787.75</ele></trkpt>
   <trkpt lat="46.367507" lon="6.568792"><ele>788.5</ele></trkpt>
   <trkpt lat="46.367527" lon="6.568851"><ele>788.75</ele></trkpt>
   <trkpt lat="46.367548" lon="6.568908"><ele>789</ele></trkpt>
   <trkpt lat="46.36759" lon="6.569017"><ele>789.25</ele></trkpt>
   <trkpt lat="46.367621" lon="6.569097"><ele>789.5</ele></trkpt>
   <trkpt lat="46.367628" lon="6.569114"><ele>789.5</ele></trkpt>
   <trkpt lat="46.367742" lon="6.5694"><ele>791.5</ele></trkpt>
   <trkpt lat="46.367865" lon="6.569661"><ele>793</ele></trkpt>
   <trkpt lat="46.36798" lon="6.569896"><ele>794</ele></trkpt>
   <trkpt lat="46.368082" lon="6.570071"><ele>794.75</ele></trkpt>
   <trkpt lat="46.368199" lon="6.570232"><ele>794.75</ele></trkpt>
   <trkpt lat="46.368228" lon="6.570273"><ele>794.75</ele></trkpt>
   <trkpt lat="46.368317" lon="6.570409"><ele>795.25</ele></trkpt>
   <trkpt lat="46.368353" lon="6.570485"><ele>795.5</ele></trkpt>
   <trkpt lat="46.368385" lon="6.570566"><ele>795.5</ele></trkpt>
   <trkpt lat="46.368431" lon="6.57074"><ele>795.5</ele></trkpt>
   <trkpt lat="46.368496" lon="6.571357"><ele>795.75</ele></trkpt>
   <trkpt lat="46.368537" lon="6.571577"><ele>796</ele></trkpt>
   <trkpt lat="46.368537" lon="6.571579"><ele>796</ele></trkpt>
   <trkpt lat="46.368682" lon="6.572069"><ele>796.25</ele></trkpt>
  </trkseg>
 </trk>
</gpx>
