<?xml version="1.0" encoding="UTF-8"?>
<!-- track-length = 13166 filtered ascend = 682 plain-ascend = 662 cost=20740 energy=0.2kwh time=2h 30s -->
<gpx 
 xmlns="http://www.topografix.com/GPX/1/1" 
 xmlns:xsi="http://www.w3.org/2001/XMLSchema-instance" 
 xsi:schemaLocation="http://www.topografix.com/GPX/1/1 http://www.topografix.com/GPX/1/1/gpx.xsd" 
 version="1.1" 
 creator="BRouter-Web 0.18.1">
 <trk>
  <name>Sassenage -&gt; Engins (13.2km)</name>
  <trkseg>
   <trkpt lat="45.218294" lon="5.661711"><ele>202</ele></trkpt>
   <trkpt lat="45.218219" lon="5.661746"><ele>202</ele></trkpt>
   <trkpt lat="45.218144" lon="5.661782"><ele>202</ele></trkpt>
   <trkpt lat="45.217881" lon="5.661906"><ele>202</ele></trkpt>
   <trkpt lat="45.217853" lon="5.661919"><ele>202</ele></trkpt>
   <trkpt lat="45.217803" lon="5.661943"><ele>202</ele></trkpt>
   <trkpt lat="45.217777" lon="5.661965"><ele>201.75</ele></trkpt>
   <trkpt lat="45.217716" lon="5.662016"><ele>202</ele></trkpt>
   <trkpt lat="45.217422" lon="5.662264"><ele>202</ele></trkpt>
   <trkpt lat="45.216809" lon="5.662728"><ele>203</ele></trkpt>
   <trkpt lat="45.216735" lon="5.662785"><ele>203</ele></trkpt>
   <trkpt lat="45.216711" lon="5.662804"><ele>203</ele></trkpt>
   <trkpt lat="45.216486" lon="5.66298"><ele>202.75</ele></trkpt>
   <trkpt lat="45.216312" lon="5.663061"><ele>202.75</ele></trkpt>
   <trkpt lat="45.216235" lon="5.663095"><ele>203</ele></trkpt>
   <trkpt lat="45.215616" lon="5.663373"><ele>203</ele></trkpt>
   <trkpt lat="45.215528" lon="5.663405"><ele>203</ele></trkpt>
   <trkpt lat="45.215423" lon="5.663416"><ele>203</ele></trkpt>
   <trkpt lat="45.215029" lon="5.663385"><ele>202.75</ele></trkpt>
   <trkpt lat="45.214931" lon="5.663378"><ele>203</ele></trkpt>
   <trkpt lat="45.214876" lon="5.663358"><ele>203</ele></trkpt>
   <trkpt lat="45.214838" lon="5.663353"><ele>203</ele></trkpt>
   <trkpt lat="45.214718" lon="5.663335"><ele>203</ele></trkpt>
   <trkpt lat="45.214593" lon="5.663281"><ele>203</ele></trkpt>
   <trkpt lat="45.214432" lon="5.663167"><ele>203</ele></trkpt>
   <trkpt lat="45.214294" lon="5.663029"><ele>202.75</ele></trkpt>
   <trkpt lat="45.214267" lon="5.662944"><ele>202.5</ele></trkpt>
   <trkpt lat="45.214228" lon="5.662857"><ele>202.25</ele></trkpt>
   <trkpt lat="45.214206" lon="5.662764"><ele>202</ele></trkpt>
   <trkpt lat="45.214198" lon="5.662689"><ele>202</ele></trkpt>
   <trkpt lat="45.214198" lon="5.662534"><ele>202</ele></trkpt>
   <trkpt lat="45.21414" lon="5.662457"><ele>202</ele></trkpt>
   <trkpt lat="45.214044" lon="5.662404"><ele>202</ele></trkpt>
   <trkpt lat="45.2139" lon="5.662323"><ele>201.75</ele></trkpt>
   <trkpt lat="45.213704" lon="5.662267"><ele>202</ele></trkpt>
   <trkpt lat="45.213571" lon="5.662239"><ele>202</ele></trkpt>
   <trkpt lat="45.213461" lon="5.662192"><ele>202.5</ele></trkpt>
   <trkpt lat="45.21333" lon="5.66168"><ele>203</ele></trkpt>
   <trkpt lat="45.213284" lon="5.66169"><ele>203</ele></trkpt>
   <trkpt lat="45.213178" lon="5.66168"><ele>203</ele></trkpt>
   <trkpt lat="45.213083" lon="5.661684"><ele>203</ele></trkpt>
   <trkpt lat="45.213037" lon="5.661666"><ele>203</ele></trkpt>
   <trkpt lat="45.213022" lon="5.661641"><ele>203</ele></trkpt>
   <trkpt lat="45.213005" lon="5.661611"><ele>203.25</ele></trkpt>
   <trkpt lat="45.212972" lon="5.661555"><ele>203.5</ele></trkpt>
   <trkpt lat="45.212976" lon="5.661517"><ele>203.5</ele></trkpt>
   <trkpt lat="45.212936" lon="5.66141"><ele>203.75</ele></trkpt>
   <trkpt lat="45.212918" lon="5.661367"><ele>204</ele></trkpt>
   <trkpt lat="45.212917" lon="5.661353"><ele>204</ele></trkpt>
   <trkpt lat="45.212956" lon="5.661227"><ele>204</ele></trkpt>
   <trkpt lat="45.212963" lon="5.661162"><ele>204</ele></trkpt>
   <trkpt lat="45.212957" lon="5.661096"><ele>203.75</ele></trkpt>
   <trkpt lat="45.212875" lon="5.660901"><ele>203.5</ele></trkpt>
   <trkpt lat="45.212837" lon="5.660833"><ele>203</ele></trkpt>
   <trkpt lat="45.212823" lon="5.660766"><ele>203.25</ele></trkpt>
   <trkpt lat="45.212811" lon="5.660705"><ele>203.5</ele></trkpt>
   <trkpt lat="45.212793" lon="5.660268"><ele>204</ele></trkpt>
   <trkpt lat="45.212763" lon="5.659884"><ele>204</ele></trkpt>
   <trkpt lat="45.212664" lon="5.659068"><ele>204.25</ele></trkpt>
   <trkpt lat="45.212651" lon="5.659023"><ele>204.25</ele></trkpt>
   <trkpt lat="45.212588" lon="5.658986"><ele>204.5</ele></trkpt>
   <trkpt lat="45.212505" lon="5.658377"><ele>204.75</ele></trkpt>
   <trkpt lat="45.212287" lon="5.657518"><ele>205.75</ele></trkpt>
   <trkpt lat="45.212274" lon="5.657474"><ele>206</ele></trkpt>
   <trkpt lat="45.212147" lon="5.657119"><ele>207.5</ele></trkpt>
   <trkpt lat="45.212134" lon="5.657081"><ele>207.75</ele></trkpt>
   <trkpt lat="45.212061" lon="5.656829"><ele>208.75</ele></trkpt>
   <trkpt lat="45.212012" lon="5.65655"><ele>210</ele></trkpt>
   <trkpt lat="45.211979" lon="5.65629"><ele>211.75</ele></trkpt>
   <trkpt lat="45.211965" lon="5.656156"><ele>213.25</ele></trkpt>
   <trkpt lat="45.211899" lon="5.656019"><ele>214.75</ele></trkpt>
   <trkpt lat="45.211815" lon="5.655952"><ele>216.25</ele></trkpt>
   <trkpt lat="45.211688" lon="5.656"><ele>217</ele></trkpt>
   <trkpt lat="45.211408" lon="5.656149"><ele>216</ele></trkpt>
   <trkpt lat="45.210871" lon="5.656377"><ele>222.25</ele></trkpt>
   <trkpt lat="45.210816" lon="5.656411"><ele>222.75</ele></trkpt>
   <trkpt lat="45.210761" lon="5.656444"><ele>223</ele></trkpt>
   <trkpt lat="45.210718" lon="5.656459"><ele>223.75</ele></trkpt>
   <trkpt lat="45.210675" lon="5.656456"><ele>225</ele></trkpt>
   <trkpt lat="45.210653" lon="5.656425"><ele>226.5</ele></trkpt>
   <trkpt lat="45.210643" lon="5.656394"><ele>227.5</ele></trkpt>
   <trkpt lat="45.210726" lon="5.65624"><ele>230.25</ele></trkpt>
   <trkpt lat="45.210807" lon="5.656113"><ele>228.75</ele></trkpt>
   <trkpt lat="45.210865" lon="5.655991"><ele>231.25</ele></trkpt>
   <trkpt lat="45.210948" lon="5.655896"><ele>232</ele></trkpt>
   <trkpt lat="45.211136" lon="5.655729"><ele>232.25</ele></trkpt>
   <trkpt lat="45.211394" lon="5.655606"><ele>233.5</ele></trkpt>
   <trkpt lat="45.211569" lon="5.655476"><ele>236.25</ele></trkpt>
   <trkpt lat="45.211642" lon="5.655359"><ele>237.75</ele></trkpt>
   <trkpt lat="45.211805" lon="5.655018"><ele>241.75</ele></trkpt>
   <trkpt lat="45.212032" lon="5.654577"><ele>246.75</ele></trkpt>
   <trkpt lat="45.212288" lon="5.6544"><ele>247.5</ele></trkpt>
   <trkpt lat="45.212873" lon="5.654155"><ele>254.25</ele></trkpt>
   <trkpt lat="45.213099" lon="5.654114"><ele>256.75</ele></trkpt>
   <trkpt lat="45.213611" lon="5.654146"><ele>261</ele></trkpt>
   <trkpt lat="45.214488" lon="5.654263"><ele>267.75</ele></trkpt>
   <trkpt lat="45.214859" lon="5.654368"><ele>271.25</ele></trkpt>
   <trkpt lat="45.215045" lon="5.654394"><ele>272.75</ele></trkpt>
   <trkpt lat="45.215187" lon="5.654371"><ele>275</ele></trkpt>
   <trkpt lat="45.215381" lon="5.654307"><ele>278.75</ele></trkpt>
   <trkpt lat="45.21553" lon="5.654307"><ele>279.25</ele></trkpt>
   <trkpt lat="45.215775" lon="5.654404"><ele>279.75</ele></trkpt>
   <trkpt lat="45.215939" lon="5.654389"><ele>283</ele></trkpt>
   <trkpt lat="45.215904" lon="5.654277"><ele>285.25</ele></trkpt>
   <trkpt lat="45.215748" lon="5.654199"><ele>284.5</ele></trkpt>
   <trkpt lat="45.215323" lon="5.65414"><ele>284.75</ele></trkpt>
   <trkpt lat="45.214874" lon="5.653955"><ele>288</ele></trkpt>
   <trkpt lat="45.214464" lon="5.653705"><ele>289.25</ele></trkpt>
   <trkpt lat="45.214159" lon="5.653456"><ele>290.5</ele></trkpt>
   <trkpt lat="45.213963" lon="5.653128"><ele>293</ele></trkpt>
   <trkpt lat="45.213926" lon="5.653067"><ele>293.25</ele></trkpt>
   <trkpt lat="45.213817" lon="5.652823"><ele>294.5</ele></trkpt>
   <trkpt lat="45.213708" lon="5.652566"><ele>295.5</ele></trkpt>
   <trkpt lat="45.213603" lon="5.652463"><ele>294.75</ele></trkpt>
   <trkpt lat="45.213571" lon="5.652439"><ele>294.75</ele></trkpt>
   <trkpt lat="45.213535" lon="5.652411"><ele>294.75</ele></trkpt>
   <trkpt lat="45.213517" lon="5.652397"><ele>294.75</ele></trkpt>
   <trkpt lat="45.213486" lon="5.65238"><ele>294.75</ele></trkpt>
   <trkpt lat="45.213195" lon="5.652241"><ele>296.5</ele></trkpt>
   <trkpt lat="45.212524" lon="5.652097"><ele>304</ele></trkpt>
   <trkpt lat="45.212359" lon="5.652064"><ele>306.5</ele></trkpt>
   <trkpt lat="45.212204" lon="5.652026"><ele>309</ele></trkpt>
   <trkpt lat="45.212165" lon="5.651822"><ele>310.25</ele></trkpt>
   <trkpt lat="45.212107" lon="5.65136"><ele>312.75</ele></trkpt>
   <trkpt lat="45.212078" lon="5.65096"><ele>315.5</ele></trkpt>
   <trkpt lat="45.212017" lon="5.650417"><ele>320.75</ele></trkpt>
   <trkpt lat="45.211945" lon="5.650101"><ele>324.75</ele></trkpt>
   <trkpt lat="45.211838" lon="5.649857"><ele>326.5</ele></trkpt>
   <trkpt lat="45.211791" lon="5.649791"><ele>326.75</ele></trkpt>
   <trkpt lat="45.211746" lon="5.649742"><ele>327</ele></trkpt>
   <trkpt lat="45.21169" lon="5.649712"><ele>327</ele></trkpt>
   <trkpt lat="45.211648" lon="5.649701"><ele>327.25</ele></trkpt>
   <trkpt lat="45.211589" lon="5.649704"><ele>327.75</ele></trkpt>
   <trkpt lat="45.211505" lon="5.649741"><ele>327.75</ele></trkpt>
   <trkpt lat="45.211433" lon="5.64974"><ele>328.25</ele></trkpt>
   <trkpt lat="45.211361" lon="5.649722"><ele>329.25</ele></trkpt>
   <trkpt lat="45.211265" lon="5.649699"><ele>330.25</ele></trkpt>
   <trkpt lat="45.211183" lon="5.649675"><ele>331.25</ele></trkpt>
   <trkpt lat="45.211123" lon="5.649632"><ele>332</ele></trkpt>
   <trkpt lat="45.211068" lon="5.649564"><ele>334.25</ele></trkpt>
   <trkpt lat="45.210885" lon="5.649157"><ele>340.25</ele></trkpt>
   <trkpt lat="45.210834" lon="5.64909"><ele>340.75</ele></trkpt>
   <trkpt lat="45.21038" lon="5.64882"><ele>348.75</ele></trkpt>
   <trkpt lat="45.21024" lon="5.648694"><ele>349.5</ele></trkpt>
   <trkpt lat="45.210162" lon="5.648633"><ele>349.5</ele></trkpt>
   <trkpt lat="45.210102" lon="5.648586"><ele>349.5</ele></trkpt>
   <trkpt lat="45.21004" lon="5.648533"><ele>349.75</ele></trkpt>
   <trkpt lat="45.209993" lon="5.648504"><ele>349.75</ele></trkpt>
   <trkpt lat="45.209933" lon="5.648448"><ele>347.75</ele></trkpt>
   <trkpt lat="45.209892" lon="5.648359"><ele>346.75</ele></trkpt>
   <trkpt lat="45.209873" lon="5.648228"><ele>346.75</ele></trkpt>
   <trkpt lat="45.209871" lon="5.648153"><ele>346.75</ele></trkpt>
   <trkpt lat="45.209892" lon="5.648048"><ele>348</ele></trkpt>
   <trkpt lat="45.210025" lon="5.647677"><ele>356.25</ele></trkpt>
   <trkpt lat="45.210087" lon="5.647513"><ele>358</ele></trkpt>
   <trkpt lat="45.210131" lon="5.647438"><ele>358.75</ele></trkpt>
   <trkpt lat="45.210192" lon="5.647337"><ele>360</ele></trkpt>
   <trkpt lat="45.210246" lon="5.647262"><ele>361.75</ele></trkpt>
   <trkpt lat="45.210204" lon="5.646941"><ele>366.25</ele></trkpt>
   <trkpt lat="45.210192" lon="5.646485"><ele>371.75</ele></trkpt>
   <trkpt lat="45.210184" lon="5.646083"><ele>375.5</ele></trkpt>
   <trkpt lat="45.21018" lon="5.645882"><ele>376.75</ele></trkpt>
   <trkpt lat="45.210165" lon="5.645705"><ele>379.75</ele></trkpt>
   <trkpt lat="45.21023" lon="5.645554"><ele>383.5</ele></trkpt>
   <trkpt lat="45.210312" lon="5.645424"><ele>385.75</ele></trkpt>
   <trkpt lat="45.21051" lon="5.645221"><ele>389.75</ele></trkpt>
   <trkpt lat="45.210575" lon="5.645092"><ele>393</ele></trkpt>
   <trkpt lat="45.210654" lon="5.644805"><ele>396.75</ele></trkpt>
   <trkpt lat="45.210672" lon="5.644678"><ele>398.25</ele></trkpt>
   <trkpt lat="45.210683" lon="5.644485"><ele>402.25</ele></trkpt>
   <trkpt lat="45.210751" lon="5.643874"><ele>410.25</ele></trkpt>
   <trkpt lat="45.210761" lon="5.643792"><ele>411.25</ele></trkpt>
   <trkpt lat="45.210857" lon="5.643742"><ele>410.75</ele></trkpt>
   <trkpt lat="45.210913" lon="5.643726"><ele>410.5</ele></trkpt>
   <trkpt lat="45.211032" lon="5.643714"><ele>409.75</ele></trkpt>
   <trkpt lat="45.211148" lon="5.643703"><ele>409</ele></trkpt>
   <trkpt lat="45.211244" lon="5.643648"><ele>409.25</ele></trkpt>
   <trkpt lat="45.211363" lon="5.643628"><ele>408.75</ele></trkpt>
   <trkpt lat="45.211458" lon="5.643641"><ele>409</ele></trkpt>
   <trkpt lat="45.211517" lon="5.643663"><ele>409</ele></trkpt>
   <trkpt lat="45.211566" lon="5.643716"><ele>408.75</ele></trkpt>
   <trkpt lat="45.211718" lon="5.643712"><ele>409</ele></trkpt>
   <trkpt lat="45.211874" lon="5.643676"><ele>408.75</ele></trkpt>
   <trkpt lat="45.212126" lon="5.643586"><ele>411</ele></trkpt>
   <trkpt lat="45.213004" lon="5.643256"><ele>416.75</ele></trkpt>
   <trkpt lat="45.213074" lon="5.64323"><ele>417.5</ele></trkpt>
   <trkpt lat="45.213196" lon="5.643181"><ele>418.25</ele></trkpt>
   <trkpt lat="45.213316" lon="5.643143"><ele>419</ele></trkpt>
   <trkpt lat="45.213466" lon="5.643114"><ele>419.5</ele></trkpt>
   <trkpt lat="45.213577" lon="5.643114"><ele>420</ele></trkpt>
   <trkpt lat="45.2149" lon="5.643208"><ele>427.5</ele></trkpt>
   <trkpt lat="45.215024" lon="5.64321"><ele>428.75</ele></trkpt>
   <trkpt lat="45.21515" lon="5.643194"><ele>429.75</ele></trkpt>
   <trkpt lat="45.215282" lon="5.643142"><ele>430.5</ele></trkpt>
   <trkpt lat="45.215447" lon="5.643029"><ele>432</ele></trkpt>
   <trkpt lat="45.215953" lon="5.642627"><ele>434.5</ele></trkpt>
   <trkpt lat="45.216457" lon="5.642219"><ele>438</ele></trkpt>
   <trkpt lat="45.216646" lon="5.642059"><ele>439.25</ele></trkpt>
   <trkpt lat="45.216787" lon="5.641922"><ele>440.75</ele></trkpt>
   <trkpt lat="45.217092" lon="5.641577"><ele>444.25</ele></trkpt>
   <trkpt lat="45.217272" lon="5.641433"><ele>444.5</ele></trkpt>
   <trkpt lat="45.217467" lon="5.641344"><ele>445</ele></trkpt>
   <trkpt lat="45.217876" lon="5.641226"><ele>446.75</ele></trkpt>
   <trkpt lat="45.218563" lon="5.641053"><ele>452.5</ele></trkpt>
   <trkpt lat="45.218766" lon="5.641035"><ele>453.75</ele></trkpt>
   <trkpt lat="45.219078" lon="5.641053"><ele>454.75</ele></trkpt>
   <trkpt lat="45.21949" lon="5.641095"><ele>456.5</ele></trkpt>
   <trkpt lat="45.219617" lon="5.641102"><ele>457.25</ele></trkpt>
   <trkpt lat="45.219678" lon="5.641096"><ele>457.75</ele></trkpt>
   <trkpt lat="45.219741" lon="5.641057"><ele>458.25</ele></trkpt>
   <trkpt lat="45.219769" lon="5.641021"><ele>458.25</ele></trkpt>
   <trkpt lat="45.219793" lon="5.640975"><ele>458.25</ele></trkpt>
   <trkpt lat="45.219803" lon="5.640946"><ele>458.5</ele></trkpt>
   <trkpt lat="45.219812" lon="5.640871"><ele>458.75</ele></trkpt>
   <trkpt lat="45.219809" lon="5.640801"><ele>459</ele></trkpt>
   <trkpt lat="45.219793" lon="5.640732"><ele>459.5</ele></trkpt>
   <trkpt lat="45.219777" lon="5.640691"><ele>459.75</ele></trkpt>
   <trkpt lat="45.219754" lon="5.640657"><ele>460</ele></trkpt>
   <trkpt lat="45.219696" lon="5.640605"><ele>461</ele></trkpt>
   <trkpt lat="45.219656" lon="5.640591"><ele>461.25</ele></trkpt>
   <trkpt lat="45.219616" lon="5.64059"><ele>461.75</ele></trkpt>
   <trkpt lat="45.219388" lon="5.640636"><ele>463</ele></trkpt>
   <trkpt lat="45.219291" lon="5.640645"><ele>463.25</ele></trkpt>
   <trkpt lat="45.219149" lon="5.640639"><ele>464</ele></trkpt>
   <trkpt lat="45.218854" lon="5.640552"><ele>465</ele></trkpt>
   <trkpt lat="45.21835" lon="5.640388"><ele>468.25</ele></trkpt>
   <trkpt lat="45.217518" lon="5.64012"><ele>472.75</ele></trkpt>
   <trkpt lat="45.217402" lon="5.640091"><ele>473.25</ele></trkpt>
   <trkpt lat="45.217283" lon="5.640073"><ele>473.5</ele></trkpt>
   <trkpt lat="45.217077" lon="5.640065"><ele>475</ele></trkpt>
   <trkpt lat="45.216864" lon="5.640093"><ele>476.75</ele></trkpt>
   <trkpt lat="45.216432" lon="5.64018"><ele>480.25</ele></trkpt>
   <trkpt lat="45.21614" lon="5.640188"><ele>482.5</ele></trkpt>
   <trkpt lat="45.215848" lon="5.640107"><ele>484.25</ele></trkpt>
   <trkpt lat="45.215294" lon="5.639891"><ele>487.25</ele></trkpt>
   <trkpt lat="45.215037" lon="5.639809"><ele>489</ele></trkpt>
   <trkpt lat="45.214579" lon="5.639691"><ele>490.75</ele></trkpt>
   <trkpt lat="45.214321" lon="5.639612"><ele>493</ele></trkpt>
   <trkpt lat="45.214156" lon="5.639562"><ele>493.75</ele></trkpt>
   <trkpt lat="45.213837" lon="5.639384"><ele>496.25</ele></trkpt>
   <trkpt lat="45.213614" lon="5.63924"><ele>498.25</ele></trkpt>
   <trkpt lat="45.21339" lon="5.639113"><ele>499</ele></trkpt>
   <trkpt lat="45.213156" lon="5.639027"><ele>501</ele></trkpt>
   <trkpt lat="45.21293" lon="5.639003"><ele>501.75</ele></trkpt>
   <trkpt lat="45.212726" lon="5.638984"><ele>503.25</ele></trkpt>
   <trkpt lat="45.212546" lon="5.639003"><ele>504</ele></trkpt>
   <trkpt lat="45.212305" lon="5.639049"><ele>505.75</ele></trkpt>
   <trkpt lat="45.212151" lon="5.639069"><ele>506.75</ele></trkpt>
   <trkpt lat="45.212025" lon="5.639057"><ele>507.75</ele></trkpt>
   <trkpt lat="45.211727" lon="5.639017"><ele>509.25</ele></trkpt>
   <trkpt lat="45.211437" lon="5.638966"><ele>510.5</ele></trkpt>
   <trkpt lat="45.211267" lon="5.638941"><ele>512</ele></trkpt>
   <trkpt lat="45.211141" lon="5.638949"><ele>512.75</ele></trkpt>
   <trkpt lat="45.211046" lon="5.638976"><ele>514</ele></trkpt>
   <trkpt lat="45.210849" lon="5.639082"><ele>516.5</ele></trkpt>
   <trkpt lat="45.210767" lon="5.639169"><ele>518</ele></trkpt>
   <trkpt lat="45.210488" lon="5.639542"><ele>520.25</ele></trkpt>
   <trkpt lat="45.209875" lon="5.640324"><ele>525.75</ele></trkpt>
   <trkpt lat="45.209663" lon="5.640577"><ele>527.25</ele></trkpt>
   <trkpt lat="45.209529" lon="5.6407"><ele>528.5</ele></trkpt>
   <trkpt lat="45.209199" lon="5.64095"><ele>539.25</ele></trkpt>
   <trkpt lat="45.208872" lon="5.641302"><ele>542</ele></trkpt>
   <trkpt lat="45.208679" lon="5.641449"><ele>535.5</ele></trkpt>
   <trkpt lat="45.208521" lon="5.641535"><ele>535.25</ele></trkpt>
   <trkpt lat="45.208317" lon="5.641602"><ele>538.5</ele></trkpt>
   <trkpt lat="45.208168" lon="5.641596"><ele>537.25</ele></trkpt>
   <trkpt lat="45.208014" lon="5.641535"><ele>536.5</ele></trkpt>
   <trkpt lat="45.20782" lon="5.641401"><ele>537.75</ele></trkpt>
   <trkpt lat="45.207717" lon="5.641337"><ele>539.75</ele></trkpt>
   <trkpt lat="45.207631" lon="5.641294"><ele>541.25</ele></trkpt>
   <trkpt lat="45.207447" lon="5.641257"><ele>542</ele></trkpt>
   <trkpt lat="45.207048" lon="5.6412"><ele>542.25</ele></trkpt>
   <trkpt lat="45.206872" lon="5.641159"><ele>542.5</ele></trkpt>
   <trkpt lat="45.206664" lon="5.641097"><ele>545.5</ele></trkpt>
   <trkpt lat="45.206537" lon="5.641037"><ele>546.25</ele></trkpt>
   <trkpt lat="45.206438" lon="5.640951"><ele>546.75</ele></trkpt>
   <trkpt lat="45.206327" lon="5.640801"><ele>546.25</ele></trkpt>
   <trkpt lat="45.206129" lon="5.640401"><ele>551.75</ele></trkpt>
   <trkpt lat="45.205925" lon="5.639965"><ele>560</ele></trkpt>
   <trkpt lat="45.205907" lon="5.639926"><ele>559.75</ele></trkpt>
   <trkpt lat="45.205732" lon="5.639538"><ele>556.5</ele></trkpt>
   <trkpt lat="45.20565" lon="5.639279"><ele>556.75</ele></trkpt>
   <trkpt lat="45.205454" lon="5.638574"><ele>558.25</ele></trkpt>
   <trkpt lat="45.20538" lon="5.638353"><ele>561</ele></trkpt>
   <trkpt lat="45.205312" lon="5.638174"><ele>562</ele></trkpt>
   <trkpt lat="45.205124" lon="5.637741"><ele>564.5</ele></trkpt>
   <trkpt lat="45.205045" lon="5.63758"><ele>565</ele></trkpt>
   <trkpt lat="45.204955" lon="5.637456"><ele>565</ele></trkpt>
   <trkpt lat="45.204856" lon="5.637362"><ele>566</ele></trkpt>
   <trkpt lat="45.204729" lon="5.637281"><ele>567.25</ele></trkpt>
   <trkpt lat="45.204345" lon="5.637104"><ele>570.5</ele></trkpt>
   <trkpt lat="45.204204" lon="5.637025"><ele>570.25</ele></trkpt>
   <trkpt lat="45.204044" lon="5.636878"><ele>571.5</ele></trkpt>
   <trkpt lat="45.203934" lon="5.636749"><ele>572.25</ele></trkpt>
   <trkpt lat="45.203837" lon="5.636605"><ele>573.25</ele></trkpt>
   <trkpt lat="45.203736" lon="5.636408"><ele>575</ele></trkpt>
   <trkpt lat="45.203414" lon="5.635641"><ele>577.75</ele></trkpt>
   <trkpt lat="45.203076" lon="5.634867"><ele>584</ele></trkpt>
   <trkpt lat="45.202895" lon="5.634501"><ele>586</ele></trkpt>
   <trkpt lat="45.202828" lon="5.634347"><ele>586.75</ele></trkpt>
   <trkpt lat="45.202771" lon="5.634159"><ele>586.75</ele></trkpt>
   <trkpt lat="45.202693" lon="5.633697"><ele>593.75</ele></trkpt>
   <trkpt lat="45.202639" lon="5.633465"><ele>595.5</ele></trkpt>
   <trkpt lat="45.202593" lon="5.63334"><ele>595</ele></trkpt>
   <trkpt lat="45.202538" lon="5.633242"><ele>592.75</ele></trkpt>
   <trkpt lat="45.20247" lon="5.633164"><ele>591.75</ele></trkpt>
   <trkpt lat="45.202387" lon="5.633087"><ele>593</ele></trkpt>
   <trkpt lat="45.20187" lon="5.632795"><ele>597.5</ele></trkpt>
   <trkpt lat="45.201433" lon="5.632583"><ele>599.75</ele></trkpt>
   <trkpt lat="45.200968" lon="5.632382"><ele>603.75</ele></trkpt>
   <trkpt lat="45.200816" lon="5.632338"><ele>604.25</ele></trkpt>
   <trkpt lat="45.200656" lon="5.63231"><ele>605</ele></trkpt>
   <trkpt lat="45.200311" lon="5.632267"><ele>606</ele></trkpt>
   <trkpt lat="45.200139" lon="5.632207"><ele>608</ele></trkpt>
   <trkpt lat="45.199797" lon="5.632028"><ele>610.75</ele></trkpt>
   <trkpt lat="45.199688" lon="5.631989"><ele>610.5</ele></trkpt>
   <trkpt lat="45.199671" lon="5.631983"><ele>610.75</ele></trkpt>
   <trkpt lat="45.199588" lon="5.631964"><ele>611.25</ele></trkpt>
   <trkpt lat="45.199249" lon="5.631902"><ele>612</ele></trkpt>
   <trkpt lat="45.199156" lon="5.631848"><ele>611.75</ele></trkpt>
   <trkpt lat="45.199084" lon="5.631726"><ele>611.25</ele></trkpt>
   <trkpt lat="45.199072" lon="5.631591"><ele>613</ele></trkpt>
   <trkpt lat="45.199113" lon="5.631492"><ele>614.25</ele></trkpt>
   <trkpt lat="45.199193" lon="5.631431"><ele>616</ele></trkpt>
   <trkpt lat="45.199294" lon="5.631447"><ele>617.5</ele></trkpt>
   <trkpt lat="45.199404" lon="5.631505"><ele>618.25</ele></trkpt>
   <trkpt lat="45.199542" lon="5.63163"><ele>618</ele></trkpt>
   <trkpt lat="45.199655" lon="5.631713"><ele>618.25</ele></trkpt>
   <trkpt lat="45.199741" lon="5.631776"><ele>617.75</ele></trkpt>
   <trkpt lat="45.199857" lon="5.631843"><ele>617.75</ele></trkpt>
   <trkpt lat="45.199976" lon="5.631889"><ele>618.5</ele></trkpt>
   <trkpt lat="45.200074" lon="5.631911"><ele>618.25</ele></trkpt>
   <trkpt lat="45.200216" lon="5.631906"><ele>619</ele></trkpt>
   <trkpt lat="45.200429" lon="5.631862"><ele>620.5</ele></trkpt>
   <trkpt lat="45.200591" lon="5.63182"><ele>622</ele></trkpt>
   <trkpt lat="45.200789" lon="5.631794"><ele>622.75</ele></trkpt>
   <trkpt lat="45.200879" lon="5.631793"><ele>623.25</ele></trkpt>
   <trkpt lat="45.200956" lon="5.631806"><ele>623.75</ele></trkpt>
   <trkpt lat="45.201096" lon="5.631848"><ele>624.25</ele></trkpt>
   <trkpt lat="45.201268" lon="5.631916"><ele>624.5</ele></trkpt>
   <trkpt lat="45.201367" lon="5.63194"><ele>624.75</ele></trkpt>
   <trkpt lat="45.201476" lon="5.631937"><ele>625.5</ele></trkpt>
   <trkpt lat="45.201512" lon="5.631929"><ele>625.75</ele></trkpt>
   <trkpt lat="45.201705" lon="5.631854"><ele>628</ele></trkpt>
   <trkpt lat="45.2018" lon="5.631828"><ele>628.75</ele></trkpt>
   <trkpt lat="45.20189" lon="5.631823"><ele>629.25</ele></trkpt>
   <trkpt lat="45.201968" lon="5.631846"><ele>629.5</ele></trkpt>
   <trkpt lat="45.202047" lon="5.631886"><ele>630</ele></trkpt>
   <trkpt lat="45.202106" lon="5.631936"><ele>630</ele></trkpt>
   <trkpt lat="45.202255" lon="5.632092"><ele>630.75</ele></trkpt>
   <trkpt lat="45.202341" lon="5.63216"><ele>631.5</ele></trkpt>
   <trkpt lat="45.202432" lon="5.632213"><ele>631.25</ele></trkpt>
   <trkpt lat="45.202641" lon="5.632294"><ele>633.5</ele></trkpt>
   <trkpt lat="45.202835" lon="5.632386"><ele>636.75</ele></trkpt>
   <trkpt lat="45.202946" lon="5.632517"><ele>636.5</ele></trkpt>
   <trkpt lat="45.202987" lon="5.632631"><ele>635.5</ele></trkpt>
   <trkpt lat="45.203105" lon="5.633019"><ele>637.5</ele></trkpt>
   <trkpt lat="45.203233" lon="5.633219"><ele>637.5</ele></trkpt>
   <trkpt lat="45.20336" lon="5.633345"><ele>638</ele></trkpt>
   <trkpt lat="45.203484" lon="5.633407"><ele>638.75</ele></trkpt>
   <trkpt lat="45.203608" lon="5.633441"><ele>640.75</ele></trkpt>
   <trkpt lat="45.203723" lon="5.63343"><ele>640.75</ele></trkpt>
   <trkpt lat="45.203942" lon="5.633381"><ele>642</ele></trkpt>
   <trkpt lat="45.204099" lon="5.633338"><ele>643</ele></trkpt>
   <trkpt lat="45.20418" lon="5.633303"><ele>644.25</ele></trkpt>
   <trkpt lat="45.20438" lon="5.633431"><ele>644.75</ele></trkpt>
   <trkpt lat="45.20455" lon="5.633639"><ele>645.75</ele></trkpt>
   <trkpt lat="45.204806" lon="5.634263"><ele>649</ele></trkpt>
   <trkpt lat="45.204929" lon="5.634457"><ele>649.25</ele></trkpt>
   <trkpt lat="45.205129" lon="5.634685"><ele>651</ele></trkpt>
   <trkpt lat="45.205396" lon="5.634821"><ele>652.75</ele></trkpt>
   <trkpt lat="45.205629" lon="5.634913"><ele>654.25</ele></trkpt>
   <trkpt lat="45.205754" lon="5.635028"><ele>654.75</ele></trkpt>
   <trkpt lat="45.205846" lon="5.635196"><ele>656</ele></trkpt>
   <trkpt lat="45.205915" lon="5.635368"><ele>654</ele></trkpt>
   <trkpt lat="45.205978" lon="5.635456"><ele>654</ele></trkpt>
   <trkpt lat="45.206026" lon="5.635475"><ele>655.25</ele></trkpt>
   <trkpt lat="45.206092" lon="5.635462"><ele>657.25</ele></trkpt>
   <trkpt lat="45.206131" lon="5.635402"><ele>661</ele></trkpt>
   <trkpt lat="45.206151" lon="5.635278"><ele>663.25</ele></trkpt>
   <trkpt lat="45.206115" lon="5.635125"><ele>661.75</ele></trkpt>
   <trkpt lat="45.206037" lon="5.635012"><ele>662</ele></trkpt>
   <trkpt lat="45.205301" lon="5.63439"><ele>665</ele></trkpt>
   <trkpt lat="45.205183" lon="5.634238"><ele>665</ele></trkpt>
   <trkpt lat="45.205082" lon="5.634045"><ele>665.75</ele></trkpt>
   <trkpt lat="45.204999" lon="5.633741"><ele>667</ele></trkpt>
   <trkpt lat="45.20489" lon="5.63315"><ele>670.25</ele></trkpt>
   <trkpt lat="45.204661" lon="5.632575"><ele>672.25</ele></trkpt>
   <trkpt lat="45.204587" lon="5.632487"><ele>672.5</ele></trkpt>
   <trkpt lat="45.204433" lon="5.63237"><ele>673</ele></trkpt>
   <trkpt lat="45.204006" lon="5.632294"><ele>677.5</ele></trkpt>
   <trkpt lat="45.203802" lon="5.632199"><ele>678.75</ele></trkpt>
   <trkpt lat="45.203659" lon="5.632059"><ele>680.75</ele></trkpt>
   <trkpt lat="45.203542" lon="5.631873"><ele>680.5</ele></trkpt>
   <trkpt lat="45.203502" lon="5.631814"><ele>680.5</ele></trkpt>
   <trkpt lat="45.203406" lon="5.631589"><ele>681.75</ele></trkpt>
   <trkpt lat="45.203295" lon="5.631343"><ele>682</ele></trkpt>
   <trkpt lat="45.203151" lon="5.631062"><ele>683.25</ele></trkpt>
   <trkpt lat="45.203081" lon="5.630895"><ele>685.75</ele></trkpt>
   <trkpt lat="45.202663" lon="5.630263"><ele>691.5</ele></trkpt>
   <trkpt lat="45.202418" lon="5.630003"><ele>694</ele></trkpt>
   <trkpt lat="45.202162" lon="5.629836"><ele>696</ele></trkpt>
   <trkpt lat="45.201673" lon="5.629703"><ele>698.5</ele></trkpt>
   <trkpt lat="45.200438" lon="5.629366"><ele>706</ele></trkpt>
   <trkpt lat="45.200204" lon="5.629222"><ele>706</ele></trkpt>
   <trkpt lat="45.199801" lon="5.628785"><ele>709.75</ele></trkpt>
   <trkpt lat="45.199651" lon="5.628664"><ele>711.5</ele></trkpt>
   <trkpt lat="45.19947" lon="5.628549"><ele>712.75</ele></trkpt>
   <trkpt lat="45.199207" lon="5.62847"><ele>713.25</ele></trkpt>
   <trkpt lat="45.199017" lon="5.628422"><ele>715.5</ele></trkpt>
   <trkpt lat="45.198851" lon="5.62838"><ele>715.5</ele></trkpt>
   <trkpt lat="45.198494" lon="5.628168"><ele>716.5</ele></trkpt>
   <trkpt lat="45.198254" lon="5.62795"><ele>719</ele></trkpt>
   <trkpt lat="45.197838" lon="5.627609"><ele>721.5</ele></trkpt>
   <trkpt lat="45.197102" lon="5.627324"><ele>726.75</ele></trkpt>
   <trkpt lat="45.197016" lon="5.627288"><ele>727</ele></trkpt>
   <trkpt lat="45.19655" lon="5.627035"><ele>730.5</ele></trkpt>
   <trkpt lat="45.19637" lon="5.62695"><ele>731.75</ele></trkpt>
   <trkpt lat="45.196192" lon="5.626918"><ele>731.75</ele></trkpt>
   <trkpt lat="45.195808" lon="5.626889"><ele>732.5</ele></trkpt>
   <trkpt lat="45.195674" lon="5.626843"><ele>732.75</ele></trkpt>
   <trkpt lat="45.195553" lon="5.62677"><ele>733.75</ele></trkpt>
   <trkpt lat="45.195375" lon="5.62664"><ele>735</ele></trkpt>
   <trkpt lat="45.195038" lon="5.626393"><ele>738</ele></trkpt>
   <trkpt lat="45.194895" lon="5.626309"><ele>739.75</ele></trkpt>
   <trkpt lat="45.19472" lon="5.626248"><ele>740.5</ele></trkpt>
   <trkpt lat="45.194421" lon="5.62617"><ele>741.75</ele></trkpt>
   <trkpt lat="45.193853" lon="5.626027"><ele>747.75</ele></trkpt>
   <trkpt lat="45.193717" lon="5.625994"><ele>748.25</ele></trkpt>
   <trkpt lat="45.193558" lon="5.625934"><ele>748.5</ele></trkpt>
   <trkpt lat="45.193419" lon="5.625828"><ele>748.5</ele></trkpt>
   <trkpt lat="45.193164" lon="5.625521"><ele>752.25</ele></trkpt>
   <trkpt lat="45.192996" lon="5.625422"><ele>752.75</ele></trkpt>
   <trkpt lat="45.192888" lon="5.625412"><ele>753</ele></trkpt>
   <trkpt lat="45.192747" lon="5.625445"><ele>752.75</ele></trkpt>
   <trkpt lat="45.19255" lon="5.625573"><ele>752.75</ele></trkpt>
   <trkpt lat="45.192459" lon="5.625617"><ele>752.5</ele></trkpt>
   <trkpt lat="45.192358" lon="5.625624"><ele>753</ele></trkpt>
   <trkpt lat="45.191956" lon="5.625565"><ele>757.5</ele></trkpt>
   <trkpt lat="45.191765" lon="5.625549"><ele>758</ele></trkpt>
   <trkpt lat="45.191651" lon="5.62552"><ele>758.75</ele></trkpt>
   <trkpt lat="45.191555" lon="5.625439"><ele>760.25</ele></trkpt>
   <trkpt lat="45.191331" lon="5.625199"><ele>764.25</ele></trkpt>
   <trkpt lat="45.191228" lon="5.625107"><ele>765.5</ele></trkpt>
   <trkpt lat="45.191052" lon="5.625003"><ele>766.5</ele></trkpt>
   <trkpt lat="45.190971" lon="5.624991"><ele>766.5</ele></trkpt>
   <trkpt lat="45.1909" lon="5.624906"><ele>768.75</ele></trkpt>
   <trkpt lat="45.190829" lon="5.624902"><ele>768.75</ele></trkpt>
   <trkpt lat="45.190735" lon="5.624937"><ele>768.75</ele></trkpt>
   <trkpt lat="45.190436" lon="5.625079"><ele>768</ele></trkpt>
   <trkpt lat="45.190338" lon="5.6251"><ele>768.75</ele></trkpt>
   <trkpt lat="45.190136" lon="5.62511"><ele>770.25</ele></trkpt>
   <trkpt lat="45.190042" lon="5.6251"><ele>771.25</ele></trkpt>
   <trkpt lat="45.189945" lon="5.625075"><ele>772.25</ele></trkpt>
   <trkpt lat="45.189883" lon="5.625036"><ele>773</ele></trkpt>
   <trkpt lat="45.189774" lon="5.624954"><ele>775</ele></trkpt>
   <trkpt lat="45.189679" lon="5.624867"><ele>776.5</ele></trkpt>
   <trkpt lat="45.189604" lon="5.624765"><ele>777.75</ele></trkpt>
   <trkpt lat="45.189546" lon="5.624657"><ele>779.25</ele></trkpt>
   <trkpt lat="45.189484" lon="5.624502"><ele>781.5</ele></trkpt>
   <trkpt lat="45.189382" lon="5.624216"><ele>785.5</ele></trkpt>
   <trkpt lat="45.189289" lon="5.623984"><ele>788.5</ele></trkpt>
   <trkpt lat="45.189249" lon="5.623894"><ele>789.5</ele></trkpt>
   <trkpt lat="45.189171" lon="5.623776"><ele>790.5</ele></trkpt>
   <trkpt lat="45.189101" lon="5.623727"><ele>791</ele></trkpt>
   <trkpt lat="45.189047" lon="5.623711"><ele>791.25</ele></trkpt>
   <trkpt lat="45.188914" lon="5.623712"><ele>790.75</ele></trkpt>
   <trkpt lat="45.18886" lon="5.623693"><ele>790.75</ele></trkpt>
   <trkpt lat="45.188747" lon="5.623625"><ele>791.5</ele></trkpt>
   <trkpt lat="45.18871" lon="5.623583"><ele>792</ele></trkpt>
   <trkpt lat="45.188606" lon="5.623406"><ele>795.75</ele></trkpt>
   <trkpt lat="45.188471" lon="5.623149"><ele>799.5</ele></trkpt>
   <trkpt lat="45.188384" lon="5.622992"><ele>801.75</ele></trkpt>
   <trkpt lat="45.188352" lon="5.622954"><ele>802.25</ele></trkpt>
   <trkpt lat="45.188166" lon="5.62274"><ele>805</ele></trkpt>
   <trkpt lat="45.187927" lon="5.622536"><ele>808.25</ele></trkpt>
   <trkpt lat="45.187657" lon="5.622296"><ele>811.75</ele></trkpt>
   <trkpt lat="45.187533" lon="5.622184"><ele>812.75</ele></trkpt>
   <trkpt lat="45.187426" lon="5.622056"><ele>814.5</ele></trkpt>
   <trkpt lat="45.187276" lon="5.62185"><ele>817</ele></trkpt>
   <trkpt lat="45.186991" lon="5.62131"><ele>822.75</ele></trkpt>
   <trkpt lat="45.186911" lon="5.621122"><ele>825.25</ele></trkpt>
   <trkpt lat="45.186823" lon="5.62082"><ele>831</ele></trkpt>
   <trkpt lat="45.186789" lon="5.620682"><ele>834</ele></trkpt>
   <trkpt lat="45.186774" lon="5.620621"><ele>835.25</ele></trkpt>
   <trkpt lat="45.186695" lon="5.620494"><ele>836.5</ele></trkpt>
   <trkpt lat="45.186591" lon="5.620409"><ele>834</ele></trkpt>
   <trkpt lat="45.186512" lon="5.620378"><ele>831</ele></trkpt>
   <trkpt lat="45.186428" lon="5.620361"><ele>827.25</ele></trkpt>
   <trkpt lat="45.18635" lon="5.620359"><ele>827.25</ele></trkpt>
   <trkpt lat="45.186246" lon="5.620405"><ele>831.25</ele></trkpt>
   <trkpt lat="45.186133" lon="5.620509"><ele>834</ele></trkpt>
   <trkpt lat="45.18607" lon="5.620603"><ele>833.75</ele></trkpt>
   <trkpt lat="45.186011" lon="5.620664"><ele>833.75</ele></trkpt>
   <trkpt lat="45.185971" lon="5.620682"><ele>834.25</ele></trkpt>
   <trkpt lat="45.185906" lon="5.620712"><ele>834.75</ele></trkpt>
   <trkpt lat="45.185809" lon="5.620691"><ele>836.5</ele></trkpt>
   <trkpt lat="45.185674" lon="5.62056"><ele>839.75</ele></trkpt>
   <trkpt lat="45.185569" lon="5.620401"><ele>843.25</ele></trkpt>
   <trkpt lat="45.185495" lon="5.620312"><ele>845.75</ele></trkpt>
   <trkpt lat="45.185443" lon="5.620275"><ele>847.25</ele></trkpt>
   <trkpt lat="45.185389" lon="5.620261"><ele>848</ele></trkpt>
   <trkpt lat="45.185324" lon="5.620272"><ele>848.5</ele></trkpt>
   <trkpt lat="45.185224" lon="5.620341"><ele>849</ele></trkpt>
   <trkpt lat="45.184759" lon="5.620828"><ele>848.5</ele></trkpt>
   <trkpt lat="45.184714" lon="5.620884"><ele>846.25</ele></trkpt>
   <trkpt lat="45.184658" lon="5.620915"><ele>844.5</ele></trkpt>
   <trkpt lat="45.184566" lon="5.620918"><ele>843.75</ele></trkpt>
   <trkpt lat="45.184345" lon="5.620833"><ele>845.75</ele></trkpt>
   <trkpt lat="45.184318" lon="5.620811"><ele>846.25</ele></trkpt>
   <trkpt lat="45.18409" lon="5.620616"><ele>851.75</ele></trkpt>
   <trkpt lat="45.183652" lon="5.620422"><ele>856.75</ele></trkpt>
   <trkpt lat="45.183555" lon="5.620405"><ele>858</ele></trkpt>
   <trkpt lat="45.183337" lon="5.620456"><ele>856.75</ele></trkpt>
   <trkpt lat="45.183238" lon="5.620528"><ele>853.5</ele></trkpt>
   <trkpt lat="45.183162" lon="5.620619"><ele>849.75</ele></trkpt>
   <trkpt lat="45.183117" lon="5.620635"><ele>849.25</ele></trkpt>
   <trkpt lat="45.183042" lon="5.620608"><ele>850.5</ele></trkpt>
   <trkpt lat="45.182964" lon="5.620548"><ele>851.5</ele></trkpt>
   <trkpt lat="45.182859" lon="5.620447"><ele>852.75</ele></trkpt>
   <trkpt lat="45.18261" lon="5.620133"><ele>853.25</ele></trkpt>
   <trkpt lat="45.182535" lon="5.620014"><ele>853</ele></trkpt>
   <trkpt lat="45.182489" lon="5.619916"><ele>853.25</ele></trkpt>
   <trkpt lat="45.182444" lon="5.619764"><ele>855</ele></trkpt>
   <trkpt lat="45.182397" lon="5.619523"><ele>860</ele></trkpt>
   <trkpt lat="45.182333" lon="5.619348"><ele>863</ele></trkpt>
   <trkpt lat="45.182252" lon="5.619243"><ele>863.5</ele></trkpt>
   <trkpt lat="45.182173" lon="5.61916"><ele>864</ele></trkpt>
   <trkpt lat="45.18192" lon="5.618971"><ele>865</ele></trkpt>
   <trkpt lat="45.181895" lon="5.618953"><ele>865.5</ele></trkpt>
   <trkpt lat="45.181825" lon="5.61894"><ele>865.5</ele></trkpt>
   <trkpt lat="45.181737" lon="5.618948"><ele>864.75</ele></trkpt>
   <trkpt lat="45.181457" lon="5.619004"><ele>863.25</ele></trkpt>
   <trkpt lat="45.181311" lon="5.619017"><ele>863.25</ele></trkpt>
   <trkpt lat="45.181178" lon="5.618984"><ele>864</ele></trkpt>
   <trkpt lat="45.180968" lon="5.618955"><ele>864.5</ele></trkpt>
   <trkpt lat="45.180722" lon="5.618847"><ele>867</ele></trkpt>
   <trkpt lat="45.180634" lon="5.618824"><ele>867.75</ele></trkpt>
  </trkseg>
 </trk>
</gpx>
