<?xml version="1.0" encoding="UTF-8"?>
<!-- track-length = 14968 filtered ascend = 844 plain-ascend = 821 cost=19080 energy=0.2kwh time=2h 25m 24s -->
<gpx 
 xmlns="http://www.topografix.com/GPX/1/1" 
 xmlns:xsi="http://www.w3.org/2001/XMLSchema-instance" 
 xsi:schemaLocation="http://www.topografix.com/GPX/1/1 http://www.topografix.com/GPX/1/1/gpx.xsd" 
 version="1.1" 
 creator="BRouter-Web 0.18.1">
 <trk>
  <name>cozzo tunno (15km)</name>
  <trkseg>
   <trkpt lat="39.307614" lon="16.053289"><ele>77</ele></trkpt>
   <trkpt lat="39.307755" lon="16.053306"><ele>77.5</ele></trkpt>
   <trkpt lat="39.308028" lon="16.053342"><ele>81</ele></trkpt>
   <trkpt lat="39.308175" lon="16.053368"><ele>81.25</ele></trkpt>
   <trkpt lat="39.308392" lon="16.053452"><ele>82.75</ele></trkpt>
   <trkpt lat="39.308657" lon="16.053461"><ele>83.75</ele></trkpt>
   <trkpt lat="39.308802" lon="16.053546"><ele>85</ele></trkpt>
   <trkpt lat="39.308977" lon="16.053911"><ele>88</ele></trkpt>
   <trkpt lat="39.309001" lon="16.053963"><ele>88.75</ele></trkpt>
   <trkpt lat="39.309182" lon="16.054033"><ele>90.25</ele></trkpt>
   <trkpt lat="39.309393" lon="16.054028"><ele>92.75</ele></trkpt>
   <trkpt lat="39.309549" lon="16.053916"><ele>91.75</ele></trkpt>
   <trkpt lat="39.309744" lon="16.053761"><ele>93.75</ele></trkpt>
   <trkpt lat="39.309886" lon="16.053747"><ele>94.5</ele></trkpt>
   <trkpt lat="39.310285" lon="16.053953"><ele>98.75</ele></trkpt>
   <trkpt lat="39.310694" lon="16.054291"><ele>103.25</ele></trkpt>
   <trkpt lat="39.310752" lon="16.05445"><ele>106.25</ele></trkpt>
   <trkpt lat="39.310723" lon="16.054623"><ele>107.5</ele></trkpt>
   <trkpt lat="39.310585" lon="16.054956"><ele>111.75</ele></trkpt>
   <trkpt lat="39.310593" lon="16.055054"><ele>112.5</ele></trkpt>
   <trkpt lat="39.310636" lon="16.05512"><ele>113.5</ele></trkpt>
   <trkpt lat="39.311231" lon="16.055284"><ele>117.5</ele></trkpt>
   <trkpt lat="39.311963" lon="16.055607"><ele>124.5</ele></trkpt>
   <trkpt lat="39.312177" lon="16.055785"><ele>128.25</ele></trkpt>
   <trkpt lat="39.312572" lon="16.056277"><ele>131.25</ele></trkpt>
   <trkpt lat="39.312655" lon="16.056549"><ele>133</ele></trkpt>
   <trkpt lat="39.312652" lon="16.05675"><ele>133.5</ele></trkpt>
   <trkpt lat="39.312597" lon="16.056891"><ele>133.75</ele></trkpt>
   <trkpt lat="39.312514" lon="16.056947"><ele>134.75</ele></trkpt>
   <trkpt lat="39.312376" lon="16.056943"><ele>136.75</ele></trkpt>
   <trkpt lat="39.312253" lon="16.056886"><ele>138.25</ele></trkpt>
   <trkpt lat="39.312144" lon="16.056896"><ele>139</ele></trkpt>
   <trkpt lat="39.312068" lon="16.057013"><ele>139.75</ele></trkpt>
   <trkpt lat="39.312003" lon="16.057416"><ele>142</ele></trkpt>
   <trkpt lat="39.312104" lon="16.058484"><ele>149</ele></trkpt>
   <trkpt lat="39.312275" lon="16.059562"><ele>153</ele></trkpt>
   <trkpt lat="39.312329" lon="16.059707"><ele>153.5</ele></trkpt>
   <trkpt lat="39.312536" lon="16.059969"><ele>154.75</ele></trkpt>
   <trkpt lat="39.312645" lon="16.060517"><ele>156.75</ele></trkpt>
   <trkpt lat="39.312816" lon="16.060838"><ele>158.25</ele></trkpt>
   <trkpt lat="39.312959" lon="16.061108"><ele>159.75</ele></trkpt>
   <trkpt lat="39.313153" lon="16.061925"><ele>163.75</ele></trkpt>
   <trkpt lat="39.313148" lon="16.062427"><ele>165.75</ele></trkpt>
   <trkpt lat="39.312914" lon="16.06278"><ele>168.5</ele></trkpt>
   <trkpt lat="39.312481" lon="16.062999"><ele>171.75</ele></trkpt>
   <trkpt lat="39.312033" lon="16.063063"><ele>172.75</ele></trkpt>
   <trkpt lat="39.311695" lon="16.063237"><ele>176.25</ele></trkpt>
   <trkpt lat="39.311476" lon="16.063321"><ele>179</ele></trkpt>
   <trkpt lat="39.310874" lon="16.063173"><ele>182</ele></trkpt>
   <trkpt lat="39.310768" lon="16.063122"><ele>182.5</ele></trkpt>
   <trkpt lat="39.310576" lon="16.062973"><ele>183.75</ele></trkpt>
   <trkpt lat="39.31053" lon="16.062968"><ele>184</ele></trkpt>
   <trkpt lat="39.310366" lon="16.062948"><ele>185.25</ele></trkpt>
   <trkpt lat="39.310207" lon="16.063192"><ele>188.25</ele></trkpt>
   <trkpt lat="39.31006" lon="16.063827"><ele>193.25</ele></trkpt>
   <trkpt lat="39.310048" lon="16.06388"><ele>193.25</ele></trkpt>
   <trkpt lat="39.310212" lon="16.064221"><ele>195.75</ele></trkpt>
   <trkpt lat="39.310789" lon="16.06471"><ele>200</ele></trkpt>
   <trkpt lat="39.311028" lon="16.065147"><ele>203.25</ele></trkpt>
   <trkpt lat="39.311188" lon="16.065365"><ele>205.25</ele></trkpt>
   <trkpt lat="39.311635" lon="16.065674"><ele>208</ele></trkpt>
   <trkpt lat="39.311929" lon="16.065841"><ele>210</ele></trkpt>
   <trkpt lat="39.312013" lon="16.065836"><ele>210.5</ele></trkpt>
   <trkpt lat="39.312138" lon="16.065829"><ele>211.25</ele></trkpt>
   <trkpt lat="39.312431" lon="16.065571"><ele>213.5</ele></trkpt>
   <trkpt lat="39.312576" lon="16.065494"><ele>214.75</ele></trkpt>
   <trkpt lat="39.312654" lon="16.065538"><ele>216.25</ele></trkpt>
   <trkpt lat="39.312703" lon="16.065596"><ele>217.25</ele></trkpt>
   <trkpt lat="39.312703" lon="16.065703"><ele>218.25</ele></trkpt>
   <trkpt lat="39.31265" lon="16.065841"><ele>218.75</ele></trkpt>
   <trkpt lat="39.312526" lon="16.065951"><ele>220</ele></trkpt>
   <trkpt lat="39.312237" lon="16.066144"><ele>219.75</ele></trkpt>
   <trkpt lat="39.312128" lon="16.066317"><ele>221.25</ele></trkpt>
   <trkpt lat="39.311969" lon="16.066922"><ele>225.5</ele></trkpt>
   <trkpt lat="39.311854" lon="16.067263"><ele>227.5</ele></trkpt>
   <trkpt lat="39.31173" lon="16.06743"><ele>228.5</ele></trkpt>
   <trkpt lat="39.3116" lon="16.067636"><ele>229.5</ele></trkpt>
   <trkpt lat="39.311561" lon="16.067867"><ele>231</ele></trkpt>
   <trkpt lat="39.3116" lon="16.068292"><ele>234</ele></trkpt>
   <trkpt lat="39.311894" lon="16.06916"><ele>242</ele></trkpt>
   <trkpt lat="39.312098" lon="16.069372"><ele>245.75</ele></trkpt>
   <trkpt lat="39.312327" lon="16.069674"><ele>251.25</ele></trkpt>
   <trkpt lat="39.312367" lon="16.070186"><ele>254</ele></trkpt>
   <trkpt lat="39.312377" lon="16.070311"><ele>253.5</ele></trkpt>
   <trkpt lat="39.312439" lon="16.070768"><ele>255.25</ele></trkpt>
   <trkpt lat="39.312496" lon="16.07096"><ele>256.75</ele></trkpt>
   <trkpt lat="39.31277" lon="16.071751"><ele>263.5</ele></trkpt>
   <trkpt lat="39.312695" lon="16.072407"><ele>267</ele></trkpt>
   <trkpt lat="39.312556" lon="16.072774"><ele>269.5</ele></trkpt>
   <trkpt lat="39.312222" lon="16.073025"><ele>271</ele></trkpt>
   <trkpt lat="39.312053" lon="16.073333"><ele>274.25</ele></trkpt>
   <trkpt lat="39.311421" lon="16.073938"><ele>279.75</ele></trkpt>
   <trkpt lat="39.311277" lon="16.074253"><ele>282.75</ele></trkpt>
   <trkpt lat="39.311173" lon="16.074587"><ele>285</ele></trkpt>
   <trkpt lat="39.310993" lon="16.074825"><ele>288.5</ele></trkpt>
   <trkpt lat="39.310292" lon="16.07487"><ele>293</ele></trkpt>
   <trkpt lat="39.310003" lon="16.075353"><ele>297</ele></trkpt>
   <trkpt lat="39.309536" lon="16.076845"><ele>310.5</ele></trkpt>
   <trkpt lat="39.309441" lon="16.077063"><ele>310.25</ele></trkpt>
   <trkpt lat="39.309373" lon="16.077086"><ele>311</ele></trkpt>
   <trkpt lat="39.309252" lon="16.077128"><ele>312.25</ele></trkpt>
   <trkpt lat="39.309196" lon="16.077095"><ele>312.25</ele></trkpt>
   <trkpt lat="39.308859" lon="16.076903"><ele>315.5</ele></trkpt>
   <trkpt lat="39.308486" lon="16.076928"><ele>317.75</ele></trkpt>
   <trkpt lat="39.308102" lon="16.076851"><ele>320.75</ele></trkpt>
   <trkpt lat="39.307794" lon="16.076723"><ele>322.5</ele></trkpt>
   <trkpt lat="39.30773" lon="16.076742"><ele>322.75</ele></trkpt>
   <trkpt lat="39.307585" lon="16.076787"><ele>322.75</ele></trkpt>
   <trkpt lat="39.307381" lon="16.077115"><ele>327.75</ele></trkpt>
   <trkpt lat="39.307082" lon="16.077391"><ele>329.75</ele></trkpt>
   <trkpt lat="39.306799" lon="16.077366"><ele>328.75</ele></trkpt>
   <trkpt lat="39.306742" lon="16.077304"><ele>328.75</ele></trkpt>
   <trkpt lat="39.306545" lon="16.077089"><ele>331</ele></trkpt>
   <trkpt lat="39.306286" lon="16.076832"><ele>329.75</ele></trkpt>
   <trkpt lat="39.305749" lon="16.076832"><ele>333</ele></trkpt>
   <trkpt lat="39.304918" lon="16.076632"><ele>340.75</ele></trkpt>
   <trkpt lat="39.304589" lon="16.07671"><ele>344.25</ele></trkpt>
   <trkpt lat="39.304455" lon="16.076941"><ele>348</ele></trkpt>
   <trkpt lat="39.304425" lon="16.077218"><ele>349.75</ele></trkpt>
   <trkpt lat="39.30453" lon="16.078015"><ele>353.75</ele></trkpt>
   <trkpt lat="39.304744" lon="16.078671"><ele>359.25</ele></trkpt>
   <trkpt lat="39.304759" lon="16.079514"><ele>363</ele></trkpt>
   <trkpt lat="39.304659" lon="16.07979"><ele>365.25</ele></trkpt>
   <trkpt lat="39.304559" lon="16.079973"><ele>365.5</ele></trkpt>
   <trkpt lat="39.303609" lon="16.0817"><ele>375.25</ele></trkpt>
   <trkpt lat="39.30344" lon="16.081977"><ele>377.75</ele></trkpt>
   <trkpt lat="39.303102" lon="16.082167"><ele>380.5</ele></trkpt>
   <trkpt lat="39.302919" lon="16.082271"><ele>380.5</ele></trkpt>
   <trkpt lat="39.30231" lon="16.082671"><ele>384.25</ele></trkpt>
   <trkpt lat="39.301952" lon="16.083051"><ele>389.75</ele></trkpt>
   <trkpt lat="39.301832" lon="16.083215"><ele>391</ele></trkpt>
   <trkpt lat="39.301422" lon="16.08377"><ele>396.5</ele></trkpt>
   <trkpt lat="39.301253" lon="16.08382"><ele>398.25</ele></trkpt>
   <trkpt lat="39.301085" lon="16.083816"><ele>400.25</ele></trkpt>
   <trkpt lat="39.300946" lon="16.083657"><ele>402.75</ele></trkpt>
   <trkpt lat="39.300849" lon="16.083407"><ele>404.5</ele></trkpt>
   <trkpt lat="39.300691" lon="16.08319"><ele>406</ele></trkpt>
   <trkpt lat="39.299944" lon="16.082972"><ele>410.5</ele></trkpt>
   <trkpt lat="39.299637" lon="16.082797"><ele>412.75</ele></trkpt>
   <trkpt lat="39.299456" lon="16.082617"><ele>414</ele></trkpt>
   <trkpt lat="39.299304" lon="16.082526"><ele>415.75</ele></trkpt>
   <trkpt lat="39.299192" lon="16.082447"><ele>417.25</ele></trkpt>
   <trkpt lat="39.299054" lon="16.08245"><ele>418</ele></trkpt>
   <trkpt lat="39.298856" lon="16.082539"><ele>419.75</ele></trkpt>
   <trkpt lat="39.298606" lon="16.082637"><ele>421.25</ele></trkpt>
   <trkpt lat="39.298466" lon="16.082756"><ele>423</ele></trkpt>
   <trkpt lat="39.29838" lon="16.082898"><ele>424.25</ele></trkpt>
   <trkpt lat="39.298351" lon="16.083031"><ele>425.75</ele></trkpt>
   <trkpt lat="39.298358" lon="16.083231"><ele>426.75</ele></trkpt>
   <trkpt lat="39.298406" lon="16.08339"><ele>427.5</ele></trkpt>
   <trkpt lat="39.298459" lon="16.083471"><ele>428</ele></trkpt>
   <trkpt lat="39.298534" lon="16.083534"><ele>428.75</ele></trkpt>
   <trkpt lat="39.298621" lon="16.083584"><ele>429.75</ele></trkpt>
   <trkpt lat="39.298732" lon="16.08362"><ele>430.75</ele></trkpt>
   <trkpt lat="39.298912" lon="16.083581"><ele>432</ele></trkpt>
   <trkpt lat="39.299078" lon="16.083482"><ele>432.75</ele></trkpt>
   <trkpt lat="39.299191" lon="16.083482"><ele>433.5</ele></trkpt>
   <trkpt lat="39.29933" lon="16.083541"><ele>434</ele></trkpt>
   <trkpt lat="39.299434" lon="16.083666"><ele>435.25</ele></trkpt>
   <trkpt lat="39.299495" lon="16.083933"><ele>437</ele></trkpt>
   <trkpt lat="39.299484" lon="16.084038"><ele>438.25</ele></trkpt>
   <trkpt lat="39.299396" lon="16.08417"><ele>439.5</ele></trkpt>
   <trkpt lat="39.299288" lon="16.084309"><ele>441</ele></trkpt>
   <trkpt lat="39.298572" lon="16.084945"><ele>447.25</ele></trkpt>
   <trkpt lat="39.298319" lon="16.085076"><ele>449.25</ele></trkpt>
   <trkpt lat="39.297999" lon="16.085053"><ele>451.5</ele></trkpt>
   <trkpt lat="39.297831" lon="16.085053"><ele>453.25</ele></trkpt>
   <trkpt lat="39.297491" lon="16.085174"><ele>456.25</ele></trkpt>
   <trkpt lat="39.297307" lon="16.085111"><ele>457.75</ele></trkpt>
   <trkpt lat="39.297129" lon="16.085028"><ele>458</ele></trkpt>
   <trkpt lat="39.296997" lon="16.085007"><ele>459.25</ele></trkpt>
   <trkpt lat="39.296874" lon="16.085174"><ele>461.5</ele></trkpt>
   <trkpt lat="39.296712" lon="16.08575"><ele>466</ele></trkpt>
   <trkpt lat="39.296547" lon="16.086164"><ele>468.25</ele></trkpt>
   <trkpt lat="39.296424" lon="16.086285"><ele>468.25</ele></trkpt>
   <trkpt lat="39.296153" lon="16.086694"><ele>471.75</ele></trkpt>
   <trkpt lat="39.296111" lon="16.087012"><ele>474.25</ele></trkpt>
   <trkpt lat="39.29614" lon="16.087158"><ele>476</ele></trkpt>
   <trkpt lat="39.296137" lon="16.087496"><ele>478.5</ele></trkpt>
   <trkpt lat="39.296146" lon="16.087705"><ele>480.25</ele></trkpt>
   <trkpt lat="39.296218" lon="16.088064"><ele>482.5</ele></trkpt>
   <trkpt lat="39.296269" lon="16.088244"><ele>484</ele></trkpt>
   <trkpt lat="39.296234" lon="16.088494"><ele>484.25</ele></trkpt>
   <trkpt lat="39.296153" lon="16.088628"><ele>483.25</ele></trkpt>
   <trkpt lat="39.296027" lon="16.08867"><ele>483</ele></trkpt>
   <trkpt lat="39.294685" lon="16.089041"><ele>488.5</ele></trkpt>
   <trkpt lat="39.29397" lon="16.088898"><ele>493</ele></trkpt>
   <trkpt lat="39.293767" lon="16.088858"><ele>494.25</ele></trkpt>
   <trkpt lat="39.29348" lon="16.088749"><ele>495</ele></trkpt>
   <trkpt lat="39.293137" lon="16.088206"><ele>494.75</ele></trkpt>
   <trkpt lat="39.293034" lon="16.088064"><ele>496</ele></trkpt>
   <trkpt lat="39.292933" lon="16.088018"><ele>495.75</ele></trkpt>
   <trkpt lat="39.292697" lon="16.088068"><ele>496.5</ele></trkpt>
   <trkpt lat="39.292471" lon="16.088311"><ele>500.75</ele></trkpt>
   <trkpt lat="39.290793" lon="16.088407"><ele>514.25</ele></trkpt>
   <trkpt lat="39.290635" lon="16.088281"><ele>517.25</ele></trkpt>
   <trkpt lat="39.289623" lon="16.08709"><ele>526.25</ele></trkpt>
   <trkpt lat="39.289319" lon="16.086832"><ele>529.5</ele></trkpt>
   <trkpt lat="39.289106" lon="16.086786"><ele>530.5</ele></trkpt>
   <trkpt lat="39.288983" lon="16.086844"><ele>531</ele></trkpt>
   <trkpt lat="39.288731" lon="16.087145"><ele>531</ele></trkpt>
   <trkpt lat="39.288637" lon="16.087592"><ele>535.75</ele></trkpt>
   <trkpt lat="39.288663" lon="16.087772"><ele>538.25</ele></trkpt>
   <trkpt lat="39.28875" lon="16.087981"><ele>539.5</ele></trkpt>
   <trkpt lat="39.289009" lon="16.088457"><ele>544</ele></trkpt>
   <trkpt lat="39.289125" lon="16.088854"><ele>545</ele></trkpt>
   <trkpt lat="39.289132" lon="16.089229"><ele>547</ele></trkpt>
   <trkpt lat="39.289116" lon="16.089388"><ele>547.5</ele></trkpt>
   <trkpt lat="39.288977" lon="16.089919"><ele>554.75</ele></trkpt>
   <trkpt lat="39.288847" lon="16.090161"><ele>555.75</ele></trkpt>
   <trkpt lat="39.288686" lon="16.090366"><ele>557</ele></trkpt>
   <trkpt lat="39.288598" lon="16.090612"><ele>557.25</ele></trkpt>
   <trkpt lat="39.288618" lon="16.090846"><ele>558</ele></trkpt>
   <trkpt lat="39.288689" lon="16.090992"><ele>560.25</ele></trkpt>
   <trkpt lat="39.288763" lon="16.091326"><ele>560</ele></trkpt>
   <trkpt lat="39.289009" lon="16.091602"><ele>566</ele></trkpt>
   <trkpt lat="39.28907" lon="16.091723"><ele>567.5</ele></trkpt>
   <trkpt lat="39.289032" lon="16.091915"><ele>567.75</ele></trkpt>
   <trkpt lat="39.28887" lon="16.092166"><ele>567.25</ele></trkpt>
   <trkpt lat="39.288673" lon="16.09268"><ele>564.5</ele></trkpt>
   <trkpt lat="39.288783" lon="16.092918"><ele>564</ele></trkpt>
   <trkpt lat="39.288951" lon="16.09316"><ele>567</ele></trkpt>
   <trkpt lat="39.289381" lon="16.09402"><ele>571.25</ele></trkpt>
   <trkpt lat="39.289365" lon="16.094409"><ele>571.25</ele></trkpt>
   <trkpt lat="39.289368" lon="16.094689"><ele>566.25</ele></trkpt>
   <trkpt lat="39.289568" lon="16.094931"><ele>570.25</ele></trkpt>
   <trkpt lat="39.289794" lon="16.095407"><ele>569.5</ele></trkpt>
   <trkpt lat="39.290234" lon="16.095825"><ele>574</ele></trkpt>
   <trkpt lat="39.290367" lon="16.096932"><ele>574.75</ele></trkpt>
   <trkpt lat="39.29036" lon="16.097717"><ele>573.25</ele></trkpt>
   <trkpt lat="39.290449" lon="16.097909"><ele>576</ele></trkpt>
   <trkpt lat="39.290482" lon="16.098042"><ele>574.25</ele></trkpt>
   <trkpt lat="39.290461" lon="16.098235"><ele>573.5</ele></trkpt>
   <trkpt lat="39.290426" lon="16.098328"><ele>573.5</ele></trkpt>
   <trkpt lat="39.290199" lon="16.098482"><ele>574.75</ele></trkpt>
   <trkpt lat="39.290011" lon="16.098446"><ele>576</ele></trkpt>
   <trkpt lat="39.289833" lon="16.098509"><ele>577</ele></trkpt>
   <trkpt lat="39.289677" lon="16.098596"><ele>582.25</ele></trkpt>
   <trkpt lat="39.289591" lon="16.098467"><ele>590.25</ele></trkpt>
   <trkpt lat="39.289663" lon="16.098045"><ele>582.25</ele></trkpt>
   <trkpt lat="39.289607" lon="16.097617"><ele>587.5</ele></trkpt>
   <trkpt lat="39.289456" lon="16.097346"><ele>591.5</ele></trkpt>
   <trkpt lat="39.289346" lon="16.09718"><ele>590.75</ele></trkpt>
   <trkpt lat="39.289195" lon="16.097075"><ele>594</ele></trkpt>
   <trkpt lat="39.288913" lon="16.096807"><ele>594.5</ele></trkpt>
   <trkpt lat="39.288546" lon="16.096554"><ele>592</ele></trkpt>
   <trkpt lat="39.288085" lon="16.096382"><ele>603.25</ele></trkpt>
   <trkpt lat="39.287894" lon="16.096322"><ele>601.25</ele></trkpt>
   <trkpt lat="39.28766" lon="16.096352"><ele>601.75</ele></trkpt>
   <trkpt lat="39.287472" lon="16.096406"><ele>603.25</ele></trkpt>
   <trkpt lat="39.287348" lon="16.096244"><ele>604.25</ele></trkpt>
   <trkpt lat="39.287222" lon="16.095972"><ele>607</ele></trkpt>
   <trkpt lat="39.287187" lon="16.095789"><ele>607.75</ele></trkpt>
   <trkpt lat="39.286865" lon="16.095539"><ele>611.75</ele></trkpt>
   <trkpt lat="39.286634" lon="16.095427"><ele>615.25</ele></trkpt>
   <trkpt lat="39.286443" lon="16.095268"><ele>615.25</ele></trkpt>
   <trkpt lat="39.286311" lon="16.09512"><ele>615.5</ele></trkpt>
   <trkpt lat="39.28621" lon="16.095087"><ele>616.5</ele></trkpt>
   <trkpt lat="39.286033" lon="16.095171"><ele>619.75</ele></trkpt>
   <trkpt lat="39.285823" lon="16.095219"><ele>618.25</ele></trkpt>
   <trkpt lat="39.285613" lon="16.09512"><ele>619.25</ele></trkpt>
   <trkpt lat="39.285303" lon="16.094846"><ele>624</ele></trkpt>
   <trkpt lat="39.285084" lon="16.09431"><ele>628</ele></trkpt>
   <trkpt lat="39.285012" lon="16.094222"><ele>631.5</ele></trkpt>
   <trkpt lat="39.284872" lon="16.094126"><ele>631.75</ele></trkpt>
   <trkpt lat="39.284762" lon="16.094099"><ele>632.25</ele></trkpt>
   <trkpt lat="39.284464" lon="16.094099"><ele>636</ele></trkpt>
   <trkpt lat="39.284256" lon="16.094189"><ele>638.5</ele></trkpt>
   <trkpt lat="39.284102" lon="16.094246"><ele>637</ele></trkpt>
   <trkpt lat="39.284014" lon="16.09437"><ele>639.5</ele></trkpt>
   <trkpt lat="39.283946" lon="16.094403"><ele>637.75</ele></trkpt>
   <trkpt lat="39.283817" lon="16.094434"><ele>637.75</ele></trkpt>
   <trkpt lat="39.283598" lon="16.094311"><ele>638.5</ele></trkpt>
   <trkpt lat="39.283189" lon="16.094194"><ele>645.75</ele></trkpt>
   <trkpt lat="39.283079" lon="16.094074"><ele>644.75</ele></trkpt>
   <trkpt lat="39.283006" lon="16.09389"><ele>644</ele></trkpt>
   <trkpt lat="39.282946" lon="16.093693"><ele>645.75</ele></trkpt>
   <trkpt lat="39.282913" lon="16.093435"><ele>645.5</ele></trkpt>
   <trkpt lat="39.282825" lon="16.093291"><ele>648.75</ele></trkpt>
   <trkpt lat="39.282725" lon="16.093248"><ele>650.25</ele></trkpt>
   <trkpt lat="39.282356" lon="16.093242"><ele>651.5</ele></trkpt>
   <trkpt lat="39.28205" lon="16.093193"><ele>650.75</ele></trkpt>
   <trkpt lat="39.281781" lon="16.093199"><ele>657</ele></trkpt>
   <trkpt lat="39.281653" lon="16.093017"><ele>654.25</ele></trkpt>
   <trkpt lat="39.281429" lon="16.092554"><ele>656.25</ele></trkpt>
   <trkpt lat="39.281253" lon="16.092391"><ele>657.75</ele></trkpt>
   <trkpt lat="39.281129" lon="16.092283"><ele>658</ele></trkpt>
   <trkpt lat="39.280995" lon="16.092144"><ele>656.25</ele></trkpt>
   <trkpt lat="39.280906" lon="16.092216"><ele>657.5</ele></trkpt>
   <trkpt lat="39.28082" lon="16.09236"><ele>658.5</ele></trkpt>
   <trkpt lat="39.280753" lon="16.092801"><ele>663.75</ele></trkpt>
   <trkpt lat="39.280658" lon="16.092949"><ele>665.5</ele></trkpt>
   <trkpt lat="39.280568" lon="16.093025"><ele>665.25</ele></trkpt>
   <trkpt lat="39.280043" lon="16.09316"><ele>669.25</ele></trkpt>
   <trkpt lat="39.279494" lon="16.093614"><ele>673</ele></trkpt>
   <trkpt lat="39.279391" lon="16.093767"><ele>672</ele></trkpt>
   <trkpt lat="39.279373" lon="16.093906"><ele>672.75</ele></trkpt>
   <trkpt lat="39.279427" lon="16.094046"><ele>674.5</ele></trkpt>
   <trkpt lat="39.279521" lon="16.094095"><ele>677.25</ele></trkpt>
   <trkpt lat="39.279615" lon="16.094037"><ele>679.5</ele></trkpt>
   <trkpt lat="39.279692" lon="16.093902"><ele>679.5</ele></trkpt>
   <trkpt lat="39.279746" lon="16.093668"><ele>679.25</ele></trkpt>
   <trkpt lat="39.279867" lon="16.093515"><ele>679.25</ele></trkpt>
   <trkpt lat="39.279971" lon="16.093457"><ele>680.5</ele></trkpt>
   <trkpt lat="39.280874" lon="16.093407"><ele>687.25</ele></trkpt>
   <trkpt lat="39.280964" lon="16.093349"><ele>686.5</ele></trkpt>
   <trkpt lat="39.281063" lon="16.093309"><ele>687.25</ele></trkpt>
   <trkpt lat="39.28118" lon="16.093344"><ele>688.5</ele></trkpt>
   <trkpt lat="39.281328" lon="16.093475"><ele>689.5</ele></trkpt>
   <trkpt lat="39.281467" lon="16.09365"><ele>691.5</ele></trkpt>
   <trkpt lat="39.281593" lon="16.093758"><ele>693</ele></trkpt>
   <trkpt lat="39.28194" lon="16.093929"><ele>694.5</ele></trkpt>
   <trkpt lat="39.282268" lon="16.09401"><ele>692.25</ele></trkpt>
   <trkpt lat="39.282358" lon="16.094064"><ele>690.75</ele></trkpt>
   <trkpt lat="39.282425" lon="16.094203"><ele>693.5</ele></trkpt>
   <trkpt lat="39.282488" lon="16.094603"><ele>700.75</ele></trkpt>
   <trkpt lat="39.282528" lon="16.094778"><ele>702.75</ele></trkpt>
   <trkpt lat="39.282614" lon="16.094859"><ele>703</ele></trkpt>
   <trkpt lat="39.282704" lon="16.094864"><ele>700.75</ele></trkpt>
   <trkpt lat="39.28278" lon="16.094877"><ele>699.25</ele></trkpt>
   <trkpt lat="39.282942" lon="16.095039"><ele>705.25</ele></trkpt>
   <trkpt lat="39.28309" lon="16.095152"><ele>705.5</ele></trkpt>
   <trkpt lat="39.283257" lon="16.095232"><ele>704</ele></trkpt>
   <trkpt lat="39.283333" lon="16.095349"><ele>706</ele></trkpt>
   <trkpt lat="39.283374" lon="16.095471"><ele>705.25</ele></trkpt>
   <trkpt lat="39.283401" lon="16.095588"><ele>707</ele></trkpt>
   <trkpt lat="39.283445" lon="16.0957"><ele>709.75</ele></trkpt>
   <trkpt lat="39.283513" lon="16.095749"><ele>710</ele></trkpt>
   <trkpt lat="39.283603" lon="16.095763"><ele>708.75</ele></trkpt>
   <trkpt lat="39.283949" lon="16.095696"><ele>704</ele></trkpt>
   <trkpt lat="39.284061" lon="16.0957"><ele>705.25</ele></trkpt>
   <trkpt lat="39.284124" lon="16.095745"><ele>708.25</ele></trkpt>
   <trkpt lat="39.284169" lon="16.095853"><ele>713</ele></trkpt>
   <trkpt lat="39.284237" lon="16.096383"><ele>717</ele></trkpt>
   <trkpt lat="39.284214" lon="16.096725"><ele>720.75</ele></trkpt>
   <trkpt lat="39.284223" lon="16.096923"><ele>722.75</ele></trkpt>
   <trkpt lat="39.2843" lon="16.09704"><ele>721.75</ele></trkpt>
   <trkpt lat="39.284439" lon="16.097085"><ele>719.5</ele></trkpt>
   <trkpt lat="39.284673" lon="16.097098"><ele>716.75</ele></trkpt>
   <trkpt lat="39.284754" lon="16.097188"><ele>717.75</ele></trkpt>
   <trkpt lat="39.284776" lon="16.097296"><ele>718.5</ele></trkpt>
   <trkpt lat="39.284677" lon="16.097507"><ele>718.25</ele></trkpt>
   <trkpt lat="39.28456" lon="16.097534"><ele>719</ele></trkpt>
   <trkpt lat="39.284264" lon="16.097363"><ele>723</ele></trkpt>
   <trkpt lat="39.284133" lon="16.097251"><ele>725.75</ele></trkpt>
   <trkpt lat="39.284003" lon="16.096923"><ele>726.75</ele></trkpt>
   <trkpt lat="39.283985" lon="16.09672"><ele>725.75</ele></trkpt>
   <trkpt lat="39.284012" lon="16.09659"><ele>724.75</ele></trkpt>
   <trkpt lat="39.283994" lon="16.096487"><ele>725.5</ele></trkpt>
   <trkpt lat="39.283931" lon="16.096293"><ele>727.5</ele></trkpt>
   <trkpt lat="39.283868" lon="16.096203"><ele>728.5</ele></trkpt>
   <trkpt lat="39.28376" lon="16.096208"><ele>728</ele></trkpt>
   <trkpt lat="39.283598" lon="16.096275"><ele>728.5</ele></trkpt>
   <trkpt lat="39.283401" lon="16.096275"><ele>733.25</ele></trkpt>
   <trkpt lat="39.283216" lon="16.096132"><ele>737</ele></trkpt>
   <trkpt lat="39.283104" lon="16.095979"><ele>736.25</ele></trkpt>
   <trkpt lat="39.283" lon="16.095884"><ele>735.75</ele></trkpt>
   <trkpt lat="39.28287" lon="16.095871"><ele>737.5</ele></trkpt>
   <trkpt lat="39.282776" lon="16.095844"><ele>738.25</ele></trkpt>
   <trkpt lat="39.282681" lon="16.095727"><ele>735.25</ele></trkpt>
   <trkpt lat="39.282569" lon="16.095619"><ele>735</ele></trkpt>
   <trkpt lat="39.282457" lon="16.095606"><ele>737.25</ele></trkpt>
   <trkpt lat="39.282394" lon="16.09566"><ele>738.25</ele></trkpt>
   <trkpt lat="39.282367" lon="16.095812"><ele>738</ele></trkpt>
   <trkpt lat="39.28256" lon="16.096226"><ele>742</ele></trkpt>
   <trkpt lat="39.282618" lon="16.096446"><ele>743</ele></trkpt>
   <trkpt lat="39.282663" lon="16.096586"><ele>743.25</ele></trkpt>
   <trkpt lat="39.282996" lon="16.096927"><ele>747.25</ele></trkpt>
   <trkpt lat="39.283616" lon="16.097759"><ele>753.75</ele></trkpt>
   <trkpt lat="39.283693" lon="16.097871"><ele>753.5</ele></trkpt>
   <trkpt lat="39.283803" lon="16.098002"><ele>756</ele></trkpt>
   <trkpt lat="39.284147" lon="16.09819"><ele>758.25</ele></trkpt>
   <trkpt lat="39.284515" lon="16.098339"><ele>762</ele></trkpt>
   <trkpt lat="39.284839" lon="16.098514"><ele>764.25</ele></trkpt>
   <trkpt lat="39.284965" lon="16.098532"><ele>764.25</ele></trkpt>
   <trkpt lat="39.285369" lon="16.098447"><ele>766</ele></trkpt>
   <trkpt lat="39.285486" lon="16.098465"><ele>767</ele></trkpt>
   <trkpt lat="39.28554" lon="16.098559"><ele>768.5</ele></trkpt>
   <trkpt lat="39.285635" lon="16.09895"><ele>773.75</ele></trkpt>
   <trkpt lat="39.285743" lon="16.099224"><ele>775.75</ele></trkpt>
   <trkpt lat="39.285877" lon="16.099377"><ele>776</ele></trkpt>
   <trkpt lat="39.286053" lon="16.099503"><ele>774.75</ele></trkpt>
   <trkpt lat="39.286143" lon="16.099633"><ele>774.25</ele></trkpt>
   <trkpt lat="39.28617" lon="16.099786"><ele>773.75</ele></trkpt>
   <trkpt lat="39.286125" lon="16.099939"><ele>774.75</ele></trkpt>
   <trkpt lat="39.286021" lon="16.100096"><ele>778.75</ele></trkpt>
   <trkpt lat="39.28599" lon="16.100231"><ele>780.75</ele></trkpt>
   <trkpt lat="39.286012" lon="16.101148"><ele>785</ele></trkpt>
   <trkpt lat="39.286075" lon="16.101346"><ele>785</ele></trkpt>
   <trkpt lat="39.286053" lon="16.101526"><ele>785.25</ele></trkpt>
   <trkpt lat="39.285873" lon="16.101904"><ele>787.75</ele></trkpt>
   <trkpt lat="39.285698" lon="16.102627"><ele>788.25</ele></trkpt>
   <trkpt lat="39.285621" lon="16.103027"><ele>788.25</ele></trkpt>
   <trkpt lat="39.285648" lon="16.103275"><ele>788.5</ele></trkpt>
   <trkpt lat="39.285716" lon="16.103625"><ele>789.75</ele></trkpt>
   <trkpt lat="39.285806" lon="16.104309"><ele>800.5</ele></trkpt>
   <trkpt lat="39.285873" lon="16.104452"><ele>799.75</ele></trkpt>
   <trkpt lat="39.286075" lon="16.104785"><ele>797.5</ele></trkpt>
   <trkpt lat="39.286201" lon="16.105064"><ele>798.5</ele></trkpt>
   <trkpt lat="39.286287" lon="16.105446"><ele>807.5</ele></trkpt>
   <trkpt lat="39.286403" lon="16.105648"><ele>803.75</ele></trkpt>
   <trkpt lat="39.286624" lon="16.105734"><ele>806</ele></trkpt>
   <trkpt lat="39.286974" lon="16.105743"><ele>805.25</ele></trkpt>
   <trkpt lat="39.287168" lon="16.105819"><ele>805.75</ele></trkpt>
   <trkpt lat="39.28764" lon="16.105976"><ele>806.75</ele></trkpt>
   <trkpt lat="39.287914" lon="16.106039"><ele>806</ele></trkpt>
   <trkpt lat="39.288004" lon="16.106098"><ele>808.25</ele></trkpt>
   <trkpt lat="39.288053" lon="16.106152"><ele>809.25</ele></trkpt>
   <trkpt lat="39.288058" lon="16.106246"><ele>809.75</ele></trkpt>
   <trkpt lat="39.288026" lon="16.106318"><ele>810.75</ele></trkpt>
   <trkpt lat="39.287959" lon="16.106363"><ele>811.75</ele></trkpt>
   <trkpt lat="39.287833" lon="16.106336"><ele>812.5</ele></trkpt>
   <trkpt lat="39.286979" lon="16.106071"><ele>818.5</ele></trkpt>
   <trkpt lat="39.286817" lon="16.106066"><ele>819.25</ele></trkpt>
   <trkpt lat="39.286736" lon="16.106165"><ele>822.5</ele></trkpt>
   <trkpt lat="39.286713" lon="16.106358"><ele>825.25</ele></trkpt>
   <trkpt lat="39.286682" lon="16.106502"><ele>827</ele></trkpt>
   <trkpt lat="39.286606" lon="16.106574"><ele>830.5</ele></trkpt>
   <trkpt lat="39.286498" lon="16.10657"><ele>834.25</ele></trkpt>
   <trkpt lat="39.286403" lon="16.106453"><ele>832.5</ele></trkpt>
   <trkpt lat="39.286242" lon="16.106165"><ele>829</ele></trkpt>
   <trkpt lat="39.286107" lon="16.106102"><ele>830</ele></trkpt>
   <trkpt lat="39.285922" lon="16.106152"><ele>831</ele></trkpt>
   <trkpt lat="39.285729" lon="16.106358"><ele>832.5</ele></trkpt>
   <trkpt lat="39.285657" lon="16.106516"><ele>831.5</ele></trkpt>
   <trkpt lat="39.285671" lon="16.10679"><ele>833</ele></trkpt>
   <trkpt lat="39.285743" lon="16.107024"><ele>834.75</ele></trkpt>
   <trkpt lat="39.285864" lon="16.107217"><ele>836.5</ele></trkpt>
   <trkpt lat="39.286615" lon="16.107963"><ele>842</ele></trkpt>
   <trkpt lat="39.2879" lon="16.108606"><ele>845.25</ele></trkpt>
   <trkpt lat="39.288175" lon="16.108705"><ele>846.5</ele></trkpt>
   <trkpt lat="39.288278" lon="16.108835"><ele>846.25</ele></trkpt>
   <trkpt lat="39.288593" lon="16.109582"><ele>845.75</ele></trkpt>
   <trkpt lat="39.288768" lon="16.109761"><ele>844.25</ele></trkpt>
   <trkpt lat="39.289015" lon="16.109842"><ele>844.25</ele></trkpt>
   <trkpt lat="39.289177" lon="16.10991"><ele>844.25</ele></trkpt>
   <trkpt lat="39.290175" lon="16.111087"><ele>861.25</ele></trkpt>
   <trkpt lat="39.290305" lon="16.111258"><ele>866.25</ele></trkpt>
   <trkpt lat="39.290418" lon="16.111312"><ele>867.5</ele></trkpt>
   <trkpt lat="39.290521" lon="16.111303"><ele>867.25</ele></trkpt>
   <trkpt lat="39.291384" lon="16.110867"><ele>869.75</ele></trkpt>
   <trkpt lat="39.291551" lon="16.110813"><ele>871</ele></trkpt>
   <trkpt lat="39.291667" lon="16.110822"><ele>871.75</ele></trkpt>
   <trkpt lat="39.291838" lon="16.110899"><ele>873.5</ele></trkpt>
   <trkpt lat="39.291964" lon="16.110993"><ele>874.5</ele></trkpt>
   <trkpt lat="39.292032" lon="16.111114"><ele>875.5</ele></trkpt>
   <trkpt lat="39.292014" lon="16.111285"><ele>877.5</ele></trkpt>
   <trkpt lat="39.291946" lon="16.111398"><ele>878</ele></trkpt>
   <trkpt lat="39.29138" lon="16.111825"><ele>880.5</ele></trkpt>
   <trkpt lat="39.291245" lon="16.111888"><ele>881.75</ele></trkpt>
   <trkpt lat="39.291146" lon="16.111892"><ele>881.75</ele></trkpt>
   <trkpt lat="39.291011" lon="16.111829"><ele>880.5</ele></trkpt>
   <trkpt lat="39.290899" lon="16.111789"><ele>880.25</ele></trkpt>
   <trkpt lat="39.290782" lon="16.111825"><ele>881.25</ele></trkpt>
   <trkpt lat="39.290719" lon="16.111928"><ele>883.5</ele></trkpt>
   <trkpt lat="39.290723" lon="16.112045"><ele>883.75</ele></trkpt>
   <trkpt lat="39.290809" lon="16.112148"><ele>886.75</ele></trkpt>
   <trkpt lat="39.290975" lon="16.112175"><ele>888.25</ele></trkpt>
   <trkpt lat="39.291272" lon="16.112157"><ele>889.25</ele></trkpt>
   <trkpt lat="39.29164" lon="16.112175"><ele>893.5</ele></trkpt>
   <trkpt lat="39.292162" lon="16.112247"><ele>895.75</ele></trkpt>
   <trkpt lat="39.2924" lon="16.112387"><ele>899.25</ele></trkpt>
   <trkpt lat="39.29258" lon="16.112391"><ele>900.5</ele></trkpt>
   <trkpt lat="39.292949" lon="16.112144"><ele>903.75</ele></trkpt>
   <trkpt lat="39.293295" lon="16.111996"><ele>905.5</ele></trkpt>
   <trkpt lat="39.293587" lon="16.111906"><ele>906</ele></trkpt>
   <trkpt lat="39.293839" lon="16.111942"><ele>906.75</ele></trkpt>
   <trkpt lat="39.294059" lon="16.111897"><ele>908.75</ele></trkpt>
   <trkpt lat="39.294297" lon="16.111766"><ele>908</ele></trkpt>
   <trkpt lat="39.294468" lon="16.111681"><ele>906.5</ele></trkpt>
   <trkpt lat="39.29467" lon="16.111694"><ele>907.25</ele></trkpt>
   <trkpt lat="39.29485" lon="16.111789"><ele>909.25</ele></trkpt>
   <trkpt lat="39.29503" lon="16.112022"><ele>911.25</ele></trkpt>
   <trkpt lat="39.2953" lon="16.112274"><ele>914.25</ele></trkpt>
   <trkpt lat="39.295506" lon="16.112337"><ele>915</ele></trkpt>
   <trkpt lat="39.297192" lon="16.11245"><ele>904.75</ele></trkpt>
   <trkpt lat="39.297376" lon="16.112477"><ele>903</ele></trkpt>
   <trkpt lat="39.29748" lon="16.112544"><ele>902.25</ele></trkpt>
   <trkpt lat="39.297534" lon="16.112634"><ele>900.75</ele></trkpt>
   <trkpt lat="39.297565" lon="16.112975"><ele>902.25</ele></trkpt>
   <trkpt lat="39.297651" lon="16.113115"><ele>902</ele></trkpt>
   <trkpt lat="39.297732" lon="16.113169"><ele>901</ele></trkpt>
   <trkpt lat="39.297848" lon="16.113164"><ele>899</ele></trkpt>
   <trkpt lat="39.297943" lon="16.113182"><ele>897.5</ele></trkpt>
   <trkpt lat="39.298208" lon="16.113587"><ele>899</ele></trkpt>
   <trkpt lat="39.298289" lon="16.113663"><ele>899.25</ele></trkpt>
   <trkpt lat="39.298487" lon="16.113677"><ele>897.75</ele></trkpt>
   <trkpt lat="39.298954" lon="16.113749"><ele>895.25</ele></trkpt>
   <trkpt lat="39.299714" lon="16.114068"><ele>892.5</ele></trkpt>
   <trkpt lat="39.299876" lon="16.114171"><ele>891.5</ele></trkpt>
   <trkpt lat="39.300024" lon="16.114356"><ele>891.5</ele></trkpt>
   <trkpt lat="39.300141" lon="16.114423"><ele>891.5</ele></trkpt>
   <trkpt lat="39.30042" lon="16.11445"><ele>889.5</ele></trkpt>
   <trkpt lat="39.301049" lon="16.114976"><ele>893</ele></trkpt>
   <trkpt lat="39.301314" lon="16.115388"><ele>894.5</ele></trkpt>
   <trkpt lat="39.301402" lon="16.115584"><ele>896</ele></trkpt>
  </trkseg>
 </trk>
</gpx>