<?xml version="1.0" encoding="UTF-8"?>
<!-- track-length = 8654 filtered ascend = 448 plain-ascend = 451 cost=10576 energy=0.1kwh time=1h 10m 39s -->
<gpx 
 xmlns="http://www.topografix.com/GPX/1/1" 
 xmlns:xsi="http://www.w3.org/2001/XMLSchema-instance" 
 xsi:schemaLocation="http://www.topografix.com/GPX/1/1 http://www.topografix.com/GPX/1/1/gpx.xsd" 
 version="1.1" 
 creator="BRouter-Web 0.18.1">
 <trk>
  <name>Font-Romeu (8.7km)</name>
  <trkseg>
   <trkpt lat="42.488561" lon="2.046241"><ele>1493.75</ele></trkpt>
   <trkpt lat="42.488558" lon="2.046164"><ele>1494</ele></trkpt>
   <trkpt lat="42.488535" lon="2.046002"><ele>1494.25</ele></trkpt>
   <trkpt lat="42.488405" lon="2.045429"><ele>1495.25</ele></trkpt>
   <trkpt lat="42.48826" lon="2.044867"><ele>1497.75</ele></trkpt>
   <trkpt lat="42.488213" lon="2.044647"><ele>1498.75</ele></trkpt>
   <trkpt lat="42.488187" lon="2.044485"><ele>1499.5</ele></trkpt>
   <trkpt lat="42.488167" lon="2.044261"><ele>1500</ele></trkpt>
   <trkpt lat="42.48816" lon="2.044034"><ele>1501.25</ele></trkpt>
   <trkpt lat="42.48817" lon="2.043786"><ele>1502.25</ele></trkpt>
   <trkpt lat="42.488284" lon="2.042228"><ele>1504</ele></trkpt>
   <trkpt lat="42.488298" lon="2.04192"><ele>1505.5</ele></trkpt>
   <trkpt lat="42.488323" lon="2.041574"><ele>1507.25</ele></trkpt>
   <trkpt lat="42.488357" lon="2.041417"><ele>1507.5</ele></trkpt>
   <trkpt lat="42.488406" lon="2.041254"><ele>1508.5</ele></trkpt>
   <trkpt lat="42.488474" lon="2.041069"><ele>1509.5</ele></trkpt>
   <trkpt lat="42.488563" lon="2.040902"><ele>1510.5</ele></trkpt>
   <trkpt lat="42.488646" lon="2.040613"><ele>1511</ele></trkpt>
   <trkpt lat="42.48865" lon="2.040515"><ele>1511</ele></trkpt>
   <trkpt lat="42.48866" lon="2.040426"><ele>1511</ele></trkpt>
   <trkpt lat="42.488678" lon="2.040377"><ele>1510.75</ele></trkpt>
   <trkpt lat="42.488713" lon="2.04033"><ele>1510.75</ele></trkpt>
   <trkpt lat="42.488769" lon="2.040285"><ele>1510.25</ele></trkpt>
   <trkpt lat="42.488839" lon="2.040244"><ele>1510</ele></trkpt>
   <trkpt lat="42.489001" lon="2.040171"><ele>1510</ele></trkpt>
   <trkpt lat="42.489133" lon="2.04015"><ele>1510.25</ele></trkpt>
   <trkpt lat="42.489225" lon="2.040143"><ele>1510.75</ele></trkpt>
   <trkpt lat="42.489287" lon="2.040123"><ele>1511</ele></trkpt>
   <trkpt lat="42.489338" lon="2.040082"><ele>1511.25</ele></trkpt>
   <trkpt lat="42.489385" lon="2.040025"><ele>1511.5</ele></trkpt>
   <trkpt lat="42.489423" lon="2.039925"><ele>1511.75</ele></trkpt>
   <trkpt lat="42.48945" lon="2.039798"><ele>1512</ele></trkpt>
   <trkpt lat="42.489487" lon="2.039628"><ele>1512</ele></trkpt>
   <trkpt lat="42.489655" lon="2.038867"><ele>1515.5</ele></trkpt>
   <trkpt lat="42.489729" lon="2.038518"><ele>1516.25</ele></trkpt>
   <trkpt lat="42.489813" lon="2.038157"><ele>1518.5</ele></trkpt>
   <trkpt lat="42.489863" lon="2.037968"><ele>1519.5</ele></trkpt>
   <trkpt lat="42.489947" lon="2.037746"><ele>1520.5</ele></trkpt>
   <trkpt lat="42.490033" lon="2.037553"><ele>1522</ele></trkpt>
   <trkpt lat="42.490188" lon="2.037283"><ele>1524</ele></trkpt>
   <trkpt lat="42.490243" lon="2.037193"><ele>1524.75</ele></trkpt>
   <trkpt lat="42.490306" lon="2.037122"><ele>1525.5</ele></trkpt>
   <trkpt lat="42.490431" lon="2.036949"><ele>1526.5</ele></trkpt>
   <trkpt lat="42.490538" lon="2.036846"><ele>1527.25</ele></trkpt>
   <trkpt lat="42.490873" lon="2.036591"><ele>1529</ele></trkpt>
   <trkpt lat="42.49096" lon="2.036529"><ele>1529.5</ele></trkpt>
   <trkpt lat="42.490979" lon="2.036527"><ele>1529.75</ele></trkpt>
   <trkpt lat="42.49106" lon="2.036489"><ele>1530</ele></trkpt>
   <trkpt lat="42.491243" lon="2.036478"><ele>1531.25</ele></trkpt>
   <trkpt lat="42.491427" lon="2.036489"><ele>1532.75</ele></trkpt>
   <trkpt lat="42.491607" lon="2.036536"><ele>1533.75</ele></trkpt>
   <trkpt lat="42.491783" lon="2.036593"><ele>1535.25</ele></trkpt>
   <trkpt lat="42.491931" lon="2.036626"><ele>1536.25</ele></trkpt>
   <trkpt lat="42.49221" lon="2.036686"><ele>1538.25</ele></trkpt>
   <trkpt lat="42.492339" lon="2.036742"><ele>1540</ele></trkpt>
   <trkpt lat="42.49247" lon="2.036829"><ele>1541.5</ele></trkpt>
   <trkpt lat="42.492621" lon="2.036965"><ele>1542.75</ele></trkpt>
   <trkpt lat="42.493046" lon="2.037426"><ele>1547.5</ele></trkpt>
   <trkpt lat="42.493193" lon="2.037532"><ele>1548.25</ele></trkpt>
   <trkpt lat="42.493291" lon="2.037581"><ele>1548.5</ele></trkpt>
   <trkpt lat="42.493381" lon="2.037608"><ele>1549</ele></trkpt>
   <trkpt lat="42.493486" lon="2.037624"><ele>1549.75</ele></trkpt>
   <trkpt lat="42.493563" lon="2.037626"><ele>1550.5</ele></trkpt>
   <trkpt lat="42.493686" lon="2.037615"><ele>1551.25</ele></trkpt>
   <trkpt lat="42.493778" lon="2.037588"><ele>1552</ele></trkpt>
   <trkpt lat="42.49392" lon="2.037518"><ele>1553.25</ele></trkpt>
   <trkpt lat="42.494028" lon="2.037447"><ele>1555</ele></trkpt>
   <trkpt lat="42.494117" lon="2.037368"><ele>1556</ele></trkpt>
   <trkpt lat="42.494215" lon="2.037254"><ele>1556.25</ele></trkpt>
   <trkpt lat="42.494298" lon="2.037138"><ele>1556.75</ele></trkpt>
   <trkpt lat="42.494452" lon="2.036902"><ele>1558</ele></trkpt>
   <trkpt lat="42.494569" lon="2.036702"><ele>1559.25</ele></trkpt>
   <trkpt lat="42.494632" lon="2.036575"><ele>1560.25</ele></trkpt>
   <trkpt lat="42.494664" lon="2.036472"><ele>1561</ele></trkpt>
   <trkpt lat="42.49472" lon="2.036239"><ele>1563</ele></trkpt>
   <trkpt lat="42.494741" lon="2.036152"><ele>1563</ele></trkpt>
   <trkpt lat="42.494784" lon="2.036027"><ele>1563.5</ele></trkpt>
   <trkpt lat="42.494948" lon="2.035651"><ele>1565</ele></trkpt>
   <trkpt lat="42.494998" lon="2.0355"><ele>1564.75</ele></trkpt>
   <trkpt lat="42.495068" lon="2.035389"><ele>1565.5</ele></trkpt>
   <trkpt lat="42.495105" lon="2.035347"><ele>1566</ele></trkpt>
   <trkpt lat="42.495178" lon="2.03527"><ele>1566.25</ele></trkpt>
   <trkpt lat="42.495326" lon="2.035164"><ele>1567</ele></trkpt>
   <trkpt lat="42.495596" lon="2.03499"><ele>1568.5</ele></trkpt>
   <trkpt lat="42.495656" lon="2.034945"><ele>1569</ele></trkpt>
   <trkpt lat="42.496198" lon="2.034543"><ele>1572.5</ele></trkpt>
   <trkpt lat="42.496399" lon="2.0344"><ele>1572.75</ele></trkpt>
   <trkpt lat="42.496532" lon="2.034281"><ele>1573.75</ele></trkpt>
   <trkpt lat="42.496626" lon="2.034147"><ele>1574.25</ele></trkpt>
   <trkpt lat="42.496676" lon="2.034016"><ele>1575.5</ele></trkpt>
   <trkpt lat="42.496744" lon="2.033778"><ele>1576.75</ele></trkpt>
   <trkpt lat="42.496751" lon="2.033689"><ele>1577.25</ele></trkpt>
   <trkpt lat="42.496753" lon="2.033567"><ele>1577.5</ele></trkpt>
   <trkpt lat="42.496755" lon="2.033448"><ele>1578</ele></trkpt>
   <trkpt lat="42.496757" lon="2.033387"><ele>1578</ele></trkpt>
   <trkpt lat="42.496753" lon="2.033053"><ele>1579.25</ele></trkpt>
   <trkpt lat="42.496755" lon="2.032636"><ele>1580.5</ele></trkpt>
   <trkpt lat="42.496767" lon="2.031804"><ele>1582.75</ele></trkpt>
   <trkpt lat="42.496805" lon="2.031657"><ele>1584</ele></trkpt>
   <trkpt lat="42.49687" lon="2.031536"><ele>1585</ele></trkpt>
   <trkpt lat="42.496904" lon="2.031542"><ele>1585.25</ele></trkpt>
   <trkpt lat="42.49695" lon="2.031522"><ele>1586</ele></trkpt>
   <trkpt lat="42.496981" lon="2.031473"><ele>1586.75</ele></trkpt>
   <trkpt lat="42.496988" lon="2.031443"><ele>1587</ele></trkpt>
   <trkpt lat="42.497045" lon="2.031336"><ele>1588.5</ele></trkpt>
   <trkpt lat="42.497071" lon="2.031261"><ele>1589</ele></trkpt>
   <trkpt lat="42.497077" lon="2.031142"><ele>1589.25</ele></trkpt>
   <trkpt lat="42.497104" lon="2.030908"><ele>1590</ele></trkpt>
   <trkpt lat="42.497159" lon="2.03019"><ele>1591</ele></trkpt>
   <trkpt lat="42.497184" lon="2.030033"><ele>1591.25</ele></trkpt>
   <trkpt lat="42.497222" lon="2.029939"><ele>1591.5</ele></trkpt>
   <trkpt lat="42.497291" lon="2.029854"><ele>1592.25</ele></trkpt>
   <trkpt lat="42.497439" lon="2.029741"><ele>1594</ele></trkpt>
   <trkpt lat="42.497478" lon="2.02972"><ele>1594.75</ele></trkpt>
   <trkpt lat="42.497553" lon="2.029682"><ele>1594.75</ele></trkpt>
   <trkpt lat="42.497682" lon="2.029641"><ele>1595.75</ele></trkpt>
   <trkpt lat="42.49817" lon="2.02964"><ele>1599.25</ele></trkpt>
   <trkpt lat="42.498637" lon="2.02961"><ele>1602.5</ele></trkpt>
   <trkpt lat="42.498918" lon="2.029602"><ele>1604</ele></trkpt>
   <trkpt lat="42.498984" lon="2.029635"><ele>1604.25</ele></trkpt>
   <trkpt lat="42.499034" lon="2.029689"><ele>1604.75</ele></trkpt>
   <trkpt lat="42.499072" lon="2.029767"><ele>1606</ele></trkpt>
   <trkpt lat="42.499074" lon="2.029844"><ele>1607.5</ele></trkpt>
   <trkpt lat="42.499066" lon="2.029904"><ele>1608.5</ele></trkpt>
   <trkpt lat="42.499039" lon="2.029959"><ele>1609.25</ele></trkpt>
   <trkpt lat="42.498998" lon="2.029996"><ele>1609.5</ele></trkpt>
   <trkpt lat="42.498935" lon="2.030034"><ele>1610</ele></trkpt>
   <trkpt lat="42.498859" lon="2.030038"><ele>1610</ele></trkpt>
   <trkpt lat="42.498692" lon="2.029999"><ele>1610.25</ele></trkpt>
   <trkpt lat="42.49861" lon="2.029997"><ele>1610.75</ele></trkpt>
   <trkpt lat="42.498522" lon="2.030026"><ele>1610.25</ele></trkpt>
   <trkpt lat="42.498439" lon="2.030104"><ele>1610.75</ele></trkpt>
   <trkpt lat="42.498372" lon="2.030206"><ele>1611.25</ele></trkpt>
   <trkpt lat="42.49813" lon="2.030852"><ele>1612.5</ele></trkpt>
   <trkpt lat="42.498117" lon="2.030999"><ele>1613.5</ele></trkpt>
   <trkpt lat="42.498126" lon="2.031153"><ele>1614.75</ele></trkpt>
   <trkpt lat="42.498191" lon="2.031324"><ele>1615.25</ele></trkpt>
   <trkpt lat="42.498296" lon="2.031471"><ele>1616</ele></trkpt>
   <trkpt lat="42.498641" lon="2.031957"><ele>1620.5</ele></trkpt>
   <trkpt lat="42.498724" lon="2.032074"><ele>1621</ele></trkpt>
   <trkpt lat="42.498972" lon="2.032432"><ele>1622.75</ele></trkpt>
   <trkpt lat="42.499114" lon="2.032639"><ele>1623.75</ele></trkpt>
   <trkpt lat="42.499335" lon="2.032958"><ele>1626.5</ele></trkpt>
   <trkpt lat="42.499722" lon="2.033515"><ele>1631.5</ele></trkpt>
   <trkpt lat="42.499823" lon="2.033663"><ele>1631.75</ele></trkpt>
   <trkpt lat="42.499879" lon="2.033724"><ele>1632</ele></trkpt>
   <trkpt lat="42.499953" lon="2.033791"><ele>1632.75</ele></trkpt>
   <trkpt lat="42.500067" lon="2.033843"><ele>1634</ele></trkpt>
   <trkpt lat="42.500204" lon="2.03388"><ele>1635.25</ele></trkpt>
   <trkpt lat="42.500264" lon="2.033896"><ele>1635.75</ele></trkpt>
   <trkpt lat="42.500419" lon="2.033951"><ele>1636.5</ele></trkpt>
   <trkpt lat="42.500566" lon="2.034035"><ele>1638</ele></trkpt>
   <trkpt lat="42.500708" lon="2.034254"><ele>1639.75</ele></trkpt>
   <trkpt lat="42.500775" lon="2.034371"><ele>1640</ele></trkpt>
   <trkpt lat="42.500895" lon="2.034539"><ele>1641.5</ele></trkpt>
   <trkpt lat="42.500983" lon="2.034741"><ele>1643</ele></trkpt>
   <trkpt lat="42.501038" lon="2.034974"><ele>1644</ele></trkpt>
   <trkpt lat="42.501083" lon="2.035163"><ele>1644</ele></trkpt>
   <trkpt lat="42.501151" lon="2.035584"><ele>1646.25</ele></trkpt>
   <trkpt lat="42.501137" lon="2.035821"><ele>1648</ele></trkpt>
   <trkpt lat="42.500978" lon="2.036888"><ele>1651</ele></trkpt>
   <trkpt lat="42.500801" lon="2.0384"><ele>1656.25</ele></trkpt>
   <trkpt lat="42.500762" lon="2.038737"><ele>1659.25</ele></trkpt>
   <trkpt lat="42.500683" lon="2.039344"><ele>1662.75</ele></trkpt>
   <trkpt lat="42.500669" lon="2.039607"><ele>1663.75</ele></trkpt>
   <trkpt lat="42.500683" lon="2.03984"><ele>1664.5</ele></trkpt>
   <trkpt lat="42.500737" lon="2.040165"><ele>1665</ele></trkpt>
   <trkpt lat="42.500843" lon="2.040507"><ele>1667</ele></trkpt>
   <trkpt lat="42.500928" lon="2.040671"><ele>1667.5</ele></trkpt>
   <trkpt lat="42.501049" lon="2.040808"><ele>1668.75</ele></trkpt>
   <trkpt lat="42.50117" lon="2.040959"><ele>1669.75</ele></trkpt>
   <trkpt lat="42.501316" lon="2.041204"><ele>1670.75</ele></trkpt>
   <trkpt lat="42.501379" lon="2.041421"><ele>1671.75</ele></trkpt>
   <trkpt lat="42.501553" lon="2.042172"><ele>1675.5</ele></trkpt>
   <trkpt lat="42.501595" lon="2.042578"><ele>1677.75</ele></trkpt>
   <trkpt lat="42.501633" lon="2.043049"><ele>1681</ele></trkpt>
   <trkpt lat="42.501647" lon="2.043558"><ele>1682.25</ele></trkpt>
   <trkpt lat="42.50163" lon="2.043988"><ele>1683.5</ele></trkpt>
   <trkpt lat="42.50161" lon="2.044206"><ele>1684.25</ele></trkpt>
   <trkpt lat="42.501573" lon="2.044473"><ele>1685.25</ele></trkpt>
   <trkpt lat="42.501425" lon="2.045163"><ele>1689.25</ele></trkpt>
   <trkpt lat="42.501357" lon="2.045423"><ele>1688.25</ele></trkpt>
   <trkpt lat="42.501341" lon="2.045546"><ele>1688.25</ele></trkpt>
   <trkpt lat="42.50134" lon="2.045703"><ele>1689.25</ele></trkpt>
   <trkpt lat="42.501378" lon="2.045967"><ele>1690.75</ele></trkpt>
   <trkpt lat="42.501375" lon="2.046271"><ele>1691.25</ele></trkpt>
   <trkpt lat="42.501357" lon="2.046558"><ele>1692.25</ele></trkpt>
   <trkpt lat="42.501345" lon="2.046951"><ele>1693</ele></trkpt>
   <trkpt lat="42.501351" lon="2.047113"><ele>1693</ele></trkpt>
   <trkpt lat="42.501411" lon="2.047209"><ele>1694</ele></trkpt>
   <trkpt lat="42.501469" lon="2.047252"><ele>1694</ele></trkpt>
   <trkpt lat="42.501528" lon="2.047266"><ele>1694.25</ele></trkpt>
   <trkpt lat="42.501601" lon="2.04724"><ele>1694.5</ele></trkpt>
   <trkpt lat="42.501645" lon="2.047183"><ele>1695</ele></trkpt>
   <trkpt lat="42.501685" lon="2.047033"><ele>1696</ele></trkpt>
   <trkpt lat="42.501724" lon="2.046433"><ele>1699</ele></trkpt>
   <trkpt lat="42.501762" lon="2.046032"><ele>1700.5</ele></trkpt>
   <trkpt lat="42.501804" lon="2.045849"><ele>1701.75</ele></trkpt>
   <trkpt lat="42.501843" lon="2.04576"><ele>1702.5</ele></trkpt>
   <trkpt lat="42.501901" lon="2.045677"><ele>1703.25</ele></trkpt>
   <trkpt lat="42.501976" lon="2.045596"><ele>1703.5</ele></trkpt>
   <trkpt lat="42.502051" lon="2.045514"><ele>1704</ele></trkpt>
   <trkpt lat="42.502101" lon="2.045455"><ele>1704.5</ele></trkpt>
   <trkpt lat="42.5022" lon="2.045325"><ele>1705.5</ele></trkpt>
   <trkpt lat="42.502302" lon="2.04505"><ele>1707.25</ele></trkpt>
   <trkpt lat="42.502347" lon="2.044932"><ele>1707.25</ele></trkpt>
   <trkpt lat="42.502376" lon="2.044739"><ele>1707.25</ele></trkpt>
   <trkpt lat="42.502397" lon="2.044637"><ele>1707.25</ele></trkpt>
   <trkpt lat="42.502441" lon="2.044528"><ele>1707.75</ele></trkpt>
   <trkpt lat="42.502514" lon="2.04442"><ele>1709</ele></trkpt>
   <trkpt lat="42.502716" lon="2.044223"><ele>1711.25</ele></trkpt>
   <trkpt lat="42.502903" lon="2.044046"><ele>1713.25</ele></trkpt>
   <trkpt lat="42.502993" lon="2.043924"><ele>1714.5</ele></trkpt>
   <trkpt lat="42.50311" lon="2.043578"><ele>1716</ele></trkpt>
   <trkpt lat="42.50314" lon="2.043415"><ele>1717</ele></trkpt>
   <trkpt lat="42.503148" lon="2.043217"><ele>1717.75</ele></trkpt>
   <trkpt lat="42.503118" lon="2.042964"><ele>1718.5</ele></trkpt>
   <trkpt lat="42.503095" lon="2.042847"><ele>1719.5</ele></trkpt>
   <trkpt lat="42.503097" lon="2.042745"><ele>1720</ele></trkpt>
   <trkpt lat="42.503104" lon="2.042663"><ele>1720</ele></trkpt>
   <trkpt lat="42.503142" lon="2.042531"><ele>1720.5</ele></trkpt>
   <trkpt lat="42.503185" lon="2.042426"><ele>1720.75</ele></trkpt>
   <trkpt lat="42.503232" lon="2.042336"><ele>1721</ele></trkpt>
   <trkpt lat="42.503352" lon="2.042176"><ele>1722.5</ele></trkpt>
   <trkpt lat="42.503452" lon="2.042106"><ele>1722.25</ele></trkpt>
   <trkpt lat="42.503545" lon="2.042062"><ele>1723</ele></trkpt>
   <trkpt lat="42.503711" lon="2.042025"><ele>1725</ele></trkpt>
   <trkpt lat="42.503783" lon="2.042037"><ele>1726</ele></trkpt>
   <trkpt lat="42.503815" lon="2.041849"><ele>1726.75</ele></trkpt>
   <trkpt lat="42.503827" lon="2.041754"><ele>1727</ele></trkpt>
   <trkpt lat="42.503827" lon="2.04162"><ele>1727.25</ele></trkpt>
   <trkpt lat="42.503819" lon="2.041484"><ele>1728.25</ele></trkpt>
   <trkpt lat="42.503827" lon="2.041276"><ele>1729</ele></trkpt>
   <trkpt lat="42.503862" lon="2.041009"><ele>1729.25</ele></trkpt>
   <trkpt lat="42.503975" lon="2.040545"><ele>1728.75</ele></trkpt>
   <trkpt lat="42.504031" lon="2.040426"><ele>1730</ele></trkpt>
   <trkpt lat="42.504154" lon="2.040253"><ele>1732.75</ele></trkpt>
   <trkpt lat="42.504186" lon="2.040183"><ele>1733.5</ele></trkpt>
   <trkpt lat="42.504198" lon="2.040159"><ele>1733.75</ele></trkpt>
   <trkpt lat="42.50422" lon="2.040093"><ele>1734.25</ele></trkpt>
   <trkpt lat="42.50424" lon="2.039988"><ele>1734.75</ele></trkpt>
   <trkpt lat="42.504243" lon="2.039884"><ele>1735.5</ele></trkpt>
   <trkpt lat="42.504229" lon="2.039764"><ele>1736.25</ele></trkpt>
   <trkpt lat="42.504177" lon="2.039653"><ele>1736.5</ele></trkpt>
   <trkpt lat="42.504084" lon="2.039571"><ele>1736.5</ele></trkpt>
   <trkpt lat="42.503856" lon="2.039433"><ele>1737.75</ele></trkpt>
   <trkpt lat="42.503748" lon="2.039337"><ele>1738</ele></trkpt>
   <trkpt lat="42.503688" lon="2.039233"><ele>1738.75</ele></trkpt>
   <trkpt lat="42.503678" lon="2.039204"><ele>1739</ele></trkpt>
   <trkpt lat="42.503674" lon="2.039139"><ele>1739.25</ele></trkpt>
   <trkpt lat="42.503701" lon="2.039038"><ele>1739.75</ele></trkpt>
   <trkpt lat="42.503763" lon="2.038944"><ele>1740.5</ele></trkpt>
   <trkpt lat="42.503794" lon="2.038924"><ele>1740.75</ele></trkpt>
   <trkpt lat="42.503833" lon="2.038924"><ele>1741.25</ele></trkpt>
   <trkpt lat="42.503988" lon="2.039046"><ele>1742.5</ele></trkpt>
   <trkpt lat="42.50413" lon="2.039158"><ele>1743.5</ele></trkpt>
   <trkpt lat="42.504221" lon="2.039232"><ele>1743.75</ele></trkpt>
   <trkpt lat="42.504276" lon="2.039278"><ele>1744.25</ele></trkpt>
   <trkpt lat="42.504321" lon="2.039317"><ele>1744.75</ele></trkpt>
   <trkpt lat="42.504393" lon="2.039439"><ele>1745.25</ele></trkpt>
   <trkpt lat="42.504646" lon="2.039872"><ele>1746.5</ele></trkpt>
   <trkpt lat="42.504737" lon="2.04005"><ele>1749</ele></trkpt>
   <trkpt lat="42.504779" lon="2.040132"><ele>1749.25</ele></trkpt>
   <trkpt lat="42.504786" lon="2.040144"><ele>1749.25</ele></trkpt>
   <trkpt lat="42.504816" lon="2.040194"><ele>1749.25</ele></trkpt>
   <trkpt lat="42.504974" lon="2.040475"><ele>1749.5</ele></trkpt>
   <trkpt lat="42.505003" lon="2.040605"><ele>1750</ele></trkpt>
   <trkpt lat="42.505036" lon="2.040953"><ele>1751.5</ele></trkpt>
   <trkpt lat="42.505102" lon="2.041705"><ele>1753.5</ele></trkpt>
   <trkpt lat="42.505115" lon="2.041818"><ele>1753.5</ele></trkpt>
   <trkpt lat="42.505141" lon="2.04209"><ele>1752.25</ele></trkpt>
   <trkpt lat="42.505158" lon="2.042286"><ele>1751.25</ele></trkpt>
   <trkpt lat="42.505229" lon="2.042951"><ele>1755.5</ele></trkpt>
   <trkpt lat="42.505249" lon="2.043133"><ele>1756.5</ele></trkpt>
   <trkpt lat="42.50526" lon="2.043252"><ele>1757.25</ele></trkpt>
   <trkpt lat="42.505263" lon="2.043767"><ele>1759.75</ele></trkpt>
   <trkpt lat="42.50526" lon="2.043789"><ele>1759.75</ele></trkpt>
   <trkpt lat="42.505249" lon="2.043882"><ele>1760.25</ele></trkpt>
   <trkpt lat="42.505176" lon="2.044228"><ele>1761.75</ele></trkpt>
   <trkpt lat="42.505147" lon="2.044318"><ele>1762.5</ele></trkpt>
   <trkpt lat="42.505116" lon="2.044409"><ele>1763.25</ele></trkpt>
   <trkpt lat="42.505092" lon="2.044553"><ele>1764.25</ele></trkpt>
   <trkpt lat="42.5051" lon="2.044691"><ele>1765.75</ele></trkpt>
   <trkpt lat="42.505138" lon="2.044789"><ele>1766.75</ele></trkpt>
   <trkpt lat="42.505218" lon="2.044888"><ele>1768</ele></trkpt>
   <trkpt lat="42.505302" lon="2.044963"><ele>1769</ele></trkpt>
   <trkpt lat="42.505498" lon="2.045115"><ele>1770.25</ele></trkpt>
   <trkpt lat="42.505579" lon="2.045185"><ele>1770.5</ele></trkpt>
   <trkpt lat="42.505673" lon="2.045247"><ele>1771.25</ele></trkpt>
   <trkpt lat="42.505924" lon="2.045429"><ele>1774</ele></trkpt>
   <trkpt lat="42.506151" lon="2.045573"><ele>1775.25</ele></trkpt>
   <trkpt lat="42.506428" lon="2.045765"><ele>1777.75</ele></trkpt>
   <trkpt lat="42.506815" lon="2.046071"><ele>1780.75</ele></trkpt>
   <trkpt lat="42.506895" lon="2.046119"><ele>1781.25</ele></trkpt>
   <trkpt lat="42.506994" lon="2.04615"><ele>1781.25</ele></trkpt>
   <trkpt lat="42.507156" lon="2.04616"><ele>1781.5</ele></trkpt>
   <trkpt lat="42.507263" lon="2.046152"><ele>1782.25</ele></trkpt>
   <trkpt lat="42.507363" lon="2.046126"><ele>1783.5</ele></trkpt>
   <trkpt lat="42.507474" lon="2.046075"><ele>1785.5</ele></trkpt>
   <trkpt lat="42.507496" lon="2.046066"><ele>1785.5</ele></trkpt>
   <trkpt lat="42.507618" lon="2.045987"><ele>1786.75</ele></trkpt>
   <trkpt lat="42.507747" lon="2.045913"><ele>1787.25</ele></trkpt>
   <trkpt lat="42.507992" lon="2.045806"><ele>1789</ele></trkpt>
   <trkpt lat="42.508248" lon="2.045784"><ele>1790.75</ele></trkpt>
   <trkpt lat="42.508413" lon="2.045823"><ele>1791.5</ele></trkpt>
   <trkpt lat="42.508617" lon="2.045893"><ele>1792.25</ele></trkpt>
   <trkpt lat="42.508792" lon="2.046011"><ele>1794.5</ele></trkpt>
   <trkpt lat="42.509205" lon="2.046548"><ele>1798.25</ele></trkpt>
   <trkpt lat="42.509297" lon="2.046623"><ele>1799</ele></trkpt>
   <trkpt lat="42.509399" lon="2.04667"><ele>1800</ele></trkpt>
   <trkpt lat="42.509562" lon="2.046718"><ele>1800.75</ele></trkpt>
   <trkpt lat="42.509698" lon="2.046769"><ele>1801.25</ele></trkpt>
   <trkpt lat="42.509926" lon="2.046876"><ele>1804</ele></trkpt>
   <trkpt lat="42.510082" lon="2.046938"><ele>1804.25</ele></trkpt>
   <trkpt lat="42.510137" lon="2.046951"><ele>1804.25</ele></trkpt>
   <trkpt lat="42.510193" lon="2.046953"><ele>1804.25</ele></trkpt>
   <trkpt lat="42.510302" lon="2.046928"><ele>1805.25</ele></trkpt>
   <trkpt lat="42.510437" lon="2.046827"><ele>1806</ele></trkpt>
   <trkpt lat="42.510744" lon="2.046449"><ele>1809</ele></trkpt>
   <trkpt lat="42.510887" lon="2.046348"><ele>1809.75</ele></trkpt>
   <trkpt lat="42.511292" lon="2.046222"><ele>1810.75</ele></trkpt>
   <trkpt lat="42.51141" lon="2.046213"><ele>1810.75</ele></trkpt>
   <trkpt lat="42.511629" lon="2.046151"><ele>1813</ele></trkpt>
   <trkpt lat="42.511747" lon="2.046142"><ele>1814</ele></trkpt>
   <trkpt lat="42.511817" lon="2.046153"><ele>1814.5</ele></trkpt>
   <trkpt lat="42.511889" lon="2.046175"><ele>1815.25</ele></trkpt>
   <trkpt lat="42.511984" lon="2.04626"><ele>1816</ele></trkpt>
   <trkpt lat="42.512043" lon="2.046342"><ele>1816.75</ele></trkpt>
   <trkpt lat="42.512104" lon="2.046493"><ele>1817.75</ele></trkpt>
   <trkpt lat="42.512125" lon="2.046617"><ele>1818.25</ele></trkpt>
   <trkpt lat="42.512135" lon="2.046716"><ele>1819</ele></trkpt>
   <trkpt lat="42.512123" lon="2.046808"><ele>1819.25</ele></trkpt>
   <trkpt lat="42.512102" lon="2.046999"><ele>1820.5</ele></trkpt>
   <trkpt lat="42.511885" lon="2.047713"><ele>1824.75</ele></trkpt>
   <trkpt lat="42.511659" lon="2.048455"><ele>1828.25</ele></trkpt>
   <trkpt lat="42.511573" lon="2.048723"><ele>1829.5</ele></trkpt>
   <trkpt lat="42.511523" lon="2.048922"><ele>1831</ele></trkpt>
   <trkpt lat="42.511485" lon="2.049178"><ele>1832</ele></trkpt>
   <trkpt lat="42.511483" lon="2.049356"><ele>1833.75</ele></trkpt>
   <trkpt lat="42.511499" lon="2.049557"><ele>1835.25</ele></trkpt>
   <trkpt lat="42.511517" lon="2.049713"><ele>1836.25</ele></trkpt>
   <trkpt lat="42.511554" lon="2.049923"><ele>1836.5</ele></trkpt>
   <trkpt lat="42.511568" lon="2.049969"><ele>1836.5</ele></trkpt>
   <trkpt lat="42.511594" lon="2.050137"><ele>1836</ele></trkpt>
   <trkpt lat="42.511625" lon="2.050282"><ele>1835.5</ele></trkpt>
   <trkpt lat="42.511704" lon="2.050433"><ele>1834.25</ele></trkpt>
   <trkpt lat="42.511819" lon="2.050581"><ele>1833.75</ele></trkpt>
   <trkpt lat="42.51182" lon="2.050618"><ele>1833.25</ele></trkpt>
   <trkpt lat="42.51183" lon="2.050654"><ele>1833</ele></trkpt>
   <trkpt lat="42.511867" lon="2.050707"><ele>1833</ele></trkpt>
   <trkpt lat="42.511893" lon="2.050721"><ele>1833</ele></trkpt>
   <trkpt lat="42.511921" lon="2.050725"><ele>1833.5</ele></trkpt>
   <trkpt lat="42.511948" lon="2.050719"><ele>1833.75</ele></trkpt>
   <trkpt lat="42.511982" lon="2.050692"><ele>1834</ele></trkpt>
   <trkpt lat="42.512005" lon="2.05065"><ele>1834.25</ele></trkpt>
   <trkpt lat="42.512015" lon="2.050599"><ele>1834.5</ele></trkpt>
   <trkpt lat="42.512005" lon="2.050531"><ele>1835</ele></trkpt>
   <trkpt lat="42.512079" lon="2.05037"><ele>1835.75</ele></trkpt>
   <trkpt lat="42.512184" lon="2.05031"><ele>1836.5</ele></trkpt>
   <trkpt lat="42.512334" lon="2.050269"><ele>1837.25</ele></trkpt>
   <trkpt lat="42.512602" lon="2.050109"><ele>1839.5</ele></trkpt>
   <trkpt lat="42.512783" lon="2.049978"><ele>1842</ele></trkpt>
   <trkpt lat="42.512891" lon="2.049851"><ele>1842</ele></trkpt>
   <trkpt lat="42.51298" lon="2.049673"><ele>1843</ele></trkpt>
   <trkpt lat="42.513139" lon="2.049282"><ele>1844</ele></trkpt>
   <trkpt lat="42.51335" lon="2.048881"><ele>1845.75</ele></trkpt>
   <trkpt lat="42.513426" lon="2.048773"><ele>1846.5</ele></trkpt>
   <trkpt lat="42.513582" lon="2.048614"><ele>1847.75</ele></trkpt>
   <trkpt lat="42.513703" lon="2.048541"><ele>1848.75</ele></trkpt>
   <trkpt lat="42.513854" lon="2.048471"><ele>1850.25</ele></trkpt>
   <trkpt lat="42.514055" lon="2.048428"><ele>1851.5</ele></trkpt>
   <trkpt lat="42.514255" lon="2.048415"><ele>1852.75</ele></trkpt>
   <trkpt lat="42.514681" lon="2.048459"><ele>1856.5</ele></trkpt>
   <trkpt lat="42.514844" lon="2.048445"><ele>1857.5</ele></trkpt>
   <trkpt lat="42.515334" lon="2.048267"><ele>1861.75</ele></trkpt>
   <trkpt lat="42.515534" lon="2.048165"><ele>1863</ele></trkpt>
   <trkpt lat="42.515673" lon="2.048052"><ele>1864.75</ele></trkpt>
   <trkpt lat="42.515985" lon="2.047667"><ele>1867</ele></trkpt>
   <trkpt lat="42.51609" lon="2.047558"><ele>1868.25</ele></trkpt>
   <trkpt lat="42.516192" lon="2.047454"><ele>1868.25</ele></trkpt>
   <trkpt lat="42.517144" lon="2.046752"><ele>1875.25</ele></trkpt>
   <trkpt lat="42.51723" lon="2.046638"><ele>1876</ele></trkpt>
   <trkpt lat="42.517309" lon="2.046434"><ele>1876.25</ele></trkpt>
   <trkpt lat="42.51751" lon="2.045791"><ele>1878</ele></trkpt>
   <trkpt lat="42.517627" lon="2.045343"><ele>1879</ele></trkpt>
   <trkpt lat="42.517715" lon="2.04497"><ele>1881.25</ele></trkpt>
   <trkpt lat="42.517813" lon="2.044735"><ele>1881.75</ele></trkpt>
   <trkpt lat="42.517965" lon="2.044533"><ele>1884</ele></trkpt>
   <trkpt lat="42.518158" lon="2.044366"><ele>1886.5</ele></trkpt>
   <trkpt lat="42.518313" lon="2.044268"><ele>1887.75</ele></trkpt>
   <trkpt lat="42.518412" lon="2.044243"><ele>1888.5</ele></trkpt>
   <trkpt lat="42.518551" lon="2.044236"><ele>1889</ele></trkpt>
   <trkpt lat="42.518703" lon="2.044269"><ele>1890.25</ele></trkpt>
   <trkpt lat="42.519227" lon="2.044423"><ele>1894.5</ele></trkpt>
   <trkpt lat="42.519408" lon="2.044458"><ele>1895.5</ele></trkpt>
   <trkpt lat="42.519643" lon="2.044459"><ele>1897.25</ele></trkpt>
   <trkpt lat="42.519783" lon="2.044421"><ele>1898.75</ele></trkpt>
   <trkpt lat="42.51993" lon="2.044353"><ele>1900.5</ele></trkpt>
   <trkpt lat="42.520094" lon="2.044223"><ele>1902</ele></trkpt>
   <trkpt lat="42.520204" lon="2.04409"><ele>1902.75</ele></trkpt>
   <trkpt lat="42.520322" lon="2.043876"><ele>1903.75</ele></trkpt>
   <trkpt lat="42.520379" lon="2.043683"><ele>1904.75</ele></trkpt>
   <trkpt lat="42.520418" lon="2.043465"><ele>1905.5</ele></trkpt>
   <trkpt lat="42.52044" lon="2.042962"><ele>1906.75</ele></trkpt>
   <trkpt lat="42.52044" lon="2.042692"><ele>1906.75</ele></trkpt>
   <trkpt lat="42.520467" lon="2.042222"><ele>1905.5</ele></trkpt>
   <trkpt lat="42.520514" lon="2.0419"><ele>1905.25</ele></trkpt>
   <trkpt lat="42.520594" lon="2.041501"><ele>1905.75</ele></trkpt>
   <trkpt lat="42.520784" lon="2.040909"><ele>1908</ele></trkpt>
   <trkpt lat="42.520933" lon="2.040516"><ele>1910.25</ele></trkpt>
   <trkpt lat="42.521181" lon="2.0399"><ele>1914</ele></trkpt>
   <trkpt lat="42.521272" lon="2.039601"><ele>1916.25</ele></trkpt>
   <trkpt lat="42.521299" lon="2.037879"><ele>1925.25</ele></trkpt>
   <trkpt lat="42.521217" lon="2.037699"><ele>1925.25</ele></trkpt>
   <trkpt lat="42.521073" lon="2.036829"><ele>1927.25</ele></trkpt>
   <trkpt lat="42.521003" lon="2.036592"><ele>1928</ele></trkpt>
   <trkpt lat="42.520681" lon="2.036121"><ele>1929.75</ele></trkpt>
   <trkpt lat="42.5206" lon="2.035988"><ele>1929.75</ele></trkpt>
   <trkpt lat="42.520509" lon="2.035821"><ele>1930.25</ele></trkpt>
   <trkpt lat="42.520288" lon="2.035068"><ele>1934.75</ele></trkpt>
   <trkpt lat="42.520255" lon="2.034812"><ele>1935.75</ele></trkpt>
   <trkpt lat="42.520235" lon="2.034613"><ele>1940.5</ele></trkpt>
  </trkseg>
 </trk>
</gpx>