<?xml version="1.0" encoding="UTF-8"?>
<gpx 
 xmlns="http://www.topografix.com/GPX/1/1" 
 xmlns:xsi="http://www.w3.org/2001/XMLSchema-instance" 
 xsi:schemaLocation="http://www.topografix.com/GPX/1/1 http://www.topografix.com/GPX/1/1/gpx.xsd" 
 version="1.1" 
 creator="BRouter-Web 0.18.1">
 <trk>
  <name>Forcella Staulanza (6.31km, trimmed from combined file)</name>
  <trkseg>
   <trkpt lat="46.391379" lon="12.108243"><ele>1345.75</ele></trkpt>
   <trkpt lat="46.391403" lon="12.107614"><ele>1345</ele></trkpt>
   <trkpt lat="46.391407" lon="12.107274"><ele>1349</ele></trkpt>
   <trkpt lat="46.391433" lon="12.106092"><ele>1355</ele></trkpt>
   <trkpt lat="46.391446" lon="12.105607"><ele>1357.5</ele></trkpt>
   <trkpt lat="46.391449" lon="12.105496"><ele>1358</ele></trkpt>
   <trkpt lat="46.391461" lon="12.105388"><ele>1359</ele></trkpt>
   <trkpt lat="46.391482" lon="12.105292"><ele>1359.75</ele></trkpt>
   <trkpt lat="46.391526" lon="12.105179"><ele>1360.75</ele></trkpt>
   <trkpt lat="46.391725" lon="12.104788"><ele>1363.25</ele></trkpt>
   <trkpt lat="46.391882" lon="12.104528"><ele>1365</ele></trkpt>
   <trkpt lat="46.391922" lon="12.104455"><ele>1365.75</ele></trkpt>
   <trkpt lat="46.392792" lon="12.102901"><ele>1375.5</ele></trkpt>
   <trkpt lat="46.392964" lon="12.102578"><ele>1378</ele></trkpt>
   <trkpt lat="46.393152" lon="12.102287"><ele>1379.75</ele></trkpt>
   <trkpt lat="46.393248" lon="12.102201"><ele>1380.75</ele></trkpt>
   <trkpt lat="46.393464" lon="12.102097"><ele>1382</ele></trkpt>
   <trkpt lat="46.393536" lon="12.102088"><ele>1382.25</ele></trkpt>
   <trkpt lat="46.393608" lon="12.10212"><ele>1383</ele></trkpt>
   <trkpt lat="46.393648" lon="12.102159"><ele>1383.5</ele></trkpt>
   <trkpt lat="46.393829" lon="12.102653"><ele>1386.75</ele></trkpt>
   <trkpt lat="46.393914" lon="12.102912"><ele>1388.75</ele></trkpt>
   <trkpt lat="46.394162" lon="12.103681"><ele>1394.75</ele></trkpt>
   <trkpt lat="46.394197" lon="12.103771"><ele>1395.25</ele></trkpt>
   <trkpt lat="46.39424" lon="12.103857"><ele>1395.75</ele></trkpt>
   <trkpt lat="46.394293" lon="12.103931"><ele>1395.25</ele></trkpt>
   <trkpt lat="46.394354" lon="12.10396"><ele>1395.25</ele></trkpt>
   <trkpt lat="46.394427" lon="12.103976"><ele>1395.75</ele></trkpt>
   <trkpt lat="46.394513" lon="12.103979"><ele>1397</ele></trkpt>
   <trkpt lat="46.394598" lon="12.103956"><ele>1398.5</ele></trkpt>
   <trkpt lat="46.394798" lon="12.103885"><ele>1402</ele></trkpt>
   <trkpt lat="46.39522" lon="12.103672"><ele>1409</ele></trkpt>
   <trkpt lat="46.395304" lon="12.103644"><ele>1410.25</ele></trkpt>
   <trkpt lat="46.395383" lon="12.103662"><ele>1411.25</ele></trkpt>
   <trkpt lat="46.395428" lon="12.103716"><ele>1411.75</ele></trkpt>
   <trkpt lat="46.395452" lon="12.103785"><ele>1411.75</ele></trkpt>
   <trkpt lat="46.395469" lon="12.103888"><ele>1411.75</ele></trkpt>
   <trkpt lat="46.395471" lon="12.103977"><ele>1411.5</ele></trkpt>
   <trkpt lat="46.395487" lon="12.104097"><ele>1411.5</ele></trkpt>
   <trkpt lat="46.395508" lon="12.1042"><ele>1411</ele></trkpt>
   <trkpt lat="46.395543" lon="12.104261"><ele>1410</ele></trkpt>
   <trkpt lat="46.395589" lon="12.104299"><ele>1410.5</ele></trkpt>
   <trkpt lat="46.395642" lon="12.104297"><ele>1411.75</ele></trkpt>
   <trkpt lat="46.395667" lon="12.104282"><ele>1412.75</ele></trkpt>
   <trkpt lat="46.39569" lon="12.104246"><ele>1413.75</ele></trkpt>
   <trkpt lat="46.395711" lon="12.10419"><ele>1415</ele></trkpt>
   <trkpt lat="46.395718" lon="12.104133"><ele>1415.5</ele></trkpt>
   <trkpt lat="46.395715" lon="12.103687"><ele>1417</ele></trkpt>
   <trkpt lat="46.395727" lon="12.103606"><ele>1417.75</ele></trkpt>
   <trkpt lat="46.395775" lon="12.10354"><ele>1421.25</ele></trkpt>
   <trkpt lat="46.395845" lon="12.103537"><ele>1423.5</ele></trkpt>
   <trkpt lat="46.395877" lon="12.103551"><ele>1424.5</ele></trkpt>
   <trkpt lat="46.395907" lon="12.103591"><ele>1424.5</ele></trkpt>
   <trkpt lat="46.395919" lon="12.103629"><ele>1424</ele></trkpt>
   <trkpt lat="46.395923" lon="12.103674"><ele>1424</ele></trkpt>
   <trkpt lat="46.395946" lon="12.104152"><ele>1421.5</ele></trkpt>
   <trkpt lat="46.39596" lon="12.104443"><ele>1421</ele></trkpt>
   <trkpt lat="46.395973" lon="12.104545"><ele>1420.75</ele></trkpt>
   <trkpt lat="46.396" lon="12.104623"><ele>1421.25</ele></trkpt>
   <trkpt lat="46.396056" lon="12.104705"><ele>1423.5</ele></trkpt>
   <trkpt lat="46.396122" lon="12.10475"><ele>1425</ele></trkpt>
   <trkpt lat="46.396203" lon="12.104749"><ele>1425</ele></trkpt>
   <trkpt lat="46.396286" lon="12.104705"><ele>1426</ele></trkpt>
   <trkpt lat="46.396358" lon="12.1046"><ele>1428</ele></trkpt>
   <trkpt lat="46.396394" lon="12.104462"><ele>1430.5</ele></trkpt>
   <trkpt lat="46.396378" lon="12.104251"><ele>1431.5</ele></trkpt>
   <trkpt lat="46.396369" lon="12.104194"><ele>1431.5</ele></trkpt>
   <trkpt lat="46.39634" lon="12.104112"><ele>1431.5</ele></trkpt>
   <trkpt lat="46.396214" lon="12.103819"><ele>1432.75</ele></trkpt>
   <trkpt lat="46.396204" lon="12.103775"><ele>1433.25</ele></trkpt>
   <trkpt lat="46.396203" lon="12.103727"><ele>1433.75</ele></trkpt>
   <trkpt lat="46.396224" lon="12.10369"><ele>1434.75</ele></trkpt>
   <trkpt lat="46.396274" lon="12.103656"><ele>1436.25</ele></trkpt>
   <trkpt lat="46.39636" lon="12.103668"><ele>1437.5</ele></trkpt>
   <trkpt lat="46.396483" lon="12.103776"><ele>1437.75</ele></trkpt>
   <trkpt lat="46.39666" lon="12.104088"><ele>1437.25</ele></trkpt>
   <trkpt lat="46.396706" lon="12.10414"><ele>1436.75</ele></trkpt>
   <trkpt lat="46.396757" lon="12.10416"><ele>1436.25</ele></trkpt>
   <trkpt lat="46.396795" lon="12.104155"><ele>1436</ele></trkpt>
   <trkpt lat="46.396838" lon="12.10413"><ele>1436.25</ele></trkpt>
   <trkpt lat="46.396879" lon="12.104069"><ele>1437</ele></trkpt>
   <trkpt lat="46.396903" lon="12.103984"><ele>1438.75</ele></trkpt>
   <trkpt lat="46.396918" lon="12.103874"><ele>1440.75</ele></trkpt>
   <trkpt lat="46.39692" lon="12.103755"><ele>1442.25</ele></trkpt>
   <trkpt lat="46.396912" lon="12.103651"><ele>1443.25</ele></trkpt>
   <trkpt lat="46.396867" lon="12.103532"><ele>1445</ele></trkpt>
   <trkpt lat="46.396829" lon="12.103478"><ele>1445.75</ele></trkpt>
   <trkpt lat="46.396786" lon="12.103456"><ele>1446.25</ele></trkpt>
   <trkpt lat="46.396727" lon="12.103459"><ele>1446.25</ele></trkpt>
   <trkpt lat="46.396652" lon="12.103466"><ele>1446</ele></trkpt>
   <trkpt lat="46.396484" lon="12.1035"><ele>1444.25</ele></trkpt>
   <trkpt lat="46.396418" lon="12.103475"><ele>1444.75</ele></trkpt>
   <trkpt lat="46.3964" lon="12.103446"><ele>1446</ele></trkpt>
   <trkpt lat="46.396399" lon="12.103401"><ele>1448</ele></trkpt>
   <trkpt lat="46.396407" lon="12.103349"><ele>1450</ele></trkpt>
   <trkpt lat="46.396436" lon="12.103314"><ele>1451.75</ele></trkpt>
   <trkpt lat="46.396478" lon="12.103282"><ele>1453.25</ele></trkpt>
   <trkpt lat="46.396581" lon="12.103236"><ele>1454</ele></trkpt>
   <trkpt lat="46.396704" lon="12.1032"><ele>1453.25</ele></trkpt>
   <trkpt lat="46.396877" lon="12.102972"><ele>1456.75</ele></trkpt>
   <trkpt lat="46.396926" lon="12.102917"><ele>1456.5</ele></trkpt>
   <trkpt lat="46.397003" lon="12.10287"><ele>1457</ele></trkpt>
   <trkpt lat="46.397077" lon="12.102853"><ele>1457.5</ele></trkpt>
   <trkpt lat="46.397175" lon="12.102846"><ele>1457.75</ele></trkpt>
   <trkpt lat="46.397269" lon="12.102876"><ele>1458.25</ele></trkpt>
   <trkpt lat="46.398005" lon="12.10326"><ele>1463</ele></trkpt>
   <trkpt lat="46.398147" lon="12.103327"><ele>1464.5</ele></trkpt>
   <trkpt lat="46.398223" lon="12.103345"><ele>1465.5</ele></trkpt>
   <trkpt lat="46.398267" lon="12.103304"><ele>1467.25</ele></trkpt>
   <trkpt lat="46.398284" lon="12.103235"><ele>1469.25</ele></trkpt>
   <trkpt lat="46.398264" lon="12.103161"><ele>1470.25</ele></trkpt>
   <trkpt lat="46.397626" lon="12.102468"><ele>1474.75</ele></trkpt>
   <trkpt lat="46.397409" lon="12.102288"><ele>1477</ele></trkpt>
   <trkpt lat="46.397262" lon="12.102227"><ele>1476.5</ele></trkpt>
   <trkpt lat="46.397019" lon="12.102211"><ele>1477.5</ele></trkpt>
   <trkpt lat="46.396972" lon="12.102183"><ele>1478.5</ele></trkpt>
   <trkpt lat="46.396932" lon="12.102138"><ele>1480.25</ele></trkpt>
   <trkpt lat="46.396932" lon="12.102056"><ele>1482</ele></trkpt>
   <trkpt lat="46.396971" lon="12.101978"><ele>1483.25</ele></trkpt>
   <trkpt lat="46.397027" lon="12.101929"><ele>1484.5</ele></trkpt>
   <trkpt lat="46.397144" lon="12.101933"><ele>1484.25</ele></trkpt>
   <trkpt lat="46.397389" lon="12.101996"><ele>1487.25</ele></trkpt>
   <trkpt lat="46.397616" lon="12.1021"><ele>1489.75</ele></trkpt>
   <trkpt lat="46.397759" lon="12.102189"><ele>1489.25</ele></trkpt>
   <trkpt lat="46.397889" lon="12.102283"><ele>1489.5</ele></trkpt>
   <trkpt lat="46.398151" lon="12.102495"><ele>1490.75</ele></trkpt>
   <trkpt lat="46.398674" lon="12.102938"><ele>1494.25</ele></trkpt>
   <trkpt lat="46.399361" lon="12.103178"><ele>1500.25</ele></trkpt>
   <trkpt lat="46.39951" lon="12.103194"><ele>1501.5</ele></trkpt>
   <trkpt lat="46.399595" lon="12.103173"><ele>1501.5</ele></trkpt>
   <trkpt lat="46.399668" lon="12.103106"><ele>1502.25</ele></trkpt>
   <trkpt lat="46.399798" lon="12.102889"><ele>1504.5</ele></trkpt>
   <trkpt lat="46.399877" lon="12.10281"><ele>1506</ele></trkpt>
   <trkpt lat="46.399971" lon="12.10275"><ele>1507.5</ele></trkpt>
   <trkpt lat="46.400299" lon="12.102631"><ele>1509.75</ele></trkpt>
   <trkpt lat="46.400402" lon="12.102554"><ele>1509.75</ele></trkpt>
   <trkpt lat="46.400495" lon="12.102438"><ele>1510.5</ele></trkpt>
   <trkpt lat="46.400702" lon="12.102098"><ele>1511.75</ele></trkpt>
   <trkpt lat="46.400854" lon="12.101939"><ele>1511</ele></trkpt>
   <trkpt lat="46.401029" lon="12.101811"><ele>1511</ele></trkpt>
   <trkpt lat="46.40115" lon="12.101749"><ele>1510.75</ele></trkpt>
   <trkpt lat="46.401295" lon="12.101688"><ele>1511</ele></trkpt>
   <trkpt lat="46.401541" lon="12.101737"><ele>1511.5</ele></trkpt>
   <trkpt lat="46.401882" lon="12.101808"><ele>1513.25</ele></trkpt>
   <trkpt lat="46.402124" lon="12.101858"><ele>1514.75</ele></trkpt>
   <trkpt lat="46.402211" lon="12.101877"><ele>1515.5</ele></trkpt>
   <trkpt lat="46.402294" lon="12.101887"><ele>1516</ele></trkpt>
   <trkpt lat="46.402476" lon="12.101906"><ele>1516.75</ele></trkpt>
   <trkpt lat="46.402514" lon="12.10191"><ele>1516.75</ele></trkpt>
   <trkpt lat="46.402726" lon="12.101879"><ele>1517.5</ele></trkpt>
   <trkpt lat="46.402863" lon="12.101859"><ele>1517.75</ele></trkpt>
   <trkpt lat="46.403363" lon="12.101752"><ele>1519.25</ele></trkpt>
   <trkpt lat="46.403434" lon="12.101737"><ele>1519.5</ele></trkpt>
   <trkpt lat="46.403614" lon="12.101698"><ele>1520.25</ele></trkpt>
   <trkpt lat="46.403997" lon="12.101621"><ele>1523.25</ele></trkpt>
   <trkpt lat="46.404305" lon="12.101481"><ele>1525.5</ele></trkpt>
   <trkpt lat="46.404809" lon="12.101157"><ele>1530.25</ele></trkpt>
   <trkpt lat="46.405635" lon="12.100626"><ele>1535.75</ele></trkpt>
   <trkpt lat="46.40631" lon="12.100381"><ele>1541.5</ele></trkpt>
   <trkpt lat="46.406451" lon="12.100338"><ele>1542</ele></trkpt>
   <trkpt lat="46.40658" lon="12.100335"><ele>1543</ele></trkpt>
   <trkpt lat="46.406664" lon="12.100383"><ele>1544.25</ele></trkpt>
   <trkpt lat="46.406722" lon="12.100488"><ele>1546.25</ele></trkpt>
   <trkpt lat="46.406748" lon="12.100657"><ele>1548.5</ele></trkpt>
   <trkpt lat="46.406682" lon="12.100852"><ele>1549.25</ele></trkpt>
   <trkpt lat="46.406305" lon="12.101482"><ele>1552.25</ele></trkpt>
   <trkpt lat="46.40626" lon="12.101667"><ele>1553</ele></trkpt>
   <trkpt lat="46.406277" lon="12.101787"><ele>1554.25</ele></trkpt>
   <trkpt lat="46.406337" lon="12.101899"><ele>1555.75</ele></trkpt>
   <trkpt lat="46.406468" lon="12.101937"><ele>1557.75</ele></trkpt>
   <trkpt lat="46.406627" lon="12.101834"><ele>1558.25</ele></trkpt>
   <trkpt lat="46.407419" lon="12.101163"><ele>1564.25</ele></trkpt>
   <trkpt lat="46.407611" lon="12.101018"><ele>1565</ele></trkpt>
   <trkpt lat="46.407826" lon="12.100848"><ele>1567.25</ele></trkpt>
   <trkpt lat="46.407982" lon="12.10069"><ele>1569.75</ele></trkpt>
   <trkpt lat="46.408069" lon="12.100531"><ele>1571</ele></trkpt>
   <trkpt lat="46.408147" lon="12.100297"><ele>1572</ele></trkpt>
   <trkpt lat="46.408293" lon="12.099714"><ele>1576</ele></trkpt>
   <trkpt lat="46.408422" lon="12.099456"><ele>1576.5</ele></trkpt>
   <trkpt lat="46.408493" lon="12.099375"><ele>1577.25</ele></trkpt>
   <trkpt lat="46.408584" lon="12.09931"><ele>1579.5</ele></trkpt>
   <trkpt lat="46.40868" lon="12.099265"><ele>1580.25</ele></trkpt>
   <trkpt lat="46.408705" lon="12.099262"><ele>1580.25</ele></trkpt>
   <trkpt lat="46.408776" lon="12.099252"><ele>1580.5</ele></trkpt>
   <trkpt lat="46.408856" lon="12.099264"><ele>1580.75</ele></trkpt>
   <trkpt lat="46.408873" lon="12.099275"><ele>1581</ele></trkpt>
   <trkpt lat="46.408924" lon="12.099304"><ele>1581</ele></trkpt>
   <trkpt lat="46.409023" lon="12.099453"><ele>1582.5</ele></trkpt>
   <trkpt lat="46.409055" lon="12.099605"><ele>1584.25</ele></trkpt>
   <trkpt lat="46.40905" lon="12.099768"><ele>1586.25</ele></trkpt>
   <trkpt lat="46.409043" lon="12.099804"><ele>1586.5</ele></trkpt>
   <trkpt lat="46.408993" lon="12.100049"><ele>1588</ele></trkpt>
   <trkpt lat="46.408652" lon="12.100893"><ele>1593</ele></trkpt>
   <trkpt lat="46.408544" lon="12.101338"><ele>1594.75</ele></trkpt>
   <trkpt lat="46.408517" lon="12.101609"><ele>1594.75</ele></trkpt>
   <trkpt lat="46.40853" lon="12.101906"><ele>1594.75</ele></trkpt>
   <trkpt lat="46.408559" lon="12.101987"><ele>1595.5</ele></trkpt>
   <trkpt lat="46.408616" lon="12.102039"><ele>1597</ele></trkpt>
   <trkpt lat="46.408704" lon="12.102057"><ele>1599.5</ele></trkpt>
   <trkpt lat="46.408768" lon="12.102001"><ele>1600.5</ele></trkpt>
   <trkpt lat="46.408809" lon="12.101909"><ele>1601</ele></trkpt>
   <trkpt lat="46.408815" lon="12.101805"><ele>1602</ele></trkpt>
   <trkpt lat="46.408803" lon="12.101396"><ele>1602.5</ele></trkpt>
   <trkpt lat="46.408842" lon="12.101247"><ele>1602.5</ele></trkpt>
   <trkpt lat="46.408941" lon="12.101123"><ele>1604</ele></trkpt>
   <trkpt lat="46.409791" lon="12.100453"><ele>1611</ele></trkpt>
   <trkpt lat="46.409859" lon="12.100419"><ele>1611.25</ele></trkpt>
   <trkpt lat="46.410014" lon="12.100404"><ele>1613.25</ele></trkpt>
   <trkpt lat="46.410615" lon="12.100461"><ele>1618.5</ele></trkpt>
   <trkpt lat="46.410823" lon="12.100451"><ele>1620.75</ele></trkpt>
   <trkpt lat="46.410932" lon="12.100411"><ele>1622.5</ele></trkpt>
   <trkpt lat="46.411157" lon="12.100259"><ele>1624</ele></trkpt>
   <trkpt lat="46.411337" lon="12.100169"><ele>1624.5</ele></trkpt>
   <trkpt lat="46.411493" lon="12.100144"><ele>1625.25</ele></trkpt>
   <trkpt lat="46.411665" lon="12.100141"><ele>1626.5</ele></trkpt>
   <trkpt lat="46.412092" lon="12.100222"><ele>1633</ele></trkpt>
   <trkpt lat="46.412234" lon="12.100222"><ele>1634.5</ele></trkpt>
   <trkpt lat="46.412331" lon="12.100169"><ele>1634.25</ele></trkpt>
   <trkpt lat="46.412382" lon="12.100087"><ele>1633.75</ele></trkpt>
   <trkpt lat="46.412443" lon="12.099972"><ele>1634.25</ele></trkpt>
   <trkpt lat="46.412486" lon="12.0996"><ele>1634.75</ele></trkpt>
   <trkpt lat="46.412604" lon="12.099386"><ele>1637.75</ele></trkpt>
   <trkpt lat="46.4128" lon="12.099194"><ele>1641.5</ele></trkpt>
   <trkpt lat="46.41296" lon="12.099119"><ele>1641.75</ele></trkpt>
   <trkpt lat="46.413706" lon="12.098898"><ele>1645.75</ele></trkpt>
   <trkpt lat="46.413876" lon="12.09882"><ele>1649.25</ele></trkpt>
   <trkpt lat="46.414333" lon="12.098432"><ele>1653.75</ele></trkpt>
   <trkpt lat="46.41461" lon="12.098274"><ele>1653.25</ele></trkpt>
   <trkpt lat="46.414849" lon="12.098225"><ele>1655.75</ele></trkpt>
   <trkpt lat="46.41503" lon="12.098245"><ele>1659.5</ele></trkpt>
   <trkpt lat="46.415191" lon="12.098306"><ele>1660.75</ele></trkpt>
   <trkpt lat="46.415316" lon="12.098417"><ele>1662.25</ele></trkpt>
   <trkpt lat="46.415469" lon="12.098666"><ele>1665</ele></trkpt>
   <trkpt lat="46.415789" lon="12.099435"><ele>1668.5</ele></trkpt>
   <trkpt lat="46.415923" lon="12.099675"><ele>1670.75</ele></trkpt>
   <trkpt lat="46.41613" lon="12.099864"><ele>1673.25</ele></trkpt>
   <trkpt lat="46.41731" lon="12.100662"><ele>1683</ele></trkpt>
   <trkpt lat="46.417449" lon="12.100705"><ele>1683.75</ele></trkpt>
   <trkpt lat="46.41762" lon="12.100691"><ele>1684.5</ele></trkpt>
   <trkpt lat="46.417742" lon="12.100635"><ele>1685.5</ele></trkpt>
   <trkpt lat="46.417841" lon="12.100526"><ele>1686.25</ele></trkpt>
   <trkpt lat="46.41792" lon="12.100378"><ele>1685.25</ele></trkpt>
   <trkpt lat="46.4182" lon="12.099631"><ele>1688.25</ele></trkpt>
   <trkpt lat="46.418242" lon="12.099399"><ele>1689</ele></trkpt>
   <trkpt lat="46.418238" lon="12.099099"><ele>1690.5</ele></trkpt>
   <trkpt lat="46.418152" lon="12.098275"><ele>1696</ele></trkpt>
   <trkpt lat="46.418173" lon="12.09762"><ele>1699.25</ele></trkpt>
   <trkpt lat="46.418279" lon="12.096796"><ele>1700</ele></trkpt>
   <trkpt lat="46.4183" lon="12.09637"><ele>1699.5</ele></trkpt>
   <trkpt lat="46.418291" lon="12.096156"><ele>1699.25</ele></trkpt>
   <trkpt lat="46.418219" lon="12.095692"><ele>1696.75</ele></trkpt>
   <trkpt lat="46.418216" lon="12.095519"><ele>1696.75</ele></trkpt>
   <trkpt lat="46.418252" lon="12.095353"><ele>1698.5</ele></trkpt>
   <trkpt lat="46.418487" lon="12.094631"><ele>1706.25</ele></trkpt>
   <trkpt lat="46.418538" lon="12.094555"><ele>1708.25</ele></trkpt>
   <trkpt lat="46.418601" lon="12.094554"><ele>1712</ele></trkpt>
   <trkpt lat="46.418633" lon="12.094594"><ele>1713.75</ele></trkpt>
   <trkpt lat="46.418644" lon="12.094676"><ele>1715.5</ele></trkpt>
   <trkpt lat="46.418638" lon="12.094728"><ele>1716</ele></trkpt>
   <trkpt lat="46.418561" lon="12.095049"><ele>1715.5</ele></trkpt>
   <trkpt lat="46.418513" lon="12.095364"><ele>1715.25</ele></trkpt>
   <trkpt lat="46.418509" lon="12.095512"><ele>1716</ele></trkpt>
   <trkpt lat="46.418592" lon="12.096348"><ele>1723.25</ele></trkpt>
   <trkpt lat="46.418609" lon="12.096924"><ele>1723.75</ele></trkpt>
   <trkpt lat="46.418649" lon="12.097073"><ele>1726.75</ele></trkpt>
   <trkpt lat="46.418928" lon="12.097665"><ele>1734.75</ele></trkpt>
   <trkpt lat="46.418986" lon="12.097906"><ele>1735.5</ele></trkpt>
   <trkpt lat="46.419029" lon="12.098342"><ele>1737.5</ele></trkpt>
   <trkpt lat="46.419068" lon="12.098833"><ele>1738.25</ele></trkpt>
   <trkpt lat="46.419212" lon="12.099519"><ele>1741.75</ele></trkpt>
   <trkpt lat="46.419349" lon="12.099976"><ele>1745.5</ele></trkpt>
   <trkpt lat="46.419355" lon="12.099993"><ele>1745.5</ele></trkpt>
   <trkpt lat="46.419507" lon="12.100829"><ele>1754</ele></trkpt>
   <trkpt lat="46.41957" lon="12.101022"><ele>1753.75</ele></trkpt>
   <trkpt lat="46.419976" lon="12.101972"><ele>1757.25</ele></trkpt>
   <trkpt lat="46.420496" lon="12.103777"><ele>1766.25</ele></trkpt>
   <trkpt lat="46.420735" lon="12.104629"><ele>1766.25</ele></trkpt>
   <trkpt lat="46.420812" lon="12.104916"><ele>1767.5</ele></trkpt>
  </trkseg>
 </trk>
</gpx>
