<?xml version="1.0" encoding="UTF-8"?>
<gpx 
 xmlns="http://www.topografix.com/GPX/1/1" 
 xmlns:xsi="http://www.w3.org/2001/XMLSchema-instance" 
 xsi:schemaLocation="http://www.topografix.com/GPX/1/1 http://www.topografix.com/GPX/1/1/gpx.xsd" 
 version="1.1" 
 creator="BRouter-Web 0.18.1">
 <trk>
  <name>Montagna Grande di Viggiano (6.6km, trimmed to true climb span)</name>
  <trkseg>
   <trkpt lat="40.357872" lon="15.886568"><ele>794.75</ele></trkpt>
   <trkpt lat="40.358003" lon="15.886439"><ele>795.75</ele></trkpt>
   <trkpt lat="40.358097" lon="15.886397"><ele>798.25</ele></trkpt>
   <trkpt lat="40.358226" lon="15.886416"><ele>799.75</ele></trkpt>
   <trkpt lat="40.358475" lon="15.886495"><ele>804.25</ele></trkpt>
   <trkpt lat="40.358659" lon="15.886515"><ele>807.75</ele></trkpt>
   <trkpt lat="40.358802" lon="15.886493"><ele>808.5</ele></trkpt>
   <trkpt lat="40.358911" lon="15.88645"><ele>810</ele></trkpt>
   <trkpt lat="40.359084" lon="15.886324"><ele>812.75</ele></trkpt>
   <trkpt lat="40.35916" lon="15.886184"><ele>814.75</ele></trkpt>
   <trkpt lat="40.359175" lon="15.886086"><ele>816.5</ele></trkpt>
   <trkpt lat="40.359168" lon="15.885988"><ele>818</ele></trkpt>
   <trkpt lat="40.359123" lon="15.885908"><ele>819.25</ele></trkpt>
   <trkpt lat="40.358825" lon="15.885608"><ele>822</ele></trkpt>
   <trkpt lat="40.358485" lon="15.88528"><ele>826.75</ele></trkpt>
   <trkpt lat="40.358401" lon="15.885192"><ele>827.5</ele></trkpt>
   <trkpt lat="40.358363" lon="15.88512"><ele>827.5</ele></trkpt>
   <trkpt lat="40.358365" lon="15.884985"><ele>828.25</ele></trkpt>
   <trkpt lat="40.358537" lon="15.884203"><ele>828.75</ele></trkpt>
   <trkpt lat="40.358571" lon="15.883923"><ele>830.5</ele></trkpt>
   <trkpt lat="40.358567" lon="15.883629"><ele>832.25</ele></trkpt>
   <trkpt lat="40.358582" lon="15.882507"><ele>832.75</ele></trkpt>
   <trkpt lat="40.358592" lon="15.882352"><ele>833.25</ele></trkpt>
   <trkpt lat="40.358632" lon="15.882139"><ele>834</ele></trkpt>
   <trkpt lat="40.358743" lon="15.881777"><ele>833.25</ele></trkpt>
   <trkpt lat="40.358898" lon="15.881434"><ele>836</ele></trkpt>
   <trkpt lat="40.358923" lon="15.881263"><ele>837.25</ele></trkpt>
   <trkpt lat="40.358902" lon="15.881064"><ele>837.75</ele></trkpt>
   <trkpt lat="40.358806" lon="15.880764"><ele>837.5</ele></trkpt>
   <trkpt lat="40.358739" lon="15.880453"><ele>839.5</ele></trkpt>
   <trkpt lat="40.358706" lon="15.879736"><ele>847.5</ele></trkpt>
   <trkpt lat="40.358731" lon="15.879613"><ele>848.25</ele></trkpt>
   <trkpt lat="40.358777" lon="15.879479"><ele>849.5</ele></trkpt>
   <trkpt lat="40.35887" lon="15.879359"><ele>852</ele></trkpt>
   <trkpt lat="40.359564" lon="15.878647"><ele>867.5</ele></trkpt>
   <trkpt lat="40.359924" lon="15.878114"><ele>874.5</ele></trkpt>
   <trkpt lat="40.360014" lon="15.877958"><ele>876.25</ele></trkpt>
   <trkpt lat="40.360153" lon="15.877666"><ele>882</ele></trkpt>
   <trkpt lat="40.360261" lon="15.877362"><ele>884.5</ele></trkpt>
   <trkpt lat="40.360391" lon="15.877066"><ele>887.5</ele></trkpt>
   <trkpt lat="40.360646" lon="15.876756"><ele>893.25</ele></trkpt>
   <trkpt lat="40.360842" lon="15.876571"><ele>895.75</ele></trkpt>
   <trkpt lat="40.361219" lon="15.876296"><ele>902.25</ele></trkpt>
   <trkpt lat="40.36217" lon="15.875683"><ele>917</ele></trkpt>
   <trkpt lat="40.362478" lon="15.875387"><ele>919.75</ele></trkpt>
   <trkpt lat="40.363213" lon="15.874775"><ele>923.5</ele></trkpt>
   <trkpt lat="40.363409" lon="15.874511"><ele>924.75</ele></trkpt>
   <trkpt lat="40.363515" lon="15.874299"><ele>924</ele></trkpt>
   <trkpt lat="40.363592" lon="15.874091"><ele>922.25</ele></trkpt>
   <trkpt lat="40.363603" lon="15.873913"><ele>922.5</ele></trkpt>
   <trkpt lat="40.363571" lon="15.873742"><ele>921.75</ele></trkpt>
   <trkpt lat="40.363525" lon="15.873607"><ele>921.75</ele></trkpt>
   <trkpt lat="40.363404" lon="15.873388"><ele>924.5</ele></trkpt>
   <trkpt lat="40.363183" lon="15.873106"><ele>925</ele></trkpt>
   <trkpt lat="40.363127" lon="15.872988"><ele>926</ele></trkpt>
   <trkpt lat="40.363025" lon="15.872087"><ele>931</ele></trkpt>
   <trkpt lat="40.363068" lon="15.871441"><ele>936</ele></trkpt>
   <trkpt lat="40.363098" lon="15.871231"><ele>937.5</ele></trkpt>
   <trkpt lat="40.363133" lon="15.871087"><ele>938.5</ele></trkpt>
   <trkpt lat="40.363182" lon="15.871"><ele>938.75</ele></trkpt>
   <trkpt lat="40.363252" lon="15.870899"><ele>939.75</ele></trkpt>
   <trkpt lat="40.363444" lon="15.870706"><ele>943.25</ele></trkpt>
   <trkpt lat="40.36348" lon="15.870627"><ele>944.25</ele></trkpt>
   <trkpt lat="40.363497" lon="15.870501"><ele>945.75</ele></trkpt>
   <trkpt lat="40.363462" lon="15.870354"><ele>947</ele></trkpt>
   <trkpt lat="40.36328" lon="15.869783"><ele>950</ele></trkpt>
   <trkpt lat="40.362931" lon="15.868984"><ele>953</ele></trkpt>
   <trkpt lat="40.3629" lon="15.868887"><ele>953</ele></trkpt>
   <trkpt lat="40.362908" lon="15.868707"><ele>953.5</ele></trkpt>
   <trkpt lat="40.363009" lon="15.867881"><ele>959.5</ele></trkpt>
   <trkpt lat="40.363051" lon="15.86779"><ele>960.75</ele></trkpt>
   <trkpt lat="40.363103" lon="15.867747"><ele>961.75</ele></trkpt>
   <trkpt lat="40.3632" lon="15.867736"><ele>963.5</ele></trkpt>
   <trkpt lat="40.363279" lon="15.867772"><ele>964.25</ele></trkpt>
   <trkpt lat="40.364093" lon="15.86838"><ele>976.25</ele></trkpt>
   <trkpt lat="40.36425" lon="15.868528"><ele>978.75</ele></trkpt>
   <trkpt lat="40.364332" lon="15.86868"><ele>980</ele></trkpt>
   <trkpt lat="40.364413" lon="15.868989"><ele>981</ele></trkpt>
   <trkpt lat="40.364539" lon="15.869086"><ele>982.5</ele></trkpt>
   <trkpt lat="40.364627" lon="15.869128"><ele>983.75</ele></trkpt>
   <trkpt lat="40.364784" lon="15.869086"><ele>986</ele></trkpt>
   <trkpt lat="40.364932" lon="15.869019"><ele>988.5</ele></trkpt>
   <trkpt lat="40.364984" lon="15.868985"><ele>989.5</ele></trkpt>
   <trkpt lat="40.365026" lon="15.868898"><ele>991.75</ele></trkpt>
   <trkpt lat="40.365056" lon="15.868801"><ele>993</ele></trkpt>
   <trkpt lat="40.36506" lon="15.868554"><ele>994</ele></trkpt>
   <trkpt lat="40.365017" lon="15.8683"><ele>996</ele></trkpt>
   <trkpt lat="40.364915" lon="15.868028"><ele>999</ele></trkpt>
   <trkpt lat="40.364817" lon="15.867854"><ele>1001.25</ele></trkpt>
   <trkpt lat="40.36467" lon="15.867749"><ele>1000.75</ele></trkpt>
   <trkpt lat="40.364464" lon="15.867576"><ele>1002.25</ele></trkpt>
   <trkpt lat="40.364388" lon="15.867457"><ele>1003.25</ele></trkpt>
   <trkpt lat="40.364364" lon="15.867358"><ele>1003.75</ele></trkpt>
   <trkpt lat="40.364347" lon="15.867256"><ele>1004.5</ele></trkpt>
   <trkpt lat="40.36438" lon="15.867165"><ele>1004.75</ele></trkpt>
   <trkpt lat="40.364435" lon="15.867098"><ele>1005</ele></trkpt>
   <trkpt lat="40.364527" lon="15.867066"><ele>1007</ele></trkpt>
   <trkpt lat="40.364619" lon="15.867116"><ele>1009.75</ele></trkpt>
   <trkpt lat="40.364701" lon="15.867214"><ele>1011.5</ele></trkpt>
   <trkpt lat="40.364879" lon="15.867471"><ele>1012.25</ele></trkpt>
   <trkpt lat="40.364954" lon="15.867511"><ele>1014</ele></trkpt>
   <trkpt lat="40.364992" lon="15.867514"><ele>1015.25</ele></trkpt>
   <trkpt lat="40.365081" lon="15.86745"><ele>1019</ele></trkpt>
   <trkpt lat="40.365125" lon="15.867387"><ele>1021</ele></trkpt>
   <trkpt lat="40.365128" lon="15.867232"><ele>1022.75</ele></trkpt>
   <trkpt lat="40.364842" lon="15.8665"><ele>1025.25</ele></trkpt>
   <trkpt lat="40.364819" lon="15.866296"><ele>1027.75</ele></trkpt>
   <trkpt lat="40.364809" lon="15.866095"><ele>1030.25</ele></trkpt>
   <trkpt lat="40.364833" lon="15.865869"><ele>1031</ele></trkpt>
   <trkpt lat="40.36494" lon="15.86569"><ele>1034</ele></trkpt>
   <trkpt lat="40.365019" lon="15.865577"><ele>1036.25</ele></trkpt>
   <trkpt lat="40.365126" lon="15.865535"><ele>1038.25</ele></trkpt>
   <trkpt lat="40.365228" lon="15.865601"><ele>1039.75</ele></trkpt>
   <trkpt lat="40.365314" lon="15.865723"><ele>1041.5</ele></trkpt>
   <trkpt lat="40.365463" lon="15.865915"><ele>1044</ele></trkpt>
   <trkpt lat="40.365546" lon="15.865947"><ele>1045.5</ele></trkpt>
   <trkpt lat="40.365643" lon="15.865937"><ele>1046.5</ele></trkpt>
   <trkpt lat="40.36591" lon="15.865928"><ele>1049.5</ele></trkpt>
   <trkpt lat="40.366054" lon="15.865935"><ele>1051.75</ele></trkpt>
   <trkpt lat="40.366159" lon="15.865987"><ele>1054.25</ele></trkpt>
   <trkpt lat="40.366301" lon="15.866135"><ele>1057</ele></trkpt>
   <trkpt lat="40.366411" lon="15.866366"><ele>1059</ele></trkpt>
   <trkpt lat="40.366454" lon="15.866564"><ele>1061.25</ele></trkpt>
   <trkpt lat="40.366479" lon="15.866817"><ele>1064</ele></trkpt>
   <trkpt lat="40.366472" lon="15.867138"><ele>1066.75</ele></trkpt>
   <trkpt lat="40.366493" lon="15.867283"><ele>1067.75</ele></trkpt>
   <trkpt lat="40.366544" lon="15.867363"><ele>1068.75</ele></trkpt>
   <trkpt lat="40.366666" lon="15.867446"><ele>1071.75</ele></trkpt>
   <trkpt lat="40.367464" lon="15.868569"><ele>1089.75</ele></trkpt>
   <trkpt lat="40.367562" lon="15.868673"><ele>1091.25</ele></trkpt>
   <trkpt lat="40.367662" lon="15.868688"><ele>1092.75</ele></trkpt>
   <trkpt lat="40.367825" lon="15.868637"><ele>1096.25</ele></trkpt>
   <trkpt lat="40.367938" lon="15.868646"><ele>1097.5</ele></trkpt>
   <trkpt lat="40.36834" lon="15.868745"><ele>1104</ele></trkpt>
   <trkpt lat="40.368747" lon="15.868948"><ele>1109</ele></trkpt>
   <trkpt lat="40.368864" lon="15.869051"><ele>1110.75</ele></trkpt>
   <trkpt lat="40.369157" lon="15.869402"><ele>1114.25</ele></trkpt>
   <trkpt lat="40.369503" lon="15.869747"><ele>1118.75</ele></trkpt>
   <trkpt lat="40.3696" lon="15.869835"><ele>1119.75</ele></trkpt>
   <trkpt lat="40.369672" lon="15.869874"><ele>1121</ele></trkpt>
   <trkpt lat="40.369722" lon="15.869877"><ele>1122.25</ele></trkpt>
   <trkpt lat="40.369749" lon="15.869832"><ele>1123.5</ele></trkpt>
   <trkpt lat="40.369767" lon="15.869764"><ele>1124.75</ele></trkpt>
   <trkpt lat="40.369749" lon="15.869682"><ele>1125.25</ele></trkpt>
   <trkpt lat="40.369635" lon="15.86938"><ele>1126.25</ele></trkpt>
   <trkpt lat="40.369431" lon="15.869005"><ele>1127.75</ele></trkpt>
   <trkpt lat="40.369421" lon="15.868919"><ele>1128.75</ele></trkpt>
   <trkpt lat="40.369452" lon="15.868861"><ele>1130.75</ele></trkpt>
   <trkpt lat="40.369509" lon="15.868844"><ele>1132.5</ele></trkpt>
   <trkpt lat="40.369585" lon="15.868855"><ele>1133.75</ele></trkpt>
   <trkpt lat="40.3697" lon="15.868926"><ele>1134</ele></trkpt>
   <trkpt lat="40.369779" lon="15.869"><ele>1135.75</ele></trkpt>
   <trkpt lat="40.370657" lon="15.869959"><ele>1149.75</ele></trkpt>
   <trkpt lat="40.37085" lon="15.870105"><ele>1151.5</ele></trkpt>
   <trkpt lat="40.37099" lon="15.870157"><ele>1155</ele></trkpt>
   <trkpt lat="40.371066" lon="15.870274"><ele>1155.5</ele></trkpt>
   <trkpt lat="40.3711" lon="15.87046"><ele>1157.75</ele></trkpt>
   <trkpt lat="40.371097" lon="15.870644"><ele>1159.25</ele></trkpt>
   <trkpt lat="40.371063" lon="15.870809"><ele>1159.75</ele></trkpt>
   <trkpt lat="40.371063" lon="15.870949"><ele>1160.75</ele></trkpt>
   <trkpt lat="40.371104" lon="15.871143"><ele>1163.5</ele></trkpt>
   <trkpt lat="40.371192" lon="15.871321"><ele>1165.5</ele></trkpt>
   <trkpt lat="40.371332" lon="15.87151"><ele>1170.25</ele></trkpt>
   <trkpt lat="40.371402" lon="15.871649"><ele>1171.5</ele></trkpt>
   <trkpt lat="40.371412" lon="15.871779"><ele>1172.75</ele></trkpt>
   <trkpt lat="40.371299" lon="15.872739"><ele>1183</ele></trkpt>
   <trkpt lat="40.371302" lon="15.873067"><ele>1185.75</ele></trkpt>
   <trkpt lat="40.371393" lon="15.873211"><ele>1188</ele></trkpt>
   <trkpt lat="40.371466" lon="15.873263"><ele>1190.25</ele></trkpt>
   <trkpt lat="40.371544" lon="15.873247"><ele>1192.75</ele></trkpt>
   <trkpt lat="40.371614" lon="15.873157"><ele>1194.75</ele></trkpt>
   <trkpt lat="40.371822" lon="15.872841"><ele>1199</ele></trkpt>
   <trkpt lat="40.37202" lon="15.872655"><ele>1203</ele></trkpt>
   <trkpt lat="40.372187" lon="15.872539"><ele>1205.75</ele></trkpt>
   <trkpt lat="40.372368" lon="15.872492"><ele>1208.25</ele></trkpt>
   <trkpt lat="40.372514" lon="15.872504"><ele>1211</ele></trkpt>
   <trkpt lat="40.372713" lon="15.872508"><ele>1213.25</ele></trkpt>
   <trkpt lat="40.373039" lon="15.872681"><ele>1219.75</ele></trkpt>
   <trkpt lat="40.373195" lon="15.872775"><ele>1222.75</ele></trkpt>
   <trkpt lat="40.373313" lon="15.872863"><ele>1225</ele></trkpt>
   <trkpt lat="40.37336" lon="15.873003"><ele>1226.25</ele></trkpt>
   <trkpt lat="40.373357" lon="15.873149"><ele>1227.25</ele></trkpt>
   <trkpt lat="40.37333" lon="15.873396"><ele>1228.75</ele></trkpt>
   <trkpt lat="40.37337" lon="15.873473"><ele>1229.5</ele></trkpt>
   <trkpt lat="40.373424" lon="15.873519"><ele>1230.25</ele></trkpt>
   <trkpt lat="40.373513" lon="15.873548"><ele>1231.5</ele></trkpt>
   <trkpt lat="40.373608" lon="15.873527"><ele>1233.25</ele></trkpt>
   <trkpt lat="40.373702" lon="15.873466"><ele>1235.25</ele></trkpt>
   <trkpt lat="40.374107" lon="15.872986"><ele>1244</ele></trkpt>
   <trkpt lat="40.374169" lon="15.872826"><ele>1245.25</ele></trkpt>
   <trkpt lat="40.374201" lon="15.872688"><ele>1246.5</ele></trkpt>
   <trkpt lat="40.374192" lon="15.872542"><ele>1246.75</ele></trkpt>
   <trkpt lat="40.374139" lon="15.872402"><ele>1247.25</ele></trkpt>
   <trkpt lat="40.373898" lon="15.872003"><ele>1247.75</ele></trkpt>
   <trkpt lat="40.373829" lon="15.871852"><ele>1247.25</ele></trkpt>
   <trkpt lat="40.373813" lon="15.871703"><ele>1247.5</ele></trkpt>
   <trkpt lat="40.373836" lon="15.871599"><ele>1249</ele></trkpt>
   <trkpt lat="40.373868" lon="15.871525"><ele>1250.25</ele></trkpt>
   <trkpt lat="40.373936" lon="15.87146"><ele>1251.75</ele></trkpt>
   <trkpt lat="40.374019" lon="15.871439"><ele>1253.5</ele></trkpt>
   <trkpt lat="40.374112" lon="15.871486"><ele>1255.25</ele></trkpt>
   <trkpt lat="40.374217" lon="15.871567"><ele>1257</ele></trkpt>
   <trkpt lat="40.374842" lon="15.872248"><ele>1268.5</ele></trkpt>
   <trkpt lat="40.374895" lon="15.872397"><ele>1269.5</ele></trkpt>
   <trkpt lat="40.374919" lon="15.872705"><ele>1270.5</ele></trkpt>
   <trkpt lat="40.374999" lon="15.872955"><ele>1272.25</ele></trkpt>
   <trkpt lat="40.375074" lon="15.873123"><ele>1274</ele></trkpt>
   <trkpt lat="40.375318" lon="15.873454"><ele>1278</ele></trkpt>
   <trkpt lat="40.375484" lon="15.873627"><ele>1280.25</ele></trkpt>
   <trkpt lat="40.375629" lon="15.873866"><ele>1283.5</ele></trkpt>
   <trkpt lat="40.375738" lon="15.873984"><ele>1284.75</ele></trkpt>
   <trkpt lat="40.375811" lon="15.874008"><ele>1286</ele></trkpt>
   <trkpt lat="40.375875" lon="15.874029"><ele>1286.75</ele></trkpt>
   <trkpt lat="40.376032" lon="15.873994"><ele>1288.75</ele></trkpt>
   <trkpt lat="40.376154" lon="15.873924"><ele>1290.75</ele></trkpt>
   <trkpt lat="40.3763" lon="15.873788"><ele>1292.5</ele></trkpt>
   <trkpt lat="40.376418" lon="15.873651"><ele>1296.25</ele></trkpt>
   <trkpt lat="40.376598" lon="15.873514"><ele>1299.75</ele></trkpt>
   <trkpt lat="40.377241" lon="15.873246"><ele>1304.25</ele></trkpt>
   <trkpt lat="40.377858" lon="15.872927"><ele>1307.5</ele></trkpt>
   <trkpt lat="40.377997" lon="15.872785"><ele>1309.25</ele></trkpt>
   <trkpt lat="40.378075" lon="15.872615"><ele>1309.5</ele></trkpt>
   <trkpt lat="40.378093" lon="15.872366"><ele>1311.5</ele></trkpt>
   <trkpt lat="40.378102" lon="15.872248"><ele>1311.5</ele></trkpt>
   <trkpt lat="40.378147" lon="15.872008"><ele>1313.5</ele></trkpt>
   <trkpt lat="40.378282" lon="15.871817"><ele>1315</ele></trkpt>
   <trkpt lat="40.378384" lon="15.871632"><ele>1318.5</ele></trkpt>
   <trkpt lat="40.378719" lon="15.871194"><ele>1323.75</ele></trkpt>
   <trkpt lat="40.379056" lon="15.870784"><ele>1331.25</ele></trkpt>
   <trkpt lat="40.379473" lon="15.870507"><ele>1338.5</ele></trkpt>
   <trkpt lat="40.380271" lon="15.869877"><ele>1351.25</ele></trkpt>
   <trkpt lat="40.380306" lon="15.869747"><ele>1353</ele></trkpt>
   <trkpt lat="40.380282" lon="15.869601"><ele>1353.75</ele></trkpt>
   <trkpt lat="40.380225" lon="15.869533"><ele>1354.5</ele></trkpt>
   <trkpt lat="40.380192" lon="15.86953"><ele>1354.75</ele></trkpt>
   <trkpt lat="40.380139" lon="15.869526"><ele>1355</ele></trkpt>
   <trkpt lat="40.38" lon="15.869546"><ele>1355.5</ele></trkpt>
   <trkpt lat="40.37985" lon="15.869621"><ele>1354.5</ele></trkpt>
   <trkpt lat="40.379782" lon="15.869612"><ele>1354.75</ele></trkpt>
   <trkpt lat="40.379739" lon="15.869594"><ele>1355.25</ele></trkpt>
   <trkpt lat="40.379693" lon="15.869544"><ele>1356</ele></trkpt>
   <trkpt lat="40.379673" lon="15.86949"><ele>1356.75</ele></trkpt>
   <trkpt lat="40.379641" lon="15.869357"><ele>1358.5</ele></trkpt>
   <trkpt lat="40.379641" lon="15.869259"><ele>1359.75</ele></trkpt>
   <trkpt lat="40.379672" lon="15.86916"><ele>1361</ele></trkpt>
   <trkpt lat="40.379742" lon="15.869085"><ele>1362.25</ele></trkpt>
   <trkpt lat="40.379847" lon="15.869008"><ele>1363</ele></trkpt>
   <trkpt lat="40.379947" lon="15.868984"><ele>1362.75</ele></trkpt>
   <trkpt lat="40.380586" lon="15.868914"><ele>1366.25</ele></trkpt>
   <trkpt lat="40.380713" lon="15.86885"><ele>1367</ele></trkpt>
   <trkpt lat="40.380772" lon="15.868761"><ele>1368.5</ele></trkpt>
   <trkpt lat="40.38079" lon="15.868643"><ele>1370.5</ele></trkpt>
   <trkpt lat="40.380809" lon="15.868429"><ele>1371.75</ele></trkpt>
   <trkpt lat="40.380801" lon="15.868276"><ele>1373</ele></trkpt>
   <trkpt lat="40.380868" lon="15.868203"><ele>1373.75</ele></trkpt>
   <trkpt lat="40.381117" lon="15.868169"><ele>1374.5</ele></trkpt>
   <trkpt lat="40.381522" lon="15.868209"><ele>1377</ele></trkpt>
   <trkpt lat="40.381847" lon="15.86823"><ele>1378.75</ele></trkpt>
   <trkpt lat="40.382329" lon="15.868217"><ele>1381</ele></trkpt>
   <trkpt lat="40.382396" lon="15.868195"><ele>1381</ele></trkpt>
   <trkpt lat="40.382533" lon="15.86808"><ele>1381.5</ele></trkpt>
   <trkpt lat="40.383169" lon="15.867406"><ele>1381.25</ele></trkpt>
   <trkpt lat="40.383222" lon="15.867333"><ele>1381.5</ele></trkpt>
   <trkpt lat="40.383302" lon="15.867128"><ele>1382.5</ele></trkpt>
   <trkpt lat="40.383426" lon="15.866578"><ele>1386.75</ele></trkpt>
   <trkpt lat="40.383517" lon="15.865953"><ele>1387.75</ele></trkpt>
   <trkpt lat="40.383577" lon="15.865631"><ele>1388</ele></trkpt>
   <trkpt lat="40.383628" lon="15.865476"><ele>1387.75</ele></trkpt>
   <trkpt lat="40.383686" lon="15.865328"><ele>1387.5</ele></trkpt>
   <trkpt lat="40.383759" lon="15.865076"><ele>1390.75</ele></trkpt>
   <trkpt lat="40.383765" lon="15.864853"><ele>1393.25</ele></trkpt>
   <trkpt lat="40.383761" lon="15.864676"><ele>1394.5</ele></trkpt>
   <trkpt lat="40.383696" lon="15.863976"><ele>1396</ele></trkpt>
   <trkpt lat="40.383722" lon="15.863746"><ele>1397.25</ele></trkpt>
   <trkpt lat="40.383769" lon="15.863614"><ele>1397.75</ele></trkpt>
   <trkpt lat="40.383898" lon="15.86333"><ele>1400</ele></trkpt>
   <trkpt lat="40.383951" lon="15.863104"><ele>1402</ele></trkpt>
  </trkseg>
 </trk>
</gpx>
