<?xml version="1.0" encoding="UTF-8"?>
<!-- track-length = 4137 filtered ascend = 70 plain-ascend = 58 cost=5936 energy=0.0kwh time=51m 27s -->
<gpx 
 xmlns="http://www.topografix.com/GPX/1/1" 
 xmlns:xsi="http://www.w3.org/2001/XMLSchema-instance" 
 xsi:schemaLocation="http://www.topografix.com/GPX/1/1 http://www.topografix.com/GPX/1/1/gpx.xsd" 
 version="1.1" 
 creator="BRouter-Web 0.18.1">
 <trk>
  <name>montreal tt course (4.1km)</name>
  <trkseg>
   <trkpt lat="45.516321" lon="-73.54921"><ele>21.5</ele></trkpt>
   <trkpt lat="45.516313" lon="-73.549177"><ele>21.75</ele></trkpt>
   <trkpt lat="45.516232" lon="-73.54922"><ele>21.75</ele></trkpt>
   <trkpt lat="45.516265" lon="-73.549385"><ele>21</ele></trkpt>
   <trkpt lat="45.516298" lon="-73.549416"><ele>21</ele></trkpt>
   <trkpt lat="45.516319" lon="-73.549462"><ele>20.75</ele></trkpt>
   <trkpt lat="45.516329" lon="-73.54952"><ele>20.5</ele></trkpt>
   <trkpt lat="45.516332" lon="-73.549593"><ele>20.25</ele></trkpt>
   <trkpt lat="45.516326" lon="-73.549736"><ele>19.5</ele></trkpt>
   <trkpt lat="45.516313" lon="-73.549834"><ele>19.25</ele></trkpt>
   <trkpt lat="45.516271" lon="-73.550022"><ele>18.75</ele></trkpt>
   <trkpt lat="45.516226" lon="-73.550147"><ele>18.5</ele></trkpt>
   <trkpt lat="45.516114" lon="-73.550385"><ele>17.75</ele></trkpt>
   <trkpt lat="45.515888" lon="-73.550764"><ele>15.5</ele></trkpt>
   <trkpt lat="45.515884" lon="-73.550778"><ele>15.5</ele></trkpt>
   <trkpt lat="45.515852" lon="-73.550814"><ele>15</ele></trkpt>
   <trkpt lat="45.515821" lon="-73.55085"><ele>14.75</ele></trkpt>
   <trkpt lat="45.515815" lon="-73.55085"><ele>14.75</ele></trkpt>
   <trkpt lat="45.515803" lon="-73.550894"><ele>14.75</ele></trkpt>
   <trkpt lat="45.5157" lon="-73.551022"><ele>14.5</ele></trkpt>
   <trkpt lat="45.515539" lon="-73.551199"><ele>14</ele></trkpt>
   <trkpt lat="45.515514" lon="-73.551221"><ele>13.75</ele></trkpt>
   <trkpt lat="45.515484" lon="-73.551224"><ele>13.75</ele></trkpt>
   <trkpt lat="45.515483" lon="-73.551237"><ele>13.75</ele></trkpt>
   <trkpt lat="45.515442" lon="-73.551273"><ele>13.75</ele></trkpt>
   <trkpt lat="45.515404" lon="-73.551308"><ele>13.5</ele></trkpt>
   <trkpt lat="45.515395" lon="-73.551307"><ele>13.5</ele></trkpt>
   <trkpt lat="45.515378" lon="-73.551347"><ele>13.25</ele></trkpt>
   <trkpt lat="45.515048" lon="-73.551602"><ele>12.25</ele></trkpt>
   <trkpt lat="45.515024" lon="-73.551605"><ele>12</ele></trkpt>
   <trkpt lat="45.515023" lon="-73.551612"><ele>12</ele></trkpt>
   <trkpt lat="45.51496" lon="-73.551661"><ele>12</ele></trkpt>
   <trkpt lat="45.515005" lon="-73.55176"><ele>12.25</ele></trkpt>
   <trkpt lat="45.515015" lon="-73.551753"><ele>12.25</ele></trkpt>
   <trkpt lat="45.515005" lon="-73.55176"><ele>12.25</ele></trkpt>
   <trkpt lat="45.515055" lon="-73.551845"><ele>12.75</ele></trkpt>
   <trkpt lat="45.51507" lon="-73.551869"><ele>12.75</ele></trkpt>
   <trkpt lat="45.515262" lon="-73.55227"><ele>14.75</ele></trkpt>
   <trkpt lat="45.515272" lon="-73.552292"><ele>14.75</ele></trkpt>
   <trkpt lat="45.515308" lon="-73.55237"><ele>15.25</ele></trkpt>
   <trkpt lat="45.515351" lon="-73.552463"><ele>15.5</ele></trkpt>
   <trkpt lat="45.515368" lon="-73.552499"><ele>15.75</ele></trkpt>
   <trkpt lat="45.515475" lon="-73.55273"><ele>17.25</ele></trkpt>
   <trkpt lat="45.515793" lon="-73.553412"><ele>19.5</ele></trkpt>
   <trkpt lat="45.515816" lon="-73.55346"><ele>19.5</ele></trkpt>
   <trkpt lat="45.515842" lon="-73.553517"><ele>19.75</ele></trkpt>
   <trkpt lat="45.516326" lon="-73.554582"><ele>22.5</ele></trkpt>
   <trkpt lat="45.516337" lon="-73.554608"><ele>22.5</ele></trkpt>
   <trkpt lat="45.516349" lon="-73.554637"><ele>22.5</ele></trkpt>
   <trkpt lat="45.516402" lon="-73.554744"><ele>22.75</ele></trkpt>
   <trkpt lat="45.516462" lon="-73.554871"><ele>22.75</ele></trkpt>
   <trkpt lat="45.516474" lon="-73.554895"><ele>22.75</ele></trkpt>
   <trkpt lat="45.516527" lon="-73.555009"><ele>22.75</ele></trkpt>
   <trkpt lat="45.516587" lon="-73.554956"><ele>22.25</ele></trkpt>
   <trkpt lat="45.516597" lon="-73.554961"><ele>22.25</ele></trkpt>
   <trkpt lat="45.516597" lon="-73.554988"><ele>22.25</ele></trkpt>
   <trkpt lat="45.516604" lon="-73.555011"><ele>22.25</ele></trkpt>
   <trkpt lat="45.516647" lon="-73.555105"><ele>22.25</ele></trkpt>
   <trkpt lat="45.516735" lon="-73.555297"><ele>22.75</ele></trkpt>
   <trkpt lat="45.517354" lon="-73.556652"><ele>26.75</ele></trkpt>
   <trkpt lat="45.51748" lon="-73.556926"><ele>27.25</ele></trkpt>
   <trkpt lat="45.517494" lon="-73.556936"><ele>27.25</ele></trkpt>
   <trkpt lat="45.517495" lon="-73.556954"><ele>27.25</ele></trkpt>
   <trkpt lat="45.517526" lon="-73.557025"><ele>27.25</ele></trkpt>
   <trkpt lat="45.517561" lon="-73.557106"><ele>27.25</ele></trkpt>
   <trkpt lat="45.517575" lon="-73.55711"><ele>27.25</ele></trkpt>
   <trkpt lat="45.517579" lon="-73.557141"><ele>27.25</ele></trkpt>
   <trkpt lat="45.517693" lon="-73.55739"><ele>27.5</ele></trkpt>
   <trkpt lat="45.517701" lon="-73.557407"><ele>27.5</ele></trkpt>
   <trkpt lat="45.517708" lon="-73.557424"><ele>27.5</ele></trkpt>
   <trkpt lat="45.51815" lon="-73.55839"><ele>28.5</ele></trkpt>
   <trkpt lat="45.51816" lon="-73.558399"><ele>28.25</ele></trkpt>
   <trkpt lat="45.51816" lon="-73.558413"><ele>28.5</ele></trkpt>
   <trkpt lat="45.518174" lon="-73.558441"><ele>28.5</ele></trkpt>
   <trkpt lat="45.518205" lon="-73.558508"><ele>28.5</ele></trkpt>
   <trkpt lat="45.518236" lon="-73.558573"><ele>28.5</ele></trkpt>
   <trkpt lat="45.51825" lon="-73.558577"><ele>28.25</ele></trkpt>
   <trkpt lat="45.518253" lon="-73.558615"><ele>28.5</ele></trkpt>
   <trkpt lat="45.519179" lon="-73.560639"><ele>26</ele></trkpt>
   <trkpt lat="45.51919" lon="-73.560648"><ele>26</ele></trkpt>
   <trkpt lat="45.519185" lon="-73.560661"><ele>26</ele></trkpt>
   <trkpt lat="45.51921" lon="-73.560716"><ele>26</ele></trkpt>
   <trkpt lat="45.519233" lon="-73.560766"><ele>26</ele></trkpt>
   <trkpt lat="45.519244" lon="-73.560767"><ele>26</ele></trkpt>
   <trkpt lat="45.519248" lon="-73.560784"><ele>26</ele></trkpt>
   <trkpt lat="45.520176" lon="-73.562797"><ele>28</ele></trkpt>
   <trkpt lat="45.520188" lon="-73.56281"><ele>28</ele></trkpt>
   <trkpt lat="45.520187" lon="-73.562825"><ele>28</ele></trkpt>
   <trkpt lat="45.520122" lon="-73.562859"><ele>28</ele></trkpt>
   <trkpt lat="45.52016" lon="-73.562943"><ele>28.25</ele></trkpt>
   <trkpt lat="45.52015" lon="-73.562949"><ele>28.25</ele></trkpt>
   <trkpt lat="45.520127" lon="-73.562964"><ele>28.25</ele></trkpt>
   <trkpt lat="45.520098" lon="-73.562981"><ele>28.25</ele></trkpt>
   <trkpt lat="45.520074" lon="-73.562995"><ele>28.25</ele></trkpt>
   <trkpt lat="45.519854" lon="-73.563123"><ele>28.25</ele></trkpt>
   <trkpt lat="45.519651" lon="-73.563242"><ele>28.25</ele></trkpt>
   <trkpt lat="45.519686" lon="-73.563319"><ele>28.5</ele></trkpt>
   <trkpt lat="45.519643" lon="-73.563342"><ele>28.5</ele></trkpt>
   <trkpt lat="45.519641" lon="-73.563357"><ele>28.5</ele></trkpt>
   <trkpt lat="45.519455" lon="-73.563464"><ele>28.25</ele></trkpt>
   <trkpt lat="45.519434" lon="-73.563477"><ele>28.25</ele></trkpt>
   <trkpt lat="45.51941" lon="-73.563491"><ele>28.25</ele></trkpt>
   <trkpt lat="45.519365" lon="-73.563518"><ele>28</ele></trkpt>
   <trkpt lat="45.519321" lon="-73.563545"><ele>28</ele></trkpt>
   <trkpt lat="45.51928" lon="-73.563569"><ele>28</ele></trkpt>
   <trkpt lat="45.51918" lon="-73.56363"><ele>28</ele></trkpt>
   <trkpt lat="45.51913" lon="-73.56366"><ele>27.75</ele></trkpt>
   <trkpt lat="45.519081" lon="-73.563689"><ele>27.75</ele></trkpt>
   <trkpt lat="45.519033" lon="-73.563718"><ele>27.75</ele></trkpt>
   <trkpt lat="45.519017" lon="-73.56374"><ele>27.5</ele></trkpt>
   <trkpt lat="45.519004" lon="-73.563732"><ele>27.5</ele></trkpt>
   <trkpt lat="45.518936" lon="-73.563767"><ele>27.5</ele></trkpt>
   <trkpt lat="45.518875" lon="-73.563797"><ele>27.25</ele></trkpt>
   <trkpt lat="45.518874" lon="-73.563822"><ele>27.5</ele></trkpt>
   <trkpt lat="45.518844" lon="-73.563827"><ele>27.25</ele></trkpt>
   <trkpt lat="45.518479" lon="-73.564035"><ele>27</ele></trkpt>
   <trkpt lat="45.518473" lon="-73.564049"><ele>27</ele></trkpt>
   <trkpt lat="45.518468" lon="-73.564051"><ele>27</ele></trkpt>
   <trkpt lat="45.518438" lon="-73.564062"><ele>27</ele></trkpt>
   <trkpt lat="45.518402" lon="-73.564075"><ele>26.75</ele></trkpt>
   <trkpt lat="45.5184" lon="-73.564084"><ele>26.75</ele></trkpt>
   <trkpt lat="45.518384" lon="-73.564085"><ele>26.75</ele></trkpt>
   <trkpt lat="45.518021" lon="-73.564314"><ele>27.25</ele></trkpt>
   <trkpt lat="45.518004" lon="-73.564332"><ele>27.5</ele></trkpt>
   <trkpt lat="45.517996" lon="-73.564327"><ele>27.25</ele></trkpt>
   <trkpt lat="45.517931" lon="-73.564362"><ele>27.5</ele></trkpt>
   <trkpt lat="45.517865" lon="-73.564404"><ele>27.5</ele></trkpt>
   <trkpt lat="45.517862" lon="-73.564411"><ele>27.5</ele></trkpt>
   <trkpt lat="45.517824" lon="-73.564425"><ele>27.75</ele></trkpt>
   <trkpt lat="45.517463" lon="-73.564644"><ele>28</ele></trkpt>
   <trkpt lat="45.517435" lon="-73.564657"><ele>28</ele></trkpt>
   <trkpt lat="45.517415" lon="-73.564667"><ele>28</ele></trkpt>
   <trkpt lat="45.517284" lon="-73.564749"><ele>28.25</ele></trkpt>
   <trkpt lat="45.517206" lon="-73.564794"><ele>28.25</ele></trkpt>
   <trkpt lat="45.517197" lon="-73.564813"><ele>28.25</ele></trkpt>
   <trkpt lat="45.517183" lon="-73.56481"><ele>28.25</ele></trkpt>
   <trkpt lat="45.517177" lon="-73.564814"><ele>28.25</ele></trkpt>
   <trkpt lat="45.517132" lon="-73.564843"><ele>28.25</ele></trkpt>
   <trkpt lat="45.517085" lon="-73.564806"><ele>27.75</ele></trkpt>
   <trkpt lat="45.517132" lon="-73.564843"><ele>28.25</ele></trkpt>
   <trkpt lat="45.517177" lon="-73.564814"><ele>28.25</ele></trkpt>
   <trkpt lat="45.517183" lon="-73.56481"><ele>28.25</ele></trkpt>
   <trkpt lat="45.517197" lon="-73.564813"><ele>28.25</ele></trkpt>
   <trkpt lat="45.5172" lon="-73.564841"><ele>28.5</ele></trkpt>
   <trkpt lat="45.517208" lon="-73.564856"><ele>28.5</ele></trkpt>
   <trkpt lat="45.517209" lon="-73.564877"><ele>28.75</ele></trkpt>
   <trkpt lat="45.517229" lon="-73.564927"><ele>29</ele></trkpt>
   <trkpt lat="45.517274" lon="-73.565037"><ele>29.5</ele></trkpt>
   <trkpt lat="45.518029" lon="-73.566785"><ele>45</ele></trkpt>
   <trkpt lat="45.518179" lon="-73.567132"><ele>47.25</ele></trkpt>
   <trkpt lat="45.518628" lon="-73.568124"><ele>49.25</ele></trkpt>
   <trkpt lat="45.519083" lon="-73.569107"><ele>47.25</ele></trkpt>
   <trkpt lat="45.51905" lon="-73.569137"><ele>47.5</ele></trkpt>
   <trkpt lat="45.518988" lon="-73.569189"><ele>48</ele></trkpt>
   <trkpt lat="45.51897" lon="-73.569203"><ele>48</ele></trkpt>
   <trkpt lat="45.518929" lon="-73.569246"><ele>48.25</ele></trkpt>
   <trkpt lat="45.518907" lon="-73.569266"><ele>48.5</ele></trkpt>
   <trkpt lat="45.518829" lon="-73.569341"><ele>48.75</ele></trkpt>
   <trkpt lat="45.518788" lon="-73.569393"><ele>49</ele></trkpt>
   <trkpt lat="45.518214" lon="-73.569923"><ele>48</ele></trkpt>
   <trkpt lat="45.518184" lon="-73.569941"><ele>48</ele></trkpt>
   <trkpt lat="45.518168" lon="-73.569941"><ele>48</ele></trkpt>
   <trkpt lat="45.518169" lon="-73.569952"><ele>48</ele></trkpt>
   <trkpt lat="45.518176" lon="-73.569969"><ele>47.75</ele></trkpt>
   <trkpt lat="45.518186" lon="-73.569992"><ele>47.75</ele></trkpt>
   <trkpt lat="45.518105" lon="-73.570065"><ele>47.75</ele></trkpt>
   <trkpt lat="45.518111" lon="-73.57008"><ele>47.75</ele></trkpt>
   <trkpt lat="45.518105" lon="-73.570065"><ele>47.75</ele></trkpt>
   <trkpt lat="45.518051" lon="-73.570114"><ele>47.75</ele></trkpt>
   <trkpt lat="45.518192" lon="-73.570425"><ele>48.25</ele></trkpt>
   <trkpt lat="45.518211" lon="-73.570467"><ele>48.25</ele></trkpt>
   <trkpt lat="45.518788" lon="-73.571742"><ele>47.75</ele></trkpt>
   <trkpt lat="45.51881" lon="-73.57179"><ele>47.5</ele></trkpt>
   <trkpt lat="45.51883" lon="-73.571836"><ele>47.5</ele></trkpt>
   <trkpt lat="45.518859" lon="-73.571809"><ele>47.75</ele></trkpt>
   <trkpt lat="45.51883" lon="-73.571836"><ele>47.5</ele></trkpt>
   <trkpt lat="45.518853" lon="-73.571887"><ele>47.25</ele></trkpt>
   <trkpt lat="45.518829" lon="-73.571911"><ele>47.25</ele></trkpt>
   <trkpt lat="45.518835" lon="-73.571923"><ele>47.25</ele></trkpt>
   <trkpt lat="45.518842" lon="-73.571939"><ele>47.25</ele></trkpt>
   <trkpt lat="45.518838" lon="-73.571953"><ele>47</ele></trkpt>
   <trkpt lat="45.518822" lon="-73.57196"><ele>47</ele></trkpt>
   <trkpt lat="45.518415" lon="-73.572325"><ele>46</ele></trkpt>
   <trkpt lat="45.518385" lon="-73.572356"><ele>46</ele></trkpt>
   <trkpt lat="45.518384" lon="-73.572369"><ele>46</ele></trkpt>
   <trkpt lat="45.518381" lon="-73.572369"><ele>46</ele></trkpt>
   <trkpt lat="45.518347" lon="-73.572398"><ele>46</ele></trkpt>
   <trkpt lat="45.51831" lon="-73.57243"><ele>46</ele></trkpt>
   <trkpt lat="45.518309" lon="-73.572439"><ele>46</ele></trkpt>
   <trkpt lat="45.518287" lon="-73.572442"><ele>46</ele></trkpt>
   <trkpt lat="45.517985" lon="-73.572715"><ele>46.5</ele></trkpt>
   <trkpt lat="45.51795" lon="-73.57275"><ele>46.75</ele></trkpt>
   <trkpt lat="45.51794" lon="-73.572778"><ele>46.75</ele></trkpt>
   <trkpt lat="45.517931" lon="-73.572775"><ele>46.75</ele></trkpt>
   <trkpt lat="45.517885" lon="-73.572814"><ele>46.75</ele></trkpt>
   <trkpt lat="45.517848" lon="-73.572847"><ele>46.75</ele></trkpt>
   <trkpt lat="45.517813" lon="-73.572863"><ele>47</ele></trkpt>
   <trkpt lat="45.517651" lon="-73.573009"><ele>47.5</ele></trkpt>
   <trkpt lat="45.517462" lon="-73.573181"><ele>48</ele></trkpt>
   <trkpt lat="45.517457" lon="-73.573195"><ele>48</ele></trkpt>
   <trkpt lat="45.517447" lon="-73.573191"><ele>48</ele></trkpt>
   <trkpt lat="45.517396" lon="-73.573229"><ele>48</ele></trkpt>
   <trkpt lat="45.517327" lon="-73.573288"><ele>48</ele></trkpt>
   <trkpt lat="45.517326" lon="-73.573298"><ele>48</ele></trkpt>
   <trkpt lat="45.517298" lon="-73.573315"><ele>48</ele></trkpt>
   <trkpt lat="45.517114" lon="-73.573472"><ele>48.25</ele></trkpt>
   <trkpt lat="45.516982" lon="-73.573584"><ele>48.25</ele></trkpt>
   <trkpt lat="45.516965" lon="-73.573608"><ele>48.25</ele></trkpt>
   <trkpt lat="45.516923" lon="-73.573647"><ele>48.25</ele></trkpt>
   <trkpt lat="45.516879" lon="-73.573684"><ele>48.25</ele></trkpt>
   <trkpt lat="45.516865" lon="-73.573681"><ele>48.25</ele></trkpt>
   <trkpt lat="45.516851" lon="-73.573691"><ele>48.25</ele></trkpt>
   <trkpt lat="45.516521" lon="-73.573969"><ele>48</ele></trkpt>
   <trkpt lat="45.516515" lon="-73.573993"><ele>48</ele></trkpt>
   <trkpt lat="45.516504" lon="-73.573993"><ele>48</ele></trkpt>
   <trkpt lat="45.516461" lon="-73.574031"><ele>47.75</ele></trkpt>
   <trkpt lat="45.51641" lon="-73.574076"><ele>47.75</ele></trkpt>
   <trkpt lat="45.516408" lon="-73.574088"><ele>47.75</ele></trkpt>
   <trkpt lat="45.51638" lon="-73.574091"><ele>47.5</ele></trkpt>
   <trkpt lat="45.51621" lon="-73.574237"><ele>47.25</ele></trkpt>
   <trkpt lat="45.516055" lon="-73.574368"><ele>47.25</ele></trkpt>
   <trkpt lat="45.516052" lon="-73.574378"><ele>47.25</ele></trkpt>
   <trkpt lat="45.516046" lon="-73.574375"><ele>47.25</ele></trkpt>
   <trkpt lat="45.516" lon="-73.574411"><ele>47</ele></trkpt>
   <trkpt lat="45.515964" lon="-73.57444"><ele>47</ele></trkpt>
   <trkpt lat="45.515964" lon="-73.574461"><ele>47</ele></trkpt>
   <trkpt lat="45.515948" lon="-73.574462"><ele>47</ele></trkpt>
   <trkpt lat="45.515606" lon="-73.574745"><ele>47.25</ele></trkpt>
   <trkpt lat="45.515601" lon="-73.574757"><ele>47.25</ele></trkpt>
   <trkpt lat="45.515592" lon="-73.574754"><ele>47.25</ele></trkpt>
   <trkpt lat="45.51555" lon="-73.574791"><ele>47.5</ele></trkpt>
   <trkpt lat="45.515513" lon="-73.574825"><ele>47.5</ele></trkpt>
   <trkpt lat="45.515515" lon="-73.574836"><ele>47.5</ele></trkpt>
   <trkpt lat="45.5155" lon="-73.574839"><ele>47.5</ele></trkpt>
   <trkpt lat="45.515163" lon="-73.575144"><ele>48.75</ele></trkpt>
   <trkpt lat="45.515148" lon="-73.575138"><ele>48.75</ele></trkpt>
   <trkpt lat="45.515089" lon="-73.575188"><ele>49</ele></trkpt>
   <trkpt lat="45.515032" lon="-73.575237"><ele>49</ele></trkpt>
   <trkpt lat="45.515031" lon="-73.57525"><ele>49</ele></trkpt>
   <trkpt lat="45.51501" lon="-73.575253"><ele>49.25</ele></trkpt>
   <trkpt lat="45.514852" lon="-73.575385"><ele>49.25</ele></trkpt>
   <trkpt lat="45.51465" lon="-73.575561"><ele>49</ele></trkpt>
   <trkpt lat="45.514642" lon="-73.575557"><ele>49</ele></trkpt>
   <trkpt lat="45.514605" lon="-73.57559"><ele>49</ele></trkpt>
   <trkpt lat="45.514573" lon="-73.575619"><ele>48.75</ele></trkpt>
   <trkpt lat="45.514574" lon="-73.57563"><ele>48.75</ele></trkpt>
   <trkpt lat="45.514564" lon="-73.575629"><ele>48.75</ele></trkpt>
   <trkpt lat="45.514362" lon="-73.575803"><ele>48.25</ele></trkpt>
   <trkpt lat="45.514354" lon="-73.575804"><ele>48.25</ele></trkpt>
   <trkpt lat="45.514318" lon="-73.575837"><ele>48.25</ele></trkpt>
   <trkpt lat="45.514279" lon="-73.575871"><ele>48.5</ele></trkpt>
   <trkpt lat="45.514277" lon="-73.575884"><ele>48.5</ele></trkpt>
   <trkpt lat="45.514264" lon="-73.575882"><ele>48.5</ele></trkpt>
   <trkpt lat="45.513906" lon="-73.576188"><ele>51.75</ele></trkpt>
   <trkpt lat="45.513899" lon="-73.576187"><ele>51.75</ele></trkpt>
   <trkpt lat="45.513847" lon="-73.576238"><ele>52.25</ele></trkpt>
   <trkpt lat="45.513815" lon="-73.576268"><ele>52.5</ele></trkpt>
   <trkpt lat="45.513781" lon="-73.5763"><ele>52.75</ele></trkpt>
   <trkpt lat="45.513781" lon="-73.576306"><ele>52.75</ele></trkpt>
   <trkpt lat="45.513756" lon="-73.576314"><ele>53</ele></trkpt>
   <trkpt lat="45.513636" lon="-73.576423"><ele>53.5</ele></trkpt>
   <trkpt lat="45.513277" lon="-73.57675"><ele>54.25</ele></trkpt>
   <trkpt lat="45.51296" lon="-73.577042"><ele>55.5</ele></trkpt>
   <trkpt lat="45.512912" lon="-73.577085"><ele>55.5</ele></trkpt>
   <trkpt lat="45.512847" lon="-73.577145"><ele>55.75</ele></trkpt>
   <trkpt lat="45.512222" lon="-73.577724"><ele>54.75</ele></trkpt>
   <trkpt lat="45.512189" lon="-73.577754"><ele>54.75</ele></trkpt>
   <trkpt lat="45.512164" lon="-73.577778"><ele>54.5</ele></trkpt>
   <trkpt lat="45.512118" lon="-73.577821"><ele>54.25</ele></trkpt>
   <trkpt lat="45.512012" lon="-73.577921"><ele>53.75</ele></trkpt>
   <trkpt lat="45.511948" lon="-73.577982"><ele>53.25</ele></trkpt>
   <trkpt lat="45.511829" lon="-73.578092"><ele>52.5</ele></trkpt>
   <trkpt lat="45.511813" lon="-73.578119"><ele>52.25</ele></trkpt>
   <trkpt lat="45.511812" lon="-73.578132"><ele>52.25</ele></trkpt>
   <trkpt lat="45.511801" lon="-73.578129"><ele>52.25</ele></trkpt>
   <trkpt lat="45.511792" lon="-73.578113"><ele>52.25</ele></trkpt>
   <trkpt lat="45.511782" lon="-73.578095"><ele>52.25</ele></trkpt>
   <trkpt lat="45.511745" lon="-73.578012"><ele>52</ele></trkpt>
   <trkpt lat="45.511683" lon="-73.578069"><ele>51.5</ele></trkpt>
   <trkpt lat="45.51163" lon="-73.57812"><ele>51.75</ele></trkpt>
   <trkpt lat="45.511683" lon="-73.578069"><ele>51.5</ele></trkpt>
   <trkpt lat="45.511745" lon="-73.578012"><ele>52</ele></trkpt>
   <trkpt lat="45.511782" lon="-73.578095"><ele>52.25</ele></trkpt>
   <trkpt lat="45.511792" lon="-73.578113"><ele>52.25</ele></trkpt>
   <trkpt lat="45.511801" lon="-73.578129"><ele>52.25</ele></trkpt>
   <trkpt lat="45.511812" lon="-73.578132"><ele>52.25</ele></trkpt>
   <trkpt lat="45.511813" lon="-73.57817"><ele>52.25</ele></trkpt>
   <trkpt lat="45.511821" lon="-73.578199"><ele>52.25</ele></trkpt>
   <trkpt lat="45.512218" lon="-73.579057"><ele>54.75</ele></trkpt>
   <trkpt lat="45.512247" lon="-73.579094"><ele>55</ele></trkpt>
   <trkpt lat="45.512338" lon="-73.579133"><ele>55.25</ele></trkpt>
   <trkpt lat="45.512368" lon="-73.579176"><ele>55.5</ele></trkpt>
   <trkpt lat="45.512411" lon="-73.579273"><ele>55.75</ele></trkpt>
   <trkpt lat="45.512946" lon="-73.580418"><ele>61.75</ele></trkpt>
   <trkpt lat="45.513057" lon="-73.580587"><ele>62.75</ele></trkpt>
   <trkpt lat="45.513154" lon="-73.580707"><ele>63.5</ele></trkpt>
   <trkpt lat="45.513178" lon="-73.58076"><ele>63.75</ele></trkpt>
   <trkpt lat="45.513278" lon="-73.581108"><ele>64.25</ele></trkpt>
   <trkpt lat="45.513314" lon="-73.581211"><ele>64.5</ele></trkpt>
   <trkpt lat="45.51369" lon="-73.582029"><ele>69.25</ele></trkpt>
   <trkpt lat="45.513785" lon="-73.582231"><ele>71</ele></trkpt>
   <trkpt lat="45.513812" lon="-73.582295"><ele>71.5</ele></trkpt>
   <trkpt lat="45.513835" lon="-73.582344"><ele>72</ele></trkpt>
   <trkpt lat="45.513865" lon="-73.582408"><ele>72.5</ele></trkpt>
   <trkpt lat="45.514326" lon="-73.583389"><ele>74</ele></trkpt>
   <trkpt lat="45.514716" lon="-73.584239"><ele>75</ele></trkpt>
   <trkpt lat="45.514738" lon="-73.584305"><ele>75</ele></trkpt>
   <trkpt lat="45.514757" lon="-73.584397"><ele>75.25</ele></trkpt>
   <trkpt lat="45.514761" lon="-73.584424"><ele>75.25</ele></trkpt>
   <trkpt lat="45.514842" lon="-73.584601"><ele>75</ele></trkpt>
   <trkpt lat="45.51482" lon="-73.584621"><ele>75.25</ele></trkpt>
   <trkpt lat="45.514835" lon="-73.584653"><ele>75.25</ele></trkpt>
   <trkpt lat="45.514806" lon="-73.584679"><ele>75.5</ele></trkpt>
   <trkpt lat="45.514763" lon="-73.58472"><ele>76</ele></trkpt>
   <trkpt lat="45.514781" lon="-73.584762"><ele>76</ele></trkpt>
   <trkpt lat="45.514999" lon="-73.585238"><ele>76.75</ele></trkpt>
  </trkseg>
 </trk>
</gpx>