<?xml version="1.0" encoding="UTF-8"?>
<gpx 
 xmlns="http://www.topografix.com/GPX/1/1" 
 xmlns:xsi="http://www.w3.org/2001/XMLSchema-instance" 
 xsi:schemaLocation="http://www.topografix.com/GPX/1/1 http://www.topografix.com/GPX/1/1/gpx.xsd" 
 version="1.1" 
 creator="BRouter-Web 0.18.1">
 <trk>
  <name>Passo Falzarego (10.67km, trimmed to true summit)</name>
  <trkseg>
   <trkpt lat="46.52411" lon="12.113468"><ele>1528</ele></trkpt>
   <trkpt lat="46.524119" lon="12.113464"><ele>1528.25</ele></trkpt>
   <trkpt lat="46.52424" lon="12.113384"><ele>1528.25</ele></trkpt>
   <trkpt lat="46.524327" lon="12.11328"><ele>1528.25</ele></trkpt>
   <trkpt lat="46.524362" lon="12.113221"><ele>1528.25</ele></trkpt>
   <trkpt lat="46.5244" lon="12.113126"><ele>1528</ele></trkpt>
   <trkpt lat="46.524424" lon="12.112974"><ele>1528</ele></trkpt>
   <trkpt lat="46.524433" lon="12.112849"><ele>1528</ele></trkpt>
   <trkpt lat="46.524417" lon="12.112703"><ele>1528</ele></trkpt>
   <trkpt lat="46.524378" lon="12.112553"><ele>1528</ele></trkpt>
   <trkpt lat="46.524308" lon="12.112329"><ele>1528.25</ele></trkpt>
   <trkpt lat="46.524238" lon="12.112147"><ele>1528.5</ele></trkpt>
   <trkpt lat="46.524194" lon="12.11207"><ele>1528.75</ele></trkpt>
   <trkpt lat="46.524148" lon="12.112006"><ele>1528.75</ele></trkpt>
   <trkpt lat="46.524013" lon="12.111859"><ele>1529.25</ele></trkpt>
   <trkpt lat="46.523717" lon="12.111576"><ele>1530</ele></trkpt>
   <trkpt lat="46.52315" lon="12.111045"><ele>1532</ele></trkpt>
   <trkpt lat="46.522836" lon="12.110738"><ele>1535.5</ele></trkpt>
   <trkpt lat="46.522731" lon="12.110604"><ele>1537.25</ele></trkpt>
   <trkpt lat="46.522635" lon="12.110427"><ele>1537.5</ele></trkpt>
   <trkpt lat="46.522478" lon="12.110015"><ele>1539.25</ele></trkpt>
   <trkpt lat="46.522217" lon="12.109194"><ele>1542.75</ele></trkpt>
   <trkpt lat="46.522212" lon="12.109099"><ele>1543</ele></trkpt>
   <trkpt lat="46.522239" lon="12.109028"><ele>1543.5</ele></trkpt>
   <trkpt lat="46.522295" lon="12.108996"><ele>1544.5</ele></trkpt>
   <trkpt lat="46.522363" lon="12.109014"><ele>1545.25</ele></trkpt>
   <trkpt lat="46.5226" lon="12.109166"><ele>1547</ele></trkpt>
   <trkpt lat="46.522802" lon="12.109222"><ele>1548.75</ele></trkpt>
   <trkpt lat="46.523339" lon="12.10917"><ele>1551.75</ele></trkpt>
   <trkpt lat="46.523435" lon="12.109132"><ele>1552</ele></trkpt>
   <trkpt lat="46.523522" lon="12.109058"><ele>1552.25</ele></trkpt>
   <trkpt lat="46.523584" lon="12.108954"><ele>1552.75</ele></trkpt>
   <trkpt lat="46.523639" lon="12.108816"><ele>1553.25</ele></trkpt>
   <trkpt lat="46.524024" lon="12.107702"><ele>1560.25</ele></trkpt>
   <trkpt lat="46.52404" lon="12.107613"><ele>1560.25</ele></trkpt>
   <trkpt lat="46.524035" lon="12.107522"><ele>1560.75</ele></trkpt>
   <trkpt lat="46.524004" lon="12.107447"><ele>1561</ele></trkpt>
   <trkpt lat="46.523939" lon="12.107402"><ele>1561.75</ele></trkpt>
   <trkpt lat="46.523861" lon="12.107411"><ele>1563</ele></trkpt>
   <trkpt lat="46.523589" lon="12.107513"><ele>1566</ele></trkpt>
   <trkpt lat="46.523447" lon="12.107531"><ele>1566.75</ele></trkpt>
   <trkpt lat="46.523332" lon="12.107514"><ele>1567.75</ele></trkpt>
   <trkpt lat="46.523219" lon="12.10746"><ele>1568</ele></trkpt>
   <trkpt lat="46.52311" lon="12.107365"><ele>1569</ele></trkpt>
   <trkpt lat="46.522459" lon="12.106491"><ele>1576.5</ele></trkpt>
   <trkpt lat="46.522377" lon="12.106326"><ele>1576.75</ele></trkpt>
   <trkpt lat="46.522372" lon="12.106214"><ele>1577.5</ele></trkpt>
   <trkpt lat="46.522402" lon="12.106127"><ele>1578</ele></trkpt>
   <trkpt lat="46.522461" lon="12.106092"><ele>1579</ele></trkpt>
   <trkpt lat="46.522535" lon="12.106099"><ele>1579.5</ele></trkpt>
   <trkpt lat="46.522589" lon="12.106177"><ele>1579.75</ele></trkpt>
   <trkpt lat="46.522642" lon="12.106391"><ele>1579</ele></trkpt>
   <trkpt lat="46.522696" lon="12.106455"><ele>1578.75</ele></trkpt>
   <trkpt lat="46.522769" lon="12.10647"><ele>1579</ele></trkpt>
   <trkpt lat="46.522842" lon="12.10642"><ele>1579.25</ele></trkpt>
   <trkpt lat="46.522885" lon="12.106313"><ele>1579.5</ele></trkpt>
   <trkpt lat="46.522888" lon="12.106178"><ele>1580.5</ele></trkpt>
   <trkpt lat="46.522719" lon="12.104762"><ele>1589.25</ele></trkpt>
   <trkpt lat="46.522664" lon="12.104301"><ele>1591</ele></trkpt>
   <trkpt lat="46.522569" lon="12.103505"><ele>1595.75</ele></trkpt>
   <trkpt lat="46.522546" lon="12.103403"><ele>1596.75</ele></trkpt>
   <trkpt lat="46.522508" lon="12.103337"><ele>1597.75</ele></trkpt>
   <trkpt lat="46.522447" lon="12.103283"><ele>1599.25</ele></trkpt>
   <trkpt lat="46.522373" lon="12.103278"><ele>1600.25</ele></trkpt>
   <trkpt lat="46.522301" lon="12.103319"><ele>1600.75</ele></trkpt>
   <trkpt lat="46.522255" lon="12.103371"><ele>1601.25</ele></trkpt>
   <trkpt lat="46.52209" lon="12.103745"><ele>1601.75</ele></trkpt>
   <trkpt lat="46.522019" lon="12.103812"><ele>1602.75</ele></trkpt>
   <trkpt lat="46.521933" lon="12.103823"><ele>1604.5</ele></trkpt>
   <trkpt lat="46.521841" lon="12.103767"><ele>1605.25</ele></trkpt>
   <trkpt lat="46.521196" lon="12.102994"><ele>1609.75</ele></trkpt>
   <trkpt lat="46.521075" lon="12.102651"><ele>1613.5</ele></trkpt>
   <trkpt lat="46.521046" lon="12.102328"><ele>1616</ele></trkpt>
   <trkpt lat="46.521064" lon="12.102125"><ele>1618</ele></trkpt>
   <trkpt lat="46.521218" lon="12.101484"><ele>1622.5</ele></trkpt>
   <trkpt lat="46.521236" lon="12.101287"><ele>1623.75</ele></trkpt>
   <trkpt lat="46.5212" lon="12.100799"><ele>1625</ele></trkpt>
   <trkpt lat="46.521222" lon="12.100693"><ele>1625</ele></trkpt>
   <trkpt lat="46.521278" lon="12.100632"><ele>1625.75</ele></trkpt>
   <trkpt lat="46.521388" lon="12.10059"><ele>1627.25</ele></trkpt>
   <trkpt lat="46.521747" lon="12.100578"><ele>1627.75</ele></trkpt>
   <trkpt lat="46.521894" lon="12.100515"><ele>1628</ele></trkpt>
   <trkpt lat="46.522019" lon="12.100397"><ele>1627.25</ele></trkpt>
   <trkpt lat="46.522112" lon="12.100251"><ele>1626.5</ele></trkpt>
   <trkpt lat="46.522472" lon="12.099342"><ele>1628</ele></trkpt>
   <trkpt lat="46.522517" lon="12.099149"><ele>1629.25</ele></trkpt>
   <trkpt lat="46.52254" lon="12.098975"><ele>1630</ele></trkpt>
   <trkpt lat="46.522527" lon="12.09874"><ele>1631.25</ele></trkpt>
   <trkpt lat="46.52248" lon="12.098523"><ele>1632.5</ele></trkpt>
   <trkpt lat="46.522193" lon="12.09759"><ele>1634.5</ele></trkpt>
   <trkpt lat="46.521958" lon="12.096825"><ele>1639</ele></trkpt>
   <trkpt lat="46.521873" lon="12.096643"><ele>1640.25</ele></trkpt>
   <trkpt lat="46.521804" lon="12.096575"><ele>1640.75</ele></trkpt>
   <trkpt lat="46.521693" lon="12.096525"><ele>1641.5</ele></trkpt>
   <trkpt lat="46.521582" lon="12.096527"><ele>1642.5</ele></trkpt>
   <trkpt lat="46.52146" lon="12.096565"><ele>1644</ele></trkpt>
   <trkpt lat="46.521356" lon="12.096631"><ele>1645.25</ele></trkpt>
   <trkpt lat="46.521231" lon="12.096734"><ele>1646</ele></trkpt>
   <trkpt lat="46.521107" lon="12.096757"><ele>1646.75</ele></trkpt>
   <trkpt lat="46.521038" lon="12.096652"><ele>1646.25</ele></trkpt>
   <trkpt lat="46.521013" lon="12.09653"><ele>1646.25</ele></trkpt>
   <trkpt lat="46.521032" lon="12.096408"><ele>1647</ele></trkpt>
   <trkpt lat="46.521074" lon="12.096247"><ele>1649.25</ele></trkpt>
   <trkpt lat="46.521287" lon="12.095734"><ele>1653</ele></trkpt>
   <trkpt lat="46.521312" lon="12.095576"><ele>1654.75</ele></trkpt>
   <trkpt lat="46.521292" lon="12.095512"><ele>1655.5</ele></trkpt>
   <trkpt lat="46.521254" lon="12.095427"><ele>1656.5</ele></trkpt>
   <trkpt lat="46.521187" lon="12.095387"><ele>1657.25</ele></trkpt>
   <trkpt lat="46.521107" lon="12.095387"><ele>1657.5</ele></trkpt>
   <trkpt lat="46.520639" lon="12.095703"><ele>1661</ele></trkpt>
   <trkpt lat="46.520479" lon="12.095716"><ele>1662.25</ele></trkpt>
   <trkpt lat="46.520392" lon="12.095685"><ele>1662.75</ele></trkpt>
   <trkpt lat="46.520317" lon="12.095624"><ele>1663.75</ele></trkpt>
   <trkpt lat="46.520251" lon="12.095534"><ele>1664.5</ele></trkpt>
   <trkpt lat="46.520201" lon="12.095423"><ele>1665.25</ele></trkpt>
   <trkpt lat="46.51991" lon="12.094221"><ele>1670.25</ele></trkpt>
   <trkpt lat="46.519882" lon="12.094003"><ele>1671.25</ele></trkpt>
   <trkpt lat="46.5199" lon="12.093893"><ele>1672.5</ele></trkpt>
   <trkpt lat="46.519947" lon="12.093793"><ele>1674.5</ele></trkpt>
   <trkpt lat="46.520006" lon="12.093718"><ele>1676.5</ele></trkpt>
   <trkpt lat="46.520214" lon="12.093535"><ele>1678.75</ele></trkpt>
   <trkpt lat="46.520266" lon="12.09346"><ele>1679.5</ele></trkpt>
   <trkpt lat="46.520302" lon="12.093361"><ele>1680</ele></trkpt>
   <trkpt lat="46.520316" lon="12.093281"><ele>1680.75</ele></trkpt>
   <trkpt lat="46.52031" lon="12.093193"><ele>1681.25</ele></trkpt>
   <trkpt lat="46.520288" lon="12.093103"><ele>1681.75</ele></trkpt>
   <trkpt lat="46.519925" lon="12.092217"><ele>1684.75</ele></trkpt>
   <trkpt lat="46.519836" lon="12.091917"><ele>1688.25</ele></trkpt>
   <trkpt lat="46.519781" lon="12.091641"><ele>1689.5</ele></trkpt>
   <trkpt lat="46.519756" lon="12.091284"><ele>1690</ele></trkpt>
   <trkpt lat="46.519784" lon="12.089223"><ele>1690.75</ele></trkpt>
   <trkpt lat="46.51981" lon="12.088442"><ele>1690.25</ele></trkpt>
   <trkpt lat="46.51986" lon="12.088038"><ele>1690.75</ele></trkpt>
   <trkpt lat="46.519903" lon="12.087778"><ele>1690.75</ele></trkpt>
   <trkpt lat="46.520316" lon="12.086062"><ele>1694.5</ele></trkpt>
   <trkpt lat="46.520751" lon="12.084749"><ele>1697.25</ele></trkpt>
   <trkpt lat="46.520863" lon="12.084555"><ele>1697.25</ele></trkpt>
   <trkpt lat="46.52095" lon="12.084509"><ele>1697</ele></trkpt>
   <trkpt lat="46.52108" lon="12.084495"><ele>1697.25</ele></trkpt>
   <trkpt lat="46.521422" lon="12.084526"><ele>1697</ele></trkpt>
   <trkpt lat="46.521564" lon="12.084507"><ele>1698.25</ele></trkpt>
   <trkpt lat="46.521652" lon="12.084443"><ele>1698.75</ele></trkpt>
   <trkpt lat="46.521767" lon="12.084293"><ele>1699</ele></trkpt>
   <trkpt lat="46.521863" lon="12.08409"><ele>1698.75</ele></trkpt>
   <trkpt lat="46.522447" lon="12.082274"><ele>1702.5</ele></trkpt>
   <trkpt lat="46.522498" lon="12.082069"><ele>1702.75</ele></trkpt>
   <trkpt lat="46.522486" lon="12.081898"><ele>1703</ele></trkpt>
   <trkpt lat="46.522454" lon="12.081753"><ele>1703.25</ele></trkpt>
   <trkpt lat="46.522387" lon="12.081625"><ele>1703.5</ele></trkpt>
   <trkpt lat="46.522281" lon="12.08154"><ele>1703.75</ele></trkpt>
   <trkpt lat="46.521689" lon="12.081193"><ele>1705.75</ele></trkpt>
   <trkpt lat="46.521333" lon="12.081004"><ele>1706.75</ele></trkpt>
   <trkpt lat="46.521222" lon="12.080913"><ele>1706.75</ele></trkpt>
   <trkpt lat="46.521169" lon="12.080823"><ele>1706.75</ele></trkpt>
   <trkpt lat="46.52113" lon="12.080683"><ele>1706.75</ele></trkpt>
   <trkpt lat="46.521121" lon="12.080518"><ele>1707</ele></trkpt>
   <trkpt lat="46.521167" lon="12.079942"><ele>1707.75</ele></trkpt>
   <trkpt lat="46.521133" lon="12.079436"><ele>1708.5</ele></trkpt>
   <trkpt lat="46.520601" lon="12.075916"><ele>1707.5</ele></trkpt>
   <trkpt lat="46.520604" lon="12.075769"><ele>1707.75</ele></trkpt>
   <trkpt lat="46.520621" lon="12.075674"><ele>1708</ele></trkpt>
   <trkpt lat="46.520661" lon="12.075554"><ele>1708.5</ele></trkpt>
   <trkpt lat="46.520729" lon="12.075459"><ele>1708.25</ele></trkpt>
   <trkpt lat="46.520966" lon="12.075213"><ele>1708.5</ele></trkpt>
   <trkpt lat="46.521057" lon="12.075039"><ele>1708.75</ele></trkpt>
   <trkpt lat="46.521084" lon="12.07488"><ele>1709.25</ele></trkpt>
   <trkpt lat="46.52107" lon="12.073343"><ele>1712.75</ele></trkpt>
   <trkpt lat="46.52104" lon="12.071937"><ele>1713.25</ele></trkpt>
   <trkpt lat="46.521075" lon="12.071644"><ele>1714</ele></trkpt>
   <trkpt lat="46.521138" lon="12.071379"><ele>1715.5</ele></trkpt>
   <trkpt lat="46.521372" lon="12.070686"><ele>1717</ele></trkpt>
   <trkpt lat="46.5214" lon="12.070452"><ele>1717.5</ele></trkpt>
   <trkpt lat="46.521403" lon="12.070219"><ele>1718.25</ele></trkpt>
   <trkpt lat="46.521395" lon="12.06974"><ele>1718</ele></trkpt>
   <trkpt lat="46.521446" lon="12.069479"><ele>1718</ele></trkpt>
   <trkpt lat="46.521563" lon="12.069174"><ele>1719</ele></trkpt>
   <trkpt lat="46.522095" lon="12.067991"><ele>1721.5</ele></trkpt>
   <trkpt lat="46.522216" lon="12.067679"><ele>1721.5</ele></trkpt>
   <trkpt lat="46.522293" lon="12.067343"><ele>1721.5</ele></trkpt>
   <trkpt lat="46.522342" lon="12.066934"><ele>1722.75</ele></trkpt>
   <trkpt lat="46.522361" lon="12.066735"><ele>1724</ele></trkpt>
   <trkpt lat="46.522407" lon="12.066253"><ele>1726.25</ele></trkpt>
   <trkpt lat="46.522425" lon="12.065714"><ele>1727.5</ele></trkpt>
   <trkpt lat="46.522378" lon="12.064974"><ele>1730.5</ele></trkpt>
   <trkpt lat="46.522357" lon="12.064416"><ele>1732.5</ele></trkpt>
   <trkpt lat="46.52235" lon="12.064234"><ele>1733.75</ele></trkpt>
   <trkpt lat="46.522321" lon="12.062169"><ele>1746.25</ele></trkpt>
   <trkpt lat="46.522366" lon="12.061602"><ele>1748.75</ele></trkpt>
   <trkpt lat="46.523031" lon="12.057817"><ele>1771.25</ele></trkpt>
   <trkpt lat="46.523071" lon="12.057376"><ele>1773.25</ele></trkpt>
   <trkpt lat="46.523081" lon="12.056984"><ele>1776</ele></trkpt>
   <trkpt lat="46.52275" lon="12.052254"><ele>1802</ele></trkpt>
   <trkpt lat="46.522689" lon="12.051846"><ele>1804</ele></trkpt>
   <trkpt lat="46.522595" lon="12.05145"><ele>1807</ele></trkpt>
   <trkpt lat="46.522442" lon="12.050758"><ele>1809.75</ele></trkpt>
   <trkpt lat="46.522412" lon="12.05039"><ele>1812</ele></trkpt>
   <trkpt lat="46.522444" lon="12.049296"><ele>1817.75</ele></trkpt>
   <trkpt lat="46.522435" lon="12.049106"><ele>1818.75</ele></trkpt>
   <trkpt lat="46.522398" lon="12.048894"><ele>1820</ele></trkpt>
   <trkpt lat="46.522176" lon="12.048245"><ele>1822.25</ele></trkpt>
   <trkpt lat="46.522133" lon="12.048123"><ele>1821.75</ele></trkpt>
   <trkpt lat="46.522068" lon="12.047813"><ele>1824</ele></trkpt>
   <trkpt lat="46.522045" lon="12.047574"><ele>1825.5</ele></trkpt>
   <trkpt lat="46.52204" lon="12.047204"><ele>1829</ele></trkpt>
   <trkpt lat="46.522028" lon="12.044875"><ele>1841.75</ele></trkpt>
   <trkpt lat="46.521997" lon="12.044468"><ele>1843.75</ele></trkpt>
   <trkpt lat="46.521941" lon="12.044105"><ele>1846.25</ele></trkpt>
   <trkpt lat="46.521748" lon="12.043071"><ele>1853</ele></trkpt>
   <trkpt lat="46.52161" lon="12.042368"><ele>1857.5</ele></trkpt>
   <trkpt lat="46.521386" lon="12.041641"><ele>1861.25</ele></trkpt>
   <trkpt lat="46.521179" lon="12.041201"><ele>1863.5</ele></trkpt>
   <trkpt lat="46.520879" lon="12.039964"><ele>1872.25</ele></trkpt>
   <trkpt lat="46.520409" lon="12.038635"><ele>1879</ele></trkpt>
   <trkpt lat="46.520412" lon="12.038563"><ele>1880</ele></trkpt>
   <trkpt lat="46.520453" lon="12.038487"><ele>1881.75</ele></trkpt>
   <trkpt lat="46.520501" lon="12.038456"><ele>1882.75</ele></trkpt>
   <trkpt lat="46.520554" lon="12.038454"><ele>1883</ele></trkpt>
   <trkpt lat="46.520611" lon="12.03851"><ele>1883</ele></trkpt>
   <trkpt lat="46.520831" lon="12.038979"><ele>1882.75</ele></trkpt>
   <trkpt lat="46.520882" lon="12.039055"><ele>1884</ele></trkpt>
   <trkpt lat="46.520954" lon="12.039107"><ele>1885.75</ele></trkpt>
   <trkpt lat="46.521016" lon="12.039086"><ele>1887.25</ele></trkpt>
   <trkpt lat="46.521062" lon="12.039013"><ele>1888.25</ele></trkpt>
   <trkpt lat="46.521084" lon="12.038942"><ele>1888.5</ele></trkpt>
   <trkpt lat="46.521081" lon="12.038838"><ele>1888.5</ele></trkpt>
   <trkpt lat="46.521026" lon="12.038658"><ele>1888.5</ele></trkpt>
   <trkpt lat="46.520921" lon="12.038483"><ele>1888.25</ele></trkpt>
   <trkpt lat="46.520496" lon="12.037987"><ele>1891.75</ele></trkpt>
   <trkpt lat="46.520337" lon="12.037748"><ele>1892</ele></trkpt>
   <trkpt lat="46.520251" lon="12.037514"><ele>1893.75</ele></trkpt>
   <trkpt lat="46.520196" lon="12.03721"><ele>1897.5</ele></trkpt>
   <trkpt lat="46.520124" lon="12.036657"><ele>1902</ele></trkpt>
   <trkpt lat="46.52013" lon="12.036554"><ele>1902.25</ele></trkpt>
   <trkpt lat="46.520176" lon="12.036472"><ele>1902</ele></trkpt>
   <trkpt lat="46.520241" lon="12.03643"><ele>1901.75</ele></trkpt>
   <trkpt lat="46.520302" lon="12.036456"><ele>1901.75</ele></trkpt>
   <trkpt lat="46.520366" lon="12.036529"><ele>1902.75</ele></trkpt>
   <trkpt lat="46.520444" lon="12.036844"><ele>1903.75</ele></trkpt>
   <trkpt lat="46.52049" lon="12.036952"><ele>1904.25</ele></trkpt>
   <trkpt lat="46.520778" lon="12.037481"><ele>1905.75</ele></trkpt>
   <trkpt lat="46.520826" lon="12.037527"><ele>1906</ele></trkpt>
   <trkpt lat="46.520882" lon="12.03753"><ele>1906.5</ele></trkpt>
   <trkpt lat="46.520934" lon="12.037496"><ele>1907.75</ele></trkpt>
   <trkpt lat="46.520956" lon="12.037414"><ele>1908.75</ele></trkpt>
   <trkpt lat="46.520515" lon="12.03437"><ele>1923.25</ele></trkpt>
   <trkpt lat="46.520461" lon="12.034192"><ele>1924.25</ele></trkpt>
   <trkpt lat="46.52039" lon="12.034026"><ele>1926.25</ele></trkpt>
   <trkpt lat="46.520208" lon="12.033671"><ele>1927.75</ele></trkpt>
   <trkpt lat="46.520168" lon="12.033544"><ele>1929.25</ele></trkpt>
   <trkpt lat="46.520127" lon="12.033359"><ele>1932</ele></trkpt>
   <trkpt lat="46.520116" lon="12.033134"><ele>1933.75</ele></trkpt>
   <trkpt lat="46.520125" lon="12.032132"><ele>1939</ele></trkpt>
   <trkpt lat="46.520116" lon="12.031941"><ele>1939.25</ele></trkpt>
   <trkpt lat="46.520094" lon="12.031819"><ele>1940.25</ele></trkpt>
   <trkpt lat="46.520055" lon="12.031696"><ele>1940.75</ele></trkpt>
   <trkpt lat="46.520007" lon="12.031598"><ele>1941</ele></trkpt>
   <trkpt lat="46.519948" lon="12.031504"><ele>1941.75</ele></trkpt>
   <trkpt lat="46.519761" lon="12.031283"><ele>1942.5</ele></trkpt>
   <trkpt lat="46.519649" lon="12.03116"><ele>1943.75</ele></trkpt>
   <trkpt lat="46.519592" lon="12.031125"><ele>1944.5</ele></trkpt>
   <trkpt lat="46.519534" lon="12.031114"><ele>1945.25</ele></trkpt>
   <trkpt lat="46.519479" lon="12.031125"><ele>1945.5</ele></trkpt>
   <trkpt lat="46.51943" lon="12.03116"><ele>1945.25</ele></trkpt>
   <trkpt lat="46.51918" lon="12.031439"><ele>1947</ele></trkpt>
   <trkpt lat="46.519128" lon="12.031488"><ele>1947</ele></trkpt>
   <trkpt lat="46.519082" lon="12.031516"><ele>1946.75</ele></trkpt>
   <trkpt lat="46.519024" lon="12.031524"><ele>1947</ele></trkpt>
   <trkpt lat="46.518972" lon="12.031494"><ele>1947.75</ele></trkpt>
   <trkpt lat="46.518929" lon="12.031457"><ele>1948.75</ele></trkpt>
   <trkpt lat="46.518913" lon="12.031378"><ele>1950.75</ele></trkpt>
   <trkpt lat="46.518921" lon="12.031307"><ele>1951.75</ele></trkpt>
   <trkpt lat="46.518947" lon="12.031236"><ele>1952.25</ele></trkpt>
   <trkpt lat="46.519411" lon="12.030441"><ele>1955.25</ele></trkpt>
   <trkpt lat="46.519433" lon="12.030376"><ele>1955.75</ele></trkpt>
   <trkpt lat="46.519441" lon="12.030312"><ele>1956.5</ele></trkpt>
   <trkpt lat="46.519425" lon="12.030237"><ele>1958</ele></trkpt>
   <trkpt lat="46.519403" lon="12.030183"><ele>1959.25</ele></trkpt>
   <trkpt lat="46.519376" lon="12.030159"><ele>1959.75</ele></trkpt>
   <trkpt lat="46.519326" lon="12.030136"><ele>1960</ele></trkpt>
   <trkpt lat="46.518767" lon="12.030061"><ele>1961.25</ele></trkpt>
   <trkpt lat="46.518691" lon="12.030038"><ele>1961.5</ele></trkpt>
   <trkpt lat="46.518598" lon="12.029992"><ele>1962.75</ele></trkpt>
   <trkpt lat="46.5181" lon="12.029556"><ele>1966.5</ele></trkpt>
   <trkpt lat="46.51805" lon="12.029495"><ele>1967</ele></trkpt>
   <trkpt lat="46.518013" lon="12.02943"><ele>1967.75</ele></trkpt>
   <trkpt lat="46.517958" lon="12.02924"><ele>1968.75</ele></trkpt>
   <trkpt lat="46.517954" lon="12.029139"><ele>1969.5</ele></trkpt>
   <trkpt lat="46.51798" lon="12.028909"><ele>1971</ele></trkpt>
   <trkpt lat="46.518148" lon="12.028513"><ele>1972.75</ele></trkpt>
   <trkpt lat="46.518501" lon="12.027677"><ele>1977.5</ele></trkpt>
   <trkpt lat="46.518552" lon="12.027586"><ele>1977.75</ele></trkpt>
   <trkpt lat="46.518618" lon="12.027512"><ele>1978</ele></trkpt>
   <trkpt lat="46.518703" lon="12.027464"><ele>1979</ele></trkpt>
   <trkpt lat="46.518801" lon="12.027451"><ele>1980.25</ele></trkpt>
   <trkpt lat="46.51942" lon="12.027578"><ele>1981.5</ele></trkpt>
   <trkpt lat="46.519594" lon="12.027594"><ele>1983.25</ele></trkpt>
   <trkpt lat="46.519706" lon="12.027594"><ele>1984.75</ele></trkpt>
   <trkpt lat="46.519807" lon="12.027563"><ele>1985.5</ele></trkpt>
   <trkpt lat="46.519898" lon="12.027498"><ele>1986.25</ele></trkpt>
   <trkpt lat="46.519971" lon="12.027403"><ele>1986.75</ele></trkpt>
   <trkpt lat="46.520018" lon="12.027281"><ele>1987.25</ele></trkpt>
   <trkpt lat="46.520039" lon="12.027143"><ele>1988.5</ele></trkpt>
   <trkpt lat="46.520034" lon="12.027"><ele>1990</ele></trkpt>
   <trkpt lat="46.519749" lon="12.025341"><ele>1998.75</ele></trkpt>
   <trkpt lat="46.519725" lon="12.024983"><ele>2003</ele></trkpt>
   <trkpt lat="46.519755" lon="12.023671"><ele>2010.25</ele></trkpt>
   <trkpt lat="46.519743" lon="12.023506"><ele>2011.5</ele></trkpt>
   <trkpt lat="46.519686" lon="12.023292"><ele>2013</ele></trkpt>
   <trkpt lat="46.519472" lon="12.022838"><ele>2014.75</ele></trkpt>
   <trkpt lat="46.519464" lon="12.022676"><ele>2015.5</ele></trkpt>
   <trkpt lat="46.519492" lon="12.022582"><ele>2016</ele></trkpt>
   <trkpt lat="46.519523" lon="12.022518"><ele>2016.75</ele></trkpt>
   <trkpt lat="46.51957" lon="12.022472"><ele>2017.5</ele></trkpt>
   <trkpt lat="46.51963" lon="12.022453"><ele>2018.25</ele></trkpt>
   <trkpt lat="46.519699" lon="12.022472"><ele>2019</ele></trkpt>
   <trkpt lat="46.519844" lon="12.022594"><ele>2020.25</ele></trkpt>
   <trkpt lat="46.519996" lon="12.022762"><ele>2021</ele></trkpt>
   <trkpt lat="46.520059" lon="12.022867"><ele>2021.75</ele></trkpt>
   <trkpt lat="46.520102" lon="12.022988"><ele>2022.25</ele></trkpt>
   <trkpt lat="46.520163" lon="12.023359"><ele>2021.75</ele></trkpt>
   <trkpt lat="46.520187" lon="12.023437"><ele>2022</ele></trkpt>
   <trkpt lat="46.520234" lon="12.023476"><ele>2023.25</ele></trkpt>
   <trkpt lat="46.520279" lon="12.02348"><ele>2024.5</ele></trkpt>
   <trkpt lat="46.520323" lon="12.023461"><ele>2025.5</ele></trkpt>
   <trkpt lat="46.520372" lon="12.023366"><ele>2026.75</ele></trkpt>
   <trkpt lat="46.520376" lon="12.023252"><ele>2027.75</ele></trkpt>
   <trkpt lat="46.520279" lon="12.022862"><ele>2027.5</ele></trkpt>
   <trkpt lat="46.520271" lon="12.022673"><ele>2027.75</ele></trkpt>
   <trkpt lat="46.520379" lon="12.022126"><ele>2030.75</ele></trkpt>
   <trkpt lat="46.520421" lon="12.02185"><ele>2033.5</ele></trkpt>
   <trkpt lat="46.520414" lon="12.021659"><ele>2035.5</ele></trkpt>
   <trkpt lat="46.520282" lon="12.021069"><ele>2038.25</ele></trkpt>
   <trkpt lat="46.520229" lon="12.020898"><ele>2039</ele></trkpt>
   <trkpt lat="46.520162" lon="12.020768"><ele>2039.75</ele></trkpt>
   <trkpt lat="46.520107" lon="12.020687"><ele>2040.25</ele></trkpt>
   <trkpt lat="46.519954" lon="12.020501"><ele>2041.5</ele></trkpt>
   <trkpt lat="46.519636" lon="12.020134"><ele>2044.75</ele></trkpt>
   <trkpt lat="46.519558" lon="12.019986"><ele>2047</ele></trkpt>
   <trkpt lat="46.519525" lon="12.019864"><ele>2048.25</ele></trkpt>
   <trkpt lat="46.519523" lon="12.01973"><ele>2048.75</ele></trkpt>
   <trkpt lat="46.51954" lon="12.019609"><ele>2049.5</ele></trkpt>
   <trkpt lat="46.519603" lon="12.019443"><ele>2050.75</ele></trkpt>
   <trkpt lat="46.519705" lon="12.019339"><ele>2050.25</ele></trkpt>
   <trkpt lat="46.519893" lon="12.019209"><ele>2051.75</ele></trkpt>
   <trkpt lat="46.520205" lon="12.018978"><ele>2055.75</ele></trkpt>
   <trkpt lat="46.520228" lon="12.018959"><ele>2056</ele></trkpt>
   <trkpt lat="46.520391" lon="12.018771"><ele>2058.25</ele></trkpt>
   <trkpt lat="46.520461" lon="12.018657"><ele>2059.75</ele></trkpt>
   <trkpt lat="46.520652" lon="12.018265"><ele>2062.5</ele></trkpt>
   <trkpt lat="46.520762" lon="12.017999"><ele>2064.25</ele></trkpt>
   <trkpt lat="46.520812" lon="12.017758"><ele>2064.5</ele></trkpt>
   <trkpt lat="46.52083" lon="12.017552"><ele>2065.75</ele></trkpt>
   <trkpt lat="46.520819" lon="12.017366"><ele>2066.5</ele></trkpt>
   <trkpt lat="46.520794" lon="12.017196"><ele>2067.5</ele></trkpt>
   <trkpt lat="46.52074" lon="12.017044"><ele>2068.75</ele></trkpt>
   <trkpt lat="46.520594" lon="12.016749"><ele>2071</ele></trkpt>
   <trkpt lat="46.520233" lon="12.016094"><ele>2075.25</ele></trkpt>
   <trkpt lat="46.519611" lon="12.014732"><ele>2083.5</ele></trkpt>
   <trkpt lat="46.519528" lon="12.014477"><ele>2085</ele></trkpt>
   <trkpt lat="46.519472" lon="12.014139"><ele>2085.75</ele></trkpt>
   <trkpt lat="46.519392" lon="12.012971"><ele>2091.5</ele></trkpt>
   <trkpt lat="46.519356" lon="12.012684"><ele>2092.25</ele></trkpt>
   <trkpt lat="46.519211" lon="12.011859"><ele>2094.5</ele></trkpt>
   <trkpt lat="46.519165" lon="12.011464"><ele>2095.5</ele></trkpt>
   <trkpt lat="46.51917" lon="12.011218"><ele>2096.5</ele></trkpt>
   <trkpt lat="46.519214" lon="12.010858"><ele>2097</ele></trkpt>
   <trkpt lat="46.519218" lon="12.010654"><ele>2098.5</ele></trkpt>
   <trkpt lat="46.5192" lon="12.010489"><ele>2099</ele></trkpt>
   <trkpt lat="46.519138" lon="12.010244"><ele>2100</ele></trkpt>
   <trkpt lat="46.519005" lon="12.009867"><ele>2102</ele></trkpt>
   <trkpt lat="46.518874" lon="12.009496"><ele>2103.25</ele></trkpt>
   <trkpt lat="46.518822" lon="12.009296"><ele>2104</ele></trkpt>
   <trkpt lat="46.518811" lon="12.009214"><ele>2104.5</ele></trkpt>
   <trkpt lat="46.518769" lon="12.008923"><ele>2104.75</ele></trkpt>
   <trkpt lat="46.518763" lon="12.008858"><ele>2105</ele></trkpt>
  </trkseg>
 </trk>
</gpx>
