<?xml version="1.0" encoding="UTF-8"?>
<!-- track-length = 19387 filtered ascend = 1013 plain-ascend = 920 cost=28031 energy=0.3kwh time=2h 54m 17s -->
<gpx 
 xmlns="http://www.topografix.com/GPX/1/1" 
 xmlns:xsi="http://www.w3.org/2001/XMLSchema-instance" 
 xsi:schemaLocation="http://www.topografix.com/GPX/1/1 http://www.topografix.com/GPX/1/1/gpx.xsd" 
 version="1.1" 
 creator="BRouter-Web 0.18.1">
 <trk>
  <name>Penas Blancas (19.4km)</name>
  <trkseg>
   <trkpt lat="36.422765" lon="-5.147619"><ele>3.75</ele></trkpt>
   <trkpt lat="36.422762" lon="-5.147588"><ele>3.75</ele></trkpt>
   <trkpt lat="36.422386" lon="-5.148102"><ele>4</ele></trkpt>
   <trkpt lat="36.422076" lon="-5.14851"><ele>4</ele></trkpt>
   <trkpt lat="36.421623" lon="-5.149042"><ele>3.75</ele></trkpt>
   <trkpt lat="36.42148" lon="-5.14921"><ele>4</ele></trkpt>
   <trkpt lat="36.420903" lon="-5.149887"><ele>4</ele></trkpt>
   <trkpt lat="36.420572" lon="-5.150282"><ele>4</ele></trkpt>
   <trkpt lat="36.42039" lon="-5.150502"><ele>4</ele></trkpt>
   <trkpt lat="36.420283" lon="-5.150631"><ele>4</ele></trkpt>
   <trkpt lat="36.420016" lon="-5.150952"><ele>4</ele></trkpt>
   <trkpt lat="36.419538" lon="-5.151505"><ele>4.5</ele></trkpt>
   <trkpt lat="36.419329" lon="-5.151749"><ele>5</ele></trkpt>
   <trkpt lat="36.41922" lon="-5.151877"><ele>5.5</ele></trkpt>
   <trkpt lat="36.418969" lon="-5.152261"><ele>7</ele></trkpt>
   <trkpt lat="36.41892" lon="-5.152291"><ele>7.25</ele></trkpt>
   <trkpt lat="36.418126" lon="-5.153884"><ele>8.75</ele></trkpt>
   <trkpt lat="36.418052" lon="-5.154021"><ele>9.25</ele></trkpt>
   <trkpt lat="36.418074" lon="-5.154011"><ele>9.5</ele></trkpt>
   <trkpt lat="36.418098" lon="-5.154011"><ele>9.75</ele></trkpt>
   <trkpt lat="36.418122" lon="-5.154021"><ele>10</ele></trkpt>
   <trkpt lat="36.418143" lon="-5.15404"><ele>10.5</ele></trkpt>
   <trkpt lat="36.418155" lon="-5.154066"><ele>10.75</ele></trkpt>
   <trkpt lat="36.41816" lon="-5.154095"><ele>11</ele></trkpt>
   <trkpt lat="36.418158" lon="-5.154125"><ele>11.25</ele></trkpt>
   <trkpt lat="36.418148" lon="-5.154152"><ele>11.5</ele></trkpt>
   <trkpt lat="36.418113" lon="-5.154188"><ele>11.25</ele></trkpt>
   <trkpt lat="36.41809" lon="-5.154194"><ele>11</ele></trkpt>
   <trkpt lat="36.418008" lon="-5.154325"><ele>10.75</ele></trkpt>
   <trkpt lat="36.417953" lon="-5.154455"><ele>11</ele></trkpt>
   <trkpt lat="36.417888" lon="-5.154655"><ele>12.25</ele></trkpt>
   <trkpt lat="36.417879" lon="-5.154685"><ele>12.25</ele></trkpt>
   <trkpt lat="36.417792" lon="-5.154641"><ele>11.75</ele></trkpt>
   <trkpt lat="36.417774" lon="-5.154633"><ele>11.5</ele></trkpt>
   <trkpt lat="36.417744" lon="-5.154752"><ele>11.25</ele></trkpt>
   <trkpt lat="36.417714" lon="-5.154874"><ele>11.25</ele></trkpt>
   <trkpt lat="36.417684" lon="-5.155032"><ele>11</ele></trkpt>
   <trkpt lat="36.417613" lon="-5.155652"><ele>10.25</ele></trkpt>
   <trkpt lat="36.417545" lon="-5.156071"><ele>8.25</ele></trkpt>
   <trkpt lat="36.417398" lon="-5.156711"><ele>6.5</ele></trkpt>
   <trkpt lat="36.417185" lon="-5.157398"><ele>5.75</ele></trkpt>
   <trkpt lat="36.417135" lon="-5.157548"><ele>5.75</ele></trkpt>
   <trkpt lat="36.417181" lon="-5.15758"><ele>6</ele></trkpt>
   <trkpt lat="36.417258" lon="-5.157633"><ele>6.75</ele></trkpt>
   <trkpt lat="36.417193" lon="-5.157834"><ele>7.25</ele></trkpt>
   <trkpt lat="36.417155" lon="-5.15807"><ele>8.75</ele></trkpt>
   <trkpt lat="36.417168" lon="-5.158111"><ele>8.75</ele></trkpt>
   <trkpt lat="36.417222" lon="-5.158158"><ele>9.25</ele></trkpt>
   <trkpt lat="36.417251" lon="-5.158185"><ele>9.5</ele></trkpt>
   <trkpt lat="36.417361" lon="-5.158271"><ele>9.75</ele></trkpt>
   <trkpt lat="36.417411" lon="-5.158293"><ele>9.75</ele></trkpt>
   <trkpt lat="36.417451" lon="-5.158297"><ele>9.75</ele></trkpt>
   <trkpt lat="36.417489" lon="-5.158314"><ele>9.75</ele></trkpt>
   <trkpt lat="36.417522" lon="-5.158342"><ele>10</ele></trkpt>
   <trkpt lat="36.417549" lon="-5.15838"><ele>10</ele></trkpt>
   <trkpt lat="36.417637" lon="-5.158405"><ele>10</ele></trkpt>
   <trkpt lat="36.417709" lon="-5.158409"><ele>10</ele></trkpt>
   <trkpt lat="36.417732" lon="-5.158524"><ele>10.5</ele></trkpt>
   <trkpt lat="36.417772" lon="-5.158619"><ele>11</ele></trkpt>
   <trkpt lat="36.419525" lon="-5.158379"><ele>16.5</ele></trkpt>
   <trkpt lat="36.419563" lon="-5.15839"><ele>16.75</ele></trkpt>
   <trkpt lat="36.419751" lon="-5.158473"><ele>18</ele></trkpt>
   <trkpt lat="36.419865" lon="-5.158453"><ele>17.75</ele></trkpt>
   <trkpt lat="36.420039" lon="-5.158304"><ele>18.25</ele></trkpt>
   <trkpt lat="36.420134" lon="-5.158262"><ele>18.75</ele></trkpt>
   <trkpt lat="36.420304" lon="-5.15822"><ele>20</ele></trkpt>
   <trkpt lat="36.420487" lon="-5.158125"><ele>21.25</ele></trkpt>
   <trkpt lat="36.420645" lon="-5.158022"><ele>22.75</ele></trkpt>
   <trkpt lat="36.420839" lon="-5.157797"><ele>25.75</ele></trkpt>
   <trkpt lat="36.420882" lon="-5.157746"><ele>25.75</ele></trkpt>
   <trkpt lat="36.420908" lon="-5.157715"><ele>26.25</ele></trkpt>
   <trkpt lat="36.421023" lon="-5.157578"><ele>27</ele></trkpt>
   <trkpt lat="36.421256" lon="-5.157319"><ele>29</ele></trkpt>
   <trkpt lat="36.421445" lon="-5.157182"><ele>30.25</ele></trkpt>
   <trkpt lat="36.421698" lon="-5.15705"><ele>31</ele></trkpt>
   <trkpt lat="36.421923" lon="-5.15701"><ele>29</ele></trkpt>
   <trkpt lat="36.421958" lon="-5.157012"><ele>29</ele></trkpt>
   <trkpt lat="36.422363" lon="-5.157019"><ele>28.25</ele></trkpt>
   <trkpt lat="36.423075" lon="-5.157023"><ele>28.25</ele></trkpt>
   <trkpt lat="36.423208" lon="-5.157132"><ele>28.5</ele></trkpt>
   <trkpt lat="36.423265" lon="-5.157156"><ele>28.75</ele></trkpt>
   <trkpt lat="36.423297" lon="-5.157118"><ele>28.5</ele></trkpt>
   <trkpt lat="36.423333" lon="-5.157141"><ele>28.5</ele></trkpt>
   <trkpt lat="36.423413" lon="-5.157121"><ele>29.25</ele></trkpt>
   <trkpt lat="36.423534" lon="-5.157024"><ele>29</ele></trkpt>
   <trkpt lat="36.423589" lon="-5.157021"><ele>29.25</ele></trkpt>
   <trkpt lat="36.424202" lon="-5.156995"><ele>28.5</ele></trkpt>
   <trkpt lat="36.424609" lon="-5.156992"><ele>29.75</ele></trkpt>
   <trkpt lat="36.424797" lon="-5.157095"><ele>31.75</ele></trkpt>
   <trkpt lat="36.424816" lon="-5.157101"><ele>32</ele></trkpt>
   <trkpt lat="36.424832" lon="-5.157065"><ele>31.25</ele></trkpt>
   <trkpt lat="36.42486" lon="-5.157001"><ele>30</ele></trkpt>
   <trkpt lat="36.424882" lon="-5.156992"><ele>29.75</ele></trkpt>
   <trkpt lat="36.425641" lon="-5.156984"><ele>28.25</ele></trkpt>
   <trkpt lat="36.426056" lon="-5.157034"><ele>25.75</ele></trkpt>
   <trkpt lat="36.426117" lon="-5.157043"><ele>25.25</ele></trkpt>
   <trkpt lat="36.426157" lon="-5.157059"><ele>25</ele></trkpt>
   <trkpt lat="36.426237" lon="-5.157128"><ele>24.75</ele></trkpt>
   <trkpt lat="36.426284" lon="-5.157188"><ele>24.5</ele></trkpt>
   <trkpt lat="36.426323" lon="-5.157211"><ele>24</ele></trkpt>
   <trkpt lat="36.426398" lon="-5.157218"><ele>22.75</ele></trkpt>
   <trkpt lat="36.426464" lon="-5.157215"><ele>22.5</ele></trkpt>
   <trkpt lat="36.426501" lon="-5.157207"><ele>22.5</ele></trkpt>
   <trkpt lat="36.426561" lon="-5.157181"><ele>22.25</ele></trkpt>
   <trkpt lat="36.426655" lon="-5.15717"><ele>22</ele></trkpt>
   <trkpt lat="36.42678" lon="-5.157187"><ele>21</ele></trkpt>
   <trkpt lat="36.427169" lon="-5.157205"><ele>17.5</ele></trkpt>
   <trkpt lat="36.427204" lon="-5.157198"><ele>17</ele></trkpt>
   <trkpt lat="36.427264" lon="-5.157188"><ele>16.5</ele></trkpt>
   <trkpt lat="36.427313" lon="-5.157179"><ele>16.25</ele></trkpt>
   <trkpt lat="36.427351" lon="-5.157171"><ele>16</ele></trkpt>
   <trkpt lat="36.427388" lon="-5.157164"><ele>15.75</ele></trkpt>
   <trkpt lat="36.427541" lon="-5.157118"><ele>14.75</ele></trkpt>
   <trkpt lat="36.427691" lon="-5.157037"><ele>14</ele></trkpt>
   <trkpt lat="36.427769" lon="-5.156994"><ele>13.75</ele></trkpt>
   <trkpt lat="36.427817" lon="-5.156968"><ele>13.5</ele></trkpt>
   <trkpt lat="36.428037" lon="-5.156685"><ele>12.75</ele></trkpt>
   <trkpt lat="36.42812" lon="-5.156545"><ele>12.25</ele></trkpt>
   <trkpt lat="36.428186" lon="-5.156434"><ele>12</ele></trkpt>
   <trkpt lat="36.42824" lon="-5.156434"><ele>12</ele></trkpt>
   <trkpt lat="36.428408" lon="-5.156488"><ele>12</ele></trkpt>
   <trkpt lat="36.42846" lon="-5.156419"><ele>12</ele></trkpt>
   <trkpt lat="36.428402" lon="-5.156411"><ele>12</ele></trkpt>
   <trkpt lat="36.428369" lon="-5.156399"><ele>11.75</ele></trkpt>
   <trkpt lat="36.428346" lon="-5.156389"><ele>11.75</ele></trkpt>
   <trkpt lat="36.428294" lon="-5.156355"><ele>12</ele></trkpt>
   <trkpt lat="36.428255" lon="-5.156317"><ele>12</ele></trkpt>
   <trkpt lat="36.428187" lon="-5.156202"><ele>12.25</ele></trkpt>
   <trkpt lat="36.428167" lon="-5.156135"><ele>12.25</ele></trkpt>
   <trkpt lat="36.428158" lon="-5.156072"><ele>12.25</ele></trkpt>
   <trkpt lat="36.42816" lon="-5.155987"><ele>12</ele></trkpt>
   <trkpt lat="36.428176" lon="-5.155905"><ele>12</ele></trkpt>
   <trkpt lat="36.428206" lon="-5.155829"><ele>12</ele></trkpt>
   <trkpt lat="36.428259" lon="-5.155752"><ele>12</ele></trkpt>
   <trkpt lat="36.428326" lon="-5.155695"><ele>12</ele></trkpt>
   <trkpt lat="36.428403" lon="-5.155662"><ele>12</ele></trkpt>
   <trkpt lat="36.4284" lon="-5.155589"><ele>12</ele></trkpt>
   <trkpt lat="36.428392" lon="-5.155439"><ele>12</ele></trkpt>
   <trkpt lat="36.428377" lon="-5.155145"><ele>12</ele></trkpt>
   <trkpt lat="36.428347" lon="-5.154516"><ele>12</ele></trkpt>
   <trkpt lat="36.428323" lon="-5.153958"><ele>12.5</ele></trkpt>
   <trkpt lat="36.428314" lon="-5.153799"><ele>12.5</ele></trkpt>
   <trkpt lat="36.428292" lon="-5.15338"><ele>11.75</ele></trkpt>
   <trkpt lat="36.428266" lon="-5.152869"><ele>12.75</ele></trkpt>
   <trkpt lat="36.428243" lon="-5.152752"><ele>12.5</ele></trkpt>
   <trkpt lat="36.427622" lon="-5.152301"><ele>11.75</ele></trkpt>
   <trkpt lat="36.427884" lon="-5.151908"><ele>12.25</ele></trkpt>
   <trkpt lat="36.42787" lon="-5.151887"><ele>12.25</ele></trkpt>
   <trkpt lat="36.427857" lon="-5.151837"><ele>12.25</ele></trkpt>
   <trkpt lat="36.427867" lon="-5.151786"><ele>12.25</ele></trkpt>
   <trkpt lat="36.427896" lon="-5.151749"><ele>12.25</ele></trkpt>
   <trkpt lat="36.427941" lon="-5.151735"><ele>12.5</ele></trkpt>
   <trkpt lat="36.427974" lon="-5.151745"><ele>12.5</ele></trkpt>
   <trkpt lat="36.428303" lon="-5.151223"><ele>15.25</ele></trkpt>
   <trkpt lat="36.428454" lon="-5.150967"><ele>18</ele></trkpt>
   <trkpt lat="36.428564" lon="-5.150772"><ele>18</ele></trkpt>
   <trkpt lat="36.428711" lon="-5.150516"><ele>20</ele></trkpt>
   <trkpt lat="36.428754" lon="-5.150443"><ele>20</ele></trkpt>
   <trkpt lat="36.428842" lon="-5.150307"><ele>20</ele></trkpt>
   <trkpt lat="36.428932" lon="-5.150194"><ele>20.25</ele></trkpt>
   <trkpt lat="36.429273" lon="-5.149551"><ele>19.25</ele></trkpt>
   <trkpt lat="36.42937" lon="-5.149392"><ele>19.25</ele></trkpt>
   <trkpt lat="36.429419" lon="-5.149347"><ele>19.75</ele></trkpt>
   <trkpt lat="36.429403" lon="-5.149306"><ele>19.5</ele></trkpt>
   <trkpt lat="36.429402" lon="-5.149282"><ele>19.5</ele></trkpt>
   <trkpt lat="36.429405" lon="-5.14926"><ele>19.5</ele></trkpt>
   <trkpt lat="36.429425" lon="-5.149221"><ele>19.75</ele></trkpt>
   <trkpt lat="36.429445" lon="-5.149204"><ele>19.75</ele></trkpt>
   <trkpt lat="36.429469" lon="-5.149196"><ele>19.75</ele></trkpt>
   <trkpt lat="36.429493" lon="-5.149198"><ele>19.75</ele></trkpt>
   <trkpt lat="36.429515" lon="-5.149209"><ele>19.75</ele></trkpt>
   <trkpt lat="36.429533" lon="-5.149229"><ele>19.75</ele></trkpt>
   <trkpt lat="36.429545" lon="-5.149255"><ele>19.75</ele></trkpt>
   <trkpt lat="36.429766" lon="-5.149196"><ele>18.75</ele></trkpt>
   <trkpt lat="36.429983" lon="-5.149145"><ele>16.75</ele></trkpt>
   <trkpt lat="36.430158" lon="-5.149104"><ele>16.25</ele></trkpt>
   <trkpt lat="36.430309" lon="-5.149006"><ele>16.5</ele></trkpt>
   <trkpt lat="36.430392" lon="-5.148911"><ele>16.75</ele></trkpt>
   <trkpt lat="36.430393" lon="-5.148863"><ele>16.75</ele></trkpt>
   <trkpt lat="36.430403" lon="-5.148816"><ele>16.25</ele></trkpt>
   <trkpt lat="36.430422" lon="-5.148774"><ele>16</ele></trkpt>
   <trkpt lat="36.430448" lon="-5.14874"><ele>16</ele></trkpt>
   <trkpt lat="36.430481" lon="-5.148714"><ele>16</ele></trkpt>
   <trkpt lat="36.430517" lon="-5.1487"><ele>16</ele></trkpt>
   <trkpt lat="36.430554" lon="-5.148696"><ele>16.25</ele></trkpt>
   <trkpt lat="36.430591" lon="-5.148704"><ele>16.25</ele></trkpt>
   <trkpt lat="36.430638" lon="-5.148679"><ele>16.25</ele></trkpt>
   <trkpt lat="36.430667" lon="-5.148654"><ele>16.25</ele></trkpt>
   <trkpt lat="36.430748" lon="-5.148581"><ele>16.75</ele></trkpt>
   <trkpt lat="36.430914" lon="-5.148288"><ele>19.25</ele></trkpt>
   <trkpt lat="36.430931" lon="-5.148257"><ele>19.5</ele></trkpt>
   <trkpt lat="36.43105" lon="-5.148023"><ele>21.25</ele></trkpt>
   <trkpt lat="36.431104" lon="-5.147902"><ele>22.25</ele></trkpt>
   <trkpt lat="36.431142" lon="-5.147788"><ele>23.5</ele></trkpt>
   <trkpt lat="36.431179" lon="-5.147646"><ele>24.25</ele></trkpt>
   <trkpt lat="36.431304" lon="-5.146874"><ele>27</ele></trkpt>
   <trkpt lat="36.431323" lon="-5.146732"><ele>28</ele></trkpt>
   <trkpt lat="36.431345" lon="-5.146643"><ele>28.5</ele></trkpt>
   <trkpt lat="36.431353" lon="-5.146581"><ele>28.75</ele></trkpt>
   <trkpt lat="36.431361" lon="-5.146545"><ele>28.75</ele></trkpt>
   <trkpt lat="36.431363" lon="-5.146535"><ele>28.75</ele></trkpt>
   <trkpt lat="36.43138" lon="-5.146492"><ele>28.75</ele></trkpt>
   <trkpt lat="36.431402" lon="-5.146481"><ele>29</ele></trkpt>
   <trkpt lat="36.431411" lon="-5.146484"><ele>29</ele></trkpt>
   <trkpt lat="36.431514" lon="-5.146506"><ele>30.25</ele></trkpt>
   <trkpt lat="36.432017" lon="-5.146585"><ele>36.25</ele></trkpt>
   <trkpt lat="36.432096" lon="-5.146632"><ele>37.25</ele></trkpt>
   <trkpt lat="36.432389" lon="-5.146654"><ele>40</ele></trkpt>
   <trkpt lat="36.432449" lon="-5.146658"><ele>40.5</ele></trkpt>
   <trkpt lat="36.433366" lon="-5.146788"><ele>45</ele></trkpt>
   <trkpt lat="36.43344" lon="-5.146798"><ele>45.25</ele></trkpt>
   <trkpt lat="36.433749" lon="-5.146874"><ele>46.5</ele></trkpt>
   <trkpt lat="36.434048" lon="-5.146931"><ele>47.5</ele></trkpt>
   <trkpt lat="36.434331" lon="-5.146979"><ele>48.5</ele></trkpt>
   <trkpt lat="36.434338" lon="-5.146944"><ele>48.5</ele></trkpt>
   <trkpt lat="36.434353" lon="-5.146914"><ele>48.5</ele></trkpt>
   <trkpt lat="36.434375" lon="-5.14689"><ele>48.5</ele></trkpt>
   <trkpt lat="36.434402" lon="-5.146875"><ele>48.5</ele></trkpt>
   <trkpt lat="36.43443" lon="-5.146872"><ele>48.5</ele></trkpt>
   <trkpt lat="36.434459" lon="-5.146878"><ele>48.5</ele></trkpt>
   <trkpt lat="36.434485" lon="-5.146896"><ele>48.5</ele></trkpt>
   <trkpt lat="36.434507" lon="-5.146925"><ele>48.75</ele></trkpt>
   <trkpt lat="36.43452" lon="-5.146963"><ele>49</ele></trkpt>
   <trkpt lat="36.434518" lon="-5.147028"><ele>49</ele></trkpt>
   <trkpt lat="36.434894" lon="-5.147115"><ele>49.75</ele></trkpt>
   <trkpt lat="36.435176" lon="-5.147214"><ele>53</ele></trkpt>
   <trkpt lat="36.43539" lon="-5.147317"><ele>52.75</ele></trkpt>
   <trkpt lat="36.435984" lon="-5.147666"><ele>54.75</ele></trkpt>
   <trkpt lat="36.436206" lon="-5.147783"><ele>60.5</ele></trkpt>
   <trkpt lat="36.436253" lon="-5.147788"><ele>61</ele></trkpt>
   <trkpt lat="36.436443" lon="-5.147879"><ele>63.5</ele></trkpt>
   <trkpt lat="36.436583" lon="-5.147923"><ele>65.25</ele></trkpt>
   <trkpt lat="36.436933" lon="-5.148022"><ele>70.75</ele></trkpt>
   <trkpt lat="36.43713" lon="-5.148058"><ele>74.5</ele></trkpt>
   <trkpt lat="36.43725" lon="-5.148072"><ele>76.25</ele></trkpt>
   <trkpt lat="36.437283" lon="-5.148093"><ele>76.75</ele></trkpt>
   <trkpt lat="36.437854" lon="-5.148157"><ele>86.75</ele></trkpt>
   <trkpt lat="36.438032" lon="-5.148209"><ele>88.75</ele></trkpt>
   <trkpt lat="36.438356" lon="-5.148333"><ele>93.25</ele></trkpt>
   <trkpt lat="36.438588" lon="-5.148438"><ele>97.75</ele></trkpt>
   <trkpt lat="36.438681" lon="-5.148511"><ele>96.5</ele></trkpt>
   <trkpt lat="36.438726" lon="-5.148575"><ele>96.25</ele></trkpt>
   <trkpt lat="36.438732" lon="-5.148582"><ele>96.25</ele></trkpt>
   <trkpt lat="36.439224" lon="-5.149385"><ele>100.75</ele></trkpt>
   <trkpt lat="36.439317" lon="-5.149498"><ele>100.75</ele></trkpt>
   <trkpt lat="36.439441" lon="-5.149627"><ele>100</ele></trkpt>
   <trkpt lat="36.439677" lon="-5.149874"><ele>101.25</ele></trkpt>
   <trkpt lat="36.440014" lon="-5.150226"><ele>107</ele></trkpt>
   <trkpt lat="36.440156" lon="-5.150341"><ele>108.75</ele></trkpt>
   <trkpt lat="36.440257" lon="-5.150413"><ele>110.25</ele></trkpt>
   <trkpt lat="36.44039" lon="-5.150485"><ele>112.5</ele></trkpt>
   <trkpt lat="36.440584" lon="-5.150541"><ele>114.5</ele></trkpt>
   <trkpt lat="36.440809" lon="-5.150607"><ele>116.75</ele></trkpt>
   <trkpt lat="36.441089" lon="-5.150665"><ele>119.5</ele></trkpt>
   <trkpt lat="36.441536" lon="-5.15081"><ele>124.25</ele></trkpt>
   <trkpt lat="36.441691" lon="-5.150839"><ele>125.75</ele></trkpt>
   <trkpt lat="36.44183" lon="-5.150833"><ele>125.75</ele></trkpt>
   <trkpt lat="36.442245" lon="-5.150677"><ele>126.5</ele></trkpt>
   <trkpt lat="36.442483" lon="-5.1506"><ele>128</ele></trkpt>
   <trkpt lat="36.442675" lon="-5.150574"><ele>128.5</ele></trkpt>
   <trkpt lat="36.442882" lon="-5.150553"><ele>129.25</ele></trkpt>
   <trkpt lat="36.443057" lon="-5.150549"><ele>129.75</ele></trkpt>
   <trkpt lat="36.443631" lon="-5.150624"><ele>132.25</ele></trkpt>
   <trkpt lat="36.443778" lon="-5.150678"><ele>132</ele></trkpt>
   <trkpt lat="36.443859" lon="-5.150728"><ele>132.25</ele></trkpt>
   <trkpt lat="36.443956" lon="-5.150812"><ele>132.5</ele></trkpt>
   <trkpt lat="36.444536" lon="-5.151547"><ele>143.25</ele></trkpt>
   <trkpt lat="36.444661" lon="-5.15176"><ele>146</ele></trkpt>
   <trkpt lat="36.444749" lon="-5.151857"><ele>147.75</ele></trkpt>
   <trkpt lat="36.44482" lon="-5.151914"><ele>149.25</ele></trkpt>
   <trkpt lat="36.444923" lon="-5.151953"><ele>150.75</ele></trkpt>
   <trkpt lat="36.445071" lon="-5.151972"><ele>152.5</ele></trkpt>
   <trkpt lat="36.445173" lon="-5.151962"><ele>153.75</ele></trkpt>
   <trkpt lat="36.445403" lon="-5.151974"><ele>156.25</ele></trkpt>
   <trkpt lat="36.445499" lon="-5.15203"><ele>157</ele></trkpt>
   <trkpt lat="36.445605" lon="-5.152127"><ele>156.75</ele></trkpt>
   <trkpt lat="36.445662" lon="-5.152204"><ele>157.25</ele></trkpt>
   <trkpt lat="36.445719" lon="-5.152309"><ele>157</ele></trkpt>
   <trkpt lat="36.445864" lon="-5.152641"><ele>157</ele></trkpt>
   <trkpt lat="36.445958" lon="-5.152776"><ele>156.75</ele></trkpt>
   <trkpt lat="36.446185" lon="-5.152987"><ele>155.5</ele></trkpt>
   <trkpt lat="36.446328" lon="-5.15312"><ele>156</ele></trkpt>
   <trkpt lat="36.446616" lon="-5.153313"><ele>159.75</ele></trkpt>
   <trkpt lat="36.447065" lon="-5.153571"><ele>167.25</ele></trkpt>
   <trkpt lat="36.447382" lon="-5.153667"><ele>173</ele></trkpt>
   <trkpt lat="36.447643" lon="-5.153689"><ele>176</ele></trkpt>
   <trkpt lat="36.447961" lon="-5.153806"><ele>180</ele></trkpt>
   <trkpt lat="36.448126" lon="-5.153949"><ele>183</ele></trkpt>
   <trkpt lat="36.448227" lon="-5.154124"><ele>186.5</ele></trkpt>
   <trkpt lat="36.448312" lon="-5.154324"><ele>189.5</ele></trkpt>
   <trkpt lat="36.448376" lon="-5.154401"><ele>191</ele></trkpt>
   <trkpt lat="36.448442" lon="-5.154417"><ele>192.25</ele></trkpt>
   <trkpt lat="36.448624" lon="-5.154388"><ele>193.5</ele></trkpt>
   <trkpt lat="36.448685" lon="-5.154393"><ele>194</ele></trkpt>
   <trkpt lat="36.448799" lon="-5.154433"><ele>196.5</ele></trkpt>
   <trkpt lat="36.448871" lon="-5.154473"><ele>198.75</ele></trkpt>
   <trkpt lat="36.448928" lon="-5.154514"><ele>199.25</ele></trkpt>
   <trkpt lat="36.449045" lon="-5.154638"><ele>200.5</ele></trkpt>
   <trkpt lat="36.449208" lon="-5.154868"><ele>204.25</ele></trkpt>
   <trkpt lat="36.449272" lon="-5.155009"><ele>206.5</ele></trkpt>
   <trkpt lat="36.449417" lon="-5.155432"><ele>212.25</ele></trkpt>
   <trkpt lat="36.449589" lon="-5.155784"><ele>220</ele></trkpt>
   <trkpt lat="36.44978" lon="-5.156157"><ele>221.25</ele></trkpt>
   <trkpt lat="36.44989" lon="-5.15632"><ele>223.75</ele></trkpt>
   <trkpt lat="36.44995" lon="-5.156383"><ele>223.25</ele></trkpt>
   <trkpt lat="36.450016" lon="-5.156427"><ele>223.75</ele></trkpt>
   <trkpt lat="36.450107" lon="-5.156474"><ele>225.75</ele></trkpt>
   <trkpt lat="36.450204" lon="-5.15649"><ele>226</ele></trkpt>
   <trkpt lat="36.450279" lon="-5.156478"><ele>225.5</ele></trkpt>
   <trkpt lat="36.450363" lon="-5.156402"><ele>227</ele></trkpt>
   <trkpt lat="36.45041" lon="-5.156297"><ele>228</ele></trkpt>
   <trkpt lat="36.450422" lon="-5.15619"><ele>228</ele></trkpt>
   <trkpt lat="36.450407" lon="-5.156012"><ele>226.75</ele></trkpt>
   <trkpt lat="36.450412" lon="-5.15589"><ele>226.75</ele></trkpt>
   <trkpt lat="36.450435" lon="-5.155827"><ele>227.25</ele></trkpt>
   <trkpt lat="36.450487" lon="-5.155785"><ele>228.25</ele></trkpt>
   <trkpt lat="36.45054" lon="-5.155789"><ele>229.75</ele></trkpt>
   <trkpt lat="36.450577" lon="-5.155809"><ele>230</ele></trkpt>
   <trkpt lat="36.450606" lon="-5.155852"><ele>230.25</ele></trkpt>
   <trkpt lat="36.450689" lon="-5.156098"><ele>231.25</ele></trkpt>
   <trkpt lat="36.450705" lon="-5.156145"><ele>232</ele></trkpt>
   <trkpt lat="36.450819" lon="-5.156344"><ele>236.5</ele></trkpt>
   <trkpt lat="36.451178" lon="-5.156776"><ele>243.5</ele></trkpt>
   <trkpt lat="36.451234" lon="-5.156895"><ele>244.75</ele></trkpt>
   <trkpt lat="36.451392" lon="-5.157469"><ele>248.25</ele></trkpt>
   <trkpt lat="36.45154" lon="-5.157751"><ele>250.5</ele></trkpt>
   <trkpt lat="36.451739" lon="-5.157991"><ele>248</ele></trkpt>
   <trkpt lat="36.45188" lon="-5.158152"><ele>247.25</ele></trkpt>
   <trkpt lat="36.45207" lon="-5.158291"><ele>248.25</ele></trkpt>
   <trkpt lat="36.452657" lon="-5.158663"><ele>250.25</ele></trkpt>
   <trkpt lat="36.453002" lon="-5.15889"><ele>255</ele></trkpt>
   <trkpt lat="36.453273" lon="-5.159096"><ele>256</ele></trkpt>
   <trkpt lat="36.453421" lon="-5.159265"><ele>257.5</ele></trkpt>
   <trkpt lat="36.453535" lon="-5.159426"><ele>259.25</ele></trkpt>
   <trkpt lat="36.453634" lon="-5.159616"><ele>261.25</ele></trkpt>
   <trkpt lat="36.453728" lon="-5.159796"><ele>262.25</ele></trkpt>
   <trkpt lat="36.453814" lon="-5.15991"><ele>263.5</ele></trkpt>
   <trkpt lat="36.453907" lon="-5.159985"><ele>264.5</ele></trkpt>
   <trkpt lat="36.454008" lon="-5.160022"><ele>266</ele></trkpt>
   <trkpt lat="36.454105" lon="-5.160042"><ele>267</ele></trkpt>
   <trkpt lat="36.454202" lon="-5.160023"><ele>267</ele></trkpt>
   <trkpt lat="36.454381" lon="-5.159955"><ele>268.5</ele></trkpt>
   <trkpt lat="36.454516" lon="-5.159914"><ele>268.25</ele></trkpt>
   <trkpt lat="36.454628" lon="-5.159919"><ele>268.25</ele></trkpt>
   <trkpt lat="36.454996" lon="-5.159996"><ele>270.75</ele></trkpt>
   <trkpt lat="36.455355" lon="-5.160091"><ele>274.75</ele></trkpt>
   <trkpt lat="36.455659" lon="-5.160291"><ele>278</ele></trkpt>
   <trkpt lat="36.455786" lon="-5.160292"><ele>278</ele></trkpt>
   <trkpt lat="36.455921" lon="-5.16023"><ele>279.75</ele></trkpt>
   <trkpt lat="36.45616" lon="-5.15995"><ele>279.75</ele></trkpt>
   <trkpt lat="36.456377" lon="-5.159849"><ele>281.75</ele></trkpt>
   <trkpt lat="36.456594" lon="-5.1598"><ele>284.5</ele></trkpt>
   <trkpt lat="36.456894" lon="-5.15979"><ele>287.25</ele></trkpt>
   <trkpt lat="36.457101" lon="-5.159951"><ele>290.5</ele></trkpt>
   <trkpt lat="36.457529" lon="-5.160442"><ele>291.5</ele></trkpt>
   <trkpt lat="36.458253" lon="-5.160721"><ele>292.5</ele></trkpt>
   <trkpt lat="36.45865" lon="-5.160889"><ele>294.75</ele></trkpt>
   <trkpt lat="36.458734" lon="-5.160955"><ele>294.5</ele></trkpt>
   <trkpt lat="36.458984" lon="-5.16115"><ele>296</ele></trkpt>
   <trkpt lat="36.459457" lon="-5.161137"><ele>297.75</ele></trkpt>
   <trkpt lat="36.459731" lon="-5.161221"><ele>297.5</ele></trkpt>
   <trkpt lat="36.459995" lon="-5.161355"><ele>295.5</ele></trkpt>
   <trkpt lat="36.460271" lon="-5.161324"><ele>294.5</ele></trkpt>
   <trkpt lat="36.460562" lon="-5.161355"><ele>291.5</ele></trkpt>
   <trkpt lat="36.460951" lon="-5.16194"><ele>285.75</ele></trkpt>
   <trkpt lat="36.461452" lon="-5.162207"><ele>285.25</ele></trkpt>
   <trkpt lat="36.461604" lon="-5.162437"><ele>284.75</ele></trkpt>
   <trkpt lat="36.461644" lon="-5.162781"><ele>285</ele></trkpt>
   <trkpt lat="36.461585" lon="-5.163108"><ele>287.5</ele></trkpt>
   <trkpt lat="36.461617" lon="-5.163411"><ele>290.25</ele></trkpt>
   <trkpt lat="36.46163" lon="-5.163448"><ele>290.5</ele></trkpt>
   <trkpt lat="36.461793" lon="-5.163894"><ele>294.75</ele></trkpt>
   <trkpt lat="36.461964" lon="-5.164153"><ele>296.75</ele></trkpt>
   <trkpt lat="36.46229" lon="-5.164438"><ele>297.5</ele></trkpt>
   <trkpt lat="36.462455" lon="-5.164751"><ele>296.75</ele></trkpt>
   <trkpt lat="36.463032" lon="-5.165342"><ele>296</ele></trkpt>
   <trkpt lat="36.464111" lon="-5.166333"><ele>293.5</ele></trkpt>
   <trkpt lat="36.464212" lon="-5.16637"><ele>293.5</ele></trkpt>
   <trkpt lat="36.46439" lon="-5.166404"><ele>292.75</ele></trkpt>
   <trkpt lat="36.464626" lon="-5.166412"><ele>292.5</ele></trkpt>
   <trkpt lat="36.464744" lon="-5.166423"><ele>292.5</ele></trkpt>
   <trkpt lat="36.464854" lon="-5.166447"><ele>293</ele></trkpt>
   <trkpt lat="36.464968" lon="-5.166525"><ele>294</ele></trkpt>
   <trkpt lat="36.465035" lon="-5.166596"><ele>295.25</ele></trkpt>
   <trkpt lat="36.465138" lon="-5.16678"><ele>298</ele></trkpt>
   <trkpt lat="36.465181" lon="-5.167137"><ele>300.75</ele></trkpt>
   <trkpt lat="36.465233" lon="-5.167342"><ele>302.5</ele></trkpt>
   <trkpt lat="36.465319" lon="-5.167532"><ele>303.75</ele></trkpt>
   <trkpt lat="36.46565" lon="-5.167884"><ele>306.75</ele></trkpt>
   <trkpt lat="36.465792" lon="-5.168011"><ele>308</ele></trkpt>
   <trkpt lat="36.465931" lon="-5.168054"><ele>308.75</ele></trkpt>
   <trkpt lat="36.466265" lon="-5.168104"><ele>312</ele></trkpt>
   <trkpt lat="36.466755" lon="-5.168557"><ele>317.5</ele></trkpt>
   <trkpt lat="36.467127" lon="-5.168634"><ele>319.75</ele></trkpt>
   <trkpt lat="36.467163" lon="-5.168654"><ele>319.75</ele></trkpt>
   <trkpt lat="36.467295" lon="-5.168726"><ele>319.75</ele></trkpt>
   <trkpt lat="36.467477" lon="-5.168996"><ele>322.75</ele></trkpt>
   <trkpt lat="36.46756" lon="-5.16912"><ele>325.5</ele></trkpt>
   <trkpt lat="36.467787" lon="-5.16927"><ele>328.75</ele></trkpt>
   <trkpt lat="36.467951" lon="-5.169313"><ele>329.75</ele></trkpt>
   <trkpt lat="36.468106" lon="-5.169276"><ele>331</ele></trkpt>
   <trkpt lat="36.468414" lon="-5.16905"><ele>335.75</ele></trkpt>
   <trkpt lat="36.468507" lon="-5.169022"><ele>337.25</ele></trkpt>
   <trkpt lat="36.468592" lon="-5.169052"><ele>336.75</ele></trkpt>
   <trkpt lat="36.468668" lon="-5.169136"><ele>336.75</ele></trkpt>
   <trkpt lat="36.4687" lon="-5.169257"><ele>338</ele></trkpt>
   <trkpt lat="36.468627" lon="-5.169515"><ele>334.75</ele></trkpt>
   <trkpt lat="36.468624" lon="-5.169662"><ele>334.25</ele></trkpt>
   <trkpt lat="36.468724" lon="-5.169821"><ele>335.5</ele></trkpt>
   <trkpt lat="36.468842" lon="-5.169873"><ele>336.5</ele></trkpt>
   <trkpt lat="36.469035" lon="-5.169868"><ele>336.25</ele></trkpt>
   <trkpt lat="36.469338" lon="-5.16984"><ele>337</ele></trkpt>
   <trkpt lat="36.469526" lon="-5.169937"><ele>337.75</ele></trkpt>
   <trkpt lat="36.469867" lon="-5.170432"><ele>334</ele></trkpt>
   <trkpt lat="36.470468" lon="-5.170879"><ele>329.25</ele></trkpt>
   <trkpt lat="36.470642" lon="-5.17143"><ele>324.25</ele></trkpt>
   <trkpt lat="36.471115" lon="-5.171784"><ele>323</ele></trkpt>
   <trkpt lat="36.471209" lon="-5.171939"><ele>322.5</ele></trkpt>
   <trkpt lat="36.471266" lon="-5.172115"><ele>324.75</ele></trkpt>
   <trkpt lat="36.471282" lon="-5.172334"><ele>327.25</ele></trkpt>
   <trkpt lat="36.47125" lon="-5.172504"><ele>327.5</ele></trkpt>
   <trkpt lat="36.471177" lon="-5.172618"><ele>327.75</ele></trkpt>
   <trkpt lat="36.471027" lon="-5.172686"><ele>329.5</ele></trkpt>
   <trkpt lat="36.470543" lon="-5.172579"><ele>331.75</ele></trkpt>
   <trkpt lat="36.470074" lon="-5.172362"><ele>333.25</ele></trkpt>
   <trkpt lat="36.469956" lon="-5.17244"><ele>334</ele></trkpt>
   <trkpt lat="36.469929" lon="-5.172583"><ele>334.25</ele></trkpt>
   <trkpt lat="36.470035" lon="-5.172727"><ele>337.75</ele></trkpt>
   <trkpt lat="36.470376" lon="-5.172807"><ele>341.25</ele></trkpt>
   <trkpt lat="36.47093" lon="-5.173166"><ele>350.5</ele></trkpt>
   <trkpt lat="36.471102" lon="-5.173422"><ele>355.75</ele></trkpt>
   <trkpt lat="36.471265" lon="-5.173832"><ele>362</ele></trkpt>
   <trkpt lat="36.471335" lon="-5.173976"><ele>364</ele></trkpt>
   <trkpt lat="36.471631" lon="-5.174272"><ele>368.5</ele></trkpt>
   <trkpt lat="36.471704" lon="-5.17443"><ele>369.75</ele></trkpt>
   <trkpt lat="36.471778" lon="-5.174932"><ele>376.25</ele></trkpt>
   <trkpt lat="36.471827" lon="-5.175083"><ele>378.25</ele></trkpt>
   <trkpt lat="36.471993" lon="-5.175348"><ele>381</ele></trkpt>
   <trkpt lat="36.472116" lon="-5.17546"><ele>382.5</ele></trkpt>
   <trkpt lat="36.472354" lon="-5.175527"><ele>383.75</ele></trkpt>
   <trkpt lat="36.472418" lon="-5.175544"><ele>383.75</ele></trkpt>
   <trkpt lat="36.472552" lon="-5.175614"><ele>386</ele></trkpt>
   <trkpt lat="36.472756" lon="-5.175781"><ele>389.25</ele></trkpt>
   <trkpt lat="36.473042" lon="-5.176049"><ele>394</ele></trkpt>
   <trkpt lat="36.473427" lon="-5.176314"><ele>401</ele></trkpt>
   <trkpt lat="36.473857" lon="-5.176684"><ele>409.5</ele></trkpt>
   <trkpt lat="36.473999" lon="-5.176871"><ele>414.5</ele></trkpt>
   <trkpt lat="36.474513" lon="-5.177169"><ele>416.25</ele></trkpt>
   <trkpt lat="36.474633" lon="-5.177333"><ele>419</ele></trkpt>
   <trkpt lat="36.474676" lon="-5.177492"><ele>422.75</ele></trkpt>
   <trkpt lat="36.47468" lon="-5.177619"><ele>423.25</ele></trkpt>
   <trkpt lat="36.474549" lon="-5.178069"><ele>430.25</ele></trkpt>
   <trkpt lat="36.474575" lon="-5.178165"><ele>431</ele></trkpt>
   <trkpt lat="36.474742" lon="-5.178342"><ele>429.75</ele></trkpt>
   <trkpt lat="36.474853" lon="-5.178488"><ele>433.75</ele></trkpt>
   <trkpt lat="36.474942" lon="-5.178525"><ele>433</ele></trkpt>
   <trkpt lat="36.475184" lon="-5.178505"><ele>432.75</ele></trkpt>
   <trkpt lat="36.475429" lon="-5.178527"><ele>436</ele></trkpt>
   <trkpt lat="36.47552" lon="-5.178491"><ele>436</ele></trkpt>
   <trkpt lat="36.475628" lon="-5.178362"><ele>434.25</ele></trkpt>
   <trkpt lat="36.475726" lon="-5.178323"><ele>434.5</ele></trkpt>
   <trkpt lat="36.475816" lon="-5.17834"><ele>436</ele></trkpt>
   <trkpt lat="36.476281" lon="-5.178753"><ele>439.25</ele></trkpt>
   <trkpt lat="36.476792" lon="-5.179134"><ele>444.75</ele></trkpt>
   <trkpt lat="36.477563" lon="-5.179517"><ele>448.75</ele></trkpt>
   <trkpt lat="36.478162" lon="-5.179802"><ele>451.75</ele></trkpt>
   <trkpt lat="36.478311" lon="-5.17998"><ele>452.5</ele></trkpt>
   <trkpt lat="36.47848" lon="-5.180352"><ele>459</ele></trkpt>
   <trkpt lat="36.478581" lon="-5.180527"><ele>459.25</ele></trkpt>
   <trkpt lat="36.47873" lon="-5.180687"><ele>463</ele></trkpt>
   <trkpt lat="36.478884" lon="-5.180721"><ele>460.5</ele></trkpt>
   <trkpt lat="36.478988" lon="-5.180674"><ele>464.75</ele></trkpt>
   <trkpt lat="36.479003" lon="-5.180446"><ele>464.75</ele></trkpt>
   <trkpt lat="36.478965" lon="-5.180208"><ele>462.75</ele></trkpt>
   <trkpt lat="36.479024" lon="-5.180019"><ele>464</ele></trkpt>
   <trkpt lat="36.479157" lon="-5.179918"><ele>467</ele></trkpt>
   <trkpt lat="36.47937" lon="-5.179986"><ele>469</ele></trkpt>
   <trkpt lat="36.479673" lon="-5.180189"><ele>476.25</ele></trkpt>
   <trkpt lat="36.479964" lon="-5.180255"><ele>476.5</ele></trkpt>
   <trkpt lat="36.480164" lon="-5.180118"><ele>479.5</ele></trkpt>
   <trkpt lat="36.480287" lon="-5.179889"><ele>480.75</ele></trkpt>
   <trkpt lat="36.4803" lon="-5.179549"><ele>483</ele></trkpt>
   <trkpt lat="36.480278" lon="-5.179243"><ele>483.25</ele></trkpt>
   <trkpt lat="36.480233" lon="-5.178966"><ele>485.25</ele></trkpt>
   <trkpt lat="36.480154" lon="-5.178694"><ele>487</ele></trkpt>
   <trkpt lat="36.480138" lon="-5.178472"><ele>487.25</ele></trkpt>
   <trkpt lat="36.480238" lon="-5.178292"><ele>488.5</ele></trkpt>
   <trkpt lat="36.480442" lon="-5.178266"><ele>489.75</ele></trkpt>
   <trkpt lat="36.4806" lon="-5.178334"><ele>492.25</ele></trkpt>
   <trkpt lat="36.480735" lon="-5.178508"><ele>493.75</ele></trkpt>
   <trkpt lat="36.480803" lon="-5.178846"><ele>500.25</ele></trkpt>
   <trkpt lat="36.480819" lon="-5.178963"><ele>502.5</ele></trkpt>
   <trkpt lat="36.480891" lon="-5.179143"><ele>503.75</ele></trkpt>
   <trkpt lat="36.481105" lon="-5.1794"><ele>508.5</ele></trkpt>
   <trkpt lat="36.481451" lon="-5.179601"><ele>513.75</ele></trkpt>
   <trkpt lat="36.481774" lon="-5.17976"><ele>518</ele></trkpt>
   <trkpt lat="36.48193" lon="-5.179749"><ele>518.25</ele></trkpt>
   <trkpt lat="36.48197" lon="-5.17967"><ele>519</ele></trkpt>
   <trkpt lat="36.48199" lon="-5.179587"><ele>520.5</ele></trkpt>
   <trkpt lat="36.481897" lon="-5.179209"><ele>520.5</ele></trkpt>
   <trkpt lat="36.481883" lon="-5.179023"><ele>521.25</ele></trkpt>
   <trkpt lat="36.481861" lon="-5.178753"><ele>521</ele></trkpt>
   <trkpt lat="36.482007" lon="-5.177176"><ele>533.25</ele></trkpt>
   <trkpt lat="36.48214" lon="-5.176598"><ele>535.5</ele></trkpt>
   <trkpt lat="36.482347" lon="-5.176148"><ele>539.5</ele></trkpt>
   <trkpt lat="36.48269" lon="-5.175708"><ele>542.75</ele></trkpt>
   <trkpt lat="36.482773" lon="-5.175345"><ele>545.25</ele></trkpt>
   <trkpt lat="36.482625" lon="-5.174852"><ele>549.75</ele></trkpt>
   <trkpt lat="36.482455" lon="-5.174543"><ele>550.75</ele></trkpt>
   <trkpt lat="36.482139" lon="-5.173875"><ele>553.25</ele></trkpt>
   <trkpt lat="36.482129" lon="-5.173638"><ele>553.5</ele></trkpt>
   <trkpt lat="36.482201" lon="-5.173462"><ele>553</ele></trkpt>
   <trkpt lat="36.482352" lon="-5.173395"><ele>552.75</ele></trkpt>
   <trkpt lat="36.482512" lon="-5.173417"><ele>554.5</ele></trkpt>
   <trkpt lat="36.482909" lon="-5.173629"><ele>558.25</ele></trkpt>
   <trkpt lat="36.483281" lon="-5.174047"><ele>563.5</ele></trkpt>
   <trkpt lat="36.483527" lon="-5.174477"><ele>567.25</ele></trkpt>
   <trkpt lat="36.483879" lon="-5.174975"><ele>574</ele></trkpt>
   <trkpt lat="36.484464" lon="-5.17577"><ele>582</ele></trkpt>
   <trkpt lat="36.485026" lon="-5.176423"><ele>590</ele></trkpt>
   <trkpt lat="36.485147" lon="-5.176391"><ele>592</ele></trkpt>
   <trkpt lat="36.485204" lon="-5.176318"><ele>593.25</ele></trkpt>
   <trkpt lat="36.485254" lon="-5.176019"><ele>595.75</ele></trkpt>
   <trkpt lat="36.48529" lon="-5.175646"><ele>597.5</ele></trkpt>
   <trkpt lat="36.485374" lon="-5.175277"><ele>599</ele></trkpt>
   <trkpt lat="36.485665" lon="-5.174267"><ele>606</ele></trkpt>
   <trkpt lat="36.485725" lon="-5.173822"><ele>610</ele></trkpt>
   <trkpt lat="36.485682" lon="-5.173575"><ele>611.5</ele></trkpt>
   <trkpt lat="36.485377" lon="-5.173018"><ele>613.75</ele></trkpt>
   <trkpt lat="36.485315" lon="-5.172838"><ele>613.75</ele></trkpt>
   <trkpt lat="36.4853" lon="-5.172637"><ele>613.75</ele></trkpt>
   <trkpt lat="36.485386" lon="-5.17252"><ele>614.5</ele></trkpt>
   <trkpt lat="36.485487" lon="-5.172451"><ele>614</ele></trkpt>
   <trkpt lat="36.485648" lon="-5.172522"><ele>615.25</ele></trkpt>
   <trkpt lat="36.485744" lon="-5.172716"><ele>618.75</ele></trkpt>
   <trkpt lat="36.485868" lon="-5.173243"><ele>624</ele></trkpt>
   <trkpt lat="36.486163" lon="-5.173871"><ele>629</ele></trkpt>
   <trkpt lat="36.486175" lon="-5.174254"><ele>629.25</ele></trkpt>
   <trkpt lat="36.486138" lon="-5.174711"><ele>630.75</ele></trkpt>
   <trkpt lat="36.486065" lon="-5.175713"><ele>633</ele></trkpt>
   <trkpt lat="36.486199" lon="-5.176859"><ele>634.25</ele></trkpt>
   <trkpt lat="36.486191" lon="-5.177307"><ele>635.5</ele></trkpt>
   <trkpt lat="36.486146" lon="-5.177828"><ele>641.25</ele></trkpt>
   <trkpt lat="36.486146" lon="-5.178119"><ele>645.25</ele></trkpt>
   <trkpt lat="36.486193" lon="-5.178452"><ele>648</ele></trkpt>
   <trkpt lat="36.486319" lon="-5.178794"><ele>649.5</ele></trkpt>
   <trkpt lat="36.486464" lon="-5.179135"><ele>653</ele></trkpt>
   <trkpt lat="36.486502" lon="-5.179195"><ele>653.25</ele></trkpt>
   <trkpt lat="36.486781" lon="-5.179637"><ele>659.5</ele></trkpt>
   <trkpt lat="36.487125" lon="-5.180012"><ele>665.75</ele></trkpt>
   <trkpt lat="36.487344" lon="-5.180058"><ele>668.75</ele></trkpt>
   <trkpt lat="36.487524" lon="-5.180049"><ele>671</ele></trkpt>
   <trkpt lat="36.488087" lon="-5.179939"><ele>673.5</ele></trkpt>
   <trkpt lat="36.488557" lon="-5.17981"><ele>679</ele></trkpt>
   <trkpt lat="36.488737" lon="-5.17981"><ele>678.5</ele></trkpt>
   <trkpt lat="36.488899" lon="-5.179884"><ele>678.5</ele></trkpt>
   <trkpt lat="36.489081" lon="-5.180235"><ele>683.25</ele></trkpt>
   <trkpt lat="36.489233" lon="-5.180482"><ele>686.25</ele></trkpt>
   <trkpt lat="36.489497" lon="-5.180655"><ele>686.75</ele></trkpt>
   <trkpt lat="36.489579" lon="-5.180883"><ele>687</ele></trkpt>
   <trkpt lat="36.489612" lon="-5.181141"><ele>689.75</ele></trkpt>
   <trkpt lat="36.489604" lon="-5.181504"><ele>691.75</ele></trkpt>
   <trkpt lat="36.489529" lon="-5.182032"><ele>695</ele></trkpt>
   <trkpt lat="36.48954" lon="-5.182831"><ele>702.5</ele></trkpt>
   <trkpt lat="36.489639" lon="-5.183361"><ele>707</ele></trkpt>
   <trkpt lat="36.489659" lon="-5.183734"><ele>709.75</ele></trkpt>
   <trkpt lat="36.489498" lon="-5.184497"><ele>713</ele></trkpt>
   <trkpt lat="36.489506" lon="-5.184976"><ele>716.5</ele></trkpt>
   <trkpt lat="36.489575" lon="-5.185579"><ele>720.5</ele></trkpt>
   <trkpt lat="36.489649" lon="-5.185802"><ele>722</ele></trkpt>
   <trkpt lat="36.489782" lon="-5.185896"><ele>720</ele></trkpt>
   <trkpt lat="36.489896" lon="-5.185888"><ele>721.25</ele></trkpt>
   <trkpt lat="36.490012" lon="-5.185817"><ele>722.5</ele></trkpt>
   <trkpt lat="36.490228" lon="-5.185255"><ele>724</ele></trkpt>
   <trkpt lat="36.490558" lon="-5.184761"><ele>726</ele></trkpt>
   <trkpt lat="36.490735" lon="-5.184567"><ele>725.25</ele></trkpt>
   <trkpt lat="36.49092" lon="-5.184492"><ele>727</ele></trkpt>
   <trkpt lat="36.491087" lon="-5.184517"><ele>728.25</ele></trkpt>
   <trkpt lat="36.491227" lon="-5.184683"><ele>727.75</ele></trkpt>
   <trkpt lat="36.491371" lon="-5.184968"><ele>729.75</ele></trkpt>
   <trkpt lat="36.491545" lon="-5.185548"><ele>731.5</ele></trkpt>
   <trkpt lat="36.491701" lon="-5.18618"><ele>734</ele></trkpt>
   <trkpt lat="36.491847" lon="-5.186464"><ele>736.25</ele></trkpt>
   <trkpt lat="36.492092" lon="-5.186773"><ele>739</ele></trkpt>
   <trkpt lat="36.492186" lon="-5.187046"><ele>742.75</ele></trkpt>
   <trkpt lat="36.492211" lon="-5.187201"><ele>744</ele></trkpt>
   <trkpt lat="36.492195" lon="-5.187511"><ele>746.25</ele></trkpt>
   <trkpt lat="36.492202" lon="-5.187525"><ele>746</ele></trkpt>
   <trkpt lat="36.49227" lon="-5.187659"><ele>746.75</ele></trkpt>
   <trkpt lat="36.492373" lon="-5.187763"><ele>748.75</ele></trkpt>
   <trkpt lat="36.49274" lon="-5.187964"><ele>751.75</ele></trkpt>
   <trkpt lat="36.493116" lon="-5.188095"><ele>758.25</ele></trkpt>
   <trkpt lat="36.493517" lon="-5.187976"><ele>761</ele></trkpt>
   <trkpt lat="36.49372" lon="-5.18793"><ele>763</ele></trkpt>
   <trkpt lat="36.493891" lon="-5.187795"><ele>765</ele></trkpt>
   <trkpt lat="36.494154" lon="-5.187504"><ele>767.5</ele></trkpt>
   <trkpt lat="36.494485" lon="-5.187258"><ele>769.5</ele></trkpt>
   <trkpt lat="36.49469" lon="-5.187169"><ele>771.25</ele></trkpt>
   <trkpt lat="36.494898" lon="-5.187111"><ele>773</ele></trkpt>
   <trkpt lat="36.495217" lon="-5.187186"><ele>776.75</ele></trkpt>
   <trkpt lat="36.49549" lon="-5.187382"><ele>780.5</ele></trkpt>
   <trkpt lat="36.495843" lon="-5.187743"><ele>784</ele></trkpt>
   <trkpt lat="36.496207" lon="-5.187946"><ele>788.5</ele></trkpt>
   <trkpt lat="36.49634" lon="-5.188189"><ele>791.75</ele></trkpt>
   <trkpt lat="36.496403" lon="-5.188375"><ele>792.25</ele></trkpt>
   <trkpt lat="36.496628" lon="-5.188629"><ele>795.5</ele></trkpt>
   <trkpt lat="36.496779" lon="-5.188671"><ele>797.25</ele></trkpt>
   <trkpt lat="36.496922" lon="-5.188647"><ele>797.5</ele></trkpt>
   <trkpt lat="36.497272" lon="-5.188356"><ele>798.75</ele></trkpt>
   <trkpt lat="36.497657" lon="-5.188024"><ele>801</ele></trkpt>
   <trkpt lat="36.497917" lon="-5.187876"><ele>804</ele></trkpt>
   <trkpt lat="36.498141" lon="-5.187802"><ele>806.25</ele></trkpt>
   <trkpt lat="36.498479" lon="-5.1876"><ele>809.5</ele></trkpt>
   <trkpt lat="36.498954" lon="-5.187117"><ele>812</ele></trkpt>
   <trkpt lat="36.499351" lon="-5.18653"><ele>814.25</ele></trkpt>
   <trkpt lat="36.499612" lon="-5.186198"><ele>816.75</ele></trkpt>
   <trkpt lat="36.499984" lon="-5.186058"><ele>818.5</ele></trkpt>
   <trkpt lat="36.500274" lon="-5.185855"><ele>822.5</ele></trkpt>
   <trkpt lat="36.50063" lon="-5.185625"><ele>827</ele></trkpt>
   <trkpt lat="36.500888" lon="-5.1856"><ele>828.75</ele></trkpt>
   <trkpt lat="36.501136" lon="-5.185791"><ele>832</ele></trkpt>
   <trkpt lat="36.50137" lon="-5.186001"><ele>835.25</ele></trkpt>
   <trkpt lat="36.501521" lon="-5.186152"><ele>837.5</ele></trkpt>
   <trkpt lat="36.501692" lon="-5.186267"><ele>838.25</ele></trkpt>
   <trkpt lat="36.501873" lon="-5.186207"><ele>841.75</ele></trkpt>
   <trkpt lat="36.50202" lon="-5.186113"><ele>842</ele></trkpt>
   <trkpt lat="36.502258" lon="-5.186062"><ele>843</ele></trkpt>
   <trkpt lat="36.502465" lon="-5.186091"><ele>845</ele></trkpt>
   <trkpt lat="36.503061" lon="-5.186063"><ele>851</ele></trkpt>
   <trkpt lat="36.503239" lon="-5.186035"><ele>852.75</ele></trkpt>
   <trkpt lat="36.503432" lon="-5.18604"><ele>854.75</ele></trkpt>
   <trkpt lat="36.503604" lon="-5.186096"><ele>857.25</ele></trkpt>
   <trkpt lat="36.503741" lon="-5.186177"><ele>858.75</ele></trkpt>
   <trkpt lat="36.503966" lon="-5.186285"><ele>864</ele></trkpt>
   <trkpt lat="36.504064" lon="-5.186237"><ele>866.5</ele></trkpt>
   <trkpt lat="36.504291" lon="-5.185792"><ele>868.25</ele></trkpt>
   <trkpt lat="36.504446" lon="-5.185169"><ele>869.5</ele></trkpt>
   <trkpt lat="36.504537" lon="-5.184477"><ele>872</ele></trkpt>
   <trkpt lat="36.504611" lon="-5.184323"><ele>876</ele></trkpt>
   <trkpt lat="36.504617" lon="-5.184047"><ele>879</ele></trkpt>
   <trkpt lat="36.504508" lon="-5.183858"><ele>879.75</ele></trkpt>
   <trkpt lat="36.504387" lon="-5.183693"><ele>878.75</ele></trkpt>
   <trkpt lat="36.504249" lon="-5.183483"><ele>879.75</ele></trkpt>
   <trkpt lat="36.504129" lon="-5.183286"><ele>875</ele></trkpt>
   <trkpt lat="36.50407" lon="-5.182997"><ele>873.5</ele></trkpt>
   <trkpt lat="36.504126" lon="-5.182222"><ele>875.5</ele></trkpt>
   <trkpt lat="36.504114" lon="-5.181697"><ele>878.25</ele></trkpt>
   <trkpt lat="36.504139" lon="-5.181208"><ele>881.75</ele></trkpt>
   <trkpt lat="36.504157" lon="-5.180567"><ele>887.25</ele></trkpt>
   <trkpt lat="36.504143" lon="-5.179985"><ele>890.75</ele></trkpt>
   <trkpt lat="36.504154" lon="-5.17967"><ele>892.25</ele></trkpt>
   <trkpt lat="36.504229" lon="-5.179283"><ele>893.5</ele></trkpt>
   <trkpt lat="36.504391" lon="-5.178745"><ele>897.25</ele></trkpt>
   <trkpt lat="36.504473" lon="-5.178299"><ele>900.75</ele></trkpt>
   <trkpt lat="36.504512" lon="-5.178008"><ele>904.25</ele></trkpt>
   <trkpt lat="36.504433" lon="-5.177708"><ele>904.5</ele></trkpt>
   <trkpt lat="36.504371" lon="-5.177561"><ele>904.75</ele></trkpt>
   <trkpt lat="36.504318" lon="-5.177404"><ele>903</ele></trkpt>
   <trkpt lat="36.504333" lon="-5.177274"><ele>902.25</ele></trkpt>
   <trkpt lat="36.504419" lon="-5.177186"><ele>903.5</ele></trkpt>
   <trkpt lat="36.504541" lon="-5.177188"><ele>904</ele></trkpt>
   <trkpt lat="36.504652" lon="-5.177279"><ele>906.25</ele></trkpt>
   <trkpt lat="36.504705" lon="-5.177424"><ele>909.75</ele></trkpt>
   <trkpt lat="36.504667" lon="-5.17789"><ele>911.25</ele></trkpt>
   <trkpt lat="36.504649" lon="-5.178277"><ele>910</ele></trkpt>
   <trkpt lat="36.504579" lon="-5.178765"><ele>909</ele></trkpt>
   <trkpt lat="36.504565" lon="-5.179183"><ele>911</ele></trkpt>
   <trkpt lat="36.504605" lon="-5.179542"><ele>913.5</ele></trkpt>
   <trkpt lat="36.504603" lon="-5.180055"><ele>913.5</ele></trkpt>
   <trkpt lat="36.504625" lon="-5.180579"><ele>917</ele></trkpt>
   <trkpt lat="36.504692" lon="-5.181017"><ele>921.25</ele></trkpt>
   <trkpt lat="36.504793" lon="-5.181412"><ele>924.5</ele></trkpt>
   <trkpt lat="36.504826" lon="-5.181769"><ele>928.5</ele></trkpt>
   <trkpt lat="36.504887" lon="-5.182112"><ele>929.25</ele></trkpt>
   <trkpt lat="36.505125" lon="-5.182706"><ele>935.5</ele></trkpt>
   <trkpt lat="36.50532" lon="-5.183079"><ele>938</ele></trkpt>
   <trkpt lat="36.505397" lon="-5.183458"><ele>938.5</ele></trkpt>
   <trkpt lat="36.505455" lon="-5.184069"><ele>942.75</ele></trkpt>
   <trkpt lat="36.505595" lon="-5.184574"><ele>947.75</ele></trkpt>
   <trkpt lat="36.505604" lon="-5.184994"><ele>950.75</ele></trkpt>
   <trkpt lat="36.505505" lon="-5.18563"><ele>951.75</ele></trkpt>
   <trkpt lat="36.505383" lon="-5.186217"><ele>957.5</ele></trkpt>
   <trkpt lat="36.505333" lon="-5.186389"><ele>957.75</ele></trkpt>
   <trkpt lat="36.505189" lon="-5.186804"><ele>959.5</ele></trkpt>
   <trkpt lat="36.50499" lon="-5.187239"><ele>960.75</ele></trkpt>
   <trkpt lat="36.504869" lon="-5.187778"><ele>966</ele></trkpt>
   <trkpt lat="36.504785" lon="-5.188208"><ele>969.25</ele></trkpt>
   <trkpt lat="36.504745" lon="-5.188356"><ele>970.75</ele></trkpt>
   <trkpt lat="36.504648" lon="-5.188588"><ele>970.25</ele></trkpt>
   <trkpt lat="36.504641" lon="-5.188675"><ele>971.25</ele></trkpt>
   <trkpt lat="36.504652" lon="-5.188726"><ele>971.75</ele></trkpt>
   <trkpt lat="36.504673" lon="-5.188769"><ele>972.25</ele></trkpt>
   <trkpt lat="36.50464" lon="-5.188834"><ele>972.75</ele></trkpt>
   <trkpt lat="36.504593" lon="-5.189009"><ele>973.25</ele></trkpt>
   
  </trkseg>
 </trk>
</gpx>
