<?xml version="1.0" encoding="UTF-8"?>
<gpx 
 xmlns="http://www.topografix.com/GPX/1/1" 
 xmlns:xsi="http://www.w3.org/2001/XMLSchema-instance" 
 xsi:schemaLocation="http://www.topografix.com/GPX/1/1 http://www.topografix.com/GPX/1/1/gpx.xsd" 
 version="1.1" 
 creator="BRouter-Web 0.18.1">
 <trk>
  <name>Piani di Pezze (5.5km, full climb)</name>
  <trkseg>
   <trkpt lat="46.404687" lon="12.020751"><ele>971.5</ele></trkpt>
   <trkpt lat="46.404687" lon="12.02075"><ele>970.25</ele></trkpt>
   <trkpt lat="46.40464" lon="12.020788"><ele>972.75</ele></trkpt>
   <trkpt lat="46.404991" lon="12.0216"><ele>974.75</ele></trkpt>
   <trkpt lat="46.405243" lon="12.022157"><ele>975.75</ele></trkpt>
   <trkpt lat="46.405286" lon="12.02228"><ele>975.5</ele></trkpt>
   <trkpt lat="46.405318" lon="12.022405"><ele>976.25</ele></trkpt>
   <trkpt lat="46.40535" lon="12.022631"><ele>977.5</ele></trkpt>
   <trkpt lat="46.405366" lon="12.023167"><ele>979.25</ele></trkpt>
   <trkpt lat="46.40538" lon="12.023217"><ele>979</ele></trkpt>
   <trkpt lat="46.405424" lon="12.023294"><ele>978.5</ele></trkpt>
   <trkpt lat="46.40548" lon="12.023343"><ele>978</ele></trkpt>
   <trkpt lat="46.405518" lon="12.023361"><ele>977.75</ele></trkpt>
   <trkpt lat="46.405818" lon="12.023444"><ele>978.25</ele></trkpt>
   <trkpt lat="46.405855" lon="12.023445"><ele>978.5</ele></trkpt>
   <trkpt lat="46.405925" lon="12.023418"><ele>979</ele></trkpt>
   <trkpt lat="46.405966" lon="12.023387"><ele>979</ele></trkpt>
   <trkpt lat="46.406002" lon="12.023345"><ele>979.25</ele></trkpt>
   <trkpt lat="46.406035" lon="12.023287"><ele>979.25</ele></trkpt>
   <trkpt lat="46.406059" lon="12.023221"><ele>979.5</ele></trkpt>
   <trkpt lat="46.40608" lon="12.023138"><ele>979.5</ele></trkpt>
   <trkpt lat="46.406092" lon="12.02305"><ele>979.75</ele></trkpt>
   <trkpt lat="46.406113" lon="12.022604"><ele>979</ele></trkpt>
   <trkpt lat="46.406133" lon="12.021957"><ele>979.5</ele></trkpt>
   <trkpt lat="46.406122" lon="12.021812"><ele>980.5</ele></trkpt>
   <trkpt lat="46.406104" lon="12.021694"><ele>981.5</ele></trkpt>
   <trkpt lat="46.405961" lon="12.021064"><ele>980.25</ele></trkpt>
   <trkpt lat="46.40596" lon="12.020979"><ele>980.75</ele></trkpt>
   <trkpt lat="46.405968" lon="12.020881"><ele>981.5</ele></trkpt>
   <trkpt lat="46.406009" lon="12.020746"><ele>982.75</ele></trkpt>
   <trkpt lat="46.406055" lon="12.020678"><ele>983.5</ele></trkpt>
   <trkpt lat="46.406143" lon="12.020617"><ele>984</ele></trkpt>
   <trkpt lat="46.40619" lon="12.020596"><ele>983.75</ele></trkpt>
   <trkpt lat="46.406491" lon="12.020528"><ele>982.25</ele></trkpt>
   <trkpt lat="46.406529" lon="12.020776"><ele>984.25</ele></trkpt>
   <trkpt lat="46.406511" lon="12.02084"><ele>985</ele></trkpt>
   <trkpt lat="46.406503" lon="12.020917"><ele>985.25</ele></trkpt>
   <trkpt lat="46.406544" lon="12.021194"><ele>986.75</ele></trkpt>
   <trkpt lat="46.406621" lon="12.021475"><ele>988.5</ele></trkpt>
   <trkpt lat="46.406608" lon="12.02156"><ele>988.75</ele></trkpt>
   <trkpt lat="46.406656" lon="12.021718"><ele>990</ele></trkpt>
   <trkpt lat="46.40669" lon="12.021771"><ele>990.5</ele></trkpt>
   <trkpt lat="46.406735" lon="12.021824"><ele>991</ele></trkpt>
   <trkpt lat="46.406818" lon="12.021914"><ele>991.75</ele></trkpt>
   <trkpt lat="46.406968" lon="12.022013"><ele>993.75</ele></trkpt>
   <trkpt lat="46.407115" lon="12.022246"><ele>998.5</ele></trkpt>
   <trkpt lat="46.407037" lon="12.022643"><ele>999.75</ele></trkpt>
   <trkpt lat="46.406929" lon="12.02306"><ele>999.75</ele></trkpt>
   <trkpt lat="46.406797" lon="12.023443"><ele>1003.25</ele></trkpt>
   <trkpt lat="46.406588" lon="12.024094"><ele>1006</ele></trkpt>
   <trkpt lat="46.406544" lon="12.024377"><ele>1007.75</ele></trkpt>
   <trkpt lat="46.406542" lon="12.024767"><ele>1010.75</ele></trkpt>
   <trkpt lat="46.406519" lon="12.024992"><ele>1011.5</ele></trkpt>
   <trkpt lat="46.406514" lon="12.025113"><ele>1012.5</ele></trkpt>
   <trkpt lat="46.406539" lon="12.025191"><ele>1014.25</ele></trkpt>
   <trkpt lat="46.406609" lon="12.025188"><ele>1016.75</ele></trkpt>
   <trkpt lat="46.406656" lon="12.025141"><ele>1018</ele></trkpt>
   <trkpt lat="46.40671" lon="12.024858"><ele>1017.5</ele></trkpt>
   <trkpt lat="46.406812" lon="12.024524"><ele>1018</ele></trkpt>
   <trkpt lat="46.407024" lon="12.024193"><ele>1022.75</ele></trkpt>
   <trkpt lat="46.40712" lon="12.02391"><ele>1022.75</ele></trkpt>
   <trkpt lat="46.407223" lon="12.02369"><ele>1023.75</ele></trkpt>
   <trkpt lat="46.407308" lon="12.023676"><ele>1026.25</ele></trkpt>
   <trkpt lat="46.407356" lon="12.023781"><ele>1029</ele></trkpt>
   <trkpt lat="46.407339" lon="12.023917"><ele>1030</ele></trkpt>
   <trkpt lat="46.407261" lon="12.024271"><ele>1030.75</ele></trkpt>
   <trkpt lat="46.407261" lon="12.024504"><ele>1032.5</ele></trkpt>
   <trkpt lat="46.407286" lon="12.024959"><ele>1038</ele></trkpt>
   <trkpt lat="46.407298" lon="12.025284"><ele>1041</ele></trkpt>
   <trkpt lat="46.407286" lon="12.02546"><ele>1042.25</ele></trkpt>
   <trkpt lat="46.407232" lon="12.025835"><ele>1045.25</ele></trkpt>
   <trkpt lat="46.40712" lon="12.026253"><ele>1049.75</ele></trkpt>
   <trkpt lat="46.40689" lon="12.026593"><ele>1049.5</ele></trkpt>
   <trkpt lat="46.406885" lon="12.026809"><ele>1052.5</ele></trkpt>
   <trkpt lat="46.406888" lon="12.026931"><ele>1054.25</ele></trkpt>
   <trkpt lat="46.406902" lon="12.027035"><ele>1055.25</ele></trkpt>
   <trkpt lat="46.407041" lon="12.027357"><ele>1059.75</ele></trkpt>
   <trkpt lat="46.407094" lon="12.027531"><ele>1062.75</ele></trkpt>
   <trkpt lat="46.40711" lon="12.027582"><ele>1062.75</ele></trkpt>
   <trkpt lat="46.407064" lon="12.028292"><ele>1068</ele></trkpt>
   <trkpt lat="46.407038" lon="12.028569"><ele>1070.5</ele></trkpt>
   <trkpt lat="46.407008" lon="12.028678"><ele>1071</ele></trkpt>
   <trkpt lat="46.40672" lon="12.029244"><ele>1076.25</ele></trkpt>
   <trkpt lat="46.406699" lon="12.02936"><ele>1078.25</ele></trkpt>
   <trkpt lat="46.406724" lon="12.029481"><ele>1080.5</ele></trkpt>
   <trkpt lat="46.406871" lon="12.029622"><ele>1081.5</ele></trkpt>
   <trkpt lat="46.407022" lon="12.029594"><ele>1082</ele></trkpt>
   <trkpt lat="46.407206" lon="12.0294"><ele>1082.75</ele></trkpt>
   <trkpt lat="46.407367" lon="12.029311"><ele>1089</ele></trkpt>
   <trkpt lat="46.407435" lon="12.029233"><ele>1091</ele></trkpt>
   <trkpt lat="46.407466" lon="12.029163"><ele>1091</ele></trkpt>
   <trkpt lat="46.407517" lon="12.028745"><ele>1090.5</ele></trkpt>
   <trkpt lat="46.407556" lon="12.028603"><ele>1092.25</ele></trkpt>
   <trkpt lat="46.407697" lon="12.028299"><ele>1095.5</ele></trkpt>
   <trkpt lat="46.407743" lon="12.02814"><ele>1096.75</ele></trkpt>
   <trkpt lat="46.407803" lon="12.027569"><ele>1100.5</ele></trkpt>
   <trkpt lat="46.407825" lon="12.027188"><ele>1104</ele></trkpt>
   <trkpt lat="46.407853" lon="12.027035"><ele>1104.25</ele></trkpt>
   <trkpt lat="46.407889" lon="12.02694"><ele>1104.75</ele></trkpt>
   <trkpt lat="46.407951" lon="12.026862"><ele>1105.25</ele></trkpt>
   <trkpt lat="46.408069" lon="12.026763"><ele>1107.5</ele></trkpt>
   <trkpt lat="46.408408" lon="12.026522"><ele>1114</ele></trkpt>
   <trkpt lat="46.408592" lon="12.026345"><ele>1116</ele></trkpt>
   <trkpt lat="46.408723" lon="12.026171"><ele>1118</ele></trkpt>
   <trkpt lat="46.408816" lon="12.025959"><ele>1118.75</ele></trkpt>
   <trkpt lat="46.408895" lon="12.025695"><ele>1120.5</ele></trkpt>
   <trkpt lat="46.408957" lon="12.025285"><ele>1124.75</ele></trkpt>
   <trkpt lat="46.408985" lon="12.025024"><ele>1125.5</ele></trkpt>
   <trkpt lat="46.409012" lon="12.024934"><ele>1126</ele></trkpt>
   <trkpt lat="46.409051" lon="12.024845"><ele>1126.5</ele></trkpt>
   <trkpt lat="46.409223" lon="12.024554"><ele>1131</ele></trkpt>
   <trkpt lat="46.40945" lon="12.024251"><ele>1134.5</ele></trkpt>
   <trkpt lat="46.409713" lon="12.023935"><ele>1135.75</ele></trkpt>
   <trkpt lat="46.409863" lon="12.023812"><ele>1137.5</ele></trkpt>
   <trkpt lat="46.409992" lon="12.023733"><ele>1139.75</ele></trkpt>
   <trkpt lat="46.410183" lon="12.023705"><ele>1143</ele></trkpt>
   <trkpt lat="46.410358" lon="12.023656"><ele>1145.25</ele></trkpt>
   <trkpt lat="46.410419" lon="12.023611"><ele>1145</ele></trkpt>
   <trkpt lat="46.410501" lon="12.023535"><ele>1146.5</ele></trkpt>
   <trkpt lat="46.410536" lon="12.023459"><ele>1146.75</ele></trkpt>
   <trkpt lat="46.41057" lon="12.023351"><ele>1147.25</ele></trkpt>
   <trkpt lat="46.410576" lon="12.023291"><ele>1148</ele></trkpt>
   <trkpt lat="46.41057" lon="12.023209"><ele>1148.25</ele></trkpt>
   <trkpt lat="46.410545" lon="12.02307"><ele>1148</ele></trkpt>
   <trkpt lat="46.410519" lon="12.022874"><ele>1148.25</ele></trkpt>
   <trkpt lat="46.410531" lon="12.022714"><ele>1150.25</ele></trkpt>
   <trkpt lat="46.410603" lon="12.022421"><ele>1154</ele></trkpt>
   <trkpt lat="46.410763" lon="12.021964"><ele>1158.5</ele></trkpt>
   <trkpt lat="46.410812" lon="12.021882"><ele>1160</ele></trkpt>
   <trkpt lat="46.410967" lon="12.021466"><ele>1159.75</ele></trkpt>
   <trkpt lat="46.411268" lon="12.020889"><ele>1161</ele></trkpt>
   <trkpt lat="46.411314" lon="12.020823"><ele>1160.75</ele></trkpt>
   <trkpt lat="46.411361" lon="12.02081"><ele>1162</ele></trkpt>
   <trkpt lat="46.411398" lon="12.020841"><ele>1163.75</ele></trkpt>
   <trkpt lat="46.411421" lon="12.020889"><ele>1164</ele></trkpt>
   <trkpt lat="46.411419" lon="12.020958"><ele>1165.75</ele></trkpt>
   <trkpt lat="46.411319" lon="12.021143"><ele>1169</ele></trkpt>
   <trkpt lat="46.411219" lon="12.021412"><ele>1173.75</ele></trkpt>
   <trkpt lat="46.41116" lon="12.021603"><ele>1175</ele></trkpt>
   <trkpt lat="46.411132" lon="12.02181"><ele>1177.5</ele></trkpt>
   <trkpt lat="46.411123" lon="12.022135"><ele>1181.5</ele></trkpt>
   <trkpt lat="46.411153" lon="12.022395"><ele>1184.25</ele></trkpt>
   <trkpt lat="46.411561" lon="12.024257"><ele>1202.25</ele></trkpt>
   <trkpt lat="46.411605" lon="12.024411"><ele>1204.75</ele></trkpt>
   <trkpt lat="46.411703" lon="12.024629"><ele>1208.5</ele></trkpt>
   <trkpt lat="46.411786" lon="12.024697"><ele>1210</ele></trkpt>
   <trkpt lat="46.411836" lon="12.024748"><ele>1211.25</ele></trkpt>
   <trkpt lat="46.412053" lon="12.02489"><ele>1215.5</ele></trkpt>
   <trkpt lat="46.412272" lon="12.024905"><ele>1215.75</ele></trkpt>
   <trkpt lat="46.41246" lon="12.025018"><ele>1217.5</ele></trkpt>
   <trkpt lat="46.412597" lon="12.02524"><ele>1222.25</ele></trkpt>
   <trkpt lat="46.412666" lon="12.025498"><ele>1226.75</ele></trkpt>
   <trkpt lat="46.412701" lon="12.025777"><ele>1230</ele></trkpt>
   <trkpt lat="46.412729" lon="12.026089"><ele>1232.75</ele></trkpt>
   <trkpt lat="46.4128" lon="12.026154"><ele>1233</ele></trkpt>
   <trkpt lat="46.412857" lon="12.026093"><ele>1235.5</ele></trkpt>
   <trkpt lat="46.413114" lon="12.025078"><ele>1239.5</ele></trkpt>
   <trkpt lat="46.413192" lon="12.02494"><ele>1241</ele></trkpt>
   <trkpt lat="46.413809" lon="12.024666"><ele>1252</ele></trkpt>
   <trkpt lat="46.413874" lon="12.024669"><ele>1253.5</ele></trkpt>
   <trkpt lat="46.413894" lon="12.024731"><ele>1255</ele></trkpt>
   <trkpt lat="46.413884" lon="12.024799"><ele>1256.5</ele></trkpt>
   <trkpt lat="46.413672" lon="12.025107"><ele>1258.75</ele></trkpt>
   <trkpt lat="46.413542" lon="12.025344"><ele>1259.25</ele></trkpt>
   <trkpt lat="46.413376" lon="12.02611"><ele>1263.5</ele></trkpt>
   <trkpt lat="46.413258" lon="12.026691"><ele>1264</ele></trkpt>
   <trkpt lat="46.413216" lon="12.027108"><ele>1265.25</ele></trkpt>
   <trkpt lat="46.413193" lon="12.027429"><ele>1267</ele></trkpt>
   <trkpt lat="46.41316" lon="12.027695"><ele>1269</ele></trkpt>
   <trkpt lat="46.41312" lon="12.027777"><ele>1269.25</ele></trkpt>
   <trkpt lat="46.413033" lon="12.027798"><ele>1269</ele></trkpt>
   <trkpt lat="46.412857" lon="12.027741"><ele>1271.25</ele></trkpt>
   <trkpt lat="46.412453" lon="12.027325"><ele>1277.25</ele></trkpt>
   <trkpt lat="46.412238" lon="12.027004"><ele>1278.25</ele></trkpt>
   <trkpt lat="46.41215" lon="12.026894"><ele>1278.75</ele></trkpt>
   <trkpt lat="46.412032" lon="12.026841"><ele>1280.25</ele></trkpt>
   <trkpt lat="46.411989" lon="12.026845"><ele>1281.25</ele></trkpt>
   <trkpt lat="46.41187" lon="12.026879"><ele>1282.25</ele></trkpt>
   <trkpt lat="46.411781" lon="12.026967"><ele>1283.25</ele></trkpt>
   <trkpt lat="46.411162" lon="12.028086"><ele>1295.5</ele></trkpt>
   <trkpt lat="46.411035" lon="12.02837"><ele>1298.75</ele></trkpt>
   <trkpt lat="46.4109" lon="12.029277"><ele>1303</ele></trkpt>
   <trkpt lat="46.410849" lon="12.029633"><ele>1304.25</ele></trkpt>
   <trkpt lat="46.410716" lon="12.030403"><ele>1310.5</ele></trkpt>
   <trkpt lat="46.410585" lon="12.030947"><ele>1314.75</ele></trkpt>
   <trkpt lat="46.410451" lon="12.031382"><ele>1316</ele></trkpt>
   <trkpt lat="46.41037" lon="12.031897"><ele>1320.75</ele></trkpt>
   <trkpt lat="46.410344" lon="12.032559"><ele>1328.75</ele></trkpt>
   <trkpt lat="46.410396" lon="12.033642"><ele>1332</ele></trkpt>
   <trkpt lat="46.410409" lon="12.033776"><ele>1331.75</ele></trkpt>
   <trkpt lat="46.410445" lon="12.034143"><ele>1330.5</ele></trkpt>
   <trkpt lat="46.410539" lon="12.034403"><ele>1332.25</ele></trkpt>
   <trkpt lat="46.41068" lon="12.034484"><ele>1334.5</ele></trkpt>
   <trkpt lat="46.410826" lon="12.034337"><ele>1337.75</ele></trkpt>
   <trkpt lat="46.41094" lon="12.03359"><ele>1344.25</ele></trkpt>
   <trkpt lat="46.411133" lon="12.03289"><ele>1348.25</ele></trkpt>
   <trkpt lat="46.411309" lon="12.032224"><ele>1352.75</ele></trkpt>
   <trkpt lat="46.411431" lon="12.031804"><ele>1357.25</ele></trkpt>
   <trkpt lat="46.411498" lon="12.031576"><ele>1358.75</ele></trkpt>
   <trkpt lat="46.411554" lon="12.031504"><ele>1360.75</ele></trkpt>
   <trkpt lat="46.411984" lon="12.030904"><ele>1367.5</ele></trkpt>
   <trkpt lat="46.412238" lon="12.030569"><ele>1368.5</ele></trkpt>
   <trkpt lat="46.412417" lon="12.030512"><ele>1368.75</ele></trkpt>
   <trkpt lat="46.412509" lon="12.030592"><ele>1372.75</ele></trkpt>
   <trkpt lat="46.412544" lon="12.030715"><ele>1376.5</ele></trkpt>
   <trkpt lat="46.412372" lon="12.03098"><ele>1379.25</ele></trkpt>
   <trkpt lat="46.412212" lon="12.031198"><ele>1379.75</ele></trkpt>
   <trkpt lat="46.412104" lon="12.031486"><ele>1383</ele></trkpt>
   <trkpt lat="46.412068" lon="12.032091"><ele>1389.5</ele></trkpt>
   <trkpt lat="46.41213" lon="12.032522"><ele>1392.25</ele></trkpt>
   <trkpt lat="46.412235" lon="12.033127"><ele>1398.5</ele></trkpt>
   <trkpt lat="46.412224" lon="12.033587"><ele>1404.5</ele></trkpt>
   <trkpt lat="46.412228" lon="12.034219"><ele>1409.5</ele></trkpt>
   <trkpt lat="46.412254" lon="12.03481"><ele>1415.75</ele></trkpt>
   <trkpt lat="46.412381" lon="12.035638"><ele>1423</ele></trkpt>
   <trkpt lat="46.412421" lon="12.03611"><ele>1427.5</ele></trkpt>
   <trkpt lat="46.412411" lon="12.036645"><ele>1433.5</ele></trkpt>
   <trkpt lat="46.412326" lon="12.037709"><ele>1439.75</ele></trkpt>
   <trkpt lat="46.412326" lon="12.038077"><ele>1441</ele></trkpt>
   <trkpt lat="46.412443" lon="12.038427"><ele>1444.75</ele></trkpt>
   <trkpt lat="46.412517" lon="12.038597"><ele>1447.75</ele></trkpt>
   <trkpt lat="46.412652" lon="12.03891"><ele>1451.5</ele></trkpt>
   <trkpt lat="46.412815" lon="12.039401"><ele>1458.25</ele></trkpt>
   <trkpt lat="46.412887" lon="12.039751"><ele>1461.25</ele></trkpt>
   <trkpt lat="46.412998" lon="12.040243"><ele>1464.5</ele></trkpt>
   <trkpt lat="46.413128" lon="12.040754"><ele>1468.75</ele></trkpt>
   <trkpt lat="46.41315" lon="12.040842"><ele>1467.75</ele></trkpt>
  </trkseg>
 </trk>
</gpx>
