<?xml version="1.0" encoding="UTF-8"?>
<!-- track-length = 12406 filtered ascend = 1050 plain-ascend = 1051 cost=18172 energy=0.3kwh time=2h 53m 6s -->
<gpx 
 xmlns="http://www.topografix.com/GPX/1/1" 
 xmlns:xsi="http://www.w3.org/2001/XMLSchema-instance" 
 xsi:schemaLocation="http://www.topografix.com/GPX/1/1 http://www.topografix.com/GPX/1/1/gpx.xsd" 
 version="1.1" 
 creator="BRouter-Web 0.18.1">
 <trk>
  <name>solaison (12.4km)</name>
  <trkseg>
   <trkpt lat="46.069388" lon="6.44168"><ele>453</ele></trkpt>
   <trkpt lat="46.069376" lon="6.441672"><ele>452.75</ele></trkpt>
   <trkpt lat="46.069346" lon="6.441651"><ele>452.75</ele></trkpt>
   <trkpt lat="46.0693" lon="6.441642"><ele>452.75</ele></trkpt>
   <trkpt lat="46.069254" lon="6.441654"><ele>452.75</ele></trkpt>
   <trkpt lat="46.069218" lon="6.441681"><ele>453</ele></trkpt>
   <trkpt lat="46.069188" lon="6.44172"><ele>453</ele></trkpt>
   <trkpt lat="46.069167" lon="6.441769"><ele>453.25</ele></trkpt>
   <trkpt lat="46.069129" lon="6.441801"><ele>453.25</ele></trkpt>
   <trkpt lat="46.069069" lon="6.441833"><ele>453.5</ele></trkpt>
   <trkpt lat="46.068871" lon="6.441894"><ele>453.75</ele></trkpt>
   <trkpt lat="46.06856" lon="6.441918"><ele>453.75</ele></trkpt>
   <trkpt lat="46.068465" lon="6.441948"><ele>454</ele></trkpt>
   <trkpt lat="46.068398" lon="6.441968"><ele>454</ele></trkpt>
   <trkpt lat="46.068165" lon="6.442032"><ele>454</ele></trkpt>
   <trkpt lat="46.067992" lon="6.442014"><ele>454</ele></trkpt>
   <trkpt lat="46.067707" lon="6.441945"><ele>454.75</ele></trkpt>
   <trkpt lat="46.067409" lon="6.441889"><ele>455</ele></trkpt>
   <trkpt lat="46.06717" lon="6.441884"><ele>455</ele></trkpt>
   <trkpt lat="46.066909" lon="6.441903"><ele>455.75</ele></trkpt>
   <trkpt lat="46.06671" lon="6.441914"><ele>455.75</ele></trkpt>
   <trkpt lat="46.066607" lon="6.441907"><ele>455.75</ele></trkpt>
   <trkpt lat="46.06636" lon="6.441844"><ele>456</ele></trkpt>
   <trkpt lat="46.066166" lon="6.441784"><ele>456</ele></trkpt>
   <trkpt lat="46.066012" lon="6.441774"><ele>456.25</ele></trkpt>
   <trkpt lat="46.065747" lon="6.441743"><ele>457.25</ele></trkpt>
   <trkpt lat="46.065683" lon="6.441735"><ele>457.5</ele></trkpt>
   <trkpt lat="46.06536" lon="6.441687"><ele>458.5</ele></trkpt>
   <trkpt lat="46.065227" lon="6.44169"><ele>458.75</ele></trkpt>
   <trkpt lat="46.065025" lon="6.441722"><ele>458.75</ele></trkpt>
   <trkpt lat="46.064976" lon="6.441738"><ele>459</ele></trkpt>
   <trkpt lat="46.064929" lon="6.441748"><ele>459.25</ele></trkpt>
   <trkpt lat="46.064849" lon="6.441764"><ele>459.5</ele></trkpt>
   <trkpt lat="46.064553" lon="6.441829"><ele>460.25</ele></trkpt>
   <trkpt lat="46.064527" lon="6.441837"><ele>460.25</ele></trkpt>
   <trkpt lat="46.064497" lon="6.441846"><ele>460.5</ele></trkpt>
   <trkpt lat="46.064473" lon="6.44186"><ele>460.5</ele></trkpt>
   <trkpt lat="46.064025" lon="6.442103"><ele>461.75</ele></trkpt>
   <trkpt lat="46.063955" lon="6.442126"><ele>461.75</ele></trkpt>
   <trkpt lat="46.063856" lon="6.442109"><ele>462</ele></trkpt>
   <trkpt lat="46.063807" lon="6.442097"><ele>462</ele></trkpt>
   <trkpt lat="46.063738" lon="6.442076"><ele>462.25</ele></trkpt>
   <trkpt lat="46.063452" lon="6.441955"><ele>463</ele></trkpt>
   <trkpt lat="46.063265" lon="6.441863"><ele>463.75</ele></trkpt>
   <trkpt lat="46.063188" lon="6.441809"><ele>464</ele></trkpt>
   <trkpt lat="46.063169" lon="6.441795"><ele>464</ele></trkpt>
   <trkpt lat="46.063003" lon="6.441676"><ele>465</ele></trkpt>
   <trkpt lat="46.062912" lon="6.441646"><ele>465.25</ele></trkpt>
   <trkpt lat="46.062824" lon="6.441641"><ele>465.75</ele></trkpt>
   <trkpt lat="46.062753" lon="6.441666"><ele>466</ele></trkpt>
   <trkpt lat="46.062689" lon="6.441772"><ele>466.25</ele></trkpt>
   <trkpt lat="46.062671" lon="6.441809"><ele>466.5</ele></trkpt>
   <trkpt lat="46.062581" lon="6.441991"><ele>467.25</ele></trkpt>
   <trkpt lat="46.062513" lon="6.442102"><ele>467.75</ele></trkpt>
   <trkpt lat="46.062484" lon="6.442121"><ele>468</ele></trkpt>
   <trkpt lat="46.062439" lon="6.442144"><ele>468.25</ele></trkpt>
   <trkpt lat="46.06225" lon="6.442194"><ele>469.75</ele></trkpt>
   <trkpt lat="46.061986" lon="6.442307"><ele>471.5</ele></trkpt>
   <trkpt lat="46.061908" lon="6.442321"><ele>472</ele></trkpt>
   <trkpt lat="46.061809" lon="6.442313"><ele>472.5</ele></trkpt>
   <trkpt lat="46.061646" lon="6.442262"><ele>473.25</ele></trkpt>
   <trkpt lat="46.061613" lon="6.442253"><ele>473.25</ele></trkpt>
   <trkpt lat="46.061583" lon="6.442241"><ele>473.5</ele></trkpt>
   <trkpt lat="46.061374" lon="6.442117"><ele>474.25</ele></trkpt>
   <trkpt lat="46.060662" lon="6.441753"><ele>477.25</ele></trkpt>
   <trkpt lat="46.060544" lon="6.441676"><ele>478.75</ele></trkpt>
   <trkpt lat="46.060455" lon="6.441555"><ele>480</ele></trkpt>
   <trkpt lat="46.06042" lon="6.441483"><ele>480.75</ele></trkpt>
   <trkpt lat="46.06041" lon="6.441321"><ele>481.5</ele></trkpt>
   <trkpt lat="46.060424" lon="6.441072"><ele>482.25</ele></trkpt>
   <trkpt lat="46.060465" lon="6.440661"><ele>487.5</ele></trkpt>
   <trkpt lat="46.0605" lon="6.44016"><ele>492.25</ele></trkpt>
   <trkpt lat="46.060522" lon="6.439956"><ele>494</ele></trkpt>
   <trkpt lat="46.060548" lon="6.439547"><ele>497</ele></trkpt>
   <trkpt lat="46.060536" lon="6.439404"><ele>498.25</ele></trkpt>
   <trkpt lat="46.060505" lon="6.439198"><ele>499.25</ele></trkpt>
   <trkpt lat="46.060476" lon="6.43905"><ele>500.5</ele></trkpt>
   <trkpt lat="46.060402" lon="6.438757"><ele>503</ele></trkpt>
   <trkpt lat="46.060305" lon="6.438456"><ele>505.25</ele></trkpt>
   <trkpt lat="46.060112" lon="6.437798"><ele>511</ele></trkpt>
   <trkpt lat="46.060098" lon="6.437731"><ele>511.75</ele></trkpt>
   <trkpt lat="46.060096" lon="6.437564"><ele>512.75</ele></trkpt>
   <trkpt lat="46.060107" lon="6.437294"><ele>515.25</ele></trkpt>
   <trkpt lat="46.060101" lon="6.436876"><ele>518.25</ele></trkpt>
   <trkpt lat="46.060109" lon="6.436779"><ele>518.75</ele></trkpt>
   <trkpt lat="46.060126" lon="6.436695"><ele>519.25</ele></trkpt>
   <trkpt lat="46.06018" lon="6.436554"><ele>521.25</ele></trkpt>
   <trkpt lat="46.060213" lon="6.436502"><ele>521.75</ele></trkpt>
   <trkpt lat="46.060388" lon="6.436335"><ele>521.75</ele></trkpt>
   <trkpt lat="46.060413" lon="6.436296"><ele>521.75</ele></trkpt>
   <trkpt lat="46.060432" lon="6.436227"><ele>522.5</ele></trkpt>
   <trkpt lat="46.060433" lon="6.436176"><ele>523.25</ele></trkpt>
   <trkpt lat="46.060425" lon="6.436141"><ele>523.75</ele></trkpt>
   <trkpt lat="46.060383" lon="6.436082"><ele>525.25</ele></trkpt>
   <trkpt lat="46.060352" lon="6.436065"><ele>526</ele></trkpt>
   <trkpt lat="46.060272" lon="6.436061"><ele>527</ele></trkpt>
   <trkpt lat="46.060169" lon="6.436094"><ele>528.5</ele></trkpt>
   <trkpt lat="46.060103" lon="6.43614"><ele>529.25</ele></trkpt>
   <trkpt lat="46.060036" lon="6.436222"><ele>530</ele></trkpt>
   <trkpt lat="46.059984" lon="6.436302"><ele>530.75</ele></trkpt>
   <trkpt lat="46.059933" lon="6.43641"><ele>532</ele></trkpt>
   <trkpt lat="46.05974" lon="6.436949"><ele>534.75</ele></trkpt>
   <trkpt lat="46.059631" lon="6.437183"><ele>536.75</ele></trkpt>
   <trkpt lat="46.05952" lon="6.437466"><ele>538.75</ele></trkpt>
   <trkpt lat="46.059452" lon="6.437615"><ele>540.25</ele></trkpt>
   <trkpt lat="46.059305" lon="6.437818"><ele>543.5</ele></trkpt>
   <trkpt lat="46.059272" lon="6.437885"><ele>544</ele></trkpt>
   <trkpt lat="46.05924" lon="6.437972"><ele>544.75</ele></trkpt>
   <trkpt lat="46.059083" lon="6.438518"><ele>548.75</ele></trkpt>
   <trkpt lat="46.059033" lon="6.43866"><ele>550</ele></trkpt>
   <trkpt lat="46.058982" lon="6.438763"><ele>551</ele></trkpt>
   <trkpt lat="46.058637" lon="6.439365"><ele>556.5</ele></trkpt>
   <trkpt lat="46.058593" lon="6.439426"><ele>557.75</ele></trkpt>
   <trkpt lat="46.058489" lon="6.439542"><ele>559.5</ele></trkpt>
   <trkpt lat="46.058433" lon="6.439587"><ele>560.5</ele></trkpt>
   <trkpt lat="46.058254" lon="6.439706"><ele>564</ele></trkpt>
   <trkpt lat="46.058196" lon="6.439763"><ele>565</ele></trkpt>
   <trkpt lat="46.058144" lon="6.439851"><ele>565.5</ele></trkpt>
   <trkpt lat="46.058064" lon="6.440019"><ele>566.25</ele></trkpt>
   <trkpt lat="46.058022" lon="6.440152"><ele>567.5</ele></trkpt>
   <trkpt lat="46.057985" lon="6.440304"><ele>568.75</ele></trkpt>
   <trkpt lat="46.057969" lon="6.440396"><ele>569.75</ele></trkpt>
   <trkpt lat="46.057934" lon="6.441161"><ele>575.75</ele></trkpt>
   <trkpt lat="46.057934" lon="6.441305"><ele>576.75</ele></trkpt>
   <trkpt lat="46.057953" lon="6.441784"><ele>580</ele></trkpt>
   <trkpt lat="46.057955" lon="6.442047"><ele>582.25</ele></trkpt>
   <trkpt lat="46.057971" lon="6.442304"><ele>585</ele></trkpt>
   <trkpt lat="46.057991" lon="6.442404"><ele>586.25</ele></trkpt>
   <trkpt lat="46.058033" lon="6.44256"><ele>587.5</ele></trkpt>
   <trkpt lat="46.058193" lon="6.442998"><ele>590.75</ele></trkpt>
   <trkpt lat="46.058237" lon="6.443151"><ele>592.25</ele></trkpt>
   <trkpt lat="46.058304" lon="6.443421"><ele>594.75</ele></trkpt>
   <trkpt lat="46.058376" lon="6.443752"><ele>596.25</ele></trkpt>
   <trkpt lat="46.058419" lon="6.443995"><ele>597.75</ele></trkpt>
   <trkpt lat="46.058483" lon="6.444603"><ele>604</ele></trkpt>
   <trkpt lat="46.058489" lon="6.444796"><ele>606</ele></trkpt>
   <trkpt lat="46.058455" lon="6.445427"><ele>609</ele></trkpt>
   <trkpt lat="46.058436" lon="6.445549"><ele>609.75</ele></trkpt>
   <trkpt lat="46.05838" lon="6.445789"><ele>612.25</ele></trkpt>
   <trkpt lat="46.058371" lon="6.445845"><ele>612.75</ele></trkpt>
   <trkpt lat="46.058375" lon="6.445905"><ele>613.75</ele></trkpt>
   <trkpt lat="46.058389" lon="6.445983"><ele>614.75</ele></trkpt>
   <trkpt lat="46.058455" lon="6.446211"><ele>616.75</ele></trkpt>
   <trkpt lat="46.058589" lon="6.446637"><ele>619.25</ele></trkpt>
   <trkpt lat="46.058642" lon="6.446781"><ele>619.75</ele></trkpt>
   <trkpt lat="46.058826" lon="6.447153"><ele>623.25</ele></trkpt>
   <trkpt lat="46.058752" lon="6.447175"><ele>625</ele></trkpt>
   <trkpt lat="46.058694" lon="6.447177"><ele>626</ele></trkpt>
   <trkpt lat="46.058671" lon="6.447172"><ele>626.25</ele></trkpt>
   <trkpt lat="46.058626" lon="6.447135"><ele>626.25</ele></trkpt>
   <trkpt lat="46.058217" lon="6.446286"><ele>634.75</ele></trkpt>
   <trkpt lat="46.0581" lon="6.446085"><ele>638.25</ele></trkpt>
   <trkpt lat="46.058078" lon="6.446017"><ele>639</ele></trkpt>
   <trkpt lat="46.058076" lon="6.445984"><ele>638.75</ele></trkpt>
   <trkpt lat="46.05805" lon="6.445416"><ele>639.75</ele></trkpt>
   <trkpt lat="46.058043" lon="6.445115"><ele>643</ele></trkpt>
   <trkpt lat="46.058008" lon="6.444915"><ele>644.75</ele></trkpt>
   <trkpt lat="46.057912" lon="6.444602"><ele>646</ele></trkpt>
   <trkpt lat="46.057868" lon="6.44449"><ele>646.5</ele></trkpt>
   <trkpt lat="46.057806" lon="6.444372"><ele>648.25</ele></trkpt>
   <trkpt lat="46.057672" lon="6.444149"><ele>651</ele></trkpt>
   <trkpt lat="46.057368" lon="6.443725"><ele>655.5</ele></trkpt>
   <trkpt lat="46.05724" lon="6.443598"><ele>657</ele></trkpt>
   <trkpt lat="46.057102" lon="6.443415"><ele>660.5</ele></trkpt>
   <trkpt lat="46.056965" lon="6.443174"><ele>662.75</ele></trkpt>
   <trkpt lat="46.056929" lon="6.44309"><ele>663.75</ele></trkpt>
   <trkpt lat="46.056854" lon="6.442878"><ele>666</ele></trkpt>
   <trkpt lat="46.05668" lon="6.442307"><ele>670</ele></trkpt>
   <trkpt lat="46.056578" lon="6.441948"><ele>673.5</ele></trkpt>
   <trkpt lat="46.05654" lon="6.441768"><ele>674.75</ele></trkpt>
   <trkpt lat="46.05652" lon="6.441619"><ele>675.75</ele></trkpt>
   <trkpt lat="46.056512" lon="6.440822"><ele>682.25</ele></trkpt>
   <trkpt lat="46.056488" lon="6.440565"><ele>684.5</ele></trkpt>
   <trkpt lat="46.056485" lon="6.440492"><ele>685.5</ele></trkpt>
   <trkpt lat="46.056488" lon="6.440397"><ele>686.5</ele></trkpt>
   <trkpt lat="46.056519" lon="6.440229"><ele>686.25</ele></trkpt>
   <trkpt lat="46.056531" lon="6.440095"><ele>687</ele></trkpt>
   <trkpt lat="46.05653" lon="6.440039"><ele>687.75</ele></trkpt>
   <trkpt lat="46.056508" lon="6.439869"><ele>690.5</ele></trkpt>
   <trkpt lat="46.056514" lon="6.439657"><ele>691.75</ele></trkpt>
   <trkpt lat="46.05656" lon="6.439435"><ele>693.5</ele></trkpt>
   <trkpt lat="46.056568" lon="6.439365"><ele>693.75</ele></trkpt>
   <trkpt lat="46.056576" lon="6.439193"><ele>694.75</ele></trkpt>
   <trkpt lat="46.056574" lon="6.439071"><ele>695.25</ele></trkpt>
   <trkpt lat="46.056561" lon="6.438952"><ele>696</ele></trkpt>
   <trkpt lat="46.056526" lon="6.438778"><ele>697.25</ele></trkpt>
   <trkpt lat="46.056413" lon="6.438475"><ele>700.5</ele></trkpt>
   <trkpt lat="46.056303" lon="6.438231"><ele>706.5</ele></trkpt>
   <trkpt lat="46.056297" lon="6.438171"><ele>707</ele></trkpt>
   <trkpt lat="46.056297" lon="6.438131"><ele>707.25</ele></trkpt>
   <trkpt lat="46.056309" lon="6.438091"><ele>706.5</ele></trkpt>
   <trkpt lat="46.0564" lon="6.43786"><ele>705.25</ele></trkpt>
   <trkpt lat="46.056432" lon="6.437754"><ele>705</ele></trkpt>
   <trkpt lat="46.056449" lon="6.437585"><ele>706.75</ele></trkpt>
   <trkpt lat="46.056437" lon="6.437017"><ele>711.75</ele></trkpt>
   <trkpt lat="46.056463" lon="6.43668"><ele>715.25</ele></trkpt>
   <trkpt lat="46.056462" lon="6.436635"><ele>715.5</ele></trkpt>
   <trkpt lat="46.056432" lon="6.436112"><ele>720.75</ele></trkpt>
   <trkpt lat="46.056398" lon="6.435872"><ele>721.75</ele></trkpt>
   <trkpt lat="46.056398" lon="6.435784"><ele>722.75</ele></trkpt>
   <trkpt lat="46.056417" lon="6.435695"><ele>724.25</ele></trkpt>
   <trkpt lat="46.056431" lon="6.435655"><ele>724.75</ele></trkpt>
   <trkpt lat="46.056454" lon="6.435616"><ele>725.25</ele></trkpt>
   <trkpt lat="46.056539" lon="6.435536"><ele>725.75</ele></trkpt>
   <trkpt lat="46.056601" lon="6.435456"><ele>726.25</ele></trkpt>
   <trkpt lat="46.056631" lon="6.435389"><ele>726.75</ele></trkpt>
   <trkpt lat="46.056662" lon="6.435252"><ele>728.25</ele></trkpt>
   <trkpt lat="46.056679" lon="6.43521"><ele>729</ele></trkpt>
   <trkpt lat="46.056711" lon="6.435157"><ele>729.5</ele></trkpt>
   <trkpt lat="46.056769" lon="6.435084"><ele>729.75</ele></trkpt>
   <trkpt lat="46.056811" lon="6.435012"><ele>730.75</ele></trkpt>
   <trkpt lat="46.056833" lon="6.434962"><ele>730.5</ele></trkpt>
   <trkpt lat="46.056846" lon="6.434902"><ele>730.5</ele></trkpt>
   <trkpt lat="46.056854" lon="6.434778"><ele>731.5</ele></trkpt>
   <trkpt lat="46.056843" lon="6.434694"><ele>732.5</ele></trkpt>
   <trkpt lat="46.056802" lon="6.434518"><ele>734.25</ele></trkpt>
   <trkpt lat="46.056793" lon="6.434408"><ele>735.25</ele></trkpt>
   <trkpt lat="46.056808" lon="6.434321"><ele>735.5</ele></trkpt>
   <trkpt lat="46.056915" lon="6.433895"><ele>740.5</ele></trkpt>
   <trkpt lat="46.056923" lon="6.433805"><ele>740.25</ele></trkpt>
   <trkpt lat="46.056915" lon="6.433742"><ele>740.5</ele></trkpt>
   <trkpt lat="46.056903" lon="6.433714"><ele>741</ele></trkpt>
   <trkpt lat="46.056873" lon="6.433677"><ele>742.5</ele></trkpt>
   <trkpt lat="46.05684" lon="6.433662"><ele>744.25</ele></trkpt>
   <trkpt lat="46.056799" lon="6.43367"><ele>746.25</ele></trkpt>
   <trkpt lat="46.056778" lon="6.433685"><ele>747</ele></trkpt>
   <trkpt lat="46.056764" lon="6.433701"><ele>747.5</ele></trkpt>
   <trkpt lat="46.05674" lon="6.433754"><ele>747.75</ele></trkpt>
   <trkpt lat="46.056727" lon="6.433863"><ele>746.5</ele></trkpt>
   <trkpt lat="46.056727" lon="6.434026"><ele>744.25</ele></trkpt>
   <trkpt lat="46.056709" lon="6.434133"><ele>743.75</ele></trkpt>
   <trkpt lat="46.056684" lon="6.434203"><ele>744.5</ele></trkpt>
   <trkpt lat="46.056566" lon="6.43443"><ele>748.5</ele></trkpt>
   <trkpt lat="46.056553" lon="6.434471"><ele>749</ele></trkpt>
   <trkpt lat="46.056528" lon="6.434705"><ele>750.25</ele></trkpt>
   <trkpt lat="46.05651" lon="6.434768"><ele>750.5</ele></trkpt>
   <trkpt lat="46.05649" lon="6.434813"><ele>750.75</ele></trkpt>
   <trkpt lat="46.056462" lon="6.434861"><ele>751.5</ele></trkpt>
   <trkpt lat="46.056364" lon="6.434972"><ele>753.75</ele></trkpt>
   <trkpt lat="46.056274" lon="6.435011"><ele>754.25</ele></trkpt>
   <trkpt lat="46.056078" lon="6.435053"><ele>757.5</ele></trkpt>
   <trkpt lat="46.056043" lon="6.435079"><ele>759</ele></trkpt>
   <trkpt lat="46.055994" lon="6.435167"><ele>762.5</ele></trkpt>
   <trkpt lat="46.055979" lon="6.435217"><ele>764</ele></trkpt>
   <trkpt lat="46.055974" lon="6.435269"><ele>765</ele></trkpt>
   <trkpt lat="46.055972" lon="6.435406"><ele>766.25</ele></trkpt>
   <trkpt lat="46.055981" lon="6.435513"><ele>766</ele></trkpt>
   <trkpt lat="46.05604" lon="6.435927"><ele>764.5</ele></trkpt>
   <trkpt lat="46.056046" lon="6.436076"><ele>766</ele></trkpt>
   <trkpt lat="46.056035" lon="6.436185"><ele>765.75</ele></trkpt>
   <trkpt lat="46.056015" lon="6.436245"><ele>765.75</ele></trkpt>
   <trkpt lat="46.055853" lon="6.436515"><ele>770.25</ele></trkpt>
   <trkpt lat="46.055825" lon="6.436574"><ele>771.25</ele></trkpt>
   <trkpt lat="46.055786" lon="6.436691"><ele>772</ele></trkpt>
   <trkpt lat="46.055703" lon="6.436903"><ele>773.5</ele></trkpt>
   <trkpt lat="46.055562" lon="6.437338"><ele>777.25</ele></trkpt>
   <trkpt lat="46.055511" lon="6.437477"><ele>777.5</ele></trkpt>
   <trkpt lat="46.055466" lon="6.437539"><ele>778</ele></trkpt>
   <trkpt lat="46.055358" lon="6.437606"><ele>781.5</ele></trkpt>
   <trkpt lat="46.055311" lon="6.43765"><ele>782.75</ele></trkpt>
   <trkpt lat="46.055236" lon="6.437775"><ele>784</ele></trkpt>
   <trkpt lat="46.055128" lon="6.438006"><ele>787.25</ele></trkpt>
   <trkpt lat="46.055108" lon="6.438076"><ele>787.75</ele></trkpt>
   <trkpt lat="46.055093" lon="6.438137"><ele>788.25</ele></trkpt>
   <trkpt lat="46.055087" lon="6.438198"><ele>787.75</ele></trkpt>
   <trkpt lat="46.055089" lon="6.43831"><ele>786.25</ele></trkpt>
   <trkpt lat="46.055105" lon="6.438403"><ele>788.75</ele></trkpt>
   <trkpt lat="46.055143" lon="6.438537"><ele>792.75</ele></trkpt>
   <trkpt lat="46.055308" lon="6.43897"><ele>802</ele></trkpt>
   <trkpt lat="46.055346" lon="6.439038"><ele>803.5</ele></trkpt>
   <trkpt lat="46.05541" lon="6.43912"><ele>801.25</ele></trkpt>
   <trkpt lat="46.05543" lon="6.439159"><ele>801</ele></trkpt>
   <trkpt lat="46.055555" lon="6.439651"><ele>800</ele></trkpt>
   <trkpt lat="46.055566" lon="6.439722"><ele>801</ele></trkpt>
   <trkpt lat="46.055581" lon="6.439936"><ele>801.75</ele></trkpt>
   <trkpt lat="46.055553" lon="6.440776"><ele>810.75</ele></trkpt>
   <trkpt lat="46.055589" lon="6.441075"><ele>811</ele></trkpt>
   <trkpt lat="46.0556" lon="6.441354"><ele>817.25</ele></trkpt>
   <trkpt lat="46.055614" lon="6.441478"><ele>817.25</ele></trkpt>
   <trkpt lat="46.055617" lon="6.441557"><ele>817.5</ele></trkpt>
   <trkpt lat="46.055608" lon="6.441818"><ele>819.75</ele></trkpt>
   <trkpt lat="46.055613" lon="6.441949"><ele>819.5</ele></trkpt>
   <trkpt lat="46.055665" lon="6.442445"><ele>825.75</ele></trkpt>
   <trkpt lat="46.055678" lon="6.442519"><ele>827</ele></trkpt>
   <trkpt lat="46.055752" lon="6.442694"><ele>826.75</ele></trkpt>
   <trkpt lat="46.055788" lon="6.442899"><ele>828.75</ele></trkpt>
   <trkpt lat="46.055793" lon="6.442995"><ele>830</ele></trkpt>
   <trkpt lat="46.05579" lon="6.443224"><ele>833</ele></trkpt>
   <trkpt lat="46.055823" lon="6.443725"><ele>837</ele></trkpt>
   <trkpt lat="46.05584" lon="6.444177"><ele>837.5</ele></trkpt>
   <trkpt lat="46.055857" lon="6.444304"><ele>845.75</ele></trkpt>
   <trkpt lat="46.055914" lon="6.444484"><ele>846.25</ele></trkpt>
   <trkpt lat="46.055921" lon="6.444533"><ele>845.5</ele></trkpt>
   <trkpt lat="46.055931" lon="6.444736"><ele>847.25</ele></trkpt>
   <trkpt lat="46.055959" lon="6.444964"><ele>846.75</ele></trkpt>
   <trkpt lat="46.055982" lon="6.445305"><ele>850</ele></trkpt>
   <trkpt lat="46.055999" lon="6.445761"><ele>852.5</ele></trkpt>
   <trkpt lat="46.05601" lon="6.446966"><ele>863.5</ele></trkpt>
   <trkpt lat="46.056003" lon="6.447032"><ele>864</ele></trkpt>
   <trkpt lat="46.055924" lon="6.447359"><ele>868.25</ele></trkpt>
   <trkpt lat="46.055862" lon="6.447598"><ele>869</ele></trkpt>
   <trkpt lat="46.055819" lon="6.447737"><ele>870.25</ele></trkpt>
   <trkpt lat="46.055767" lon="6.447875"><ele>868.5</ele></trkpt>
   <trkpt lat="46.055717" lon="6.447959"><ele>869</ele></trkpt>
   <trkpt lat="46.055687" lon="6.447994"><ele>870.5</ele></trkpt>
   <trkpt lat="46.055618" lon="6.448051"><ele>875.5</ele></trkpt>
   <trkpt lat="46.05559" lon="6.448091"><ele>876.5</ele></trkpt>
   <trkpt lat="46.055518" lon="6.448284"><ele>878.25</ele></trkpt>
   <trkpt lat="46.055509" lon="6.448354"><ele>877.75</ele></trkpt>
   <trkpt lat="46.0555" lon="6.448555"><ele>879</ele></trkpt>
   <trkpt lat="46.0555" lon="6.448792"><ele>881</ele></trkpt>
   <trkpt lat="46.055532" lon="6.449088"><ele>880.75</ele></trkpt>
   <trkpt lat="46.055519" lon="6.449312"><ele>884.5</ele></trkpt>
   <trkpt lat="46.055503" lon="6.449453"><ele>886.75</ele></trkpt>
   <trkpt lat="46.0554" lon="6.450093"><ele>891</ele></trkpt>
   <trkpt lat="46.055332" lon="6.450375"><ele>891.5</ele></trkpt>
   <trkpt lat="46.05521" lon="6.450674"><ele>894.5</ele></trkpt>
   <trkpt lat="46.055177" lon="6.450741"><ele>895</ele></trkpt>
   <trkpt lat="46.055088" lon="6.450884"><ele>899.25</ele></trkpt>
   <trkpt lat="46.055049" lon="6.450994"><ele>900.75</ele></trkpt>
   <trkpt lat="46.054994" lon="6.451221"><ele>902.75</ele></trkpt>
   <trkpt lat="46.054958" lon="6.451323"><ele>902</ele></trkpt>
   <trkpt lat="46.054891" lon="6.451456"><ele>901.75</ele></trkpt>
   <trkpt lat="46.054847" lon="6.451521"><ele>901.75</ele></trkpt>
   <trkpt lat="46.054766" lon="6.451605"><ele>904.5</ele></trkpt>
   <trkpt lat="46.05471" lon="6.451623"><ele>907.5</ele></trkpt>
   <trkpt lat="46.054676" lon="6.45162"><ele>906.75</ele></trkpt>
   <trkpt lat="46.054646" lon="6.451604"><ele>907.25</ele></trkpt>
   <trkpt lat="46.0546" lon="6.45156"><ele>909.5</ele></trkpt>
   <trkpt lat="46.054558" lon="6.451533"><ele>910.75</ele></trkpt>
   <trkpt lat="46.054511" lon="6.451518"><ele>911</ele></trkpt>
   <trkpt lat="46.054442" lon="6.451525"><ele>909.25</ele></trkpt>
   <trkpt lat="46.054283" lon="6.451616"><ele>910.75</ele></trkpt>
   <trkpt lat="46.054028" lon="6.45176"><ele>914.5</ele></trkpt>
   <trkpt lat="46.053928" lon="6.451806"><ele>916</ele></trkpt>
   <trkpt lat="46.053833" lon="6.451833"><ele>917</ele></trkpt>
   <trkpt lat="46.053766" lon="6.45184"><ele>917.5</ele></trkpt>
   <trkpt lat="46.05368" lon="6.451827"><ele>918.75</ele></trkpt>
   <trkpt lat="46.053584" lon="6.451782"><ele>919.75</ele></trkpt>
   <trkpt lat="46.053521" lon="6.45173"><ele>919.25</ele></trkpt>
   <trkpt lat="46.0535" lon="6.45171"><ele>919.25</ele></trkpt>
   <trkpt lat="46.053466" lon="6.451658"><ele>919.5</ele></trkpt>
   <trkpt lat="46.053442" lon="6.451599"><ele>920</ele></trkpt>
   <trkpt lat="46.053423" lon="6.451528"><ele>921</ele></trkpt>
   <trkpt lat="46.053399" lon="6.451391"><ele>923.25</ele></trkpt>
   <trkpt lat="46.053314" lon="6.451047"><ele>927</ele></trkpt>
   <trkpt lat="46.053207" lon="6.450854"><ele>928.75</ele></trkpt>
   <trkpt lat="46.052886" lon="6.450395"><ele>935</ele></trkpt>
   <trkpt lat="46.052713" lon="6.45018"><ele>937.75</ele></trkpt>
   <trkpt lat="46.052616" lon="6.450074"><ele>939</ele></trkpt>
   <trkpt lat="46.052394" lon="6.449903"><ele>940.75</ele></trkpt>
   <trkpt lat="46.052352" lon="6.449863"><ele>941.75</ele></trkpt>
   <trkpt lat="46.052233" lon="6.449721"><ele>944.75</ele></trkpt>
   <trkpt lat="46.052166" lon="6.449628"><ele>943.75</ele></trkpt>
   <trkpt lat="46.052103" lon="6.449521"><ele>944</ele></trkpt>
   <trkpt lat="46.052087" lon="6.44947"><ele>945</ele></trkpt>
   <trkpt lat="46.052065" lon="6.449252"><ele>948.5</ele></trkpt>
   <trkpt lat="46.052031" lon="6.449092"><ele>949.75</ele></trkpt>
   <trkpt lat="46.052001" lon="6.448981"><ele>950.5</ele></trkpt>
   <trkpt lat="46.051964" lon="6.448878"><ele>950.5</ele></trkpt>
   <trkpt lat="46.051922" lon="6.448791"><ele>951</ele></trkpt>
   <trkpt lat="46.051871" lon="6.448714"><ele>952.25</ele></trkpt>
   <trkpt lat="46.051749" lon="6.448572"><ele>953.25</ele></trkpt>
   <trkpt lat="46.051636" lon="6.448469"><ele>953.5</ele></trkpt>
   <trkpt lat="46.051355" lon="6.448179"><ele>957.75</ele></trkpt>
   <trkpt lat="46.051185" lon="6.447902"><ele>960</ele></trkpt>
   <trkpt lat="46.051052" lon="6.447678"><ele>961.75</ele></trkpt>
   <trkpt lat="46.050921" lon="6.447402"><ele>964.5</ele></trkpt>
   <trkpt lat="46.050731" lon="6.4471"><ele>967</ele></trkpt>
   <trkpt lat="46.05046" lon="6.446887"><ele>969.75</ele></trkpt>
   <trkpt lat="46.050377" lon="6.446735"><ele>971.5</ele></trkpt>
   <trkpt lat="46.050291" lon="6.446412"><ele>974.75</ele></trkpt>
   <trkpt lat="46.050217" lon="6.44623"><ele>976.25</ele></trkpt>
   <trkpt lat="46.050084" lon="6.446112"><ele>977.5</ele></trkpt>
   <trkpt lat="46.04993" lon="6.446035"><ele>979</ele></trkpt>
   <trkpt lat="46.049644" lon="6.445839"><ele>982.5</ele></trkpt>
   <trkpt lat="46.049313" lon="6.445675"><ele>986</ele></trkpt>
   <trkpt lat="46.049175" lon="6.445661"><ele>986.75</ele></trkpt>
   <trkpt lat="46.048947" lon="6.445728"><ele>985.75</ele></trkpt>
   <trkpt lat="46.048853" lon="6.445705"><ele>986</ele></trkpt>
   <trkpt lat="46.048715" lon="6.445565"><ele>990.25</ele></trkpt>
   <trkpt lat="46.048708" lon="6.445483"><ele>992</ele></trkpt>
   <trkpt lat="46.048832" lon="6.44529"><ele>994.25</ele></trkpt>
   <trkpt lat="46.048894" lon="6.445182"><ele>995</ele></trkpt>
   <trkpt lat="46.049012" lon="6.444969"><ele>997</ele></trkpt>
   <trkpt lat="46.04909" lon="6.444874"><ele>998</ele></trkpt>
   <trkpt lat="46.049212" lon="6.444767"><ele>999</ele></trkpt>
   <trkpt lat="46.049239" lon="6.444688"><ele>999.75</ele></trkpt>
   <trkpt lat="46.04923" lon="6.44461"><ele>1001</ele></trkpt>
   <trkpt lat="46.049184" lon="6.444563"><ele>1002</ele></trkpt>
   <trkpt lat="46.048691" lon="6.444419"><ele>1007</ele></trkpt>
   <trkpt lat="46.048527" lon="6.444431"><ele>1007.75</ele></trkpt>
   <trkpt lat="46.048276" lon="6.444581"><ele>1007.5</ele></trkpt>
   <trkpt lat="46.047992" lon="6.444765"><ele>1008.25</ele></trkpt>
   <trkpt lat="46.047675" lon="6.444988"><ele>1009.25</ele></trkpt>
   <trkpt lat="46.047594" lon="6.444988"><ele>1009.75</ele></trkpt>
   <trkpt lat="46.047518" lon="6.444933"><ele>1010.5</ele></trkpt>
   <trkpt lat="46.047471" lon="6.444812"><ele>1012.25</ele></trkpt>
   <trkpt lat="46.047367" lon="6.44479"><ele>1013.5</ele></trkpt>
   <trkpt lat="46.047178" lon="6.444824"><ele>1015</ele></trkpt>
   <trkpt lat="46.046817" lon="6.444578"><ele>1020</ele></trkpt>
   <trkpt lat="46.046773" lon="6.444484"><ele>1021.25</ele></trkpt>
   <trkpt lat="46.0468" lon="6.444379"><ele>1022.25</ele></trkpt>
   <trkpt lat="46.047466" lon="6.444005"><ele>1025.75</ele></trkpt>
   <trkpt lat="46.047648" lon="6.443831"><ele>1027.5</ele></trkpt>
   <trkpt lat="46.047881" lon="6.443752"><ele>1026.25</ele></trkpt>
   <trkpt lat="46.047957" lon="6.44371"><ele>1026.25</ele></trkpt>
   <trkpt lat="46.048245" lon="6.443489"><ele>1027</ele></trkpt>
   <trkpt lat="46.048494" lon="6.443311"><ele>1029.25</ele></trkpt>
   <trkpt lat="46.048664" lon="6.443091"><ele>1032.25</ele></trkpt>
   <trkpt lat="46.048837" lon="6.443024"><ele>1034.75</ele></trkpt>
   <trkpt lat="46.048972" lon="6.442958"><ele>1035.75</ele></trkpt>
   <trkpt lat="46.049028" lon="6.442899"><ele>1036.5</ele></trkpt>
   <trkpt lat="46.049132" lon="6.442734"><ele>1038.75</ele></trkpt>
   <trkpt lat="46.049187" lon="6.442669"><ele>1039.25</ele></trkpt>
   <trkpt lat="46.049244" lon="6.442628"><ele>1040.25</ele></trkpt>
   <trkpt lat="46.049306" lon="6.442604"><ele>1040.75</ele></trkpt>
   <trkpt lat="46.049635" lon="6.442552"><ele>1043</ele></trkpt>
   <trkpt lat="46.049705" lon="6.442535"><ele>1043.75</ele></trkpt>
   <trkpt lat="46.049823" lon="6.442492"><ele>1044</ele></trkpt>
   <trkpt lat="46.049884" lon="6.44246"><ele>1044.5</ele></trkpt>
   <trkpt lat="46.049956" lon="6.442409"><ele>1045.75</ele></trkpt>
   <trkpt lat="46.050018" lon="6.442357"><ele>1047.25</ele></trkpt>
   <trkpt lat="46.050232" lon="6.44215"><ele>1050.75</ele></trkpt>
   <trkpt lat="46.050294" lon="6.442102"><ele>1051.5</ele></trkpt>
   <trkpt lat="46.05035" lon="6.442072"><ele>1052.5</ele></trkpt>
   <trkpt lat="46.050449" lon="6.44205"><ele>1053.25</ele></trkpt>
   <trkpt lat="46.050491" lon="6.442053"><ele>1053.25</ele></trkpt>
   <trkpt lat="46.050538" lon="6.44207"><ele>1053</ele></trkpt>
   <trkpt lat="46.050576" lon="6.442093"><ele>1053.75</ele></trkpt>
   <trkpt lat="46.050615" lon="6.442137"><ele>1054.75</ele></trkpt>
   <trkpt lat="46.050742" lon="6.442316"><ele>1056.75</ele></trkpt>
   <trkpt lat="46.050904" lon="6.442514"><ele>1058</ele></trkpt>
   <trkpt lat="46.051012" lon="6.44262"><ele>1059.75</ele></trkpt>
   <trkpt lat="46.051071" lon="6.442663"><ele>1061.25</ele></trkpt>
   <trkpt lat="46.051133" lon="6.442695"><ele>1062.5</ele></trkpt>
   <trkpt lat="46.051269" lon="6.442721"><ele>1063.5</ele></trkpt>
   <trkpt lat="46.051385" lon="6.442713"><ele>1065</ele></trkpt>
   <trkpt lat="46.051612" lon="6.442609"><ele>1068.25</ele></trkpt>
   <trkpt lat="46.051699" lon="6.442594"><ele>1069.75</ele></trkpt>
   <trkpt lat="46.05178" lon="6.442612"><ele>1071.25</ele></trkpt>
   <trkpt lat="46.051864" lon="6.442666"><ele>1072.75</ele></trkpt>
   <trkpt lat="46.051898" lon="6.4427"><ele>1073</ele></trkpt>
   <trkpt lat="46.051951" lon="6.442774"><ele>1073.25</ele></trkpt>
   <trkpt lat="46.052058" lon="6.442972"><ele>1075.75</ele></trkpt>
   <trkpt lat="46.052126" lon="6.44312"><ele>1077.25</ele></trkpt>
   <trkpt lat="46.05218" lon="6.443277"><ele>1078.25</ele></trkpt>
   <trkpt lat="46.052277" lon="6.443625"><ele>1080</ele></trkpt>
   <trkpt lat="46.05233" lon="6.443758"><ele>1080</ele></trkpt>
   <trkpt lat="46.052368" lon="6.443833"><ele>1080.25</ele></trkpt>
   <trkpt lat="46.052435" lon="6.443926"><ele>1081.75</ele></trkpt>
   <trkpt lat="46.052464" lon="6.443948"><ele>1082.75</ele></trkpt>
   <trkpt lat="46.052529" lon="6.443967"><ele>1084.5</ele></trkpt>
   <trkpt lat="46.052595" lon="6.443959"><ele>1085.75</ele></trkpt>
   <trkpt lat="46.052618" lon="6.443947"><ele>1086</ele></trkpt>
   <trkpt lat="46.052656" lon="6.443903"><ele>1086.75</ele></trkpt>
   <trkpt lat="46.052684" lon="6.443827"><ele>1087.25</ele></trkpt>
   <trkpt lat="46.052694" lon="6.443753"><ele>1087.75</ele></trkpt>
   <trkpt lat="46.052695" lon="6.443279"><ele>1089</ele></trkpt>
   <trkpt lat="46.052688" lon="6.44313"><ele>1089.25</ele></trkpt>
   <trkpt lat="46.052675" lon="6.443"><ele>1089.75</ele></trkpt>
   <trkpt lat="46.052657" lon="6.442908"><ele>1090</ele></trkpt>
   <trkpt lat="46.052615" lon="6.442764"><ele>1090.25</ele></trkpt>
   <trkpt lat="46.052432" lon="6.442262"><ele>1093.75</ele></trkpt>
   <trkpt lat="46.052399" lon="6.442141"><ele>1094.25</ele></trkpt>
   <trkpt lat="46.052379" lon="6.442025"><ele>1094.75</ele></trkpt>
   <trkpt lat="46.052357" lon="6.44182"><ele>1095.5</ele></trkpt>
   <trkpt lat="46.052316" lon="6.441649"><ele>1096</ele></trkpt>
   <trkpt lat="46.052258" lon="6.441522"><ele>1097.25</ele></trkpt>
   <trkpt lat="46.05221" lon="6.441451"><ele>1097.75</ele></trkpt>
   <trkpt lat="46.052041" lon="6.441261"><ele>1099</ele></trkpt>
   <trkpt lat="46.051847" lon="6.441107"><ele>1100.75</ele></trkpt>
   <trkpt lat="46.051706" lon="6.44103"><ele>1102.75</ele></trkpt>
   <trkpt lat="46.051384" lon="6.440891"><ele>1105.75</ele></trkpt>
   <trkpt lat="46.050912" lon="6.440595"><ele>1109.25</ele></trkpt>
   <trkpt lat="46.05056" lon="6.44035"><ele>1114</ele></trkpt>
   <trkpt lat="46.050425" lon="6.440246"><ele>1115.75</ele></trkpt>
   <trkpt lat="46.050246" lon="6.44009"><ele>1117</ele></trkpt>
   <trkpt lat="46.049989" lon="6.439841"><ele>1120</ele></trkpt>
   <trkpt lat="46.049894" lon="6.439764"><ele>1122.5</ele></trkpt>
   <trkpt lat="46.049791" lon="6.439702"><ele>1124.25</ele></trkpt>
   <trkpt lat="46.049636" lon="6.439642"><ele>1125.25</ele></trkpt>
   <trkpt lat="46.04955" lon="6.439624"><ele>1126</ele></trkpt>
   <trkpt lat="46.049417" lon="6.439614"><ele>1126.75</ele></trkpt>
   <trkpt lat="46.049367" lon="6.439619"><ele>1127.5</ele></trkpt>
   <trkpt lat="46.049309" lon="6.439637"><ele>1128</ele></trkpt>
   <trkpt lat="46.049244" lon="6.439672"><ele>1128.5</ele></trkpt>
   <trkpt lat="46.049165" lon="6.43972"><ele>1129</ele></trkpt>
   <trkpt lat="46.049109" lon="6.439768"><ele>1128.75</ele></trkpt>
   <trkpt lat="46.049059" lon="6.439792"><ele>1128.75</ele></trkpt>
   <trkpt lat="46.048983" lon="6.439806"><ele>1129.25</ele></trkpt>
   <trkpt lat="46.048941" lon="6.439785"><ele>1130.25</ele></trkpt>
   <trkpt lat="46.048377" lon="6.43935"><ele>1137.5</ele></trkpt>
   <trkpt lat="46.048206" lon="6.439247"><ele>1139.25</ele></trkpt>
   <trkpt lat="46.048074" lon="6.439184"><ele>1140.5</ele></trkpt>
   <trkpt lat="46.048045" lon="6.439179"><ele>1140.5</ele></trkpt>
   <trkpt lat="46.047896" lon="6.439197"><ele>1141.75</ele></trkpt>
   <trkpt lat="46.047705" lon="6.439192"><ele>1144</ele></trkpt>
   <trkpt lat="46.047564" lon="6.439189"><ele>1145.5</ele></trkpt>
   <trkpt lat="46.047484" lon="6.439213"><ele>1146</ele></trkpt>
   <trkpt lat="46.047418" lon="6.439259"><ele>1146.75</ele></trkpt>
   <trkpt lat="46.047296" lon="6.439366"><ele>1147.5</ele></trkpt>
   <trkpt lat="46.047085" lon="6.439535"><ele>1148.5</ele></trkpt>
   <trkpt lat="46.047039" lon="6.439564"><ele>1148.5</ele></trkpt>
   <trkpt lat="46.046993" lon="6.439581"><ele>1149.25</ele></trkpt>
   <trkpt lat="46.046939" lon="6.439588"><ele>1150.25</ele></trkpt>
   <trkpt lat="46.046884" lon="6.439583"><ele>1150.5</ele></trkpt>
   <trkpt lat="46.046745" lon="6.439547"><ele>1151.75</ele></trkpt>
   <trkpt lat="46.04645" lon="6.43945"><ele>1154</ele></trkpt>
   <trkpt lat="46.045797" lon="6.439171"><ele>1161</ele></trkpt>
   <trkpt lat="46.045586" lon="6.439072"><ele>1164.5</ele></trkpt>
   <trkpt lat="46.045392" lon="6.438999"><ele>1167.25</ele></trkpt>
   <trkpt lat="46.045095" lon="6.438935"><ele>1170.75</ele></trkpt>
   <trkpt lat="46.04485" lon="6.438916"><ele>1173.5</ele></trkpt>
   <trkpt lat="46.044725" lon="6.438891"><ele>1175.75</ele></trkpt>
   <trkpt lat="46.044613" lon="6.438841"><ele>1176.25</ele></trkpt>
   <trkpt lat="46.044538" lon="6.438785"><ele>1177.25</ele></trkpt>
   <trkpt lat="46.044198" lon="6.438382"><ele>1183</ele></trkpt>
   <trkpt lat="46.044074" lon="6.438257"><ele>1185.25</ele></trkpt>
   <trkpt lat="46.043954" lon="6.438158"><ele>1187</ele></trkpt>
   <trkpt lat="46.043818" lon="6.438082"><ele>1188.5</ele></trkpt>
   <trkpt lat="46.043594" lon="6.437967"><ele>1192</ele></trkpt>
   <trkpt lat="46.04351" lon="6.437893"><ele>1193</ele></trkpt>
   <trkpt lat="46.043343" lon="6.437701"><ele>1196.25</ele></trkpt>
   <trkpt lat="46.043117" lon="6.437552"><ele>1200.25</ele></trkpt>
   <trkpt lat="46.042883" lon="6.437432"><ele>1203.5</ele></trkpt>
   <trkpt lat="46.042514" lon="6.437198"><ele>1208.75</ele></trkpt>
   <trkpt lat="46.042141" lon="6.436946"><ele>1212.75</ele></trkpt>
   <trkpt lat="46.04193" lon="6.436836"><ele>1216.5</ele></trkpt>
   <trkpt lat="46.04167" lon="6.43674"><ele>1219.25</ele></trkpt>
   <trkpt lat="46.041535" lon="6.436736"><ele>1222.5</ele></trkpt>
   <trkpt lat="46.041497" lon="6.436753"><ele>1223.25</ele></trkpt>
   <trkpt lat="46.041483" lon="6.436764"><ele>1223.5</ele></trkpt>
   <trkpt lat="46.041454" lon="6.436788"><ele>1223.75</ele></trkpt>
   <trkpt lat="46.04143" lon="6.436821"><ele>1224</ele></trkpt>
   <trkpt lat="46.041334" lon="6.437087"><ele>1225</ele></trkpt>
   <trkpt lat="46.041289" lon="6.437174"><ele>1226</ele></trkpt>
   <trkpt lat="46.041157" lon="6.437379"><ele>1229.25</ele></trkpt>
   <trkpt lat="46.041114" lon="6.437483"><ele>1230</ele></trkpt>
   <trkpt lat="46.041039" lon="6.437666"><ele>1230.75</ele></trkpt>
   <trkpt lat="46.041021" lon="6.437687"><ele>1231.5</ele></trkpt>
   <trkpt lat="46.041" lon="6.437697"><ele>1232.25</ele></trkpt>
   <trkpt lat="46.040963" lon="6.437688"><ele>1234</ele></trkpt>
   <trkpt lat="46.040949" lon="6.437675"><ele>1235</ele></trkpt>
   <trkpt lat="46.040932" lon="6.43763"><ele>1236</ele></trkpt>
   <trkpt lat="46.040934" lon="6.437573"><ele>1236.25</ele></trkpt>
   <trkpt lat="46.040955" lon="6.437505"><ele>1236</ele></trkpt>
   <trkpt lat="46.041022" lon="6.437371"><ele>1235.5</ele></trkpt>
   <trkpt lat="46.041188" lon="6.436968"><ele>1233</ele></trkpt>
   <trkpt lat="46.041237" lon="6.436825"><ele>1232.25</ele></trkpt>
   <trkpt lat="46.041257" lon="6.436721"><ele>1232.5</ele></trkpt>
   <trkpt lat="46.041269" lon="6.436403"><ele>1235.5</ele></trkpt>
   <trkpt lat="46.041284" lon="6.436336"><ele>1235.75</ele></trkpt>
   <trkpt lat="46.041315" lon="6.436265"><ele>1236</ele></trkpt>
   <trkpt lat="46.041347" lon="6.436208"><ele>1236</ele></trkpt>
   <trkpt lat="46.041387" lon="6.436148"><ele>1236</ele></trkpt>
   <trkpt lat="46.041453" lon="6.436102"><ele>1237</ele></trkpt>
   <trkpt lat="46.041528" lon="6.436078"><ele>1237.5</ele></trkpt>
   <trkpt lat="46.041649" lon="6.436066"><ele>1237.75</ele></trkpt>
   <trkpt lat="46.041689" lon="6.436047"><ele>1238.5</ele></trkpt>
   <trkpt lat="46.041717" lon="6.436009"><ele>1239.75</ele></trkpt>
   <trkpt lat="46.041727" lon="6.435954"><ele>1241</ele></trkpt>
   <trkpt lat="46.041721" lon="6.435914"><ele>1241.5</ele></trkpt>
   <trkpt lat="46.04171" lon="6.435888"><ele>1242</ele></trkpt>
   <trkpt lat="46.041666" lon="6.435841"><ele>1241.75</ele></trkpt>
   <trkpt lat="46.041625" lon="6.435824"><ele>1242.5</ele></trkpt>
   <trkpt lat="46.041191" lon="6.435805"><ele>1247.5</ele></trkpt>
   <trkpt lat="46.041133" lon="6.435815"><ele>1248</ele></trkpt>
   <trkpt lat="46.04108" lon="6.435851"><ele>1248.75</ele></trkpt>
   <trkpt lat="46.04104" lon="6.435903"><ele>1249.75</ele></trkpt>
   <trkpt lat="46.041022" lon="6.435937"><ele>1250</ele></trkpt>
   <trkpt lat="46.040983" lon="6.436055"><ele>1250.5</ele></trkpt>
   <trkpt lat="46.040896" lon="6.436403"><ele>1251.75</ele></trkpt>
   <trkpt lat="46.040853" lon="6.436557"><ele>1252.75</ele></trkpt>
   <trkpt lat="46.040812" lon="6.436678"><ele>1254</ele></trkpt>
   <trkpt lat="46.040651" lon="6.437086"><ele>1257.75</ele></trkpt>
   <trkpt lat="46.040558" lon="6.437398"><ele>1259.75</ele></trkpt>
   <trkpt lat="46.040476" lon="6.437775"><ele>1263</ele></trkpt>
   <trkpt lat="46.040412" lon="6.43813"><ele>1265</ele></trkpt>
   <trkpt lat="46.040339" lon="6.438375"><ele>1267.25</ele></trkpt>
   <trkpt lat="46.040316" lon="6.438483"><ele>1268.5</ele></trkpt>
   <trkpt lat="46.04031" lon="6.43855"><ele>1269</ele></trkpt>
   <trkpt lat="46.040307" lon="6.438731"><ele>1270.5</ele></trkpt>
   <trkpt lat="46.040312" lon="6.438828"><ele>1271.25</ele></trkpt>
   <trkpt lat="46.040355" lon="6.439257"><ele>1274</ele></trkpt>
   <trkpt lat="46.040358" lon="6.439365"><ele>1275.25</ele></trkpt>
   <trkpt lat="46.040345" lon="6.439774"><ele>1278.75</ele></trkpt>
   <trkpt lat="46.040342" lon="6.440092"><ele>1281</ele></trkpt>
   <trkpt lat="46.040337" lon="6.440201"><ele>1282</ele></trkpt>
   <trkpt lat="46.040312" lon="6.440455"><ele>1284.25</ele></trkpt>
   <trkpt lat="46.040268" lon="6.440775"><ele>1286</ele></trkpt>
   <trkpt lat="46.040256" lon="6.440904"><ele>1286.5</ele></trkpt>
   <trkpt lat="46.040248" lon="6.441043"><ele>1287</ele></trkpt>
   <trkpt lat="46.040252" lon="6.441502"><ele>1290.25</ele></trkpt>
   <trkpt lat="46.040248" lon="6.441597"><ele>1290.75</ele></trkpt>
   <trkpt lat="46.040198" lon="6.441905"><ele>1294.75</ele></trkpt>
   <trkpt lat="46.040191" lon="6.442016"><ele>1295.75</ele></trkpt>
   <trkpt lat="46.040189" lon="6.442367"><ele>1297</ele></trkpt>
   <trkpt lat="46.040162" lon="6.442503"><ele>1299</ele></trkpt>
   <trkpt lat="46.040122" lon="6.442589"><ele>1299.25</ele></trkpt>
   <trkpt lat="46.040067" lon="6.442674"><ele>1300.5</ele></trkpt>
   <trkpt lat="46.039861" lon="6.44293"><ele>1303.25</ele></trkpt>
   <trkpt lat="46.039783" lon="6.44304"><ele>1304.25</ele></trkpt>
   <trkpt lat="46.039638" lon="6.443282"><ele>1301.5</ele></trkpt>
   <trkpt lat="46.039592" lon="6.443346"><ele>1301</ele></trkpt>
   <trkpt lat="46.039546" lon="6.443388"><ele>1301.5</ele></trkpt>
   <trkpt lat="46.039498" lon="6.443397"><ele>1303.75</ele></trkpt>
   <trkpt lat="46.039443" lon="6.44338"><ele>1306.75</ele></trkpt>
   <trkpt lat="46.03937" lon="6.443307"><ele>1306.75</ele></trkpt>
   <trkpt lat="46.039029" lon="6.442815"><ele>1308.25</ele></trkpt>
   <trkpt lat="46.038761" lon="6.442582"><ele>1308.5</ele></trkpt>
   <trkpt lat="46.038676" lon="6.442499"><ele>1308.75</ele></trkpt>
   <trkpt lat="46.038613" lon="6.442456"><ele>1308.75</ele></trkpt>
   <trkpt lat="46.038189" lon="6.442234"><ele>1309.25</ele></trkpt>
   <trkpt lat="46.038112" lon="6.442173"><ele>1309.75</ele></trkpt>
   <trkpt lat="46.037961" lon="6.441954"><ele>1311.75</ele></trkpt>
   <trkpt lat="46.037852" lon="6.441814"><ele>1314</ele></trkpt>
   <trkpt lat="46.037766" lon="6.441742"><ele>1314.75</ele></trkpt>
   <trkpt lat="46.037702" lon="6.441677"><ele>1315.25</ele></trkpt>
   <trkpt lat="46.037625" lon="6.441583"><ele>1316.25</ele></trkpt>
   <trkpt lat="46.037456" lon="6.441312"><ele>1319.25</ele></trkpt>
   <trkpt lat="46.037271" lon="6.441056"><ele>1321.75</ele></trkpt>
   <trkpt lat="46.037162" lon="6.44093"><ele>1323.25</ele></trkpt>
   <trkpt lat="46.037027" lon="6.440789"><ele>1324.75</ele></trkpt>
   <trkpt lat="46.036675" lon="6.440335"><ele>1327.5</ele></trkpt>
   <trkpt lat="46.036589" lon="6.440161"><ele>1328.5</ele></trkpt>
   <trkpt lat="46.036537" lon="6.440034"><ele>1329.5</ele></trkpt>
   <trkpt lat="46.036508" lon="6.439982"><ele>1330</ele></trkpt>
   <trkpt lat="46.036406" lon="6.439863"><ele>1331</ele></trkpt>
   <trkpt lat="46.036229" lon="6.439592"><ele>1334.25</ele></trkpt>
   <trkpt lat="46.036083" lon="6.439399"><ele>1336.5</ele></trkpt>
   <trkpt lat="46.035878" lon="6.439084"><ele>1340.25</ele></trkpt>
   <trkpt lat="46.035781" lon="6.438977"><ele>1341.5</ele></trkpt>
   <trkpt lat="46.035618" lon="6.438824"><ele>1343.25</ele></trkpt>
   <trkpt lat="46.035586" lon="6.438779"><ele>1343.75</ele></trkpt>
   <trkpt lat="46.035559" lon="6.438724"><ele>1344.25</ele></trkpt>
   <trkpt lat="46.035528" lon="6.438622"><ele>1345.5</ele></trkpt>
   <trkpt lat="46.035454" lon="6.438094"><ele>1350.75</ele></trkpt>
   <trkpt lat="46.035413" lon="6.437968"><ele>1352.75</ele></trkpt>
   <trkpt lat="46.035384" lon="6.437914"><ele>1353.5</ele></trkpt>
   <trkpt lat="46.035321" lon="6.437832"><ele>1354</ele></trkpt>
   <trkpt lat="46.035284" lon="6.4378"><ele>1353.75</ele></trkpt>
   <trkpt lat="46.035087" lon="6.437681"><ele>1355.5</ele></trkpt>
   <trkpt lat="46.035032" lon="6.437635"><ele>1356.25</ele></trkpt>
   <trkpt lat="46.034966" lon="6.437563"><ele>1357.25</ele></trkpt>
   <trkpt lat="46.034845" lon="6.437425"><ele>1359</ele></trkpt>
   <trkpt lat="46.034747" lon="6.437297"><ele>1360.5</ele></trkpt>
   <trkpt lat="46.034587" lon="6.437069"><ele>1363.5</ele></trkpt>
   <trkpt lat="46.034539" lon="6.437018"><ele>1363.75</ele></trkpt>
   <trkpt lat="46.034453" lon="6.436946"><ele>1364</ele></trkpt>
   <trkpt lat="46.034329" lon="6.436856"><ele>1365.75</ele></trkpt>
   <trkpt lat="46.034064" lon="6.436703"><ele>1368.5</ele></trkpt>
   <trkpt lat="46.03396" lon="6.436657"><ele>1369</ele></trkpt>
   <trkpt lat="46.033805" lon="6.436604"><ele>1369</ele></trkpt>
   <trkpt lat="46.033756" lon="6.436566"><ele>1369.25</ele></trkpt>
   <trkpt lat="46.033718" lon="6.436513"><ele>1369.75</ele></trkpt>
   <trkpt lat="46.033709" lon="6.436445"><ele>1370.5</ele></trkpt>
   <trkpt lat="46.033716" lon="6.436396"><ele>1371.25</ele></trkpt>
   <trkpt lat="46.033734" lon="6.436349"><ele>1371.75</ele></trkpt>
   <trkpt lat="46.03378" lon="6.436293"><ele>1372.5</ele></trkpt>
   <trkpt lat="46.033811" lon="6.436275"><ele>1372.75</ele></trkpt>
   <trkpt lat="46.033864" lon="6.436262"><ele>1373</ele></trkpt>
   <trkpt lat="46.034158" lon="6.436223"><ele>1375.25</ele></trkpt>
   <trkpt lat="46.034411" lon="6.436139"><ele>1376.5</ele></trkpt>
   <trkpt lat="46.034491" lon="6.436144"><ele>1377.25</ele></trkpt>
   <trkpt lat="46.034854" lon="6.436344"><ele>1380</ele></trkpt>
   <trkpt lat="46.035027" lon="6.436485"><ele>1380</ele></trkpt>
   <trkpt lat="46.035147" lon="6.436554"><ele>1381</ele></trkpt>
   <trkpt lat="46.035738" lon="6.436802"><ele>1384.5</ele></trkpt>
   <trkpt lat="46.035787" lon="6.436805"><ele>1385</ele></trkpt>
   <trkpt lat="46.035822" lon="6.436776"><ele>1385.5</ele></trkpt>
   <trkpt lat="46.035837" lon="6.436743"><ele>1386.25</ele></trkpt>
   <trkpt lat="46.035847" lon="6.436659"><ele>1387.75</ele></trkpt>
   <trkpt lat="46.035832" lon="6.43658"><ele>1389</ele></trkpt>
   <trkpt lat="46.035809" lon="6.436541"><ele>1389.75</ele></trkpt>
   <trkpt lat="46.035775" lon="6.43651"><ele>1390.25</ele></trkpt>
   <trkpt lat="46.035586" lon="6.4364"><ele>1390</ele></trkpt>
   <trkpt lat="46.035535" lon="6.436343"><ele>1390.75</ele></trkpt>
   <trkpt lat="46.035368" lon="6.436115"><ele>1393.75</ele></trkpt>
   <trkpt lat="46.035183" lon="6.435884"><ele>1397</ele></trkpt>
   <trkpt lat="46.035005" lon="6.435586"><ele>1401.25</ele></trkpt>
   <trkpt lat="46.034951" lon="6.435469"><ele>1402</ele></trkpt>
   <trkpt lat="46.034939" lon="6.435417"><ele>1402.5</ele></trkpt>
   <trkpt lat="46.034934" lon="6.435343"><ele>1403.5</ele></trkpt>
   <trkpt lat="46.034954" lon="6.435179"><ele>1405.75</ele></trkpt>
   <trkpt lat="46.034946" lon="6.435093"><ele>1406.25</ele></trkpt>
   <trkpt lat="46.034935" lon="6.435053"><ele>1406.5</ele></trkpt>
   <trkpt lat="46.034913" lon="6.435009"><ele>1406.5</ele></trkpt>
   <trkpt lat="46.034875" lon="6.434957"><ele>1407.5</ele></trkpt>
   <trkpt lat="46.034768" lon="6.434835"><ele>1409.5</ele></trkpt>
   <trkpt lat="46.034666" lon="6.434769"><ele>1410.75</ele></trkpt>
   <trkpt lat="46.034481" lon="6.434706"><ele>1413</ele></trkpt>
   <trkpt lat="46.034434" lon="6.434669"><ele>1414</ele></trkpt>
   <trkpt lat="46.03434" lon="6.434571"><ele>1415</ele></trkpt>
   <trkpt lat="46.033987" lon="6.434126"><ele>1420.75</ele></trkpt>
   <trkpt lat="46.033895" lon="6.43404"><ele>1422</ele></trkpt>
   <trkpt lat="46.033737" lon="6.433909"><ele>1423.25</ele></trkpt>
   <trkpt lat="46.033663" lon="6.433825"><ele>1423.5</ele></trkpt>
   <trkpt lat="46.033621" lon="6.433758"><ele>1424</ele></trkpt>
   <trkpt lat="46.033451" lon="6.433415"><ele>1426.75</ele></trkpt>
   <trkpt lat="46.0333" lon="6.43324"><ele>1428.75</ele></trkpt>
   <trkpt lat="46.033275" lon="6.433201"><ele>1429.25</ele></trkpt>
   <trkpt lat="46.033066" lon="6.43282"><ele>1435</ele></trkpt>
   <trkpt lat="46.03296" lon="6.43266"><ele>1436.75</ele></trkpt>
   <trkpt lat="46.032798" lon="6.432394"><ele>1439.5</ele></trkpt>
   <trkpt lat="46.032588" lon="6.432111"><ele>1442.5</ele></trkpt>
   <trkpt lat="46.032535" lon="6.432028"><ele>1443.5</ele></trkpt>
   <trkpt lat="46.032423" lon="6.431801"><ele>1446.5</ele></trkpt>
   <trkpt lat="46.032339" lon="6.431661"><ele>1448.5</ele></trkpt>
   <trkpt lat="46.032184" lon="6.431465"><ele>1449.75</ele></trkpt>
   <trkpt lat="46.03213" lon="6.431384"><ele>1450.75</ele></trkpt>
   <trkpt lat="46.032071" lon="6.431261"><ele>1451.75</ele></trkpt>
   <trkpt lat="46.031933" lon="6.430896"><ele>1455.5</ele></trkpt>
   <trkpt lat="46.031866" lon="6.430746"><ele>1457</ele></trkpt>
   <trkpt lat="46.031835" lon="6.430691"><ele>1457.25</ele></trkpt>
   <trkpt lat="46.03165" lon="6.430418"><ele>1459</ele></trkpt>
   <trkpt lat="46.031604" lon="6.430327"><ele>1459</ele></trkpt>
   <trkpt lat="46.031587" lon="6.430283"><ele>1459</ele></trkpt>
   <trkpt lat="46.031563" lon="6.430175"><ele>1459</ele></trkpt>
   <trkpt lat="46.031546" lon="6.429952"><ele>1459.5</ele></trkpt>
   <trkpt lat="46.031538" lon="6.429707"><ele>1461</ele></trkpt>
   <trkpt lat="46.031521" lon="6.429529"><ele>1462.25</ele></trkpt>
   <trkpt lat="46.031504" lon="6.429415"><ele>1463</ele></trkpt>
   <trkpt lat="46.031453" lon="6.429189"><ele>1464.5</ele></trkpt>
   <trkpt lat="46.031359" lon="6.428825"><ele>1466.25</ele></trkpt>
   <trkpt lat="46.031314" lon="6.428673"><ele>1468</ele></trkpt>
   <trkpt lat="46.031285" lon="6.428604"><ele>1468.5</ele></trkpt>
   <trkpt lat="46.031251" lon="6.428553"><ele>1469.25</ele></trkpt>
   <trkpt lat="46.031111" lon="6.42844"><ele>1470.25</ele></trkpt>
   <trkpt lat="46.031088" lon="6.428414"><ele>1470.5</ele></trkpt>
   <trkpt lat="46.031047" lon="6.428351"><ele>1471.25</ele></trkpt>
   <trkpt lat="46.031011" lon="6.428269"><ele>1472</ele></trkpt>
   <trkpt lat="46.030911" lon="6.427992"><ele>1473.25</ele></trkpt>
   <trkpt lat="46.030874" lon="6.427856"><ele>1473.5</ele></trkpt>
   <trkpt lat="46.030818" lon="6.427599"><ele>1474.5</ele></trkpt>
   <trkpt lat="46.030785" lon="6.427487"><ele>1475.25</ele></trkpt>
   <trkpt lat="46.030756" lon="6.427409"><ele>1475.75</ele></trkpt>
   <trkpt lat="46.030712" lon="6.427316"><ele>1476</ele></trkpt>
   <trkpt lat="46.030588" lon="6.42712"><ele>1476.75</ele></trkpt>
   <trkpt lat="46.030432" lon="6.426933"><ele>1479.25</ele></trkpt>
   <trkpt lat="46.030373" lon="6.426891"><ele>1479.5</ele></trkpt>
   <trkpt lat="46.030193" lon="6.426804"><ele>1480.75</ele></trkpt>
   <trkpt lat="46.030153" lon="6.426777"><ele>1481.25</ele></trkpt>
   <trkpt lat="46.030126" lon="6.426748"><ele>1481.75</ele></trkpt>
   <trkpt lat="46.030043" lon="6.426628"><ele>1482.25</ele></trkpt>
   <trkpt lat="46.030024" lon="6.42659"><ele>1482.25</ele></trkpt>
   <trkpt lat="46.029993" lon="6.426514"><ele>1482.5</ele></trkpt>
   <trkpt lat="46.02998" lon="6.426462"><ele>1482.75</ele></trkpt>
   <trkpt lat="46.029971" lon="6.4264"><ele>1483</ele></trkpt>
   <trkpt lat="46.029972" lon="6.426366"><ele>1483.25</ele></trkpt>
   <trkpt lat="46.029973" lon="6.426347"><ele>1483.25</ele></trkpt>
   <trkpt lat="46.029991" lon="6.426292"><ele>1483.75</ele></trkpt>
   <trkpt lat="46.030006" lon="6.426263"><ele>1483.75</ele></trkpt>
   <trkpt lat="46.030038" lon="6.426216"><ele>1484.5</ele></trkpt>
   <trkpt lat="46.03006" lon="6.426204"><ele>1484.75</ele></trkpt>
   <trkpt lat="46.030124" lon="6.426199"><ele>1485.5</ele></trkpt>
   <trkpt lat="46.030164" lon="6.426221"><ele>1485.75</ele></trkpt>
   <trkpt lat="46.030301" lon="6.426358"><ele>1486.25</ele></trkpt>
   <trkpt lat="46.030433" lon="6.426465"><ele>1486.5</ele></trkpt>
   <trkpt lat="46.030561" lon="6.42652"><ele>1487</ele></trkpt>
   <trkpt lat="46.030932" lon="6.426596"><ele>1490</ele></trkpt>
   <trkpt lat="46.031072" lon="6.426589"><ele>1491.5</ele></trkpt>
   <trkpt lat="46.031241" lon="6.426541"><ele>1493</ele></trkpt>
   <trkpt lat="46.031385" lon="6.426536"><ele>1493.25</ele></trkpt>
   <trkpt lat="46.031473" lon="6.426555"><ele>1493.75</ele></trkpt>
   <trkpt lat="46.031584" lon="6.426592"><ele>1494.5</ele></trkpt>
   <trkpt lat="46.031844" lon="6.426635"><ele>1495.75</ele></trkpt>
   <trkpt lat="46.031966" lon="6.426685"><ele>1495.75</ele></trkpt>
   <trkpt lat="46.032065" lon="6.42674"><ele>1495.75</ele></trkpt>
   <trkpt lat="46.032121" lon="6.426785"><ele>1495.75</ele></trkpt>
   <trkpt lat="46.032308" lon="6.426931"><ele>1496.75</ele></trkpt>
   <trkpt lat="46.032387" lon="6.426977"><ele>1497.5</ele></trkpt>
   <trkpt lat="46.032457" lon="6.427001"><ele>1498.25</ele></trkpt>
   <trkpt lat="46.03247" lon="6.427005"><ele>1498.25</ele></trkpt>
   <trkpt lat="46.03254" lon="6.426986"><ele>1499</ele></trkpt>
   <trkpt lat="46.032596" lon="6.426989"><ele>1499</ele></trkpt>
   <trkpt lat="46.032706" lon="6.427023"><ele>1499.5</ele></trkpt>
   <trkpt lat="46.032797" lon="6.427085"><ele>1500</ele></trkpt>
   <trkpt lat="46.032893" lon="6.42721"><ele>1500.75</ele></trkpt>
   <trkpt lat="46.033002" lon="6.427377"><ele>1502</ele></trkpt>
   <trkpt lat="46.033064" lon="6.427434"><ele>1502.75</ele></trkpt>
   <trkpt lat="46.033155" lon="6.427485"><ele>1502.75</ele></trkpt>
   <trkpt lat="46.033215" lon="6.427474"><ele>1503</ele></trkpt>
   <trkpt lat="46.033213" lon="6.427518"><ele>1503</ele></trkpt>
   <trkpt lat="46.033218" lon="6.427539"><ele>1503</ele></trkpt>
   <trkpt lat="46.03324" lon="6.427569"><ele>1503.25</ele></trkpt>
   <trkpt lat="46.033199" lon="6.42764"><ele>1503.5</ele></trkpt>
  </trkseg>
 </trk>
</gpx>
