<?xml version="1.0" encoding="UTF-8"?>
<!-- track-length = 39653 filtered ascend = 1734 plain-ascend = 1233 cost=160064 energy=0.5kwh time=4h 41m 40s -->
<gpx 
 xmlns="http://www.topografix.com/GPX/1/1" 
 xmlns:xsi="http://www.w3.org/2001/XMLSchema-instance" 
 xsi:schemaLocation="http://www.topografix.com/GPX/1/1 http://www.topografix.com/GPX/1/1/gpx.xsd" 
 version="1.1" 
 creator="BRouter-Web 0.18.1">
 <trk>
  <name>Port d'envalira (39.7km)</name>
  <trkseg>
   <trkpt lat="42.511942" lon="1.550257"><ele>1111.75</ele></trkpt>
   <trkpt lat="42.512029" lon="1.550423"><ele>1113.25</ele></trkpt>
   <trkpt lat="42.512067" lon="1.550509"><ele>1113.75</ele></trkpt>
   <trkpt lat="42.512097" lon="1.550552"><ele>1113.5</ele></trkpt>
   <trkpt lat="42.512136" lon="1.550579"><ele>1113.75</ele></trkpt>
   <trkpt lat="42.512174" lon="1.550589"><ele>1112.75</ele></trkpt>
   <trkpt lat="42.5122" lon="1.550614"><ele>1112.75</ele></trkpt>
   <trkpt lat="42.512292" lon="1.550699"><ele>1114.25</ele></trkpt>
   <trkpt lat="42.512364" lon="1.550778"><ele>1115.25</ele></trkpt>
   <trkpt lat="42.512468" lon="1.550901"><ele>1117.25</ele></trkpt>
   <trkpt lat="42.512563" lon="1.551002"><ele>1119</ele></trkpt>
   <trkpt lat="42.512789" lon="1.551219"><ele>1118.5</ele></trkpt>
   <trkpt lat="42.512943" lon="1.551397"><ele>1119.5</ele></trkpt>
   <trkpt lat="42.513016" lon="1.551504"><ele>1120.25</ele></trkpt>
   <trkpt lat="42.513109" lon="1.551684"><ele>1120.75</ele></trkpt>
   <trkpt lat="42.513164" lon="1.551863"><ele>1123.5</ele></trkpt>
   <trkpt lat="42.51319" lon="1.551952"><ele>1124.75</ele></trkpt>
   <trkpt lat="42.513292" lon="1.552218"><ele>1125</ele></trkpt>
   <trkpt lat="42.513397" lon="1.552462"><ele>1128</ele></trkpt>
   <trkpt lat="42.513526" lon="1.552684"><ele>1130.75</ele></trkpt>
   <trkpt lat="42.513623" lon="1.552821"><ele>1131.75</ele></trkpt>
   <trkpt lat="42.513723" lon="1.552928"><ele>1134</ele></trkpt>
   <trkpt lat="42.514225" lon="1.553346"><ele>1138.5</ele></trkpt>
   <trkpt lat="42.514532" lon="1.553557"><ele>1139.5</ele></trkpt>
   <trkpt lat="42.515051" lon="1.55385"><ele>1144.5</ele></trkpt>
   <trkpt lat="42.515187" lon="1.553912"><ele>1143.75</ele></trkpt>
   <trkpt lat="42.515561" lon="1.554101"><ele>1144.5</ele></trkpt>
   <trkpt lat="42.515678" lon="1.554148"><ele>1145.25</ele></trkpt>
   <trkpt lat="42.516052" lon="1.554145"><ele>1146.5</ele></trkpt>
   <trkpt lat="42.516142" lon="1.554121"><ele>1146.75</ele></trkpt>
   <trkpt lat="42.516546" lon="1.553936"><ele>1149.5</ele></trkpt>
   <trkpt lat="42.51665" lon="1.553908"><ele>1151.75</ele></trkpt>
   <trkpt lat="42.51678" lon="1.553893"><ele>1152.75</ele></trkpt>
   <trkpt lat="42.516938" lon="1.553932"><ele>1154.75</ele></trkpt>
   <trkpt lat="42.51711" lon="1.554015"><ele>1153</ele></trkpt>
   <trkpt lat="42.517255" lon="1.554147"><ele>1153.75</ele></trkpt>
   <trkpt lat="42.517402" lon="1.554295"><ele>1154</ele></trkpt>
   <trkpt lat="42.51756" lon="1.554496"><ele>1155.5</ele></trkpt>
   <trkpt lat="42.517692" lon="1.554687"><ele>1156.25</ele></trkpt>
   <trkpt lat="42.517781" lon="1.554843"><ele>1157.25</ele></trkpt>
   <trkpt lat="42.517842" lon="1.554972"><ele>1157.75</ele></trkpt>
   <trkpt lat="42.517923" lon="1.555129"><ele>1158.5</ele></trkpt>
   <trkpt lat="42.51798" lon="1.555233"><ele>1159</ele></trkpt>
   <trkpt lat="42.518039" lon="1.555257"><ele>1158.75</ele></trkpt>
   <trkpt lat="42.518071" lon="1.555293"><ele>1159</ele></trkpt>
   <trkpt lat="42.518246" lon="1.55499"><ele>1152.75</ele></trkpt>
   <trkpt lat="42.518405" lon="1.554753"><ele>1151</ele></trkpt>
   <trkpt lat="42.518448" lon="1.554679"><ele>1151.75</ele></trkpt>
   <trkpt lat="42.518492" lon="1.554654"><ele>1152.25</ele></trkpt>
   <trkpt lat="42.518548" lon="1.554662"><ele>1152.25</ele></trkpt>
   <trkpt lat="42.518721" lon="1.554785"><ele>1152</ele></trkpt>
   <trkpt lat="42.519015" lon="1.555088"><ele>1152.5</ele></trkpt>
   <trkpt lat="42.519138" lon="1.555259"><ele>1152.75</ele></trkpt>
   <trkpt lat="42.519228" lon="1.555454"><ele>1152.75</ele></trkpt>
   <trkpt lat="42.519332" lon="1.555807"><ele>1152.25</ele></trkpt>
   <trkpt lat="42.519389" lon="1.555974"><ele>1152.75</ele></trkpt>
   <trkpt lat="42.51947" lon="1.556116"><ele>1153</ele></trkpt>
   <trkpt lat="42.519548" lon="1.556218"><ele>1153.5</ele></trkpt>
   <trkpt lat="42.51962" lon="1.556286"><ele>1153.75</ele></trkpt>
   <trkpt lat="42.5198" lon="1.556433"><ele>1154.5</ele></trkpt>
   <trkpt lat="42.519987" lon="1.556505"><ele>1154.5</ele></trkpt>
   <trkpt lat="42.520235" lon="1.556557"><ele>1155</ele></trkpt>
   <trkpt lat="42.520455" lon="1.556651"><ele>1156.25</ele></trkpt>
   <trkpt lat="42.520633" lon="1.556747"><ele>1157.25</ele></trkpt>
   <trkpt lat="42.520813" lon="1.556895"><ele>1157.75</ele></trkpt>
   <trkpt lat="42.521162" lon="1.557142"><ele>1159.25</ele></trkpt>
   <trkpt lat="42.52143" lon="1.557301"><ele>1160.5</ele></trkpt>
   <trkpt lat="42.521588" lon="1.557441"><ele>1161.75</ele></trkpt>
   <trkpt lat="42.52169" lon="1.557547"><ele>1162</ele></trkpt>
   <trkpt lat="42.521792" lon="1.557746"><ele>1162</ele></trkpt>
   <trkpt lat="42.521861" lon="1.557908"><ele>1162.5</ele></trkpt>
   <trkpt lat="42.521975" lon="1.558274"><ele>1162.25</ele></trkpt>
   <trkpt lat="42.522117" lon="1.558632"><ele>1162.5</ele></trkpt>
   <trkpt lat="42.522247" lon="1.558883"><ele>1163</ele></trkpt>
   <trkpt lat="42.522405" lon="1.559108"><ele>1163.25</ele></trkpt>
   <trkpt lat="42.522586" lon="1.559292"><ele>1164.75</ele></trkpt>
   <trkpt lat="42.522765" lon="1.559577"><ele>1165.5</ele></trkpt>
   <trkpt lat="42.522883" lon="1.559842"><ele>1166.75</ele></trkpt>
   <trkpt lat="42.523014" lon="1.560219"><ele>1167.75</ele></trkpt>
   <trkpt lat="42.52316" lon="1.560454"><ele>1168.25</ele></trkpt>
   <trkpt lat="42.523352" lon="1.560685"><ele>1169.5</ele></trkpt>
   <trkpt lat="42.523684" lon="1.560922"><ele>1170</ele></trkpt>
   <trkpt lat="42.523862" lon="1.561084"><ele>1170.75</ele></trkpt>
   <trkpt lat="42.524025" lon="1.561262"><ele>1171.25</ele></trkpt>
   <trkpt lat="42.524229" lon="1.56152"><ele>1172</ele></trkpt>
   <trkpt lat="42.524415" lon="1.561739"><ele>1173</ele></trkpt>
   <trkpt lat="42.524708" lon="1.56197"><ele>1174.5</ele></trkpt>
   <trkpt lat="42.525011" lon="1.562168"><ele>1176.5</ele></trkpt>
   <trkpt lat="42.525335" lon="1.562497"><ele>1180.5</ele></trkpt>
   <trkpt lat="42.525505" lon="1.56272"><ele>1181</ele></trkpt>
   <trkpt lat="42.525708" lon="1.563119"><ele>1183.75</ele></trkpt>
   <trkpt lat="42.525785" lon="1.563429"><ele>1183.25</ele></trkpt>
   <trkpt lat="42.52572" lon="1.563561"><ele>1181.75</ele></trkpt>
   <trkpt lat="42.525428" lon="1.564044"><ele>1181</ele></trkpt>
   <trkpt lat="42.525399" lon="1.564089"><ele>1181.25</ele></trkpt>
   <trkpt lat="42.525346" lon="1.564169"><ele>1181.75</ele></trkpt>
   <trkpt lat="42.525306" lon="1.564228"><ele>1182</ele></trkpt>
   <trkpt lat="42.525279" lon="1.564172"><ele>1182</ele></trkpt>
   <trkpt lat="42.525239" lon="1.56413"><ele>1181.75</ele></trkpt>
   <trkpt lat="42.525192" lon="1.564107"><ele>1181.75</ele></trkpt>
   <trkpt lat="42.525142" lon="1.564106"><ele>1182</ele></trkpt>
   <trkpt lat="42.525095" lon="1.564126"><ele>1182.25</ele></trkpt>
   <trkpt lat="42.525055" lon="1.564166"><ele>1182.75</ele></trkpt>
   <trkpt lat="42.525027" lon="1.56422"><ele>1184</ele></trkpt>
   <trkpt lat="42.525012" lon="1.564284"><ele>1185.75</ele></trkpt>
   <trkpt lat="42.525013" lon="1.56435"><ele>1187.25</ele></trkpt>
   <trkpt lat="42.525025" lon="1.564404"><ele>1188.25</ele></trkpt>
   <trkpt lat="42.525048" lon="1.56445"><ele>1188.75</ele></trkpt>
   <trkpt lat="42.525078" lon="1.564488"><ele>1189.25</ele></trkpt>
   <trkpt lat="42.525115" lon="1.564512"><ele>1188.75</ele></trkpt>
   <trkpt lat="42.525253" lon="1.565011"><ele>1192</ele></trkpt>
   <trkpt lat="42.525343" lon="1.565278"><ele>1193.75</ele></trkpt>
   <trkpt lat="42.52544" lon="1.565517"><ele>1195.5</ele></trkpt>
   <trkpt lat="42.525568" lon="1.565797"><ele>1195.25</ele></trkpt>
   <trkpt lat="42.525705" lon="1.56607"><ele>1198.75</ele></trkpt>
   <trkpt lat="42.525865" lon="1.566359"><ele>1200.25</ele></trkpt>
   <trkpt lat="42.526517" lon="1.567173"><ele>1205</ele></trkpt>
   <trkpt lat="42.526771" lon="1.567512"><ele>1208</ele></trkpt>
   <trkpt lat="42.526788" lon="1.567535"><ele>1208.25</ele></trkpt>
   <trkpt lat="42.526969" lon="1.567791"><ele>1208.75</ele></trkpt>
   <trkpt lat="42.527077" lon="1.567994"><ele>1209.75</ele></trkpt>
   <trkpt lat="42.527334" lon="1.568549"><ele>1210</ele></trkpt>
   <trkpt lat="42.527614" lon="1.569077"><ele>1214.75</ele></trkpt>
   <trkpt lat="42.527778" lon="1.569369"><ele>1225.5</ele></trkpt>
   <trkpt lat="42.528797" lon="1.570921"><ele>1240</ele></trkpt>
   <trkpt lat="42.528865" lon="1.571023"><ele>1240</ele></trkpt>
   <trkpt lat="42.529026" lon="1.571219"><ele>1237.75</ele></trkpt>
   <trkpt lat="42.529163" lon="1.571372"><ele>1233.75</ele></trkpt>
   <trkpt lat="42.529218" lon="1.571433"><ele>1234.5</ele></trkpt>
   <trkpt lat="42.529207" lon="1.571486"><ele>1236.5</ele></trkpt>
   <trkpt lat="42.529206" lon="1.571541"><ele>1238.25</ele></trkpt>
   <trkpt lat="42.529217" lon="1.571594"><ele>1239.5</ele></trkpt>
   <trkpt lat="42.529238" lon="1.571642"><ele>1240</ele></trkpt>
   <trkpt lat="42.52927" lon="1.571853"><ele>1244.75</ele></trkpt>
   <trkpt lat="42.529302" lon="1.57198"><ele>1245</ele></trkpt>
   <trkpt lat="42.529321" lon="1.572177"><ele>1247</ele></trkpt>
   <trkpt lat="42.529347" lon="1.572424"><ele>1247</ele></trkpt>
   <trkpt lat="42.529389" lon="1.57259"><ele>1247</ele></trkpt>
   <trkpt lat="42.529416" lon="1.572676"><ele>1247.25</ele></trkpt>
   <trkpt lat="42.529466" lon="1.572798"><ele>1248.25</ele></trkpt>
   <trkpt lat="42.529524" lon="1.572918"><ele>1251.25</ele></trkpt>
   <trkpt lat="42.529625" lon="1.573052"><ele>1250.75</ele></trkpt>
   <trkpt lat="42.529669" lon="1.573107"><ele>1250</ele></trkpt>
   <trkpt lat="42.529725" lon="1.573164"><ele>1249.75</ele></trkpt>
   <trkpt lat="42.529749" lon="1.573189"><ele>1249.75</ele></trkpt>
   <trkpt lat="42.529881" lon="1.573291"><ele>1250.25</ele></trkpt>
   <trkpt lat="42.530345" lon="1.57352"><ele>1248.5</ele></trkpt>
   <trkpt lat="42.53042" lon="1.57357"><ele>1248.75</ele></trkpt>
   <trkpt lat="42.530544" lon="1.573678"><ele>1249.25</ele></trkpt>
   <trkpt lat="42.530716" lon="1.573861"><ele>1252</ele></trkpt>
   <trkpt lat="42.530905" lon="1.574111"><ele>1255</ele></trkpt>
   <trkpt lat="42.53103" lon="1.574319"><ele>1256.25</ele></trkpt>
   <trkpt lat="42.531144" lon="1.574549"><ele>1257</ele></trkpt>
   <trkpt lat="42.531272" lon="1.574836"><ele>1259.75</ele></trkpt>
   <trkpt lat="42.531354" lon="1.575072"><ele>1261.25</ele></trkpt>
   <trkpt lat="42.53141" lon="1.575292"><ele>1261.75</ele></trkpt>
   <trkpt lat="42.531461" lon="1.57553"><ele>1263.25</ele></trkpt>
   <trkpt lat="42.531518" lon="1.575828"><ele>1266</ele></trkpt>
   <trkpt lat="42.531581" lon="1.576148"><ele>1266</ele></trkpt>
   <trkpt lat="42.531634" lon="1.576468"><ele>1268</ele></trkpt>
   <trkpt lat="42.531638" lon="1.576495"><ele>1268.25</ele></trkpt>
   <trkpt lat="42.531701" lon="1.57712"><ele>1270</ele></trkpt>
   <trkpt lat="42.531708" lon="1.577185"><ele>1270</ele></trkpt>
   <trkpt lat="42.531708" lon="1.577301"><ele>1270.5</ele></trkpt>
   <trkpt lat="42.531734" lon="1.577589"><ele>1271.25</ele></trkpt>
   <trkpt lat="42.531761" lon="1.578018"><ele>1271.75</ele></trkpt>
   <trkpt lat="42.531772" lon="1.578444"><ele>1275.5</ele></trkpt>
   <trkpt lat="42.53178" lon="1.578736"><ele>1275.5</ele></trkpt>
   <trkpt lat="42.53178" lon="1.578976"><ele>1276.75</ele></trkpt>
   <trkpt lat="42.531764" lon="1.57943"><ele>1278.75</ele></trkpt>
   <trkpt lat="42.531717" lon="1.579578"><ele>1280.25</ele></trkpt>
   <trkpt lat="42.5317" lon="1.579632"><ele>1280.75</ele></trkpt>
   <trkpt lat="42.531661" lon="1.579655"><ele>1281.75</ele></trkpt>
   <trkpt lat="42.53163" lon="1.579692"><ele>1283.25</ele></trkpt>
   <trkpt lat="42.531608" lon="1.579741"><ele>1284.25</ele></trkpt>
   <trkpt lat="42.531598" lon="1.579796"><ele>1285</ele></trkpt>
   <trkpt lat="42.531601" lon="1.579853"><ele>1285.25</ele></trkpt>
   <trkpt lat="42.531618" lon="1.579906"><ele>1285</ele></trkpt>
   <trkpt lat="42.531645" lon="1.579949"><ele>1284.25</ele></trkpt>
   <trkpt lat="42.53168" lon="1.579979"><ele>1283.25</ele></trkpt>
   <trkpt lat="42.531736" lon="1.580242"><ele>1282</ele></trkpt>
   <trkpt lat="42.531735" lon="1.580356"><ele>1277.25</ele></trkpt>
   <trkpt lat="42.531733" lon="1.580866"><ele>1277.25</ele></trkpt>
   <trkpt lat="42.531697" lon="1.581781"><ele>1283.25</ele></trkpt>
   <trkpt lat="42.531687" lon="1.582216"><ele>1289.5</ele></trkpt>
   <trkpt lat="42.531706" lon="1.582496"><ele>1292.5</ele></trkpt>
   <trkpt lat="42.531724" lon="1.582631"><ele>1293</ele></trkpt>
   <trkpt lat="42.531758" lon="1.582804"><ele>1293.5</ele></trkpt>
   <trkpt lat="42.531798" lon="1.582953"><ele>1294.25</ele></trkpt>
   <trkpt lat="42.531803" lon="1.582971"><ele>1294.25</ele></trkpt>
   <trkpt lat="42.53185" lon="1.583113"><ele>1294.5</ele></trkpt>
   <trkpt lat="42.531918" lon="1.583267"><ele>1293.25</ele></trkpt>
   <trkpt lat="42.531988" lon="1.583394"><ele>1292.25</ele></trkpt>
   <trkpt lat="42.532303" lon="1.583904"><ele>1293.75</ele></trkpt>
   <trkpt lat="42.532727" lon="1.584389"><ele>1303.75</ele></trkpt>
   <trkpt lat="42.532994" lon="1.584655"><ele>1307.5</ele></trkpt>
   <trkpt lat="42.533012" lon="1.584675"><ele>1310</ele></trkpt>
   <trkpt lat="42.53317" lon="1.584853"><ele>1310</ele></trkpt>
   <trkpt lat="42.533471" lon="1.585456"><ele>1316.25</ele></trkpt>
   <trkpt lat="42.533517" lon="1.585544"><ele>1316.75</ele></trkpt>
   <trkpt lat="42.533571" lon="1.585611"><ele>1317</ele></trkpt>
   <trkpt lat="42.533628" lon="1.585669"><ele>1317</ele></trkpt>
   <trkpt lat="42.533749" lon="1.585753"><ele>1317</ele></trkpt>
   <trkpt lat="42.533863" lon="1.585832"><ele>1316.25</ele></trkpt>
   <trkpt lat="42.534" lon="1.586003"><ele>1316.25</ele></trkpt>
   <trkpt lat="42.53411" lon="1.58617"><ele>1316.5</ele></trkpt>
   <trkpt lat="42.53417" lon="1.586281"><ele>1317</ele></trkpt>
   <trkpt lat="42.534237" lon="1.586406"><ele>1317</ele></trkpt>
   <trkpt lat="42.534326" lon="1.586593"><ele>1318</ele></trkpt>
   <trkpt lat="42.534389" lon="1.586726"><ele>1318.75</ele></trkpt>
   <trkpt lat="42.53445" lon="1.586856"><ele>1320</ele></trkpt>
   <trkpt lat="42.534491" lon="1.586945"><ele>1321</ele></trkpt>
   <trkpt lat="42.534513" lon="1.586994"><ele>1321.25</ele></trkpt>
   <trkpt lat="42.534565" lon="1.587101"><ele>1322.25</ele></trkpt>
   <trkpt lat="42.534617" lon="1.587196"><ele>1323</ele></trkpt>
   <trkpt lat="42.534689" lon="1.58732"><ele>1323.75</ele></trkpt>
   <trkpt lat="42.534904" lon="1.587667"><ele>1326.75</ele></trkpt>
   <trkpt lat="42.534941" lon="1.587717"><ele>1327.5</ele></trkpt>
   <trkpt lat="42.535083" lon="1.587907"><ele>1328.25</ele></trkpt>
   <trkpt lat="42.535166" lon="1.58809"><ele>1329.5</ele></trkpt>
   <trkpt lat="42.535182" lon="1.588131"><ele>1329.5</ele></trkpt>
   <trkpt lat="42.535183" lon="1.588195"><ele>1329.5</ele></trkpt>
   <trkpt lat="42.535209" lon="1.588248"><ele>1329.5</ele></trkpt>
   <trkpt lat="42.535229" lon="1.588264"><ele>1329.25</ele></trkpt>
   <trkpt lat="42.535275" lon="1.588272"><ele>1329</ele></trkpt>
   <trkpt lat="42.535317" lon="1.588245"><ele>1328.75</ele></trkpt>
   <trkpt lat="42.535346" lon="1.588285"><ele>1328.75</ele></trkpt>
   <trkpt lat="42.535374" lon="1.588324"><ele>1328.75</ele></trkpt>
   <trkpt lat="42.5354" lon="1.58835"><ele>1330</ele></trkpt>
   <trkpt lat="42.535485" lon="1.588432"><ele>1330</ele></trkpt>
   <trkpt lat="42.535574" lon="1.588487"><ele>1331</ele></trkpt>
   <trkpt lat="42.535811" lon="1.588613"><ele>1332</ele></trkpt>
   <trkpt lat="42.536261" lon="1.588815"><ele>1335</ele></trkpt>
   <trkpt lat="42.536519" lon="1.588932"><ele>1336.5</ele></trkpt>
   <trkpt lat="42.536562" lon="1.588952"><ele>1336.75</ele></trkpt>
   <trkpt lat="42.536623" lon="1.588997"><ele>1338.25</ele></trkpt>
   <trkpt lat="42.536747" lon="1.589088"><ele>1338.25</ele></trkpt>
   <trkpt lat="42.53684" lon="1.589173"><ele>1339.5</ele></trkpt>
   <trkpt lat="42.536875" lon="1.589199"><ele>1340</ele></trkpt>
   <trkpt lat="42.536916" lon="1.589242"><ele>1340.75</ele></trkpt>
   <trkpt lat="42.53699" lon="1.589451"><ele>1342.25</ele></trkpt>
   <trkpt lat="42.537056" lon="1.589583"><ele>1342.75</ele></trkpt>
   <trkpt lat="42.537196" lon="1.589923"><ele>1345.75</ele></trkpt>
   <trkpt lat="42.53778" lon="1.591156"><ele>1358</ele></trkpt>
   <trkpt lat="42.537805" lon="1.591195"><ele>1362</ele></trkpt>
   <trkpt lat="42.537907" lon="1.591348"><ele>1362</ele></trkpt>
   <trkpt lat="42.538042" lon="1.591505"><ele>1363</ele></trkpt>
   <trkpt lat="42.538198" lon="1.591635"><ele>1364</ele></trkpt>
   <trkpt lat="42.538344" lon="1.591715"><ele>1363</ele></trkpt>
   <trkpt lat="42.538539" lon="1.591782"><ele>1366.25</ele></trkpt>
   <trkpt lat="42.538966" lon="1.591819"><ele>1366.25</ele></trkpt>
   <trkpt lat="42.539684" lon="1.591856"><ele>1371.25</ele></trkpt>
   <trkpt lat="42.539966" lon="1.591888"><ele>1374.5</ele></trkpt>
   <trkpt lat="42.540142" lon="1.591941"><ele>1375.25</ele></trkpt>
   <trkpt lat="42.540294" lon="1.592029"><ele>1378</ele></trkpt>
   <trkpt lat="42.540599" lon="1.592298"><ele>1381</ele></trkpt>
   <trkpt lat="42.540661" lon="1.592325"><ele>1381.5</ele></trkpt>
   <trkpt lat="42.540782" lon="1.592378"><ele>1382.25</ele></trkpt>
   <trkpt lat="42.540929" lon="1.592408"><ele>1384</ele></trkpt>
   <trkpt lat="42.541101" lon="1.592373"><ele>1385.25</ele></trkpt>
   <trkpt lat="42.541257" lon="1.592284"><ele>1384.75</ele></trkpt>
   <trkpt lat="42.541526" lon="1.592016"><ele>1385.5</ele></trkpt>
   <trkpt lat="42.541654" lon="1.591878"><ele>1386.5</ele></trkpt>
   <trkpt lat="42.541782" lon="1.591781"><ele>1387.25</ele></trkpt>
   <trkpt lat="42.541988" lon="1.591686"><ele>1387.5</ele></trkpt>
   <trkpt lat="42.542163" lon="1.591643"><ele>1387.25</ele></trkpt>
   <trkpt lat="42.542643" lon="1.591583"><ele>1389</ele></trkpt>
   <trkpt lat="42.543027" lon="1.591578"><ele>1393.5</ele></trkpt>
   <trkpt lat="42.543224" lon="1.591616"><ele>1395.75</ele></trkpt>
   <trkpt lat="42.543443" lon="1.591678"><ele>1397.25</ele></trkpt>
   <trkpt lat="42.543667" lon="1.591785"><ele>1398.5</ele></trkpt>
   <trkpt lat="42.543817" lon="1.591847"><ele>1397.25</ele></trkpt>
   <trkpt lat="42.543946" lon="1.591882"><ele>1396.5</ele></trkpt>
   <trkpt lat="42.544084" lon="1.591901"><ele>1397.75</ele></trkpt>
   <trkpt lat="42.544281" lon="1.5919"><ele>1399.5</ele></trkpt>
   <trkpt lat="42.544408" lon="1.591881"><ele>1400.25</ele></trkpt>
   <trkpt lat="42.54454" lon="1.591848"><ele>1401.5</ele></trkpt>
   <trkpt lat="42.545288" lon="1.591502"><ele>1401.75</ele></trkpt>
   <trkpt lat="42.545517" lon="1.591434"><ele>1399.75</ele></trkpt>
   <trkpt lat="42.545658" lon="1.591414"><ele>1399.75</ele></trkpt>
   <trkpt lat="42.54594" lon="1.59142"><ele>1400.75</ele></trkpt>
   <trkpt lat="42.546052" lon="1.591444"><ele>1402.25</ele></trkpt>
   <trkpt lat="42.546186" lon="1.591479"><ele>1403.25</ele></trkpt>
   <trkpt lat="42.546557" lon="1.59163"><ele>1402.25</ele></trkpt>
   <trkpt lat="42.546608" lon="1.59182"><ele>1407.5</ele></trkpt>
   <trkpt lat="42.546639" lon="1.591869"><ele>1407.5</ele></trkpt>
   <trkpt lat="42.546765" lon="1.591916"><ele>1406.5</ele></trkpt>
   <trkpt lat="42.546888" lon="1.591943"><ele>1406.25</ele></trkpt>
   <trkpt lat="42.546985" lon="1.591903"><ele>1404.75</ele></trkpt>
   <trkpt lat="42.547085" lon="1.591802"><ele>1401.25</ele></trkpt>
   <trkpt lat="42.547217" lon="1.591829"><ele>1402.25</ele></trkpt>
   <trkpt lat="42.547375" lon="1.59185"><ele>1403.75</ele></trkpt>
   <trkpt lat="42.547742" lon="1.591858"><ele>1403.25</ele></trkpt>
   <trkpt lat="42.54806" lon="1.59182"><ele>1403</ele></trkpt>
   <trkpt lat="42.54861" lon="1.591713"><ele>1404.75</ele></trkpt>
   <trkpt lat="42.549356" lon="1.591525"><ele>1411.25</ele></trkpt>
   <trkpt lat="42.549527" lon="1.591471"><ele>1411.25</ele></trkpt>
   <trkpt lat="42.54996" lon="1.591333"><ele>1410.25</ele></trkpt>
   <trkpt lat="42.550407" lon="1.591162"><ele>1411.75</ele></trkpt>
   <trkpt lat="42.550687" lon="1.591054"><ele>1412.5</ele></trkpt>
   <trkpt lat="42.550716" lon="1.59105"><ele>1412.75</ele></trkpt>
   <trkpt lat="42.5508" lon="1.591036"><ele>1413.5</ele></trkpt>
   <trkpt lat="42.550834" lon="1.591066"><ele>1415</ele></trkpt>
   <trkpt lat="42.550873" lon="1.591082"><ele>1416.25</ele></trkpt>
   <trkpt lat="42.550913" lon="1.591081"><ele>1416.75</ele></trkpt>
   <trkpt lat="42.550951" lon="1.591063"><ele>1416.75</ele></trkpt>
   <trkpt lat="42.550978" lon="1.591039"><ele>1416.25</ele></trkpt>
   <trkpt lat="42.551015" lon="1.590967"><ele>1414</ele></trkpt>
   <trkpt lat="42.551023" lon="1.590887"><ele>1411.25</ele></trkpt>
   <trkpt lat="42.551006" lon="1.590812"><ele>1408.5</ele></trkpt>
   <trkpt lat="42.550967" lon="1.590753"><ele>1406.25</ele></trkpt>
   <trkpt lat="42.550934" lon="1.59073"><ele>1405</ele></trkpt>
   <trkpt lat="42.550897" lon="1.59072"><ele>1404.25</ele></trkpt>
   <trkpt lat="42.550858" lon="1.590725"><ele>1403.5</ele></trkpt>
   <trkpt lat="42.550807" lon="1.59076"><ele>1403.5</ele></trkpt>
   <trkpt lat="42.55078" lon="1.590798"><ele>1404.25</ele></trkpt>
   <trkpt lat="42.550758" lon="1.59087"><ele>1406.25</ele></trkpt>
   <trkpt lat="42.550681" lon="1.59094"><ele>1408</ele></trkpt>
   <trkpt lat="42.550613" lon="1.590983"><ele>1408.75</ele></trkpt>
   <trkpt lat="42.551122" lon="1.590814"><ele>1410.5</ele></trkpt>
   <trkpt lat="42.551336" lon="1.590679"><ele>1409.75</ele></trkpt>
   <trkpt lat="42.551638" lon="1.590453"><ele>1408.75</ele></trkpt>
   <trkpt lat="42.551807" lon="1.59028"><ele>1408.5</ele></trkpt>
   <trkpt lat="42.551962" lon="1.590094"><ele>1409.75</ele></trkpt>
   <trkpt lat="42.552164" lon="1.589823"><ele>1409.25</ele></trkpt>
   <trkpt lat="42.552515" lon="1.589292"><ele>1406.5</ele></trkpt>
   <trkpt lat="42.552734" lon="1.58906"><ele>1407.5</ele></trkpt>
   <trkpt lat="42.552969" lon="1.588881"><ele>1410.5</ele></trkpt>
   <trkpt lat="42.553139" lon="1.588806"><ele>1412.5</ele></trkpt>
   <trkpt lat="42.553329" lon="1.588745"><ele>1414.25</ele></trkpt>
   <trkpt lat="42.553532" lon="1.588725"><ele>1413.75</ele></trkpt>
   <trkpt lat="42.553532" lon="1.588643"><ele>1410.5</ele></trkpt>
   <trkpt lat="42.553554" lon="1.588581"><ele>1408.25</ele></trkpt>
   <trkpt lat="42.553635" lon="1.588549"><ele>1406.5</ele></trkpt>
   <trkpt lat="42.553673" lon="1.588511"><ele>1405</ele></trkpt>
   <trkpt lat="42.553877" lon="1.588348"><ele>1405.5</ele></trkpt>
   <trkpt lat="42.553908" lon="1.588326"><ele>1406.75</ele></trkpt>
   <trkpt lat="42.553965" lon="1.588315"><ele>1409</ele></trkpt>
   <trkpt lat="42.554162" lon="1.588383"><ele>1412</ele></trkpt>
   <trkpt lat="42.554368" lon="1.588393"><ele>1415.5</ele></trkpt>
   <trkpt lat="42.554403" lon="1.588406"><ele>1415.75</ele></trkpt>
   <trkpt lat="42.554427" lon="1.588438"><ele>1415.25</ele></trkpt>
   <trkpt lat="42.554437" lon="1.588475"><ele>1414.25</ele></trkpt>
   <trkpt lat="42.554438" lon="1.588522"><ele>1412.75</ele></trkpt>
   <trkpt lat="42.554819" lon="1.588548"><ele>1418.5</ele></trkpt>
   <trkpt lat="42.55495" lon="1.588552"><ele>1420</ele></trkpt>
   <trkpt lat="42.555083" lon="1.588542"><ele>1421.75</ele></trkpt>
   <trkpt lat="42.555302" lon="1.588503"><ele>1426.25</ele></trkpt>
   <trkpt lat="42.555456" lon="1.588498"><ele>1428.75</ele></trkpt>
   <trkpt lat="42.55555" lon="1.588512"><ele>1429</ele></trkpt>
   <trkpt lat="42.555641" lon="1.588536"><ele>1429.5</ele></trkpt>
   <trkpt lat="42.55601" lon="1.588685"><ele>1430</ele></trkpt>
   <trkpt lat="42.556083" lon="1.588707"><ele>1431</ele></trkpt>
   <trkpt lat="42.556157" lon="1.588718"><ele>1431.5</ele></trkpt>
   <trkpt lat="42.556253" lon="1.588721"><ele>1432</ele></trkpt>
   <trkpt lat="42.556452" lon="1.588688"><ele>1434.75</ele></trkpt>
   <trkpt lat="42.556752" lon="1.588656"><ele>1436.75</ele></trkpt>
   <trkpt lat="42.557128" lon="1.588655"><ele>1441.25</ele></trkpt>
   <trkpt lat="42.557271" lon="1.588658"><ele>1444</ele></trkpt>
   <trkpt lat="42.557285" lon="1.588659"><ele>1448</ele></trkpt>
   <trkpt lat="42.557569" lon="1.588691"><ele>1448</ele></trkpt>
   <trkpt lat="42.557794" lon="1.588751"><ele>1451.5</ele></trkpt>
   <trkpt lat="42.558145" lon="1.588895"><ele>1453.5</ele></trkpt>
   <trkpt lat="42.558304" lon="1.588979"><ele>1454.75</ele></trkpt>
   <trkpt lat="42.558525" lon="1.589125"><ele>1453.5</ele></trkpt>
   <trkpt lat="42.558615" lon="1.589173"><ele>1453.5</ele></trkpt>
   <trkpt lat="42.558785" lon="1.589238"><ele>1455</ele></trkpt>
   <trkpt lat="42.559023" lon="1.589277"><ele>1460.25</ele></trkpt>
   <trkpt lat="42.559355" lon="1.589286"><ele>1464</ele></trkpt>
   <trkpt lat="42.55948" lon="1.58931"><ele>1463.25</ele></trkpt>
   <trkpt lat="42.559575" lon="1.589361"><ele>1463.5</ele></trkpt>
   <trkpt lat="42.559711" lon="1.589472"><ele>1464.25</ele></trkpt>
   <trkpt lat="42.559798" lon="1.589554"><ele>1464.75</ele></trkpt>
   <trkpt lat="42.559928" lon="1.589676"><ele>1464.75</ele></trkpt>
   <trkpt lat="42.560029" lon="1.589754"><ele>1469.25</ele></trkpt>
   <trkpt lat="42.560146" lon="1.589827"><ele>1471.75</ele></trkpt>
   <trkpt lat="42.560264" lon="1.589887"><ele>1474.25</ele></trkpt>
   <trkpt lat="42.560296" lon="1.589901"><ele>1478.75</ele></trkpt>
   <trkpt lat="42.560536" lon="1.590006"><ele>1478.75</ele></trkpt>
   <trkpt lat="42.560613" lon="1.590051"><ele>1480.5</ele></trkpt>
   <trkpt lat="42.560754" lon="1.590155"><ele>1481.5</ele></trkpt>
   <trkpt lat="42.560821" lon="1.590188"><ele>1482.5</ele></trkpt>
   <trkpt lat="42.560924" lon="1.590218"><ele>1483</ele></trkpt>
   <trkpt lat="42.561018" lon="1.590236"><ele>1483.75</ele></trkpt>
   <trkpt lat="42.561284" lon="1.590267"><ele>1488.25</ele></trkpt>
   <trkpt lat="42.561601" lon="1.590291"><ele>1492.5</ele></trkpt>
   <trkpt lat="42.561782" lon="1.590332"><ele>1493.25</ele></trkpt>
   <trkpt lat="42.561953" lon="1.590387"><ele>1493.75</ele></trkpt>
   <trkpt lat="42.562032" lon="1.590399"><ele>1494.25</ele></trkpt>
   <trkpt lat="42.562243" lon="1.590393"><ele>1496.5</ele></trkpt>
   <trkpt lat="42.562569" lon="1.590408"><ele>1501.25</ele></trkpt>
   <trkpt lat="42.562652" lon="1.590415"><ele>1504</ele></trkpt>
   <trkpt lat="42.562742" lon="1.590445"><ele>1505.75</ele></trkpt>
   <trkpt lat="42.562831" lon="1.590491"><ele>1506.75</ele></trkpt>
   <trkpt lat="42.562972" lon="1.590592"><ele>1507.5</ele></trkpt>
   <trkpt lat="42.563058" lon="1.590643"><ele>1508.75</ele></trkpt>
   <trkpt lat="42.563325" lon="1.590782"><ele>1511</ele></trkpt>
   <trkpt lat="42.56369" lon="1.59094"><ele>1514.75</ele></trkpt>
   <trkpt lat="42.563809" lon="1.591024"><ele>1515.5</ele></trkpt>
   <trkpt lat="42.563873" lon="1.591051"><ele>1516</ele></trkpt>
   <trkpt lat="42.563914" lon="1.591127"><ele>1515.75</ele></trkpt>
   <trkpt lat="42.563969" lon="1.591216"><ele>1518.75</ele></trkpt>
   <trkpt lat="42.564002" lon="1.591305"><ele>1519.25</ele></trkpt>
   <trkpt lat="42.564024" lon="1.591395"><ele>1518.75</ele></trkpt>
   <trkpt lat="42.564042" lon="1.591503"><ele>1520</ele></trkpt>
   <trkpt lat="42.56406" lon="1.591949"><ele>1524</ele></trkpt>
   <trkpt lat="42.564082" lon="1.592121"><ele>1523.25</ele></trkpt>
   <trkpt lat="42.564108" lon="1.592223"><ele>1523.25</ele></trkpt>
   <trkpt lat="42.564158" lon="1.592367"><ele>1521.25</ele></trkpt>
   <trkpt lat="42.564162" lon="1.592376"><ele>1521.25</ele></trkpt>
   <trkpt lat="42.564312" lon="1.592706"><ele>1522.75</ele></trkpt>
   <trkpt lat="42.564358" lon="1.59279"><ele>1523.25</ele></trkpt>
   <trkpt lat="42.564406" lon="1.592867"><ele>1523.75</ele></trkpt>
   <trkpt lat="42.564483" lon="1.59295"><ele>1524.75</ele></trkpt>
   <trkpt lat="42.564419" lon="1.592973"><ele>1522</ele></trkpt>
   <trkpt lat="42.564371" lon="1.593035"><ele>1520</ele></trkpt>
   <trkpt lat="42.564357" lon="1.593076"><ele>1519.5</ele></trkpt>
   <trkpt lat="42.56435" lon="1.593111"><ele>1519.25</ele></trkpt>
   <trkpt lat="42.564354" lon="1.593184"><ele>1519</ele></trkpt>
   <trkpt lat="42.564378" lon="1.593249"><ele>1518.75</ele></trkpt>
   <trkpt lat="42.564397" lon="1.593276"><ele>1518.25</ele></trkpt>
   <trkpt lat="42.564444" lon="1.593312"><ele>1517.25</ele></trkpt>
   <trkpt lat="42.564497" lon="1.59332"><ele>1517.25</ele></trkpt>
   <trkpt lat="42.564524" lon="1.593313"><ele>1517.5</ele></trkpt>
   <trkpt lat="42.564569" lon="1.593282"><ele>1518.75</ele></trkpt>
   <trkpt lat="42.564587" lon="1.593259"><ele>1519.5</ele></trkpt>
   <trkpt lat="42.564686" lon="1.593232"><ele>1521.75</ele></trkpt>
   <trkpt lat="42.564823" lon="1.593258"><ele>1521</ele></trkpt>
   <trkpt lat="42.565076" lon="1.593275"><ele>1520.75</ele></trkpt>
   <trkpt lat="42.565285" lon="1.593282"><ele>1521</ele></trkpt>
   <trkpt lat="42.56535" lon="1.593297"><ele>1522.25</ele></trkpt>
   <trkpt lat="42.565433" lon="1.593352"><ele>1523</ele></trkpt>
   <trkpt lat="42.565502" lon="1.593431"><ele>1523.25</ele></trkpt>
   <trkpt lat="42.565566" lon="1.593519"><ele>1523</ele></trkpt>
   <trkpt lat="42.565891" lon="1.59399"><ele>1525</ele></trkpt>
   <trkpt lat="42.565986" lon="1.594134"><ele>1525.25</ele></trkpt>
   <trkpt lat="42.56614" lon="1.594378"><ele>1523.25</ele></trkpt>
   <trkpt lat="42.566186" lon="1.594459"><ele>1523</ele></trkpt>
   <trkpt lat="42.566222" lon="1.594579"><ele>1522.75</ele></trkpt>
   <trkpt lat="42.566238" lon="1.594662"><ele>1521.5</ele></trkpt>
   <trkpt lat="42.566254" lon="1.594738"><ele>1521.5</ele></trkpt>
   <trkpt lat="42.566265" lon="1.594828"><ele>1521.25</ele></trkpt>
   <trkpt lat="42.566266" lon="1.594924"><ele>1521</ele></trkpt>
   <trkpt lat="42.566259" lon="1.595031"><ele>1520.75</ele></trkpt>
   <trkpt lat="42.566179" lon="1.595528"><ele>1522.25</ele></trkpt>
   <trkpt lat="42.566105" lon="1.595896"><ele>1522</ele></trkpt>
   <trkpt lat="42.566064" lon="1.596047"><ele>1522.25</ele></trkpt>
   <trkpt lat="42.566016" lon="1.596193"><ele>1522.5</ele></trkpt>
   <trkpt lat="42.565921" lon="1.596427"><ele>1522.75</ele></trkpt>
   <trkpt lat="42.565895" lon="1.596484"><ele>1522.75</ele></trkpt>
   <trkpt lat="42.56587" lon="1.596515"><ele>1522.5</ele></trkpt>
   <trkpt lat="42.565865" lon="1.596568"><ele>1522.75</ele></trkpt>
   <trkpt lat="42.565873" lon="1.596593"><ele>1523</ele></trkpt>
   <trkpt lat="42.565888" lon="1.596612"><ele>1523</ele></trkpt>
   <trkpt lat="42.565881" lon="1.596637"><ele>1523</ele></trkpt>
   <trkpt lat="42.565872" lon="1.596665"><ele>1523.25</ele></trkpt>
   <trkpt lat="42.565806" lon="1.596855"><ele>1523.25</ele></trkpt>
   <trkpt lat="42.565739" lon="1.597131"><ele>1523.75</ele></trkpt>
   <trkpt lat="42.565738" lon="1.597283"><ele>1524.25</ele></trkpt>
   <trkpt lat="42.565775" lon="1.597415"><ele>1524.5</ele></trkpt>
   <trkpt lat="42.56581" lon="1.597497"><ele>1524.75</ele></trkpt>
   <trkpt lat="42.565888" lon="1.597724"><ele>1526</ele></trkpt>
   <trkpt lat="42.565895" lon="1.597744"><ele>1526</ele></trkpt>
   <trkpt lat="42.566146" lon="1.598425"><ele>1528.5</ele></trkpt>
   <trkpt lat="42.56635" lon="1.599009"><ele>1530</ele></trkpt>
   <trkpt lat="42.566387" lon="1.599108"><ele>1530</ele></trkpt>
   <trkpt lat="42.566428" lon="1.59922"><ele>1530</ele></trkpt>
   <trkpt lat="42.566482" lon="1.599361"><ele>1529.5</ele></trkpt>
   <trkpt lat="42.566543" lon="1.599517"><ele>1529</ele></trkpt>
   <trkpt lat="42.566557" lon="1.599552"><ele>1528.75</ele></trkpt>
   <trkpt lat="42.566621" lon="1.59972"><ele>1527.75</ele></trkpt>
   <trkpt lat="42.566649" lon="1.59987"><ele>1527.25</ele></trkpt>
   <trkpt lat="42.566676" lon="1.599998"><ele>1527</ele></trkpt>
   <trkpt lat="42.56668" lon="1.600083"><ele>1527</ele></trkpt>
   <trkpt lat="42.56668" lon="1.600126"><ele>1527</ele></trkpt>
   <trkpt lat="42.5667" lon="1.600163"><ele>1527</ele></trkpt>
   <trkpt lat="42.566731" lon="1.600177"><ele>1527</ele></trkpt>
   <trkpt lat="42.566809" lon="1.600329"><ele>1526.75</ele></trkpt>
   <trkpt lat="42.566874" lon="1.600432"><ele>1526.5</ele></trkpt>
   <trkpt lat="42.566899" lon="1.600471"><ele>1526.25</ele></trkpt>
   <trkpt lat="42.567219" lon="1.601059"><ele>1527</ele></trkpt>
   <trkpt lat="42.567237" lon="1.601244"><ele>1527.5</ele></trkpt>
   <trkpt lat="42.56722" lon="1.601271"><ele>1527.5</ele></trkpt>
   <trkpt lat="42.56721" lon="1.601305"><ele>1527.5</ele></trkpt>
   <trkpt lat="42.567208" lon="1.601341"><ele>1527.75</ele></trkpt>
   <trkpt lat="42.567214" lon="1.601376"><ele>1527.75</ele></trkpt>
   <trkpt lat="42.567228" lon="1.601407"><ele>1527.75</ele></trkpt>
   <trkpt lat="42.567248" lon="1.601431"><ele>1527.75</ele></trkpt>
   <trkpt lat="42.567297" lon="1.601448"><ele>1527.75</ele></trkpt>
   <trkpt lat="42.567322" lon="1.601441"><ele>1527.75</ele></trkpt>
   <trkpt lat="42.567344" lon="1.601424"><ele>1528</ele></trkpt>
   <trkpt lat="42.567422" lon="1.601507"><ele>1527.75</ele></trkpt>
   <trkpt lat="42.567525" lon="1.601617"><ele>1528.25</ele></trkpt>
   <trkpt lat="42.568014" lon="1.602522"><ele>1529.25</ele></trkpt>
   <trkpt lat="42.568087" lon="1.602661"><ele>1530.25</ele></trkpt>
   <trkpt lat="42.568256" lon="1.603112"><ele>1530.25</ele></trkpt>
   <trkpt lat="42.568412" lon="1.603609"><ele>1530.25</ele></trkpt>
   <trkpt lat="42.568438" lon="1.603691"><ele>1530.5</ele></trkpt>
   <trkpt lat="42.568607" lon="1.604151"><ele>1530.75</ele></trkpt>
   <trkpt lat="42.568737" lon="1.604382"><ele>1533.75</ele></trkpt>
   <trkpt lat="42.568907" lon="1.604528"><ele>1534.5</ele></trkpt>
   <trkpt lat="42.569028" lon="1.60458"><ele>1535</ele></trkpt>
   <trkpt lat="42.569508" lon="1.604725"><ele>1532.75</ele></trkpt>
   <trkpt lat="42.56979" lon="1.604787"><ele>1536.25</ele></trkpt>
   <trkpt lat="42.569835" lon="1.604798"><ele>1537</ele></trkpt>
   <trkpt lat="42.569937" lon="1.604835"><ele>1538</ele></trkpt>
   <trkpt lat="42.570022" lon="1.604869"><ele>1538.75</ele></trkpt>
   <trkpt lat="42.570203" lon="1.604966"><ele>1538.5</ele></trkpt>
   <trkpt lat="42.570374" lon="1.605146"><ele>1538.75</ele></trkpt>
   <trkpt lat="42.570491" lon="1.605322"><ele>1537.75</ele></trkpt>
   <trkpt lat="42.570567" lon="1.605514"><ele>1539.25</ele></trkpt>
   <trkpt lat="42.570622" lon="1.605709"><ele>1540</ele></trkpt>
   <trkpt lat="42.570679" lon="1.605972"><ele>1540.5</ele></trkpt>
   <trkpt lat="42.57078" lon="1.606529"><ele>1543</ele></trkpt>
   <trkpt lat="42.570875" lon="1.607044"><ele>1545.5</ele></trkpt>
   <trkpt lat="42.570906" lon="1.60719"><ele>1546</ele></trkpt>
   <trkpt lat="42.571037" lon="1.607807"><ele>1548.5</ele></trkpt>
   <trkpt lat="42.571127" lon="1.608081"><ele>1548.5</ele></trkpt>
   <trkpt lat="42.5712" lon="1.608234"><ele>1550.25</ele></trkpt>
   <trkpt lat="42.571228" lon="1.608289"><ele>1550.25</ele></trkpt>
   <trkpt lat="42.571263" lon="1.608405"><ele>1548.75</ele></trkpt>
   <trkpt lat="42.571438" lon="1.60881"><ele>1547.5</ele></trkpt>
   <trkpt lat="42.571498" lon="1.609078"><ele>1548</ele></trkpt>
   <trkpt lat="42.571519" lon="1.609353"><ele>1549</ele></trkpt>
   <trkpt lat="42.571498" lon="1.609739"><ele>1552.5</ele></trkpt>
   <trkpt lat="42.571415" lon="1.610396"><ele>1554.25</ele></trkpt>
   <trkpt lat="42.571408" lon="1.610683"><ele>1554.5</ele></trkpt>
   <trkpt lat="42.571435" lon="1.610889"><ele>1554.5</ele></trkpt>
   <trkpt lat="42.571505" lon="1.611124"><ele>1553.25</ele></trkpt>
   <trkpt lat="42.571605" lon="1.611346"><ele>1553.25</ele></trkpt>
   <trkpt lat="42.571714" lon="1.611501"><ele>1554.75</ele></trkpt>
   <trkpt lat="42.571899" lon="1.611822"><ele>1555.75</ele></trkpt>
   <trkpt lat="42.572004" lon="1.612184"><ele>1559.5</ele></trkpt>
   <trkpt lat="42.572023" lon="1.612599"><ele>1557.25</ele></trkpt>
   <trkpt lat="42.572031" lon="1.613347"><ele>1556.5</ele></trkpt>
   <trkpt lat="42.572088" lon="1.613671"><ele>1556.5</ele></trkpt>
   <trkpt lat="42.572215" lon="1.614139"><ele>1557.75</ele></trkpt>
   <trkpt lat="42.57227" lon="1.614343"><ele>1556.5</ele></trkpt>
   <trkpt lat="42.572446" lon="1.614915"><ele>1559</ele></trkpt>
   <trkpt lat="42.572499" lon="1.615071"><ele>1559</ele></trkpt>
   <trkpt lat="42.572591" lon="1.615384"><ele>1558.75</ele></trkpt>
   <trkpt lat="42.572819" lon="1.615916"><ele>1561.5</ele></trkpt>
   <trkpt lat="42.572903" lon="1.616213"><ele>1562.5</ele></trkpt>
   <trkpt lat="42.572997" lon="1.616533"><ele>1561.5</ele></trkpt>
   <trkpt lat="42.573072" lon="1.616828"><ele>1561.5</ele></trkpt>
   <trkpt lat="42.573153" lon="1.617142"><ele>1563.25</ele></trkpt>
   <trkpt lat="42.573278" lon="1.617609"><ele>1561.5</ele></trkpt>
   <trkpt lat="42.573456" lon="1.618027"><ele>1564.75</ele></trkpt>
   <trkpt lat="42.573623" lon="1.618289"><ele>1565.75</ele></trkpt>
   <trkpt lat="42.573765" lon="1.618476"><ele>1568.75</ele></trkpt>
   <trkpt lat="42.573945" lon="1.618676"><ele>1569</ele></trkpt>
   <trkpt lat="42.574083" lon="1.618893"><ele>1568.75</ele></trkpt>
   <trkpt lat="42.574139" lon="1.619113"><ele>1568.75</ele></trkpt>
   <trkpt lat="42.574226" lon="1.619685"><ele>1571.25</ele></trkpt>
   <trkpt lat="42.574393" lon="1.620538"><ele>1575</ele></trkpt>
   <trkpt lat="42.574531" lon="1.620978"><ele>1579.75</ele></trkpt>
   <trkpt lat="42.574722" lon="1.621399"><ele>1578.75</ele></trkpt>
   <trkpt lat="42.574795" lon="1.621514"><ele>1580.75</ele></trkpt>
   <trkpt lat="42.57487" lon="1.621611"><ele>1582</ele></trkpt>
   <trkpt lat="42.575227" lon="1.621986"><ele>1584.5</ele></trkpt>
   <trkpt lat="42.575486" lon="1.62223"><ele>1585</ele></trkpt>
   <trkpt lat="42.575573" lon="1.622333"><ele>1585.25</ele></trkpt>
   <trkpt lat="42.575644" lon="1.622461"><ele>1582.75</ele></trkpt>
   <trkpt lat="42.575771" lon="1.622763"><ele>1581.25</ele></trkpt>
   <trkpt lat="42.575838" lon="1.62297"><ele>1581.75</ele></trkpt>
   <trkpt lat="42.576006" lon="1.623687"><ele>1584.75</ele></trkpt>
   <trkpt lat="42.576097" lon="1.624168"><ele>1586.75</ele></trkpt>
   <trkpt lat="42.576182" lon="1.624442"><ele>1588</ele></trkpt>
   <trkpt lat="42.576279" lon="1.624704"><ele>1588</ele></trkpt>
   <trkpt lat="42.576398" lon="1.624956"><ele>1588.5</ele></trkpt>
   <trkpt lat="42.576509" lon="1.625143"><ele>1589.75</ele></trkpt>
   <trkpt lat="42.576555" lon="1.625208"><ele>1590</ele></trkpt>
   <trkpt lat="42.576707" lon="1.625421"><ele>1591.75</ele></trkpt>
   <trkpt lat="42.576862" lon="1.62558"><ele>1593.5</ele></trkpt>
   <trkpt lat="42.577012" lon="1.625687"><ele>1595</ele></trkpt>
   <trkpt lat="42.577146" lon="1.625761"><ele>1596</ele></trkpt>
   <trkpt lat="42.577315" lon="1.625869"><ele>1598.75</ele></trkpt>
   <trkpt lat="42.577454" lon="1.625988"><ele>1600.5</ele></trkpt>
   <trkpt lat="42.577563" lon="1.626101"><ele>1601.75</ele></trkpt>
   <trkpt lat="42.577642" lon="1.626218"><ele>1604</ele></trkpt>
   <trkpt lat="42.577732" lon="1.626405"><ele>1603</ele></trkpt>
   <trkpt lat="42.57777" lon="1.626529"><ele>1602.75</ele></trkpt>
   <trkpt lat="42.577795" lon="1.626644"><ele>1602.5</ele></trkpt>
   <trkpt lat="42.577811" lon="1.626852"><ele>1604.5</ele></trkpt>
   <trkpt lat="42.577814" lon="1.627088"><ele>1606</ele></trkpt>
   <trkpt lat="42.577676" lon="1.628102"><ele>1607.5</ele></trkpt>
   <trkpt lat="42.577702" lon="1.628398"><ele>1609.5</ele></trkpt>
   <trkpt lat="42.577705" lon="1.628432"><ele>1609.75</ele></trkpt>
   <trkpt lat="42.577795" lon="1.628782"><ele>1613.25</ele></trkpt>
   <trkpt lat="42.578044" lon="1.62929"><ele>1615.75</ele></trkpt>
   <trkpt lat="42.57824" lon="1.629685"><ele>1617.5</ele></trkpt>
   <trkpt lat="42.578417" lon="1.630117"><ele>1619.75</ele></trkpt>
   <trkpt lat="42.578502" lon="1.630374"><ele>1620.5</ele></trkpt>
   <trkpt lat="42.578547" lon="1.630637"><ele>1621.75</ele></trkpt>
   <trkpt lat="42.578551" lon="1.630904"><ele>1623.25</ele></trkpt>
   <trkpt lat="42.578512" lon="1.63112"><ele>1623</ele></trkpt>
   <trkpt lat="42.578359" lon="1.631793"><ele>1625.75</ele></trkpt>
   <trkpt lat="42.578271" lon="1.632262"><ele>1626.5</ele></trkpt>
   <trkpt lat="42.578195" lon="1.632852"><ele>1625</ele></trkpt>
   <trkpt lat="42.578162" lon="1.633373"><ele>1626</ele></trkpt>
   <trkpt lat="42.578147" lon="1.633766"><ele>1626.5</ele></trkpt>
   <trkpt lat="42.578122" lon="1.633918"><ele>1625.75</ele></trkpt>
   <trkpt lat="42.578077" lon="1.634004"><ele>1625.75</ele></trkpt>
   <trkpt lat="42.578047" lon="1.634022"><ele>1625.75</ele></trkpt>
   <trkpt lat="42.578021" lon="1.634049"><ele>1626</ele></trkpt>
   <trkpt lat="42.578" lon="1.634084"><ele>1626</ele></trkpt>
   <trkpt lat="42.577987" lon="1.634126"><ele>1626</ele></trkpt>
   <trkpt lat="42.577982" lon="1.63417"><ele>1626</ele></trkpt>
   <trkpt lat="42.577986" lon="1.634216"><ele>1626.25</ele></trkpt>
   <trkpt lat="42.577998" lon="1.63426"><ele>1626.25</ele></trkpt>
   <trkpt lat="42.578018" lon="1.634297"><ele>1626.25</ele></trkpt>
   <trkpt lat="42.578045" lon="1.634326"><ele>1626.25</ele></trkpt>
   <trkpt lat="42.578076" lon="1.634345"><ele>1626.25</ele></trkpt>
   <trkpt lat="42.578139" lon="1.634402"><ele>1626.5</ele></trkpt>
   <trkpt lat="42.578249" lon="1.634673"><ele>1629.75</ele></trkpt>
   <trkpt lat="42.578302" lon="1.635059"><ele>1631</ele></trkpt>
   <trkpt lat="42.57838" lon="1.635451"><ele>1633.5</ele></trkpt>
   <trkpt lat="42.578518" lon="1.635937"><ele>1632.75</ele></trkpt>
   <trkpt lat="42.578731" lon="1.636514"><ele>1632.75</ele></trkpt>
   <trkpt lat="42.57879" lon="1.636713"><ele>1633.25</ele></trkpt>
   <trkpt lat="42.578837" lon="1.63695"><ele>1633.25</ele></trkpt>
   <trkpt lat="42.578857" lon="1.637209"><ele>1634.25</ele></trkpt>
   <trkpt lat="42.578854" lon="1.637561"><ele>1635.75</ele></trkpt>
   <trkpt lat="42.578827" lon="1.637886"><ele>1637</ele></trkpt>
   <trkpt lat="42.578787" lon="1.638219"><ele>1638</ele></trkpt>
   <trkpt lat="42.578759" lon="1.638575"><ele>1639.5</ele></trkpt>
   <trkpt lat="42.578766" lon="1.638776"><ele>1641.25</ele></trkpt>
   <trkpt lat="42.578806" lon="1.638953"><ele>1642</ele></trkpt>
   <trkpt lat="42.578866" lon="1.639099"><ele>1642</ele></trkpt>
   <trkpt lat="42.579028" lon="1.639479"><ele>1641.75</ele></trkpt>
   <trkpt lat="42.579079" lon="1.6396"><ele>1642.25</ele></trkpt>
   <trkpt lat="42.579165" lon="1.639785"><ele>1643.75</ele></trkpt>
   <trkpt lat="42.579225" lon="1.639925"><ele>1644.5</ele></trkpt>
   <trkpt lat="42.579339" lon="1.640198"><ele>1645.25</ele></trkpt>
   <trkpt lat="42.579415" lon="1.640437"><ele>1646.25</ele></trkpt>
   <trkpt lat="42.579464" lon="1.640679"><ele>1647.25</ele></trkpt>
   <trkpt lat="42.579472" lon="1.640778"><ele>1647.5</ele></trkpt>
   <trkpt lat="42.579488" lon="1.641384"><ele>1650</ele></trkpt>
   <trkpt lat="42.579493" lon="1.641537"><ele>1650.75</ele></trkpt>
   <trkpt lat="42.579501" lon="1.641808"><ele>1651.75</ele></trkpt>
   <trkpt lat="42.579512" lon="1.642214"><ele>1652.25</ele></trkpt>
   <trkpt lat="42.579526" lon="1.642483"><ele>1653.5</ele></trkpt>
   <trkpt lat="42.579536" lon="1.64275"><ele>1654.5</ele></trkpt>
   <trkpt lat="42.579565" lon="1.643645"><ele>1659.75</ele></trkpt>
   <trkpt lat="42.579597" lon="1.643992"><ele>1660.25</ele></trkpt>
   <trkpt lat="42.579789" lon="1.645253"><ele>1661.5</ele></trkpt>
   <trkpt lat="42.579796" lon="1.645532"><ele>1662.75</ele></trkpt>
   <trkpt lat="42.579797" lon="1.64558"><ele>1663.25</ele></trkpt>
   <trkpt lat="42.579771" lon="1.645616"><ele>1663.25</ele></trkpt>
   <trkpt lat="42.579756" lon="1.645662"><ele>1663.5</ele></trkpt>
   <trkpt lat="42.579753" lon="1.645713"><ele>1664</ele></trkpt>
   <trkpt lat="42.579763" lon="1.645762"><ele>1664.5</ele></trkpt>
   <trkpt lat="42.579784" lon="1.645801"><ele>1665</ele></trkpt>
   <trkpt lat="42.579813" lon="1.64583"><ele>1665.5</ele></trkpt>
   <trkpt lat="42.579847" lon="1.645844"><ele>1665.75</ele></trkpt>
   <trkpt lat="42.579915" lon="1.645941"><ele>1666.25</ele></trkpt>
   <trkpt lat="42.579997" lon="1.64603"><ele>1666.75</ele></trkpt>
   <trkpt lat="42.580081" lon="1.64624"><ele>1670.75</ele></trkpt>
   <trkpt lat="42.580131" lon="1.646379"><ele>1672.5</ele></trkpt>
   <trkpt lat="42.580275" lon="1.646956"><ele>1670.75</ele></trkpt>
   <trkpt lat="42.580307" lon="1.64721"><ele>1674</ele></trkpt>
   <trkpt lat="42.580304" lon="1.647397"><ele>1675</ele></trkpt>
   <trkpt lat="42.580285" lon="1.647545"><ele>1674.75</ele></trkpt>
   <trkpt lat="42.580252" lon="1.647685"><ele>1674.75</ele></trkpt>
   <trkpt lat="42.580095" lon="1.648151"><ele>1676.5</ele></trkpt>
   <trkpt lat="42.57993" lon="1.648572"><ele>1676</ele></trkpt>
   <trkpt lat="42.57975" lon="1.649064"><ele>1678.25</ele></trkpt>
   <trkpt lat="42.579681" lon="1.649229"><ele>1679.25</ele></trkpt>
   <trkpt lat="42.579633" lon="1.649319"><ele>1679.5</ele></trkpt>
   <trkpt lat="42.579563" lon="1.649376"><ele>1679.25</ele></trkpt>
   <trkpt lat="42.57949" lon="1.649414"><ele>1678.5</ele></trkpt>
   <trkpt lat="42.579437" lon="1.64943"><ele>1677.75</ele></trkpt>
   <trkpt lat="42.579401" lon="1.649409"><ele>1677.75</ele></trkpt>
   <trkpt lat="42.57937" lon="1.649408"><ele>1677.75</ele></trkpt>
   <trkpt lat="42.579341" lon="1.64942"><ele>1677.75</ele></trkpt>
   <trkpt lat="42.579315" lon="1.649445"><ele>1678</ele></trkpt>
   <trkpt lat="42.579297" lon="1.649479"><ele>1678.25</ele></trkpt>
   <trkpt lat="42.579288" lon="1.649543"><ele>1679.25</ele></trkpt>
   <trkpt lat="42.579194" lon="1.649629"><ele>1680.5</ele></trkpt>
   <trkpt lat="42.578999" lon="1.64977"><ele>1682</ele></trkpt>
   <trkpt lat="42.578918" lon="1.649884"><ele>1683.75</ele></trkpt>
   <trkpt lat="42.578845" lon="1.64998"><ele>1685.25</ele></trkpt>
   <trkpt lat="42.578778" lon="1.650097"><ele>1686</ele></trkpt>
   <trkpt lat="42.578723" lon="1.650251"><ele>1686.75</ele></trkpt>
   <trkpt lat="42.578654" lon="1.650681"><ele>1689.5</ele></trkpt>
   <trkpt lat="42.57858" lon="1.651112"><ele>1694</ele></trkpt>
   <trkpt lat="42.578475" lon="1.651572"><ele>1697.5</ele></trkpt>
   <trkpt lat="42.578401" lon="1.65181"><ele>1699</ele></trkpt>
   <trkpt lat="42.577778" lon="1.653856"><ele>1703.5</ele></trkpt>
   <trkpt lat="42.57772" lon="1.654086"><ele>1705.25</ele></trkpt>
   <trkpt lat="42.577654" lon="1.654416"><ele>1707.5</ele></trkpt>
   <trkpt lat="42.577616" lon="1.654673"><ele>1708.75</ele></trkpt>
   <trkpt lat="42.577596" lon="1.654931"><ele>1710.25</ele></trkpt>
   <trkpt lat="42.577628" lon="1.655406"><ele>1714</ele></trkpt>
   <trkpt lat="42.577682" lon="1.655757"><ele>1713.75</ele></trkpt>
   <trkpt lat="42.577827" lon="1.656225"><ele>1713.25</ele></trkpt>
   <trkpt lat="42.578009" lon="1.656669"><ele>1714</ele></trkpt>
   <trkpt lat="42.578179" lon="1.657018"><ele>1714.25</ele></trkpt>
   <trkpt lat="42.578294" lon="1.657189"><ele>1714.75</ele></trkpt>
   <trkpt lat="42.578801" lon="1.657864"><ele>1717.25</ele></trkpt>
   <trkpt lat="42.578983" lon="1.658125"><ele>1720</ele></trkpt>
   <trkpt lat="42.579315" lon="1.658654"><ele>1722.25</ele></trkpt>
   <trkpt lat="42.57936" lon="1.658726"><ele>1722.25</ele></trkpt>
   <trkpt lat="42.579407" lon="1.658801"><ele>1722.25</ele></trkpt>
   <trkpt lat="42.579532" lon="1.658971"><ele>1723.75</ele></trkpt>
   <trkpt lat="42.579859" lon="1.659467"><ele>1727.25</ele></trkpt>
   <trkpt lat="42.579872" lon="1.659486"><ele>1727.5</ele></trkpt>
   <trkpt lat="42.580092" lon="1.65982"><ele>1729.5</ele></trkpt>
   <trkpt lat="42.580539" lon="1.660401"><ele>1733.25</ele></trkpt>
   <trkpt lat="42.580933" lon="1.660852"><ele>1736.75</ele></trkpt>
   <trkpt lat="42.581472" lon="1.661398"><ele>1742</ele></trkpt>
   <trkpt lat="42.581925" lon="1.661841"><ele>1744.75</ele></trkpt>
   <trkpt lat="42.582129" lon="1.662052"><ele>1745</ele></trkpt>
   <trkpt lat="42.582317" lon="1.662222"><ele>1744.25</ele></trkpt>
   <trkpt lat="42.5828" lon="1.662629"><ele>1745</ele></trkpt>
   <trkpt lat="42.583298" lon="1.662995"><ele>1746.75</ele></trkpt>
   <trkpt lat="42.583353" lon="1.663029"><ele>1746.5</ele></trkpt>
   <trkpt lat="42.583528" lon="1.663137"><ele>1747.75</ele></trkpt>
   <trkpt lat="42.583722" lon="1.663286"><ele>1749</ele></trkpt>
   <trkpt lat="42.583827" lon="1.663419"><ele>1748.5</ele></trkpt>
   <trkpt lat="42.583898" lon="1.663565"><ele>1747.5</ele></trkpt>
   <trkpt lat="42.583929" lon="1.663744"><ele>1747.5</ele></trkpt>
   <trkpt lat="42.583925" lon="1.663949"><ele>1748</ele></trkpt>
   <trkpt lat="42.583882" lon="1.664138"><ele>1748.25</ele></trkpt>
   <trkpt lat="42.58383" lon="1.664267"><ele>1748.25</ele></trkpt>
   <trkpt lat="42.583778" lon="1.664372"><ele>1749</ele></trkpt>
   <trkpt lat="42.583705" lon="1.664476"><ele>1750.5</ele></trkpt>
   <trkpt lat="42.583608" lon="1.664556"><ele>1752</ele></trkpt>
   <trkpt lat="42.583501" lon="1.66462"><ele>1753.75</ele></trkpt>
   <trkpt lat="42.583381" lon="1.664655"><ele>1755.5</ele></trkpt>
   <trkpt lat="42.583111" lon="1.664644"><ele>1757.25</ele></trkpt>
   <trkpt lat="42.58234" lon="1.664513"><ele>1764</ele></trkpt>
   <trkpt lat="42.581827" lon="1.664471"><ele>1768.5</ele></trkpt>
   <trkpt lat="42.581471" lon="1.664455"><ele>1771.25</ele></trkpt>
   <trkpt lat="42.581298" lon="1.664434"><ele>1772.75</ele></trkpt>
   <trkpt lat="42.581268" lon="1.664423"><ele>1772.75</ele></trkpt>
   <trkpt lat="42.581063" lon="1.664345"><ele>1775</ele></trkpt>
   <trkpt lat="42.580532" lon="1.664098"><ele>1778.25</ele></trkpt>
   <trkpt lat="42.580373" lon="1.664036"><ele>1780.25</ele></trkpt>
   <trkpt lat="42.580118" lon="1.663923"><ele>1783.5</ele></trkpt>
   <trkpt lat="42.579846" lon="1.663827"><ele>1786.75</ele></trkpt>
   <trkpt lat="42.5797" lon="1.663785"><ele>1789</ele></trkpt>
   <trkpt lat="42.579477" lon="1.66375"><ele>1791</ele></trkpt>
   <trkpt lat="42.579268" lon="1.663727"><ele>1792.75</ele></trkpt>
   <trkpt lat="42.579092" lon="1.663695"><ele>1794.25</ele></trkpt>
   <trkpt lat="42.578923" lon="1.663571"><ele>1793.75</ele></trkpt>
   <trkpt lat="42.578718" lon="1.66336"><ele>1794.5</ele></trkpt>
   <trkpt lat="42.578584" lon="1.663238"><ele>1796.75</ele></trkpt>
   <trkpt lat="42.578317" lon="1.663087"><ele>1799.75</ele></trkpt>
   <trkpt lat="42.578111" lon="1.66301"><ele>1801</ele></trkpt>
   <trkpt lat="42.577918" lon="1.663003"><ele>1803</ele></trkpt>
   <trkpt lat="42.57778" lon="1.663037"><ele>1804.75</ele></trkpt>
   <trkpt lat="42.57765" lon="1.66316"><ele>1806.25</ele></trkpt>
   <trkpt lat="42.577559" lon="1.663313"><ele>1807.75</ele></trkpt>
   <trkpt lat="42.577514" lon="1.663507"><ele>1808.5</ele></trkpt>
   <trkpt lat="42.577478" lon="1.664076"><ele>1809.75</ele></trkpt>
   <trkpt lat="42.57746" lon="1.664217"><ele>1810</ele></trkpt>
   <trkpt lat="42.577216" lon="1.665387"><ele>1818.75</ele></trkpt>
   <trkpt lat="42.57704" lon="1.666141"><ele>1821.25</ele></trkpt>
   <trkpt lat="42.577019" lon="1.666234"><ele>1821.5</ele></trkpt>
   <trkpt lat="42.576989" lon="1.666357"><ele>1821.5</ele></trkpt>
   <trkpt lat="42.576954" lon="1.666493"><ele>1821.75</ele></trkpt>
   <trkpt lat="42.576916" lon="1.666657"><ele>1822.5</ele></trkpt>
   <trkpt lat="42.576885" lon="1.666774"><ele>1823</ele></trkpt>
   <trkpt lat="42.5768" lon="1.667134"><ele>1824.75</ele></trkpt>
   <trkpt lat="42.576744" lon="1.667465"><ele>1826</ele></trkpt>
   <trkpt lat="42.576708" lon="1.667905"><ele>1828.25</ele></trkpt>
   <trkpt lat="42.576698" lon="1.668025"><ele>1828.5</ele></trkpt>
   <trkpt lat="42.576685" lon="1.668097"><ele>1828.75</ele></trkpt>
   <trkpt lat="42.576603" lon="1.668375"><ele>1830.25</ele></trkpt>
   <trkpt lat="42.576418" lon="1.668772"><ele>1832.25</ele></trkpt>
   <trkpt lat="42.576233" lon="1.66916"><ele>1835</ele></trkpt>
   <trkpt lat="42.576159" lon="1.669319"><ele>1836</ele></trkpt>
   <trkpt lat="42.576135" lon="1.669372"><ele>1836.25</ele></trkpt>
   <trkpt lat="42.576124" lon="1.669396"><ele>1836.5</ele></trkpt>
   <trkpt lat="42.575873" lon="1.67018"><ele>1837.25</ele></trkpt>
   <trkpt lat="42.575708" lon="1.670701"><ele>1837.5</ele></trkpt>
   <trkpt lat="42.575556" lon="1.671255"><ele>1846</ele></trkpt>
   <trkpt lat="42.57553" lon="1.671329"><ele>1844.5</ele></trkpt>
   <trkpt lat="42.575313" lon="1.671889"><ele>1849.25</ele></trkpt>
   <trkpt lat="42.575072" lon="1.672348"><ele>1849.75</ele></trkpt>
   <trkpt lat="42.574935" lon="1.672568"><ele>1849</ele></trkpt>
   <trkpt lat="42.574693" lon="1.672865"><ele>1851.5</ele></trkpt>
   <trkpt lat="42.574461" lon="1.673133"><ele>1853.25</ele></trkpt>
   <trkpt lat="42.574359" lon="1.673295"><ele>1852.75</ele></trkpt>
   <trkpt lat="42.574225" lon="1.673536"><ele>1852.25</ele></trkpt>
   <trkpt lat="42.574093" lon="1.673611"><ele>1850.5</ele></trkpt>
   <trkpt lat="42.574058" lon="1.673624"><ele>1850.25</ele></trkpt>
   <trkpt lat="42.574029" lon="1.673652"><ele>1850.25</ele></trkpt>
   <trkpt lat="42.574008" lon="1.673692"><ele>1850.5</ele></trkpt>
   <trkpt lat="42.573998" lon="1.673739"><ele>1851.25</ele></trkpt>
   <trkpt lat="42.574001" lon="1.673787"><ele>1852</ele></trkpt>
   <trkpt lat="42.573992" lon="1.673888"><ele>1853.75</ele></trkpt>
   <trkpt lat="42.573958" lon="1.674018"><ele>1856</ele></trkpt>
   <trkpt lat="42.57377" lon="1.674264"><ele>1858.5</ele></trkpt>
   <trkpt lat="42.573594" lon="1.674457"><ele>1861</ele></trkpt>
   <trkpt lat="42.573016" lon="1.675006"><ele>1867.25</ele></trkpt>
   <trkpt lat="42.572712" lon="1.675352"><ele>1870.5</ele></trkpt>
   <trkpt lat="42.572433" lon="1.675738"><ele>1873.75</ele></trkpt>
   <trkpt lat="42.572047" lon="1.676294"><ele>1876.5</ele></trkpt>
   <trkpt lat="42.571762" lon="1.676625"><ele>1878.75</ele></trkpt>
   <trkpt lat="42.571422" lon="1.676934"><ele>1880.25</ele></trkpt>
   <trkpt lat="42.570825" lon="1.677322"><ele>1885</ele></trkpt>
   <trkpt lat="42.570568" lon="1.677532"><ele>1888.25</ele></trkpt>
   <trkpt lat="42.570156" lon="1.677912"><ele>1892</ele></trkpt>
   <trkpt lat="42.569836" lon="1.678172"><ele>1895.5</ele></trkpt>
   <trkpt lat="42.569565" lon="1.678292"><ele>1896.5</ele></trkpt>
   <trkpt lat="42.569359" lon="1.678326"><ele>1897</ele></trkpt>
   <trkpt lat="42.568857" lon="1.678436"><ele>1901</ele></trkpt>
   <trkpt lat="42.568263" lon="1.678599"><ele>1906.75</ele></trkpt>
   <trkpt lat="42.56795" lon="1.678613"><ele>1908.75</ele></trkpt>
   <trkpt lat="42.567593" lon="1.678586"><ele>1911.5</ele></trkpt>
   <trkpt lat="42.567319" lon="1.678584"><ele>1913.5</ele></trkpt>
   <trkpt lat="42.56705" lon="1.678686"><ele>1917</ele></trkpt>
   <trkpt lat="42.566692" lon="1.6789"><ele>1920.5</ele></trkpt>
   <trkpt lat="42.565825" lon="1.67945"><ele>1928</ele></trkpt>
   <trkpt lat="42.565451" lon="1.679591"><ele>1930.75</ele></trkpt>
   <trkpt lat="42.565116" lon="1.679625"><ele>1932</ele></trkpt>
   <trkpt lat="42.564628" lon="1.67965"><ele>1936.25</ele></trkpt>
   <trkpt lat="42.564601" lon="1.679662"><ele>1936.5</ele></trkpt>
   <trkpt lat="42.564535" lon="1.67959"><ele>1935.75</ele></trkpt>
   <trkpt lat="42.564474" lon="1.679556"><ele>1935.75</ele></trkpt>
   <trkpt lat="42.564417" lon="1.679568"><ele>1935.75</ele></trkpt>
   <trkpt lat="42.564344" lon="1.679602"><ele>1935.5</ele></trkpt>
   <trkpt lat="42.564305" lon="1.679674"><ele>1936.5</ele></trkpt>
   <trkpt lat="42.564303" lon="1.679746"><ele>1938</ele></trkpt>
   <trkpt lat="42.564325" lon="1.679836"><ele>1940.5</ele></trkpt>
   <trkpt lat="42.56433" lon="1.679855"><ele>1940.5</ele></trkpt>
   <trkpt lat="42.564032" lon="1.680139"><ele>1943.5</ele></trkpt>
   <trkpt lat="42.563719" lon="1.680457"><ele>1945.75</ele></trkpt>
   <trkpt lat="42.562381" lon="1.681798"><ele>1959.25</ele></trkpt>
   <trkpt lat="42.562034" lon="1.682172"><ele>1963.75</ele></trkpt>
   <trkpt lat="42.561533" lon="1.68278"><ele>1970.25</ele></trkpt>
   <trkpt lat="42.561217" lon="1.683175"><ele>1972</ele></trkpt>
   <trkpt lat="42.560917" lon="1.683775"><ele>1979</ele></trkpt>
   <trkpt lat="42.560698" lon="1.684186"><ele>1982</ele></trkpt>
   <trkpt lat="42.560199" lon="1.684892"><ele>1983.5</ele></trkpt>
   <trkpt lat="42.559579" lon="1.685776"><ele>1990.5</ele></trkpt>
   <trkpt lat="42.558897" lon="1.686686"><ele>1999.5</ele></trkpt>
   <trkpt lat="42.558385" lon="1.687447"><ele>2006.25</ele></trkpt>
   <trkpt lat="42.557748" lon="1.688413"><ele>2008.5</ele></trkpt>
   <trkpt lat="42.55767" lon="1.68852"><ele>2009.25</ele></trkpt>
   <trkpt lat="42.557649" lon="1.688544"><ele>2009.25</ele></trkpt>
   <trkpt lat="42.557374" lon="1.688881"><ele>2012</ele></trkpt>
   <trkpt lat="42.557095" lon="1.689158"><ele>2012.25</ele></trkpt>
   <trkpt lat="42.556422" lon="1.68969"><ele>2014.5</ele></trkpt>
   <trkpt lat="42.554787" lon="1.691132"><ele>2019</ele></trkpt>
   <trkpt lat="42.55401" lon="1.69187"><ele>2020.25</ele></trkpt>
   <trkpt lat="42.55332" lon="1.69272"><ele>2021.75</ele></trkpt>
   <trkpt lat="42.552909" lon="1.693312"><ele>2023</ele></trkpt>
   <trkpt lat="42.552562" lon="1.693847"><ele>2026</ele></trkpt>
   <trkpt lat="42.552187" lon="1.694411"><ele>2028</ele></trkpt>
   <trkpt lat="42.551963" lon="1.694727"><ele>2030.25</ele></trkpt>
   <trkpt lat="42.551774" lon="1.695034"><ele>2032.5</ele></trkpt>
   <trkpt lat="42.551732" lon="1.695086"><ele>2032.5</ele></trkpt>
   <trkpt lat="42.551679" lon="1.695127"><ele>2032.5</ele></trkpt>
   <trkpt lat="42.551547" lon="1.69519"><ele>2032.25</ele></trkpt>
   <trkpt lat="42.551499" lon="1.695219"><ele>2032.5</ele></trkpt>
   <trkpt lat="42.551459" lon="1.695266"><ele>2033</ele></trkpt>
   <trkpt lat="42.55143" lon="1.695328"><ele>2033.5</ele></trkpt>
   <trkpt lat="42.551421" lon="1.695363"><ele>2033.75</ele></trkpt>
   <trkpt lat="42.551414" lon="1.695436"><ele>2034.25</ele></trkpt>
   <trkpt lat="42.551424" lon="1.695509"><ele>2035</ele></trkpt>
   <trkpt lat="42.551458" lon="1.695589"><ele>2036</ele></trkpt>
   <trkpt lat="42.551413" lon="1.695779"><ele>2037</ele></trkpt>
   <trkpt lat="42.551349" lon="1.695911"><ele>2038.5</ele></trkpt>
   <trkpt lat="42.551249" lon="1.696021"><ele>2039.5</ele></trkpt>
   <trkpt lat="42.55113" lon="1.696108"><ele>2038.25</ele></trkpt>
   <trkpt lat="42.550999" lon="1.696241"><ele>2040</ele></trkpt>
   <trkpt lat="42.550939" lon="1.696327"><ele>2041</ele></trkpt>
   <trkpt lat="42.550867" lon="1.69648"><ele>2042.25</ele></trkpt>
   <trkpt lat="42.550275" lon="1.697383"><ele>2050.25</ele></trkpt>
   <trkpt lat="42.549985" lon="1.697904"><ele>2054.5</ele></trkpt>
   <trkpt lat="42.54974" lon="1.698407"><ele>2058</ele></trkpt>
   <trkpt lat="42.549626" lon="1.698617"><ele>2059.75</ele></trkpt>
   <trkpt lat="42.54946" lon="1.698848"><ele>2061.75</ele></trkpt>
   <trkpt lat="42.549291" lon="1.699055"><ele>2063.75</ele></trkpt>
   <trkpt lat="42.54909" lon="1.699286"><ele>2067</ele></trkpt>
   <trkpt lat="42.548811" lon="1.699572"><ele>2069.5</ele></trkpt>
   <trkpt lat="42.548575" lon="1.69976"><ele>2071.5</ele></trkpt>
   <trkpt lat="42.548387" lon="1.699878"><ele>2073.75</ele></trkpt>
   <trkpt lat="42.54823" lon="1.699966"><ele>2075.5</ele></trkpt>
   <trkpt lat="42.54801" lon="1.700053"><ele>2077</ele></trkpt>
   <trkpt lat="42.547774" lon="1.700135"><ele>2079.75</ele></trkpt>
   <trkpt lat="42.547651" lon="1.700191"><ele>2081</ele></trkpt>
   <trkpt lat="42.547501" lon="1.70028"><ele>2083</ele></trkpt>
   <trkpt lat="42.547393" lon="1.700372"><ele>2084.75</ele></trkpt>
   <trkpt lat="42.547146" lon="1.70058"><ele>2087.25</ele></trkpt>
   <trkpt lat="42.547057" lon="1.70066"><ele>2088.75</ele></trkpt>
   <trkpt lat="42.546778" lon="1.700872"><ele>2090.5</ele></trkpt>
   <trkpt lat="42.546539" lon="1.701034"><ele>2092.25</ele></trkpt>
   <trkpt lat="42.545908" lon="1.701457"><ele>2099.25</ele></trkpt>
   <trkpt lat="42.545643" lon="1.701701"><ele>2102.5</ele></trkpt>
   <trkpt lat="42.544923" lon="1.702487"><ele>2108</ele></trkpt>
   <trkpt lat="42.544329" lon="1.703071"><ele>2113.5</ele></trkpt>
   <trkpt lat="42.544095" lon="1.703257"><ele>2117.5</ele></trkpt>
   <trkpt lat="42.5438" lon="1.703443"><ele>2120.25</ele></trkpt>
   <trkpt lat="42.543644" lon="1.703526"><ele>2120.75</ele></trkpt>
   <trkpt lat="42.543568" lon="1.703551"><ele>2121</ele></trkpt>
   <trkpt lat="42.543466" lon="1.703555"><ele>2121.5</ele></trkpt>
   <trkpt lat="42.543265" lon="1.70354"><ele>2122.5</ele></trkpt>
   <trkpt lat="42.543183" lon="1.703518"><ele>2122.75</ele></trkpt>
   <trkpt lat="42.543051" lon="1.703438"><ele>2123</ele></trkpt>
   <trkpt lat="42.542996" lon="1.703419"><ele>2122.75</ele></trkpt>
   <trkpt lat="42.542947" lon="1.703427"><ele>2123</ele></trkpt>
   <trkpt lat="42.542897" lon="1.703458"><ele>2123.5</ele></trkpt>
   <trkpt lat="42.542857" lon="1.703501"><ele>2124</ele></trkpt>
   <trkpt lat="42.54283" lon="1.703586"><ele>2125.25</ele></trkpt>
   <trkpt lat="42.542831" lon="1.703618"><ele>2125.75</ele></trkpt>
   <trkpt lat="42.542844" lon="1.703719"><ele>2126.5</ele></trkpt>
   <trkpt lat="42.542875" lon="1.703775"><ele>2127</ele></trkpt>
   <trkpt lat="42.542967" lon="1.70384"><ele>2128</ele></trkpt>
   <trkpt lat="42.543098" lon="1.703873"><ele>2128.75</ele></trkpt>
   <trkpt lat="42.543371" lon="1.703904"><ele>2129.5</ele></trkpt>
   <trkpt lat="42.543485" lon="1.703902"><ele>2130</ele></trkpt>
   <trkpt lat="42.543602" lon="1.70389"><ele>2130</ele></trkpt>
   <trkpt lat="42.543769" lon="1.703861"><ele>2132.5</ele></trkpt>
   <trkpt lat="42.54387" lon="1.703823"><ele>2133.25</ele></trkpt>
   <trkpt lat="42.544049" lon="1.703717"><ele>2133</ele></trkpt>
   <trkpt lat="42.544146" lon="1.703658"><ele>2134</ele></trkpt>
   <trkpt lat="42.544201" lon="1.703638"><ele>2134.25</ele></trkpt>
   <trkpt lat="42.544265" lon="1.703642"><ele>2134.25</ele></trkpt>
   <trkpt lat="42.544309" lon="1.703676"><ele>2135</ele></trkpt>
   <trkpt lat="42.544331" lon="1.703726"><ele>2135.75</ele></trkpt>
   <trkpt lat="42.544358" lon="1.703805"><ele>2137.5</ele></trkpt>
   <trkpt lat="42.54436" lon="1.703898"><ele>2139.25</ele></trkpt>
   <trkpt lat="42.54433" lon="1.703981"><ele>2141.75</ele></trkpt>
   <trkpt lat="42.544303" lon="1.704023"><ele>2142.75</ele></trkpt>
   <trkpt lat="42.544255" lon="1.704046"><ele>2142.5</ele></trkpt>
   <trkpt lat="42.544188" lon="1.704054"><ele>2141.5</ele></trkpt>
   <trkpt lat="42.544121" lon="1.704049"><ele>2140.75</ele></trkpt>
   <trkpt lat="42.544005" lon="1.704065"><ele>2140.75</ele></trkpt>
   <trkpt lat="42.543871" lon="1.7041"><ele>2141</ele></trkpt>
   <trkpt lat="42.543728" lon="1.704178"><ele>2141.5</ele></trkpt>
   <trkpt lat="42.543025" lon="1.704508"><ele>2147.5</ele></trkpt>
   <trkpt lat="42.542877" lon="1.704588"><ele>2149</ele></trkpt>
   <trkpt lat="42.542776" lon="1.704632"><ele>2149.5</ele></trkpt>
   <trkpt lat="42.542656" lon="1.704664"><ele>2150.75</ele></trkpt>
   <trkpt lat="42.54255" lon="1.704688"><ele>2151.75</ele></trkpt>
   <trkpt lat="42.542455" lon="1.704699"><ele>2152.25</ele></trkpt>
   <trkpt lat="42.542221" lon="1.704686"><ele>2151.5</ele></trkpt>
   <trkpt lat="42.542173" lon="1.704708"><ele>2151.75</ele></trkpt>
   <trkpt lat="42.542133" lon="1.704747"><ele>2152</ele></trkpt>
   <trkpt lat="42.542105" lon="1.704808"><ele>2152.25</ele></trkpt>
   <trkpt lat="42.542092" lon="1.704889"><ele>2153</ele></trkpt>
   <trkpt lat="42.542098" lon="1.704967"><ele>2154</ele></trkpt>
   <trkpt lat="42.542124" lon="1.705042"><ele>2156.5</ele></trkpt>
   <trkpt lat="42.542162" lon="1.705087"><ele>2158.5</ele></trkpt>
   <trkpt lat="42.542204" lon="1.705109"><ele>2160</ele></trkpt>
   <trkpt lat="42.542244" lon="1.705116"><ele>2160.75</ele></trkpt>
   <trkpt lat="42.542291" lon="1.705103"><ele>2160.75</ele></trkpt>
   <trkpt lat="42.542309" lon="1.705086"><ele>2159</ele></trkpt>
   <trkpt lat="42.542359" lon="1.705042"><ele>2159</ele></trkpt>
   <trkpt lat="42.542455" lon="1.704977"><ele>2158</ele></trkpt>
   <trkpt lat="42.542557" lon="1.70495"><ele>2158</ele></trkpt>
   <trkpt lat="42.543442" lon="1.705024"><ele>2166.5</ele></trkpt>
   <trkpt lat="42.543619" lon="1.705024"><ele>2168</ele></trkpt>
   <trkpt lat="42.544011" lon="1.704956"><ele>2170.5</ele></trkpt>
   <trkpt lat="42.544242" lon="1.704882"><ele>2173.25</ele></trkpt>
   <trkpt lat="42.544817" lon="1.704731"><ele>2178.5</ele></trkpt>
   <trkpt lat="42.545343" lon="1.704562"><ele>2180</ele></trkpt>
   <trkpt lat="42.545779" lon="1.704447"><ele>2185.25</ele></trkpt>
   <trkpt lat="42.546126" lon="1.70437"><ele>2188.5</ele></trkpt>
   <trkpt lat="42.546508" lon="1.704266"><ele>2191.5</ele></trkpt>
   <trkpt lat="42.547014" lon="1.704116"><ele>2195.5</ele></trkpt>
   <trkpt lat="42.547257" lon="1.704079"><ele>2197.5</ele></trkpt>
   <trkpt lat="42.547396" lon="1.704073"><ele>2198.75</ele></trkpt>
   <trkpt lat="42.547921" lon="1.704145"><ele>2202.25</ele></trkpt>
   <trkpt lat="42.54805" lon="1.704183"><ele>2203.25</ele></trkpt>
   <trkpt lat="42.548338" lon="1.704322"><ele>2204.75</ele></trkpt>
   <trkpt lat="42.548399" lon="1.704349"><ele>2205.25</ele></trkpt>
   <trkpt lat="42.548516" lon="1.704384"><ele>2206.25</ele></trkpt>
   <trkpt lat="42.548761" lon="1.704387"><ele>2209.5</ele></trkpt>
   <trkpt lat="42.548882" lon="1.70436"><ele>2211.5</ele></trkpt>
   <trkpt lat="42.549088" lon="1.704237"><ele>2213.75</ele></trkpt>
   <trkpt lat="42.549201" lon="1.704148"><ele>2214.25</ele></trkpt>
   <trkpt lat="42.549409" lon="1.703902"><ele>2215.25</ele></trkpt>
   <trkpt lat="42.549524" lon="1.703786"><ele>2215.25</ele></trkpt>
   <trkpt lat="42.549664" lon="1.703618"><ele>2216.25</ele></trkpt>
   <trkpt lat="42.549714" lon="1.70359"><ele>2217</ele></trkpt>
   <trkpt lat="42.549766" lon="1.703585"><ele>2217.75</ele></trkpt>
   <trkpt lat="42.549816" lon="1.703606"><ele>2219</ele></trkpt>
   <trkpt lat="42.549859" lon="1.703646"><ele>2220.25</ele></trkpt>
   <trkpt lat="42.549889" lon="1.703709"><ele>2221.5</ele></trkpt>
   <trkpt lat="42.549903" lon="1.703792"><ele>2223</ele></trkpt>
   <trkpt lat="42.549895" lon="1.70387"><ele>2224</ele></trkpt>
   <trkpt lat="42.549862" lon="1.703944"><ele>2224.5</ele></trkpt>
   <trkpt lat="42.549811" lon="1.704008"><ele>2224.5</ele></trkpt>
   <trkpt lat="42.549735" lon="1.704079"><ele>2223</ele></trkpt>
   <trkpt lat="42.549581" lon="1.704235"><ele>2223.5</ele></trkpt>
   <trkpt lat="42.549382" lon="1.704471"><ele>2223.5</ele></trkpt>
   <trkpt lat="42.549197" lon="1.704713"><ele>2224.5</ele></trkpt>
   <trkpt lat="42.549033" lon="1.704968"><ele>2227.25</ele></trkpt>
   <trkpt lat="42.54887" lon="1.705164"><ele>2227.5</ele></trkpt>
   <trkpt lat="42.548711" lon="1.705311"><ele>2228.75</ele></trkpt>
   <trkpt lat="42.548525" lon="1.705436"><ele>2229.75</ele></trkpt>
   <trkpt lat="42.548288" lon="1.705485"><ele>2230.25</ele></trkpt>
   <trkpt lat="42.547925" lon="1.705447"><ele>2234</ele></trkpt>
   <trkpt lat="42.547726" lon="1.705434"><ele>2234.75</ele></trkpt>
   <trkpt lat="42.54754" lon="1.705486"><ele>2236.25</ele></trkpt>
   <trkpt lat="42.547311" lon="1.705604"><ele>2238.25</ele></trkpt>
   <trkpt lat="42.546653" lon="1.706081"><ele>2244</ele></trkpt>
   <trkpt lat="42.54639" lon="1.706358"><ele>2246.25</ele></trkpt>
   <trkpt lat="42.545954" lon="1.706946"><ele>2251.75</ele></trkpt>
   <trkpt lat="42.545754" lon="1.707144"><ele>2252</ele></trkpt>
   <trkpt lat="42.54547" lon="1.707362"><ele>2256.25</ele></trkpt>
   <trkpt lat="42.544753" lon="1.707781"><ele>2263.25</ele></trkpt>
   <trkpt lat="42.544409" lon="1.707954"><ele>2265.5</ele></trkpt>
   <trkpt lat="42.543974" lon="1.708078"><ele>2269</ele></trkpt>
   <trkpt lat="42.543748" lon="1.708172"><ele>2270.75</ele></trkpt>
   <trkpt lat="42.543444" lon="1.708392"><ele>2274</ele></trkpt>
   <trkpt lat="42.543156" lon="1.708617"><ele>2276</ele></trkpt>
   <trkpt lat="42.54286" lon="1.708971"><ele>2279.25</ele></trkpt>
   <trkpt lat="42.542621" lon="1.709315"><ele>2282.25</ele></trkpt>
   <trkpt lat="42.542371" lon="1.709721"><ele>2285.5</ele></trkpt>
   <trkpt lat="42.542215" lon="1.710026"><ele>2287.25</ele></trkpt>
   <trkpt lat="42.542103" lon="1.710289"><ele>2288.75</ele></trkpt>
   <trkpt lat="42.542008" lon="1.710704"><ele>2292</ele></trkpt>
   <trkpt lat="42.541976" lon="1.710959"><ele>2294.5</ele></trkpt>
   <trkpt lat="42.541954" lon="1.711089"><ele>2296</ele></trkpt>
   <trkpt lat="42.541906" lon="1.711234"><ele>2296.25</ele></trkpt>
   <trkpt lat="42.541861" lon="1.711339"><ele>2296.75</ele></trkpt>
   <trkpt lat="42.541795" lon="1.711443"><ele>2297.5</ele></trkpt>
   <trkpt lat="42.54169" lon="1.711569"><ele>2298.75</ele></trkpt>
   <trkpt lat="42.541575" lon="1.711666"><ele>2299.75</ele></trkpt>
   <trkpt lat="42.541471" lon="1.711729"><ele>2301.5</ele></trkpt>
   <trkpt lat="42.541374" lon="1.711755"><ele>2302.25</ele></trkpt>
   <trkpt lat="42.541268" lon="1.711765"><ele>2303.25</ele></trkpt>
   <trkpt lat="42.541153" lon="1.711744"><ele>2304</ele></trkpt>
   <trkpt lat="42.541033" lon="1.711687"><ele>2303.75</ele></trkpt>
   <trkpt lat="42.540826" lon="1.711539"><ele>2303</ele></trkpt>
   <trkpt lat="42.540754" lon="1.711496"><ele>2302.75</ele></trkpt>
   <trkpt lat="42.540693" lon="1.711491"><ele>2302.75</ele></trkpt>
   <trkpt lat="42.540646" lon="1.711519"><ele>2303.5</ele></trkpt>
   <trkpt lat="42.540619" lon="1.71155"><ele>2304</ele></trkpt>
   <trkpt lat="42.540598" lon="1.711599"><ele>2305.25</ele></trkpt>
   <trkpt lat="42.54059" lon="1.711657"><ele>2306.5</ele></trkpt>
   <trkpt lat="42.540592" lon="1.711715"><ele>2307.75</ele></trkpt>
   <trkpt lat="42.540607" lon="1.711762"><ele>2308.75</ele></trkpt>
   <trkpt lat="42.540631" lon="1.711811"><ele>2309.5</ele></trkpt>
   <trkpt lat="42.540723" lon="1.711871"><ele>2309.5</ele></trkpt>
   <trkpt lat="42.540888" lon="1.711925"><ele>2308.5</ele></trkpt>
   <trkpt lat="42.541047" lon="1.711988"><ele>2309.25</ele></trkpt>
   <trkpt lat="42.541362" lon="1.712167"><ele>2311.25</ele></trkpt>
   <trkpt lat="42.541905" lon="1.712528"><ele>2317.5</ele></trkpt>
   <trkpt lat="42.541997" lon="1.712582"><ele>2318.75</ele></trkpt>
   <trkpt lat="42.542096" lon="1.712602"><ele>2320.25</ele></trkpt>
   <trkpt lat="42.542173" lon="1.712598"><ele>2320.75</ele></trkpt>
   <trkpt lat="42.542233" lon="1.712575"><ele>2321.25</ele></trkpt>
   <trkpt lat="42.542292" lon="1.712533"><ele>2321.75</ele></trkpt>
   <trkpt lat="42.54234" lon="1.712493"><ele>2322.25</ele></trkpt>
   <trkpt lat="42.542386" lon="1.712431"><ele>2322.75</ele></trkpt>
   <trkpt lat="42.542423" lon="1.712353"><ele>2322.75</ele></trkpt>
   <trkpt lat="42.542466" lon="1.712215"><ele>2323</ele></trkpt>
   <trkpt lat="42.542478" lon="1.712145"><ele>2323.25</ele></trkpt>
   <trkpt lat="42.542484" lon="1.712058"><ele>2323.25</ele></trkpt>
   <trkpt lat="42.542481" lon="1.711984"><ele>2323.25</ele></trkpt>
   <trkpt lat="42.542452" lon="1.711816"><ele>2322.25</ele></trkpt>
   <trkpt lat="42.542429" lon="1.711698"><ele>2321.75</ele></trkpt>
   <trkpt lat="42.542426" lon="1.711637"><ele>2321.5</ele></trkpt>
   <trkpt lat="42.542435" lon="1.711553"><ele>2321.25</ele></trkpt>
   <trkpt lat="42.542451" lon="1.711512"><ele>2321.75</ele></trkpt>
   <trkpt lat="42.542474" lon="1.711476"><ele>2322.5</ele></trkpt>
   <trkpt lat="42.54251" lon="1.711451"><ele>2323.5</ele></trkpt>
   <trkpt lat="42.542543" lon="1.711445"><ele>2324.5</ele></trkpt>
   <trkpt lat="42.542595" lon="1.711449"><ele>2326.25</ele></trkpt>
   <trkpt lat="42.54262" lon="1.711471"><ele>2327</ele></trkpt>
   <trkpt lat="42.542663" lon="1.711538"><ele>2328.25</ele></trkpt>
   <trkpt lat="42.542676" lon="1.711573"><ele>2328.75</ele></trkpt>
   <trkpt lat="42.54268" lon="1.711708"><ele>2328.75</ele></trkpt>
   <trkpt lat="42.542673" lon="1.711801"><ele>2328.75</ele></trkpt>
   <trkpt lat="42.54267" lon="1.712034"><ele>2328.75</ele></trkpt>
   <trkpt lat="42.542692" lon="1.7122"><ele>2329.5</ele></trkpt>
   <trkpt lat="42.542706" lon="1.71239"><ele>2330.5</ele></trkpt>
   <trkpt lat="42.542701" lon="1.712539"><ele>2331.5</ele></trkpt>
   <trkpt lat="42.542672" lon="1.712711"><ele>2333.25</ele></trkpt>
   <trkpt lat="42.542628" lon="1.712876"><ele>2334.75</ele></trkpt>
   <trkpt lat="42.54254" lon="1.713046"><ele>2335</ele></trkpt>
   <trkpt lat="42.542362" lon="1.713362"><ele>2336.75</ele></trkpt>
   <trkpt lat="42.542178" lon="1.71364"><ele>2339.25</ele></trkpt>
   <trkpt lat="42.542013" lon="1.713837"><ele>2341.25</ele></trkpt>
   <trkpt lat="42.541851" lon="1.713951"><ele>2343</ele></trkpt>
   <trkpt lat="42.541716" lon="1.714007"><ele>2343.75</ele></trkpt>
   <trkpt lat="42.541581" lon="1.71404"><ele>2344.25</ele></trkpt>
   <trkpt lat="42.541441" lon="1.714043"><ele>2344.5</ele></trkpt>
   <trkpt lat="42.541294" lon="1.714028"><ele>2346</ele></trkpt>
   <trkpt lat="42.541181" lon="1.714001"><ele>2347.5</ele></trkpt>
   <trkpt lat="42.540746" lon="1.71382"><ele>2350.5</ele></trkpt>
   <trkpt lat="42.540638" lon="1.713773"><ele>2351.5</ele></trkpt>
   <trkpt lat="42.540535" lon="1.713698"><ele>2352</ele></trkpt>
   <trkpt lat="42.540441" lon="1.713615"><ele>2352.5</ele></trkpt>
   <trkpt lat="42.540315" lon="1.713459"><ele>2352.25</ele></trkpt>
   <trkpt lat="42.540282" lon="1.713434"><ele>2352.25</ele></trkpt>
   <trkpt lat="42.540236" lon="1.713428"><ele>2352.5</ele></trkpt>
   <trkpt lat="42.540188" lon="1.713448"><ele>2352.75</ele></trkpt>
   <trkpt lat="42.540148" lon="1.713482"><ele>2353.5</ele></trkpt>
   <trkpt lat="42.540117" lon="1.713543"><ele>2354.5</ele></trkpt>
   <trkpt lat="42.540111" lon="1.713614"><ele>2355.5</ele></trkpt>
   <trkpt lat="42.540117" lon="1.713687"><ele>2356.25</ele></trkpt>
   <trkpt lat="42.540156" lon="1.713755"><ele>2356.75</ele></trkpt>
   <trkpt lat="42.540204" lon="1.713801"><ele>2356.75</ele></trkpt>
   <trkpt lat="42.540284" lon="1.713855"><ele>2356.5</ele></trkpt>
   <trkpt lat="42.540344" lon="1.713925"><ele>2356.75</ele></trkpt>
   <trkpt lat="42.540409" lon="1.714009"><ele>2357.5</ele></trkpt>
   <trkpt lat="42.540468" lon="1.714108"><ele>2358.25</ele></trkpt>
   <trkpt lat="42.54057" lon="1.714328"><ele>2359.5</ele></trkpt>
   <trkpt lat="42.540918" lon="1.715124"><ele>2365</ele></trkpt>
   <trkpt lat="42.541129" lon="1.71562"><ele>2368.5</ele></trkpt>
   <trkpt lat="42.541284" lon="1.715933"><ele>2371.25</ele></trkpt>
   <trkpt lat="42.541363" lon="1.716029"><ele>2372</ele></trkpt>
   <trkpt lat="42.541461" lon="1.716117"><ele>2373.25</ele></trkpt>
   <trkpt lat="42.541565" lon="1.716181"><ele>2374</ele></trkpt>
   <trkpt lat="42.541691" lon="1.716214"><ele>2374.75</ele></trkpt>
   <trkpt lat="42.541803" lon="1.716219"><ele>2375.75</ele></trkpt>
   <trkpt lat="42.541931" lon="1.716189"><ele>2376.25</ele></trkpt>
   <trkpt lat="42.542193" lon="1.71609"><ele>2378</ele></trkpt>
   <trkpt lat="42.542256" lon="1.716096"><ele>2379</ele></trkpt>
   <trkpt lat="42.542308" lon="1.716125"><ele>2379.75</ele></trkpt>
   <trkpt lat="42.542345" lon="1.716166"><ele>2380.5</ele></trkpt>
   <trkpt lat="42.542371" lon="1.716233"><ele>2381.25</ele></trkpt>
   <trkpt lat="42.542383" lon="1.716313"><ele>2381.75</ele></trkpt>
   <trkpt lat="42.542375" lon="1.716423"><ele>2382.25</ele></trkpt>
   <trkpt lat="42.542342" lon="1.716528"><ele>2382.5</ele></trkpt>
   <trkpt lat="42.54221" lon="1.71682"><ele>2383.5</ele></trkpt>
   <trkpt lat="42.541599" lon="1.718068"><ele>2391.25</ele></trkpt>
   <trkpt lat="42.541511" lon="1.718228"><ele>2393</ele></trkpt>
   <trkpt lat="42.541433" lon="1.718343"><ele>2394.75</ele></trkpt>
   <trkpt lat="42.541335" lon="1.718457"><ele>2396.25</ele></trkpt>
   <trkpt lat="42.541173" lon="1.718598"><ele>2397.75</ele></trkpt>
   <trkpt lat="42.540927" lon="1.718773"><ele>2400.25</ele></trkpt>
   <trkpt lat="42.540509" lon="1.719078"><ele>2405.25</ele></trkpt>
   <trkpt lat="42.54027" lon="1.719268"><ele>2407.25</ele></trkpt>
   <trkpt lat="42.540176" lon="1.719381"><ele>2407.75</ele></trkpt>
   
  </trkseg>
 </trk>
</gpx>
