<?xml version="1.0" encoding="UTF-8"?>
<!-- track-length = 12337 filtered ascend = 591 plain-ascend = 430 cost=20903 energy=0.2kwh time=1h 39m 17s -->
<gpx 
 xmlns="http://www.topografix.com/GPX/1/1" 
 xmlns:xsi="http://www.w3.org/2001/XMLSchema-instance" 
 xsi:schemaLocation="http://www.topografix.com/GPX/1/1 http://www.topografix.com/GPX/1/1/gpx.xsd" 
 version="1.1" 
 creator="BRouter-Web 0.18.1">
 <trk>
  <name>Puerto de el miserat (12.3km)</name>
  <trkseg>
   <trkpt lat="38.8364" lon="-0.113184"><ele>68.75</ele></trkpt>
   <trkpt lat="38.836335" lon="-0.113244"><ele>69</ele></trkpt>
   <trkpt lat="38.835948" lon="-0.113657"><ele>70.5</ele></trkpt>
   <trkpt lat="38.835819" lon="-0.113817"><ele>71</ele></trkpt>
   <trkpt lat="38.835568" lon="-0.114177"><ele>72</ele></trkpt>
   <trkpt lat="38.835453" lon="-0.114381"><ele>72.75</ele></trkpt>
   <trkpt lat="38.835381" lon="-0.114553"><ele>73.75</ele></trkpt>
   <trkpt lat="38.835298" lon="-0.114796"><ele>75</ele></trkpt>
   <trkpt lat="38.835178" lon="-0.115198"><ele>75.75</ele></trkpt>
   <trkpt lat="38.835138" lon="-0.115384"><ele>76.25</ele></trkpt>
   <trkpt lat="38.835101" lon="-0.115605"><ele>76.75</ele></trkpt>
   <trkpt lat="38.835061" lon="-0.116013"><ele>78.75</ele></trkpt>
   <trkpt lat="38.835054" lon="-0.116157"><ele>79</ele></trkpt>
   <trkpt lat="38.835053" lon="-0.116396"><ele>79</ele></trkpt>
   <trkpt lat="38.835055" lon="-0.116478"><ele>79</ele></trkpt>
   <trkpt lat="38.835062" lon="-0.11666"><ele>79</ele></trkpt>
   <trkpt lat="38.835087" lon="-0.116882"><ele>79.5</ele></trkpt>
   <trkpt lat="38.835119" lon="-0.117073"><ele>80.5</ele></trkpt>
   <trkpt lat="38.835216" lon="-0.117527"><ele>80</ele></trkpt>
   <trkpt lat="38.835282" lon="-0.117775"><ele>79</ele></trkpt>
   <trkpt lat="38.835347" lon="-0.117959"><ele>80.5</ele></trkpt>
   <trkpt lat="38.835452" lon="-0.118229"><ele>80.75</ele></trkpt>
   <trkpt lat="38.835634" lon="-0.118591"><ele>82</ele></trkpt>
   <trkpt lat="38.835798" lon="-0.118855"><ele>83</ele></trkpt>
   <trkpt lat="38.835882" lon="-0.118975"><ele>83.5</ele></trkpt>
   <trkpt lat="38.836093" lon="-0.119219"><ele>85</ele></trkpt>
   <trkpt lat="38.836189" lon="-0.11932"><ele>85.25</ele></trkpt>
   <trkpt lat="38.836281" lon="-0.11941"><ele>85.25</ele></trkpt>
   <trkpt lat="38.836593" lon="-0.119655"><ele>86</ele></trkpt>
   <trkpt lat="38.837037" lon="-0.120021"><ele>86</ele></trkpt>
   <trkpt lat="38.837318" lon="-0.120224"><ele>85.5</ele></trkpt>
   <trkpt lat="38.838395" lon="-0.121017"><ele>84.5</ele></trkpt>
   <trkpt lat="38.838427" lon="-0.12104"><ele>84.5</ele></trkpt>
   <trkpt lat="38.838214" lon="-0.121252"><ele>85.75</ele></trkpt>
   <trkpt lat="38.83807" lon="-0.121394"><ele>85.75</ele></trkpt>
   <trkpt lat="38.838031" lon="-0.121425"><ele>86</ele></trkpt>
   <trkpt lat="38.838049" lon="-0.121482"><ele>86.25</ele></trkpt>
   <trkpt lat="38.838079" lon="-0.121527"><ele>86.25</ele></trkpt>
   <trkpt lat="38.838156" lon="-0.121592"><ele>86.25</ele></trkpt>
   <trkpt lat="38.837962" lon="-0.121609"><ele>86.75</ele></trkpt>
   <trkpt lat="38.837797" lon="-0.12191"><ele>87.75</ele></trkpt>
   <trkpt lat="38.836959" lon="-0.123482"><ele>93.5</ele></trkpt>
   <trkpt lat="38.83649" lon="-0.124349"><ele>96.5</ele></trkpt>
   <trkpt lat="38.836097" lon="-0.125061"><ele>98.75</ele></trkpt>
   <trkpt lat="38.836065" lon="-0.125125"><ele>98.75</ele></trkpt>
   <trkpt lat="38.835993" lon="-0.125333"><ele>97.75</ele></trkpt>
   <trkpt lat="38.835938" lon="-0.125463"><ele>96.25</ele></trkpt>
   <trkpt lat="38.83582" lon="-0.125604"><ele>96.75</ele></trkpt>
   <trkpt lat="38.835695" lon="-0.125722"><ele>96.25</ele></trkpt>
   <trkpt lat="38.83564" lon="-0.12578"><ele>96.75</ele></trkpt>
   <trkpt lat="38.835582" lon="-0.125875"><ele>97.75</ele></trkpt>
   <trkpt lat="38.835423" lon="-0.126229"><ele>97.75</ele></trkpt>
   <trkpt lat="38.835295" lon="-0.126486"><ele>100.5</ele></trkpt>
   <trkpt lat="38.83519" lon="-0.12668"><ele>101.25</ele></trkpt>
   <trkpt lat="38.835065" lon="-0.126875"><ele>99.5</ele></trkpt>
   <trkpt lat="38.835031" lon="-0.126998"><ele>98</ele></trkpt>
   <trkpt lat="38.835006" lon="-0.127197"><ele>96.25</ele></trkpt>
   <trkpt lat="38.834945" lon="-0.127591"><ele>96</ele></trkpt>
   <trkpt lat="38.834932" lon="-0.127683"><ele>96.5</ele></trkpt>
   <trkpt lat="38.834899" lon="-0.127725"><ele>96.75</ele></trkpt>
   <trkpt lat="38.834839" lon="-0.127739"><ele>96.75</ele></trkpt>
   <trkpt lat="38.834598" lon="-0.12775"><ele>97.5</ele></trkpt>
   <trkpt lat="38.834402" lon="-0.127781"><ele>98</ele></trkpt>
   <trkpt lat="38.834361" lon="-0.127798"><ele>98.25</ele></trkpt>
   <trkpt lat="38.83431" lon="-0.127833"><ele>98.5</ele></trkpt>
   <trkpt lat="38.834268" lon="-0.127892"><ele>98.5</ele></trkpt>
   <trkpt lat="38.834242" lon="-0.127947"><ele>98.5</ele></trkpt>
   <trkpt lat="38.834207" lon="-0.128045"><ele>98.25</ele></trkpt>
   <trkpt lat="38.83419" lon="-0.128126"><ele>98.25</ele></trkpt>
   <trkpt lat="38.834169" lon="-0.128293"><ele>98.75</ele></trkpt>
   <trkpt lat="38.834137" lon="-0.128717"><ele>100.5</ele></trkpt>
   <trkpt lat="38.834137" lon="-0.128929"><ele>101</ele></trkpt>
   <trkpt lat="38.83415" lon="-0.129057"><ele>101</ele></trkpt>
   <trkpt lat="38.834224" lon="-0.129349"><ele>104</ele></trkpt>
   <trkpt lat="38.834231" lon="-0.129411"><ele>105</ele></trkpt>
   <trkpt lat="38.834222" lon="-0.129549"><ele>105.75</ele></trkpt>
   <trkpt lat="38.834208" lon="-0.129659"><ele>106.25</ele></trkpt>
   <trkpt lat="38.834207" lon="-0.129721"><ele>106.5</ele></trkpt>
   <trkpt lat="38.834213" lon="-0.129773"><ele>106.75</ele></trkpt>
   <trkpt lat="38.834223" lon="-0.129814"><ele>107</ele></trkpt>
   <trkpt lat="38.834242" lon="-0.129857"><ele>107</ele></trkpt>
   <trkpt lat="38.834351" lon="-0.130012"><ele>107</ele></trkpt>
   <trkpt lat="38.834625" lon="-0.130296"><ele>107.5</ele></trkpt>
   <trkpt lat="38.834687" lon="-0.13037"><ele>107.25</ele></trkpt>
   <trkpt lat="38.834727" lon="-0.130439"><ele>106.75</ele></trkpt>
   <trkpt lat="38.83475" lon="-0.130501"><ele>107</ele></trkpt>
   <trkpt lat="38.834765" lon="-0.130569"><ele>107</ele></trkpt>
   <trkpt lat="38.83477" lon="-0.130644"><ele>107.25</ele></trkpt>
   <trkpt lat="38.834758" lon="-0.130816"><ele>107.25</ele></trkpt>
   <trkpt lat="38.83474" lon="-0.130922"><ele>107.5</ele></trkpt>
   <trkpt lat="38.834698" lon="-0.131124"><ele>108.5</ele></trkpt>
   <trkpt lat="38.834666" lon="-0.131248"><ele>110.75</ele></trkpt>
   <trkpt lat="38.834614" lon="-0.131389"><ele>112.5</ele></trkpt>
   <trkpt lat="38.834389" lon="-0.131881"><ele>111</ele></trkpt>
   <trkpt lat="38.834159" lon="-0.132388"><ele>112</ele></trkpt>
   <trkpt lat="38.834095" lon="-0.132576"><ele>113.75</ele></trkpt>
   <trkpt lat="38.834047" lon="-0.13275"><ele>115</ele></trkpt>
   <trkpt lat="38.833993" lon="-0.132969"><ele>114.5</ele></trkpt>
   <trkpt lat="38.833963" lon="-0.133127"><ele>114.25</ele></trkpt>
   <trkpt lat="38.83394" lon="-0.133302"><ele>115</ele></trkpt>
   <trkpt lat="38.833938" lon="-0.133443"><ele>115.25</ele></trkpt>
   <trkpt lat="38.833945" lon="-0.133573"><ele>115.75</ele></trkpt>
   <trkpt lat="38.834008" lon="-0.133937"><ele>117.75</ele></trkpt>
   <trkpt lat="38.834034" lon="-0.134038"><ele>119.25</ele></trkpt>
   <trkpt lat="38.834051" lon="-0.134066"><ele>120</ele></trkpt>
   <trkpt lat="38.834067" lon="-0.134075"><ele>120.5</ele></trkpt>
   <trkpt lat="38.834108" lon="-0.134074"><ele>122</ele></trkpt>
   <trkpt lat="38.834136" lon="-0.134057"><ele>122.75</ele></trkpt>
   <trkpt lat="38.834175" lon="-0.134014"><ele>123.75</ele></trkpt>
   <trkpt lat="38.834333" lon="-0.133758"><ele>127.25</ele></trkpt>
   <trkpt lat="38.834754" lon="-0.133168"><ele>135.25</ele></trkpt>
   <trkpt lat="38.834819" lon="-0.133094"><ele>136.75</ele></trkpt>
   <trkpt lat="38.834914" lon="-0.133006"><ele>139</ele></trkpt>
   <trkpt lat="38.834988" lon="-0.132948"><ele>140.75</ele></trkpt>
   <trkpt lat="38.835057" lon="-0.132918"><ele>141.5</ele></trkpt>
   <trkpt lat="38.835143" lon="-0.132905"><ele>143</ele></trkpt>
   <trkpt lat="38.835223" lon="-0.132903"><ele>144.5</ele></trkpt>
   <trkpt lat="38.8353" lon="-0.132924"><ele>145.75</ele></trkpt>
   <trkpt lat="38.835375" lon="-0.13297"><ele>146.5</ele></trkpt>
   <trkpt lat="38.835452" lon="-0.133032"><ele>147.75</ele></trkpt>
   <trkpt lat="38.835528" lon="-0.133115"><ele>149.75</ele></trkpt>
   <trkpt lat="38.835576" lon="-0.133181"><ele>151</ele></trkpt>
   <trkpt lat="38.835619" lon="-0.133269"><ele>152.25</ele></trkpt>
   <trkpt lat="38.836277" lon="-0.134837"><ele>169.25</ele></trkpt>
   <trkpt lat="38.836307" lon="-0.134895"><ele>169</ele></trkpt>
   <trkpt lat="38.836425" lon="-0.135061"><ele>167.75</ele></trkpt>
   <trkpt lat="38.83645" lon="-0.135106"><ele>169</ele></trkpt>
   <trkpt lat="38.836476" lon="-0.135185"><ele>170.75</ele></trkpt>
   <trkpt lat="38.836486" lon="-0.135283"><ele>172.5</ele></trkpt>
   <trkpt lat="38.83648" lon="-0.135342"><ele>173</ele></trkpt>
   <trkpt lat="38.83645" lon="-0.135445"><ele>174</ele></trkpt>
   <trkpt lat="38.836066" lon="-0.136482"><ele>190.75</ele></trkpt>
   <trkpt lat="38.835982" lon="-0.136741"><ele>198.25</ele></trkpt>
   <trkpt lat="38.835954" lon="-0.136879"><ele>200.75</ele></trkpt>
   <trkpt lat="38.835941" lon="-0.137098"><ele>203</ele></trkpt>
   <trkpt lat="38.835929" lon="-0.137137"><ele>203.25</ele></trkpt>
   <trkpt lat="38.835895" lon="-0.137191"><ele>203.75</ele></trkpt>
   <trkpt lat="38.835873" lon="-0.137202"><ele>203.75</ele></trkpt>
   <trkpt lat="38.835828" lon="-0.137189"><ele>203.75</ele></trkpt>
   <trkpt lat="38.835802" lon="-0.13716"><ele>204.75</ele></trkpt>
   <trkpt lat="38.835766" lon="-0.13707"><ele>205.5</ele></trkpt>
   <trkpt lat="38.835736" lon="-0.136895"><ele>205</ele></trkpt>
   <trkpt lat="38.835728" lon="-0.136805"><ele>206</ele></trkpt>
   <trkpt lat="38.835719" lon="-0.136542"><ele>207.75</ele></trkpt>
   <trkpt lat="38.835705" lon="-0.136516"><ele>208.5</ele></trkpt>
   <trkpt lat="38.835684" lon="-0.136497"><ele>209.75</ele></trkpt>
   <trkpt lat="38.83565" lon="-0.136499"><ele>211.5</ele></trkpt>
   <trkpt lat="38.835631" lon="-0.136521"><ele>212.75</ele></trkpt>
   <trkpt lat="38.835615" lon="-0.136575"><ele>213.75</ele></trkpt>
   <trkpt lat="38.835593" lon="-0.137003"><ele>215</ele></trkpt>
   <trkpt lat="38.835623" lon="-0.137314"><ele>222</ele></trkpt>
   <trkpt lat="38.835641" lon="-0.13738"><ele>223.5</ele></trkpt>
   <trkpt lat="38.83567" lon="-0.137445"><ele>225</ele></trkpt>
   <trkpt lat="38.83573" lon="-0.137516"><ele>225.75</ele></trkpt>
   <trkpt lat="38.835782" lon="-0.137558"><ele>225.75</ele></trkpt>
   <trkpt lat="38.835977" lon="-0.137662"><ele>225.5</ele></trkpt>
   <trkpt lat="38.836059" lon="-0.13773"><ele>226.5</ele></trkpt>
   <trkpt lat="38.836157" lon="-0.137883"><ele>228.5</ele></trkpt>
   <trkpt lat="38.836188" lon="-0.138003"><ele>230.5</ele></trkpt>
   <trkpt lat="38.836189" lon="-0.13808"><ele>232</ele></trkpt>
   <trkpt lat="38.836179" lon="-0.138182"><ele>233.5</ele></trkpt>
   <trkpt lat="38.836154" lon="-0.138273"><ele>234.25</ele></trkpt>
   <trkpt lat="38.836072" lon="-0.138463"><ele>240.5</ele></trkpt>
   <trkpt lat="38.836046" lon="-0.138524"><ele>240.5</ele></trkpt>
   <trkpt lat="38.835995" lon="-0.138673"><ele>244</ele></trkpt>
   <trkpt lat="38.835922" lon="-0.138927"><ele>248.25</ele></trkpt>
   <trkpt lat="38.835911" lon="-0.139046"><ele>250.75</ele></trkpt>
   <trkpt lat="38.836006" lon="-0.139445"><ele>258.75</ele></trkpt>
   <trkpt lat="38.836008" lon="-0.139534"><ele>260.25</ele></trkpt>
   <trkpt lat="38.836005" lon="-0.139593"><ele>261.25</ele></trkpt>
   <trkpt lat="38.83599" lon="-0.139677"><ele>263</ele></trkpt>
   <trkpt lat="38.835919" lon="-0.139899"><ele>266.75</ele></trkpt>
   <trkpt lat="38.835893" lon="-0.140068"><ele>268</ele></trkpt>
   <trkpt lat="38.835861" lon="-0.140579"><ele>272.25</ele></trkpt>
   <trkpt lat="38.835847" lon="-0.140714"><ele>273.75</ele></trkpt>
   <trkpt lat="38.835831" lon="-0.140808"><ele>274.5</ele></trkpt>
   <trkpt lat="38.8358" lon="-0.140908"><ele>278.25</ele></trkpt>
   <trkpt lat="38.835667" lon="-0.141222"><ele>285.5</ele></trkpt>
   <trkpt lat="38.835632" lon="-0.141349"><ele>286.75</ele></trkpt>
   <trkpt lat="38.835588" lon="-0.141573"><ele>289.25</ele></trkpt>
   <trkpt lat="38.835565" lon="-0.141642"><ele>289.75</ele></trkpt>
   <trkpt lat="38.835529" lon="-0.14168"><ele>290.75</ele></trkpt>
   <trkpt lat="38.835465" lon="-0.14172"><ele>292.75</ele></trkpt>
   <trkpt lat="38.835205" lon="-0.141774"><ele>297</ele></trkpt>
   <trkpt lat="38.835133" lon="-0.141797"><ele>297.25</ele></trkpt>
   <trkpt lat="38.835104" lon="-0.141827"><ele>297.5</ele></trkpt>
   <trkpt lat="38.835074" lon="-0.141886"><ele>297.75</ele></trkpt>
   <trkpt lat="38.835064" lon="-0.141946"><ele>298</ele></trkpt>
   <trkpt lat="38.835055" lon="-0.142036"><ele>298.75</ele></trkpt>
   <trkpt lat="38.83505" lon="-0.142303"><ele>301.75</ele></trkpt>
   <trkpt lat="38.835027" lon="-0.142398"><ele>303.25</ele></trkpt>
   <trkpt lat="38.834985" lon="-0.142533"><ele>304.5</ele></trkpt>
   <trkpt lat="38.834985" lon="-0.142586"><ele>305.25</ele></trkpt>
   <trkpt lat="38.835005" lon="-0.142636"><ele>306.5</ele></trkpt>
   <trkpt lat="38.835036" lon="-0.142671"><ele>307.5</ele></trkpt>
   <trkpt lat="38.835082" lon="-0.142689"><ele>308.75</ele></trkpt>
   <trkpt lat="38.835323" lon="-0.142634"><ele>311.75</ele></trkpt>
   <trkpt lat="38.835397" lon="-0.14265"><ele>312.5</ele></trkpt>
   <trkpt lat="38.835456" lon="-0.142683"><ele>313.5</ele></trkpt>
   <trkpt lat="38.835518" lon="-0.142747"><ele>315.75</ele></trkpt>
   <trkpt lat="38.835727" lon="-0.143051"><ele>322</ele></trkpt>
   <trkpt lat="38.835781" lon="-0.143113"><ele>322.5</ele></trkpt>
   <trkpt lat="38.835866" lon="-0.143156"><ele>323.25</ele></trkpt>
   <trkpt lat="38.835944" lon="-0.143151"><ele>324.5</ele></trkpt>
   <trkpt lat="38.836046" lon="-0.143126"><ele>326.25</ele></trkpt>
   <trkpt lat="38.836121" lon="-0.143117"><ele>327.25</ele></trkpt>
   <trkpt lat="38.836159" lon="-0.143124"><ele>326.75</ele></trkpt>
   <trkpt lat="38.836197" lon="-0.143165"><ele>326.25</ele></trkpt>
   <trkpt lat="38.836209" lon="-0.143224"><ele>325.5</ele></trkpt>
   <trkpt lat="38.836205" lon="-0.143278"><ele>325.5</ele></trkpt>
   <trkpt lat="38.836173" lon="-0.143369"><ele>326.5</ele></trkpt>
   <trkpt lat="38.835668" lon="-0.144357"><ele>341.75</ele></trkpt>
   <trkpt lat="38.835635" lon="-0.144458"><ele>343.5</ele></trkpt>
   <trkpt lat="38.835624" lon="-0.144565"><ele>345.25</ele></trkpt>
   <trkpt lat="38.835638" lon="-0.144841"><ele>348.5</ele></trkpt>
   <trkpt lat="38.835638" lon="-0.144967"><ele>349.25</ele></trkpt>
   <trkpt lat="38.835621" lon="-0.145081"><ele>349.75</ele></trkpt>
   <trkpt lat="38.835323" lon="-0.146373"><ele>359.5</ele></trkpt>
   <trkpt lat="38.835299" lon="-0.146546"><ele>360.75</ele></trkpt>
   <trkpt lat="38.835278" lon="-0.146845"><ele>361.75</ele></trkpt>
   <trkpt lat="38.835234" lon="-0.146998"><ele>361.75</ele></trkpt>
   <trkpt lat="38.835119" lon="-0.147246"><ele>363</ele></trkpt>
   <trkpt lat="38.835092" lon="-0.147359"><ele>365.25</ele></trkpt>
   <trkpt lat="38.83513" lon="-0.147708"><ele>362.25</ele></trkpt>
   <trkpt lat="38.835125" lon="-0.147781"><ele>362</ele></trkpt>
   <trkpt lat="38.835073" lon="-0.147916"><ele>361</ele></trkpt>
   <trkpt lat="38.834578" lon="-0.148997"><ele>361.75</ele></trkpt>
   <trkpt lat="38.834556" lon="-0.149044"><ele>362.5</ele></trkpt>
   <trkpt lat="38.834473" lon="-0.149297"><ele>366.75</ele></trkpt>
   <trkpt lat="38.8344" lon="-0.149636"><ele>370.25</ele></trkpt>
   <trkpt lat="38.834386" lon="-0.149917"><ele>374.25</ele></trkpt>
   <trkpt lat="38.834364" lon="-0.150208"><ele>379.25</ele></trkpt>
   <trkpt lat="38.834343" lon="-0.150322"><ele>380.75</ele></trkpt>
   <trkpt lat="38.834308" lon="-0.150424"><ele>382</ele></trkpt>
   <trkpt lat="38.834075" lon="-0.150976"><ele>394</ele></trkpt>
   <trkpt lat="38.833955" lon="-0.15124"><ele>399.75</ele></trkpt>
   <trkpt lat="38.833689" lon="-0.151687"><ele>411.25</ele></trkpt>
   <trkpt lat="38.83366" lon="-0.151779"><ele>413</ele></trkpt>
   <trkpt lat="38.833654" lon="-0.151874"><ele>414.75</ele></trkpt>
   <trkpt lat="38.833686" lon="-0.152097"><ele>417</ele></trkpt>
   <trkpt lat="38.833674" lon="-0.152208"><ele>418.75</ele></trkpt>
   <trkpt lat="38.833647" lon="-0.152322"><ele>420.5</ele></trkpt>
   <trkpt lat="38.833592" lon="-0.15245"><ele>423.25</ele></trkpt>
   <trkpt lat="38.83333" lon="-0.152899"><ele>428.25</ele></trkpt>
   <trkpt lat="38.833286" lon="-0.152975"><ele>429.25</ele></trkpt>
   <trkpt lat="38.833258" lon="-0.153061"><ele>429.75</ele></trkpt>
   <trkpt lat="38.833261" lon="-0.15313"><ele>430</ele></trkpt>
   <trkpt lat="38.833282" lon="-0.15316"><ele>430</ele></trkpt>
   <trkpt lat="38.833467" lon="-0.1533"><ele>430.5</ele></trkpt>
   <trkpt lat="38.833549" lon="-0.153386"><ele>431</ele></trkpt>
   <trkpt lat="38.833641" lon="-0.153569"><ele>431.5</ele></trkpt>
   <trkpt lat="38.833722" lon="-0.153793"><ele>431.5</ele></trkpt>
   <trkpt lat="38.833848" lon="-0.154186"><ele>432.75</ele></trkpt>
   <trkpt lat="38.833863" lon="-0.154332"><ele>433.5</ele></trkpt>
   <trkpt lat="38.833852" lon="-0.154474"><ele>434</ele></trkpt>
   <trkpt lat="38.833815" lon="-0.154604"><ele>434.5</ele></trkpt>
   <trkpt lat="38.833399" lon="-0.155519"><ele>435.75</ele></trkpt>
   <trkpt lat="38.833349" lon="-0.155602"><ele>436</ele></trkpt>
   <trkpt lat="38.833311" lon="-0.155667"><ele>436</ele></trkpt>
   <trkpt lat="38.833275" lon="-0.155726"><ele>436</ele></trkpt>
   <trkpt lat="38.833034" lon="-0.156056"><ele>438</ele></trkpt>
   <trkpt lat="38.832984" lon="-0.156122"><ele>437.75</ele></trkpt>
   <trkpt lat="38.832714" lon="-0.156475"><ele>437.75</ele></trkpt>
   <trkpt lat="38.832631" lon="-0.156651"><ele>437.25</ele></trkpt>
   <trkpt lat="38.832595" lon="-0.156751"><ele>437</ele></trkpt>
   <trkpt lat="38.832559" lon="-0.15691"><ele>436.5</ele></trkpt>
   <trkpt lat="38.832539" lon="-0.15721"><ele>435.5</ele></trkpt>
   <trkpt lat="38.832562" lon="-0.157561"><ele>434.5</ele></trkpt>
   <trkpt lat="38.832608" lon="-0.157972"><ele>433.75</ele></trkpt>
   <trkpt lat="38.832605" lon="-0.158025"><ele>433.75</ele></trkpt>
   <trkpt lat="38.832593" lon="-0.158075"><ele>433.75</ele></trkpt>
   <trkpt lat="38.832484" lon="-0.158339"><ele>434.75</ele></trkpt>
   <trkpt lat="38.832466" lon="-0.158415"><ele>434.75</ele></trkpt>
   <trkpt lat="38.832465" lon="-0.158671"><ele>435</ele></trkpt>
   <trkpt lat="38.832436" lon="-0.159069"><ele>437</ele></trkpt>
   <trkpt lat="38.832388" lon="-0.159456"><ele>438.5</ele></trkpt>
   <trkpt lat="38.832362" lon="-0.159552"><ele>439</ele></trkpt>
   <trkpt lat="38.832289" lon="-0.159854"><ele>440.25</ele></trkpt>
   <trkpt lat="38.832259" lon="-0.160009"><ele>441</ele></trkpt>
   <trkpt lat="38.832189" lon="-0.160506"><ele>443.75</ele></trkpt>
   <trkpt lat="38.832162" lon="-0.160632"><ele>444.25</ele></trkpt>
   <trkpt lat="38.832107" lon="-0.160792"><ele>445.25</ele></trkpt>
   <trkpt lat="38.831903" lon="-0.161157"><ele>448.25</ele></trkpt>
   <trkpt lat="38.831812" lon="-0.161389"><ele>450.25</ele></trkpt>
   <trkpt lat="38.831735" lon="-0.161635"><ele>451.5</ele></trkpt>
   <trkpt lat="38.831626" lon="-0.161944"><ele>454</ele></trkpt>
   <trkpt lat="38.831578" lon="-0.16214"><ele>455.5</ele></trkpt>
   <trkpt lat="38.831571" lon="-0.16222"><ele>455.75</ele></trkpt>
   <trkpt lat="38.831543" lon="-0.162493"><ele>457.25</ele></trkpt>
   <trkpt lat="38.831514" lon="-0.162652"><ele>458.5</ele></trkpt>
   <trkpt lat="38.831452" lon="-0.162883"><ele>460.5</ele></trkpt>
   <trkpt lat="38.831395" lon="-0.163027"><ele>461.75</ele></trkpt>
   <trkpt lat="38.831294" lon="-0.163207"><ele>465.25</ele></trkpt>
   <trkpt lat="38.831122" lon="-0.163512"><ele>465.25</ele></trkpt>
   <trkpt lat="38.831047" lon="-0.163664"><ele>466.25</ele></trkpt>
   <trkpt lat="38.831025" lon="-0.163732"><ele>467</ele></trkpt>
   <trkpt lat="38.830921" lon="-0.164365"><ele>472</ele></trkpt>
   <trkpt lat="38.830718" lon="-0.165399"><ele>481</ele></trkpt>
   <trkpt lat="38.830718" lon="-0.165479"><ele>481.25</ele></trkpt>
   <trkpt lat="38.830735" lon="-0.165528"><ele>481.25</ele></trkpt>
   <trkpt lat="38.830764" lon="-0.165571"><ele>481.25</ele></trkpt>
   <trkpt lat="38.830792" lon="-0.165591"><ele>481</ele></trkpt>
   <trkpt lat="38.830933" lon="-0.165665"><ele>481.25</ele></trkpt>
   <trkpt lat="38.830987" lon="-0.16572"><ele>481.5</ele></trkpt>
   <trkpt lat="38.831025" lon="-0.165784"><ele>481.75</ele></trkpt>
   <trkpt lat="38.831054" lon="-0.165877"><ele>482</ele></trkpt>
   <trkpt lat="38.831091" lon="-0.16607"><ele>483</ele></trkpt>
   <trkpt lat="38.831117" lon="-0.16636"><ele>484.75</ele></trkpt>
   <trkpt lat="38.831135" lon="-0.166444"><ele>486</ele></trkpt>
   <trkpt lat="38.831163" lon="-0.166531"><ele>487.5</ele></trkpt>
   <trkpt lat="38.831204" lon="-0.166605"><ele>488.5</ele></trkpt>
   <trkpt lat="38.831266" lon="-0.166689"><ele>489</ele></trkpt>
   <trkpt lat="38.831326" lon="-0.166789"><ele>489.5</ele></trkpt>
   <trkpt lat="38.831363" lon="-0.166893"><ele>490</ele></trkpt>
   <trkpt lat="38.831367" lon="-0.166985"><ele>490.5</ele></trkpt>
   <trkpt lat="38.831355" lon="-0.167065"><ele>491</ele></trkpt>
   <trkpt lat="38.831282" lon="-0.167276"><ele>494</ele></trkpt>
   <trkpt lat="38.831266" lon="-0.167407"><ele>495.25</ele></trkpt>
   <trkpt lat="38.831269" lon="-0.167619"><ele>497</ele></trkpt>
   <trkpt lat="38.831249" lon="-0.167952"><ele>500.25</ele></trkpt>
   <trkpt lat="38.831242" lon="-0.16867"><ele>505.75</ele></trkpt>
   <trkpt lat="38.83127" lon="-0.168958"><ele>507</ele></trkpt>
   <trkpt lat="38.831291" lon="-0.169233"><ele>507.25</ele></trkpt>
   <trkpt lat="38.83128" lon="-0.169284"><ele>507.25</ele></trkpt>
   <trkpt lat="38.831255" lon="-0.169314"><ele>507.25</ele></trkpt>
   <trkpt lat="38.831225" lon="-0.169327"><ele>507.5</ele></trkpt>
   <trkpt lat="38.831192" lon="-0.169318"><ele>507.75</ele></trkpt>
   <trkpt lat="38.831163" lon="-0.169287"><ele>508</ele></trkpt>
   <trkpt lat="38.831142" lon="-0.169241"><ele>507.5</ele></trkpt>
   <trkpt lat="38.831051" lon="-0.168864"><ele>509.5</ele></trkpt>
   <trkpt lat="38.83103" lon="-0.168738"><ele>510</ele></trkpt>
   <trkpt lat="38.831003" lon="-0.168347"><ele>509.5</ele></trkpt>
   <trkpt lat="38.830987" lon="-0.168209"><ele>509.25</ele></trkpt>
   <trkpt lat="38.830877" lon="-0.167819"><ele>511.5</ele></trkpt>
   <trkpt lat="38.830832" lon="-0.167578"><ele>513</ele></trkpt>
   <trkpt lat="38.830814" lon="-0.167533"><ele>513.75</ele></trkpt>
   <trkpt lat="38.830797" lon="-0.16752"><ele>514.5</ele></trkpt>
   <trkpt lat="38.830772" lon="-0.167525"><ele>515.75</ele></trkpt>
   <trkpt lat="38.830751" lon="-0.167546"><ele>516.75</ele></trkpt>
   <trkpt lat="38.830737" lon="-0.167597"><ele>517.5</ele></trkpt>
   <trkpt lat="38.830717" lon="-0.167821"><ele>519</ele></trkpt>
   <trkpt lat="38.830695" lon="-0.168329"><ele>523.75</ele></trkpt>
   <trkpt lat="38.830664" lon="-0.168631"><ele>527.75</ele></trkpt>
   <trkpt lat="38.830643" lon="-0.168732"><ele>528.75</ele></trkpt>
   <trkpt lat="38.830605" lon="-0.168817"><ele>530.5</ele></trkpt>
   <trkpt lat="38.830479" lon="-0.169019"><ele>534.5</ele></trkpt>
   <trkpt lat="38.830447" lon="-0.169092"><ele>535.75</ele></trkpt>
   <trkpt lat="38.830419" lon="-0.169188"><ele>537.5</ele></trkpt>
   <trkpt lat="38.830373" lon="-0.169504"><ele>542.25</ele></trkpt>
   <trkpt lat="38.830326" lon="-0.169956"><ele>546.5</ele></trkpt>
   <trkpt lat="38.830296" lon="-0.170344"><ele>553.75</ele></trkpt>
   <trkpt lat="38.830259" lon="-0.170575"><ele>558.75</ele></trkpt>
   <trkpt lat="38.83021" lon="-0.170725"><ele>561</ele></trkpt>
   <trkpt lat="38.830137" lon="-0.170898"><ele>563.5</ele></trkpt>
   <trkpt lat="38.829625" lon="-0.171783"><ele>573.75</ele></trkpt>
   <trkpt lat="38.829484" lon="-0.172013"><ele>578.25</ele></trkpt>
   <trkpt lat="38.82943" lon="-0.172129"><ele>580.5</ele></trkpt>
   <trkpt lat="38.829394" lon="-0.172223"><ele>582.75</ele></trkpt>
   <trkpt lat="38.829317" lon="-0.172497"><ele>589.75</ele></trkpt>
   <trkpt lat="38.829215" lon="-0.172752"><ele>591.75</ele></trkpt>
   <trkpt lat="38.829167" lon="-0.17289"><ele>592.75</ele></trkpt>
   <trkpt lat="38.829075" lon="-0.173266"><ele>598.75</ele></trkpt>
   <trkpt lat="38.829027" lon="-0.173398"><ele>600.5</ele></trkpt>
   <trkpt lat="38.828848" lon="-0.173806"><ele>604.5</ele></trkpt>
   <trkpt lat="38.828715" lon="-0.174149"><ele>612.5</ele></trkpt>
   <trkpt lat="38.828428" lon="-0.174791"><ele>623.5</ele></trkpt>
   <trkpt lat="38.828375" lon="-0.174883"><ele>625</ele></trkpt>
   <trkpt lat="38.828309" lon="-0.174979"><ele>626.25</ele></trkpt>
   <trkpt lat="38.828217" lon="-0.175059"><ele>628.5</ele></trkpt>
   <trkpt lat="38.827986" lon="-0.175147"><ele>631.5</ele></trkpt>
   <trkpt lat="38.827913" lon="-0.175193"><ele>633</ele></trkpt>
   <trkpt lat="38.827883" lon="-0.175229"><ele>633.5</ele></trkpt>
   <trkpt lat="38.827861" lon="-0.175283"><ele>633.75</ele></trkpt>
   
  </trkseg>
 </trk>
</gpx>
