<?xml version="1.0" encoding="UTF-8"?>
<!-- track-length = 19888 filtered ascend = 881 plain-ascend = 738 cost=45585 energy=0.3kwh time=2h 40m 26s -->
<gpx 
 xmlns="http://www.topografix.com/GPX/1/1" 
 xmlns:xsi="http://www.w3.org/2001/XMLSchema-instance" 
 xsi:schemaLocation="http://www.topografix.com/GPX/1/1 http://www.topografix.com/GPX/1/1/gpx.xsd" 
 version="1.1" 
 creator="BRouter-Web 0.18.1">
 <trk>
  <name>Puerto de el Purche (19.9km)</name>
  <trkseg>
   <trkpt lat="37.131769" lon="-3.541888"><ele>799.25</ele></trkpt>
   <trkpt lat="37.131728" lon="-3.541679"><ele>799.25</ele></trkpt>
   <trkpt lat="37.13172" lon="-3.541592"><ele>799.75</ele></trkpt>
   <trkpt lat="37.131726" lon="-3.541489"><ele>800.25</ele></trkpt>
   <trkpt lat="37.131744" lon="-3.541385"><ele>800.5</ele></trkpt>
   <trkpt lat="37.131783" lon="-3.541257"><ele>801.25</ele></trkpt>
   <trkpt lat="37.13184" lon="-3.54112"><ele>801.25</ele></trkpt>
   <trkpt lat="37.131934" lon="-3.540941"><ele>800.5</ele></trkpt>
   <trkpt lat="37.131969" lon="-3.540876"><ele>800.75</ele></trkpt>
   <trkpt lat="37.132029" lon="-3.540792"><ele>800.75</ele></trkpt>
   <trkpt lat="37.132116" lon="-3.540687"><ele>800.5</ele></trkpt>
   <trkpt lat="37.132151" lon="-3.540644"><ele>800.5</ele></trkpt>
   <trkpt lat="37.132182" lon="-3.540618"><ele>800.5</ele></trkpt>
   <trkpt lat="37.132233" lon="-3.540491"><ele>800.75</ele></trkpt>
   <trkpt lat="37.132241" lon="-3.540447"><ele>800.5</ele></trkpt>
   <trkpt lat="37.13226" lon="-3.540319"><ele>800.25</ele></trkpt>
   <trkpt lat="37.132266" lon="-3.540225"><ele>800.25</ele></trkpt>
   <trkpt lat="37.132262" lon="-3.540123"><ele>800.25</ele></trkpt>
   <trkpt lat="37.132246" lon="-3.540029"><ele>800.5</ele></trkpt>
   <trkpt lat="37.132234" lon="-3.539946"><ele>800.5</ele></trkpt>
   <trkpt lat="37.132195" lon="-3.539822"><ele>800.25</ele></trkpt>
   <trkpt lat="37.132145" lon="-3.539702"><ele>800.25</ele></trkpt>
   <trkpt lat="37.132069" lon="-3.539551"><ele>800.75</ele></trkpt>
   <trkpt lat="37.13203" lon="-3.539515"><ele>800.75</ele></trkpt>
   <trkpt lat="37.132009" lon="-3.539486"><ele>800.75</ele></trkpt>
   <trkpt lat="37.131832" lon="-3.539295"><ele>802.25</ele></trkpt>
   <trkpt lat="37.131651" lon="-3.538973"><ele>803.75</ele></trkpt>
   <trkpt lat="37.131577" lon="-3.53895"><ele>804</ele></trkpt>
   <trkpt lat="37.131459" lon="-3.539017"><ele>804.5</ele></trkpt>
   <trkpt lat="37.131389" lon="-3.538868"><ele>804.75</ele></trkpt>
   <trkpt lat="37.131316" lon="-3.538793"><ele>805.5</ele></trkpt>
   <trkpt lat="37.131093" lon="-3.53843"><ele>807</ele></trkpt>
   <trkpt lat="37.131046" lon="-3.538289"><ele>807.5</ele></trkpt>
   <trkpt lat="37.131039" lon="-3.53821"><ele>807.75</ele></trkpt>
   <trkpt lat="37.131034" lon="-3.538018"><ele>808</ele></trkpt>
   <trkpt lat="37.131031" lon="-3.537979"><ele>808.25</ele></trkpt>
   <trkpt lat="37.131024" lon="-3.537588"><ele>808.25</ele></trkpt>
   <trkpt lat="37.131023" lon="-3.537542"><ele>808.25</ele></trkpt>
   <trkpt lat="37.130998" lon="-3.537356"><ele>809</ele></trkpt>
   <trkpt lat="37.130951" lon="-3.537216"><ele>809.5</ele></trkpt>
   <trkpt lat="37.130833" lon="-3.537078"><ele>811</ele></trkpt>
   <trkpt lat="37.130807" lon="-3.53703"><ele>811.5</ele></trkpt>
   <trkpt lat="37.130736" lon="-3.536891"><ele>812.25</ele></trkpt>
   <trkpt lat="37.130626" lon="-3.536555"><ele>812.5</ele></trkpt>
   <trkpt lat="37.130455" lon="-3.536228"><ele>813.75</ele></trkpt>
   <trkpt lat="37.130372" lon="-3.536009"><ele>816.25</ele></trkpt>
   <trkpt lat="37.13035" lon="-3.535861"><ele>816.5</ele></trkpt>
   <trkpt lat="37.130374" lon="-3.535821"><ele>816</ele></trkpt>
   <trkpt lat="37.130434" lon="-3.535646"><ele>814.25</ele></trkpt>
   <trkpt lat="37.130462" lon="-3.535602"><ele>814</ele></trkpt>
   <trkpt lat="37.130486" lon="-3.535533"><ele>814</ele></trkpt>
   <trkpt lat="37.130466" lon="-3.535457"><ele>814.5</ele></trkpt>
   <trkpt lat="37.130447" lon="-3.535384"><ele>815</ele></trkpt>
   <trkpt lat="37.130623" lon="-3.535255"><ele>817.5</ele></trkpt>
   <trkpt lat="37.130859" lon="-3.53516"><ele>821.75</ele></trkpt>
   <trkpt lat="37.130954" lon="-3.535032"><ele>825.25</ele></trkpt>
   <trkpt lat="37.130866" lon="-3.534741"><ele>825.75</ele></trkpt>
   <trkpt lat="37.130824" lon="-3.534629"><ele>826</ele></trkpt>
   <trkpt lat="37.130801" lon="-3.534507"><ele>826.75</ele></trkpt>
   <trkpt lat="37.130812" lon="-3.534466"><ele>827.75</ele></trkpt>
   <trkpt lat="37.130835" lon="-3.534406"><ele>829.25</ele></trkpt>
   <trkpt lat="37.130861" lon="-3.534118"><ele>833</ele></trkpt>
   <trkpt lat="37.130903" lon="-3.533843"><ele>836.5</ele></trkpt>
   <trkpt lat="37.13095" lon="-3.533733"><ele>838.5</ele></trkpt>
   <trkpt lat="37.130974" lon="-3.533572"><ele>840.75</ele></trkpt>
   <trkpt lat="37.130935" lon="-3.533492"><ele>841.75</ele></trkpt>
   <trkpt lat="37.130754" lon="-3.533348"><ele>841.75</ele></trkpt>
   <trkpt lat="37.130431" lon="-3.533141"><ele>846.25</ele></trkpt>
   <trkpt lat="37.130354" lon="-3.533082"><ele>848.75</ele></trkpt>
   <trkpt lat="37.130208" lon="-3.532754"><ele>854.75</ele></trkpt>
   <trkpt lat="37.130163" lon="-3.532508"><ele>860.25</ele></trkpt>
   <trkpt lat="37.130162" lon="-3.532343"><ele>864.5</ele></trkpt>
   <trkpt lat="37.13014" lon="-3.532244"><ele>866.25</ele></trkpt>
   <trkpt lat="37.130113" lon="-3.532204"><ele>867</ele></trkpt>
   <trkpt lat="37.129876" lon="-3.531991"><ele>870</ele></trkpt>
   <trkpt lat="37.129805" lon="-3.531901"><ele>872</ele></trkpt>
   <trkpt lat="37.129773" lon="-3.531784"><ele>874.5</ele></trkpt>
   <trkpt lat="37.129774" lon="-3.531657"><ele>878</ele></trkpt>
   <trkpt lat="37.129889" lon="-3.530786"><ele>886.25</ele></trkpt>
   <trkpt lat="37.129952" lon="-3.530658"><ele>890.5</ele></trkpt>
   <trkpt lat="37.129956" lon="-3.530629"><ele>890.75</ele></trkpt>
   <trkpt lat="37.130051" lon="-3.529828"><ele>901.75</ele></trkpt>
   <trkpt lat="37.130088" lon="-3.529658"><ele>904.25</ele></trkpt>
   <trkpt lat="37.130134" lon="-3.529531"><ele>905.75</ele></trkpt>
   <trkpt lat="37.130198" lon="-3.529435"><ele>906.5</ele></trkpt>
   <trkpt lat="37.130343" lon="-3.529301"><ele>908</ele></trkpt>
   <trkpt lat="37.130638" lon="-3.528947"><ele>914.5</ele></trkpt>
   <trkpt lat="37.1309" lon="-3.52842"><ele>919</ele></trkpt>
   <trkpt lat="37.131233" lon="-3.528012"><ele>927.25</ele></trkpt>
   <trkpt lat="37.131323" lon="-3.527776"><ele>927.75</ele></trkpt>
   <trkpt lat="37.131381" lon="-3.527563"><ele>930</ele></trkpt>
   <trkpt lat="37.131473" lon="-3.527466"><ele>931</ele></trkpt>
   <trkpt lat="37.131592" lon="-3.527409"><ele>932.25</ele></trkpt>
   <trkpt lat="37.131887" lon="-3.527386"><ele>935.25</ele></trkpt>
   <trkpt lat="37.132378" lon="-3.527281"><ele>941.25</ele></trkpt>
   <trkpt lat="37.132489" lon="-3.527151"><ele>941.5</ele></trkpt>
   <trkpt lat="37.132677" lon="-3.526737"><ele>946.25</ele></trkpt>
   <trkpt lat="37.132819" lon="-3.52634"><ele>950</ele></trkpt>
   <trkpt lat="37.132955" lon="-3.526144"><ele>951.25</ele></trkpt>
   <trkpt lat="37.133111" lon="-3.525951"><ele>953.25</ele></trkpt>
   <trkpt lat="37.13332" lon="-3.525744"><ele>958.5</ele></trkpt>
   <trkpt lat="37.133419" lon="-3.525585"><ele>960</ele></trkpt>
   <trkpt lat="37.133559" lon="-3.525274"><ele>964.5</ele></trkpt>
   <trkpt lat="37.13362" lon="-3.525183"><ele>965.5</ele></trkpt>
   <trkpt lat="37.133812" lon="-3.525022"><ele>967.75</ele></trkpt>
   <trkpt lat="37.134145" lon="-3.524865"><ele>973.75</ele></trkpt>
   <trkpt lat="37.134275" lon="-3.524773"><ele>975.75</ele></trkpt>
   <trkpt lat="37.134412" lon="-3.524598"><ele>977.5</ele></trkpt>
   <trkpt lat="37.134531" lon="-3.524406"><ele>979</ele></trkpt>
   <trkpt lat="37.134841" lon="-3.523971"><ele>986.75</ele></trkpt>
   <trkpt lat="37.135047" lon="-3.523636"><ele>990.5</ele></trkpt>
   <trkpt lat="37.135225" lon="-3.523404"><ele>993.5</ele></trkpt>
   <trkpt lat="37.135335" lon="-3.523175"><ele>996</ele></trkpt>
   <trkpt lat="37.135372" lon="-3.522884"><ele>999.25</ele></trkpt>
   <trkpt lat="37.135322" lon="-3.522642"><ele>999</ele></trkpt>
   <trkpt lat="37.135175" lon="-3.522158"><ele>999.5</ele></trkpt>
   <trkpt lat="37.13522" lon="-3.522042"><ele>1001.25</ele></trkpt>
   <trkpt lat="37.135399" lon="-3.521824"><ele>1006.25</ele></trkpt>
   <trkpt lat="37.13549" lon="-3.52178"><ele>1008.5</ele></trkpt>
   <trkpt lat="37.135681" lon="-3.521798"><ele>1013</ele></trkpt>
   <trkpt lat="37.135751" lon="-3.521904"><ele>1015</ele></trkpt>
   <trkpt lat="37.135782" lon="-3.522103"><ele>1016</ele></trkpt>
   <trkpt lat="37.135759" lon="-3.522334"><ele>1016.25</ele></trkpt>
   <trkpt lat="37.135673" lon="-3.522613"><ele>1015</ele></trkpt>
   <trkpt lat="37.135706" lon="-3.522691"><ele>1017</ele></trkpt>
   <trkpt lat="37.135778" lon="-3.522696"><ele>1020</ele></trkpt>
   <trkpt lat="37.135849" lon="-3.522636"><ele>1022.75</ele></trkpt>
   <trkpt lat="37.136089" lon="-3.522293"><ele>1026.5</ele></trkpt>
   <trkpt lat="37.136182" lon="-3.521966"><ele>1031.25</ele></trkpt>
   <trkpt lat="37.136346" lon="-3.52166"><ele>1033.5</ele></trkpt>
   <trkpt lat="37.136551" lon="-3.521426"><ele>1037.5</ele></trkpt>
   <trkpt lat="37.136745" lon="-3.521296"><ele>1041.75</ele></trkpt>
   <trkpt lat="37.13696" lon="-3.521214"><ele>1047</ele></trkpt>
   <trkpt lat="37.137137" lon="-3.521112"><ele>1047.75</ele></trkpt>
   <trkpt lat="37.137178" lon="-3.521024"><ele>1048.5</ele></trkpt>
   <trkpt lat="37.137305" lon="-3.520611"><ele>1054.25</ele></trkpt>
   <trkpt lat="37.137363" lon="-3.520204"><ele>1058.25</ele></trkpt>
   <trkpt lat="37.137385" lon="-3.519958"><ele>1060</ele></trkpt>
   <trkpt lat="37.137434" lon="-3.519746"><ele>1060.75</ele></trkpt>
   <trkpt lat="37.137403" lon="-3.519657"><ele>1062</ele></trkpt>
   <trkpt lat="37.137352" lon="-3.519612"><ele>1062.25</ele></trkpt>
   <trkpt lat="37.137268" lon="-3.519565"><ele>1062</ele></trkpt>
   <trkpt lat="37.137162" lon="-3.51946"><ele>1063.5</ele></trkpt>
   <trkpt lat="37.136897" lon="-3.519057"><ele>1062.75</ele></trkpt>
   <trkpt lat="37.13686" lon="-3.518885"><ele>1063.75</ele></trkpt>
   <trkpt lat="37.136861" lon="-3.518781"><ele>1064.25</ele></trkpt>
   <trkpt lat="37.136869" lon="-3.518276"><ele>1067.75</ele></trkpt>
   <trkpt lat="37.136989" lon="-3.517834"><ele>1073</ele></trkpt>
   <trkpt lat="37.13696" lon="-3.517707"><ele>1072.25</ele></trkpt>
   <trkpt lat="37.136676" lon="-3.517117"><ele>1074</ele></trkpt>
   <trkpt lat="37.13654" lon="-3.51677"><ele>1078.5</ele></trkpt>
   <trkpt lat="37.136415" lon="-3.51629"><ele>1084</ele></trkpt>
   <trkpt lat="37.136351" lon="-3.515888"><ele>1088</ele></trkpt>
   <trkpt lat="37.136321" lon="-3.515586"><ele>1093.5</ele></trkpt>
   <trkpt lat="37.136176" lon="-3.515182"><ele>1096.5</ele></trkpt>
   <trkpt lat="37.136187" lon="-3.515092"><ele>1098.75</ele></trkpt>
   <trkpt lat="37.136289" lon="-3.515118"><ele>1103.25</ele></trkpt>
   <trkpt lat="37.136392" lon="-3.515397"><ele>1101.5</ele></trkpt>
   <trkpt lat="37.136462" lon="-3.515535"><ele>1102</ele></trkpt>
   <trkpt lat="37.136812" lon="-3.516016"><ele>1105</ele></trkpt>
   <trkpt lat="37.136905" lon="-3.516082"><ele>1107</ele></trkpt>
   <trkpt lat="37.136947" lon="-3.516038"><ele>1109.75</ele></trkpt>
   <trkpt lat="37.136939" lon="-3.515958"><ele>1111.5</ele></trkpt>
   <trkpt lat="37.136839" lon="-3.515816"><ele>1111.25</ele></trkpt>
   <trkpt lat="37.136729" lon="-3.515544"><ele>1115.25</ele></trkpt>
   <trkpt lat="37.136509" lon="-3.514852"><ele>1120</ele></trkpt>
   <trkpt lat="37.136489" lon="-3.51467"><ele>1122</ele></trkpt>
   <trkpt lat="37.136546" lon="-3.514521"><ele>1123.75</ele></trkpt>
   <trkpt lat="37.136597" lon="-3.514419"><ele>1124.5</ele></trkpt>
   <trkpt lat="37.136706" lon="-3.514203"><ele>1127.25</ele></trkpt>
   <trkpt lat="37.136818" lon="-3.513884"><ele>1130.25</ele></trkpt>
   <trkpt lat="37.136823" lon="-3.513804"><ele>1131.5</ele></trkpt>
   <trkpt lat="37.136816" lon="-3.513731"><ele>1132.25</ele></trkpt>
   <trkpt lat="37.136772" lon="-3.513672"><ele>1132.5</ele></trkpt>
   <trkpt lat="37.136715" lon="-3.513641"><ele>1132.5</ele></trkpt>
   <trkpt lat="37.136574" lon="-3.513632"><ele>1132.75</ele></trkpt>
   <trkpt lat="37.136458" lon="-3.513554"><ele>1134.5</ele></trkpt>
   <trkpt lat="37.136403" lon="-3.51347"><ele>1136.25</ele></trkpt>
   <trkpt lat="37.13631" lon="-3.513274"><ele>1137.5</ele></trkpt>
   <trkpt lat="37.13624" lon="-3.513085"><ele>1139.5</ele></trkpt>
   <trkpt lat="37.136097" lon="-3.512488"><ele>1147.75</ele></trkpt>
   <trkpt lat="37.136045" lon="-3.512184"><ele>1149.75</ele></trkpt>
   <trkpt lat="37.136029" lon="-3.512119"><ele>1154.25</ele></trkpt>
   <trkpt lat="37.135955" lon="-3.511807"><ele>1154.25</ele></trkpt>
   <trkpt lat="37.135945" lon="-3.511635"><ele>1155.5</ele></trkpt>
   <trkpt lat="37.135966" lon="-3.511475"><ele>1156.25</ele></trkpt>
   <trkpt lat="37.136215" lon="-3.510765"><ele>1161.75</ele></trkpt>
   <trkpt lat="37.136263" lon="-3.510712"><ele>1161.75</ele></trkpt>
   <trkpt lat="37.136378" lon="-3.510682"><ele>1163.5</ele></trkpt>
   <trkpt lat="37.136624" lon="-3.510681"><ele>1165</ele></trkpt>
   <trkpt lat="37.13667" lon="-3.510669"><ele>1165</ele></trkpt>
   <trkpt lat="37.136733" lon="-3.510629"><ele>1165.75</ele></trkpt>
   <trkpt lat="37.136787" lon="-3.510562"><ele>1166.5</ele></trkpt>
   <trkpt lat="37.1369" lon="-3.510378"><ele>1168.25</ele></trkpt>
   <trkpt lat="37.13695" lon="-3.510245"><ele>1169.25</ele></trkpt>
   <trkpt lat="37.136996" lon="-3.510064"><ele>1171.75</ele></trkpt>
   <trkpt lat="37.137044" lon="-3.509962"><ele>1173.5</ele></trkpt>
   <trkpt lat="37.137161" lon="-3.509826"><ele>1175.75</ele></trkpt>
   <trkpt lat="37.137183" lon="-3.509796"><ele>1176</ele></trkpt>
   <trkpt lat="37.137197" lon="-3.509756"><ele>1175.75</ele></trkpt>
   <trkpt lat="37.137201" lon="-3.509716"><ele>1175.5</ele></trkpt>
   <trkpt lat="37.13719" lon="-3.509678"><ele>1176.5</ele></trkpt>
   <trkpt lat="37.137071" lon="-3.509493"><ele>1177.75</ele></trkpt>
   <trkpt lat="37.13704" lon="-3.509401"><ele>1177.75</ele></trkpt>
   <trkpt lat="37.137049" lon="-3.509274"><ele>1178</ele></trkpt>
   <trkpt lat="37.137112" lon="-3.509064"><ele>1180.75</ele></trkpt>
   <trkpt lat="37.137132" lon="-3.508972"><ele>1180.75</ele></trkpt>
   <trkpt lat="37.137153" lon="-3.508349"><ele>1184.25</ele></trkpt>
   <trkpt lat="37.137188" lon="-3.508245"><ele>1185.25</ele></trkpt>
   <trkpt lat="37.137234" lon="-3.508192"><ele>1186</ele></trkpt>
   <trkpt lat="37.137288" lon="-3.508161"><ele>1187</ele></trkpt>
   <trkpt lat="37.137329" lon="-3.508156"><ele>1187.5</ele></trkpt>
   <trkpt lat="37.137376" lon="-3.508198"><ele>1188</ele></trkpt>
   <trkpt lat="37.137417" lon="-3.508302"><ele>1188.5</ele></trkpt>
   <trkpt lat="37.137436" lon="-3.508656"><ele>1190</ele></trkpt>
   <trkpt lat="37.137431" lon="-3.508762"><ele>1192</ele></trkpt>
   <trkpt lat="37.137369" lon="-3.508991"><ele>1192</ele></trkpt>
   <trkpt lat="37.137364" lon="-3.509073"><ele>1192.5</ele></trkpt>
   <trkpt lat="37.137387" lon="-3.509192"><ele>1194.25</ele></trkpt>
   <trkpt lat="37.137431" lon="-3.509259"><ele>1195</ele></trkpt>
   <trkpt lat="37.137486" lon="-3.509297"><ele>1196.5</ele></trkpt>
   <trkpt lat="37.13757" lon="-3.509336"><ele>1197.5</ele></trkpt>
   <trkpt lat="37.137718" lon="-3.509357"><ele>1199.5</ele></trkpt>
   <trkpt lat="37.137768" lon="-3.509383"><ele>1199.75</ele></trkpt>
   <trkpt lat="37.137809" lon="-3.509418"><ele>1200</ele></trkpt>
   <trkpt lat="37.137833" lon="-3.509454"><ele>1200.25</ele></trkpt>
   <trkpt lat="37.137851" lon="-3.509511"><ele>1201.25</ele></trkpt>
   <trkpt lat="37.137863" lon="-3.509714"><ele>1203</ele></trkpt>
   <trkpt lat="37.137841" lon="-3.510251"><ele>1206.25</ele></trkpt>
   <trkpt lat="37.137857" lon="-3.510364"><ele>1207.25</ele></trkpt>
   <trkpt lat="37.137972" lon="-3.510766"><ele>1211.5</ele></trkpt>
   <trkpt lat="37.137983" lon="-3.511008"><ele>1212.75</ele></trkpt>
   <trkpt lat="37.137956" lon="-3.511326"><ele>1213.5</ele></trkpt>
   <trkpt lat="37.137973" lon="-3.51145"><ele>1214.75</ele></trkpt>
   <trkpt lat="37.138059" lon="-3.511863"><ele>1217</ele></trkpt>
   <trkpt lat="37.138089" lon="-3.511941"><ele>1218.5</ele></trkpt>
   <trkpt lat="37.138131" lon="-3.512009"><ele>1219</ele></trkpt>
   <trkpt lat="37.138372" lon="-3.512296"><ele>1222</ele></trkpt>
   <trkpt lat="37.138679" lon="-3.512913"><ele>1226</ele></trkpt>
   <trkpt lat="37.138803" lon="-3.513075"><ele>1227.25</ele></trkpt>
   <trkpt lat="37.13884" lon="-3.513155"><ele>1228.5</ele></trkpt>
   <trkpt lat="37.138862" lon="-3.513463"><ele>1227.75</ele></trkpt>
   <trkpt lat="37.138919" lon="-3.513673"><ele>1229.25</ele></trkpt>
   <trkpt lat="37.139017" lon="-3.513905"><ele>1228.75</ele></trkpt>
   <trkpt lat="37.139061" lon="-3.513975"><ele>1229.5</ele></trkpt>
   <trkpt lat="37.139104" lon="-3.514005"><ele>1230.75</ele></trkpt>
   <trkpt lat="37.139159" lon="-3.513981"><ele>1233.5</ele></trkpt>
   <trkpt lat="37.139154" lon="-3.513906"><ele>1234.25</ele></trkpt>
   <trkpt lat="37.139129" lon="-3.513821"><ele>1235.5</ele></trkpt>
   <trkpt lat="37.13908" lon="-3.513741"><ele>1235.5</ele></trkpt>
   <trkpt lat="37.139042" lon="-3.513628"><ele>1236.75</ele></trkpt>
   <trkpt lat="37.13903" lon="-3.513517"><ele>1237.25</ele></trkpt>
   <trkpt lat="37.139059" lon="-3.513247"><ele>1241.25</ele></trkpt>
   <trkpt lat="37.139059" lon="-3.513118"><ele>1242</ele></trkpt>
   <trkpt lat="37.139035" lon="-3.513007"><ele>1242.75</ele></trkpt>
   <trkpt lat="37.138992" lon="-3.512926"><ele>1243.5</ele></trkpt>
   <trkpt lat="37.138889" lon="-3.5128"><ele>1243.75</ele></trkpt>
   <trkpt lat="37.13883" lon="-3.512656"><ele>1245.5</ele></trkpt>
   <trkpt lat="37.138768" lon="-3.512432"><ele>1247.5</ele></trkpt>
   <trkpt lat="37.13872" lon="-3.512195"><ele>1248.25</ele></trkpt>
   <trkpt lat="37.138693" lon="-3.511905"><ele>1248.75</ele></trkpt>
   <trkpt lat="37.13873" lon="-3.511441"><ele>1252</ele></trkpt>
   <trkpt lat="37.138813" lon="-3.510983"><ele>1255.75</ele></trkpt>
   <trkpt lat="37.138935" lon="-3.510574"><ele>1259.25</ele></trkpt>
   <trkpt lat="37.139035" lon="-3.510382"><ele>1259.5</ele></trkpt>
   <trkpt lat="37.139327" lon="-3.51016"><ele>1264</ele></trkpt>
   <trkpt lat="37.139608" lon="-3.509813"><ele>1267</ele></trkpt>
   <trkpt lat="37.139855" lon="-3.509318"><ele>1272.5</ele></trkpt>
   <trkpt lat="37.139881" lon="-3.509168"><ele>1273.25</ele></trkpt>
   <trkpt lat="37.139878" lon="-3.509039"><ele>1270.75</ele></trkpt>
   <trkpt lat="37.139902" lon="-3.508917"><ele>1271</ele></trkpt>
   <trkpt lat="37.140061" lon="-3.508472"><ele>1276</ele></trkpt>
   <trkpt lat="37.140167" lon="-3.508248"><ele>1278.25</ele></trkpt>
   <trkpt lat="37.140215" lon="-3.507988"><ele>1278.75</ele></trkpt>
   <trkpt lat="37.14033" lon="-3.507775"><ele>1283.5</ele></trkpt>
   <trkpt lat="37.140394" lon="-3.507427"><ele>1286</ele></trkpt>
   <trkpt lat="37.140394" lon="-3.507175"><ele>1287.5</ele></trkpt>
   <trkpt lat="37.140437" lon="-3.506888"><ele>1288.75</ele></trkpt>
   <trkpt lat="37.140489" lon="-3.506305"><ele>1290.25</ele></trkpt>
   <trkpt lat="37.140631" lon="-3.505926"><ele>1298</ele></trkpt>
   <trkpt lat="37.14066" lon="-3.505726"><ele>1300.25</ele></trkpt>
   <trkpt lat="37.140648" lon="-3.50553"><ele>1300.25</ele></trkpt>
   <trkpt lat="37.140621" lon="-3.505416"><ele>1301</ele></trkpt>
   <trkpt lat="37.140571" lon="-3.50529"><ele>1301.25</ele></trkpt>
   <trkpt lat="37.14049" lon="-3.505141"><ele>1304</ele></trkpt>
   <trkpt lat="37.140418" lon="-3.504937"><ele>1305.5</ele></trkpt>
   <trkpt lat="37.140406" lon="-3.504805"><ele>1306.5</ele></trkpt>
   <trkpt lat="37.140409" lon="-3.504544"><ele>1310.25</ele></trkpt>
   <trkpt lat="37.140382" lon="-3.504421"><ele>1310.5</ele></trkpt>
   <trkpt lat="37.14033" lon="-3.504346"><ele>1309</ele></trkpt>
   <trkpt lat="37.140029" lon="-3.504101"><ele>1311</ele></trkpt>
   <trkpt lat="37.139959" lon="-3.504009"><ele>1311.25</ele></trkpt>
   <trkpt lat="37.139767" lon="-3.503399"><ele>1313.5</ele></trkpt>
   <trkpt lat="37.139603" lon="-3.503026"><ele>1314.75</ele></trkpt>
   <trkpt lat="37.139584" lon="-3.502986"><ele>1314.5</ele></trkpt>
   <trkpt lat="37.138897" lon="-3.502128"><ele>1327</ele></trkpt>
   <trkpt lat="37.138771" lon="-3.5019"><ele>1329.5</ele></trkpt>
   <trkpt lat="37.13866" lon="-3.501634"><ele>1332.75</ele></trkpt>
   <trkpt lat="37.138602" lon="-3.50138"><ele>1337.25</ele></trkpt>
   <trkpt lat="37.138553" lon="-3.501259"><ele>1337.75</ele></trkpt>
   <trkpt lat="37.138452" lon="-3.501136"><ele>1339.5</ele></trkpt>
   <trkpt lat="37.138322" lon="-3.501012"><ele>1340.75</ele></trkpt>
   <trkpt lat="37.138033" lon="-3.500755"><ele>1345.25</ele></trkpt>
   <trkpt lat="37.137617" lon="-3.500179"><ele>1353</ele></trkpt>
   <trkpt lat="37.13754" lon="-3.499669"><ele>1355.75</ele></trkpt>
   <trkpt lat="37.137642" lon="-3.498907"><ele>1363.5</ele></trkpt>
   <trkpt lat="37.137732" lon="-3.498646"><ele>1365.75</ele></trkpt>
   <trkpt lat="37.137834" lon="-3.498536"><ele>1367</ele></trkpt>
   <trkpt lat="37.137933" lon="-3.498491"><ele>1367.25</ele></trkpt>
   <trkpt lat="37.138108" lon="-3.498472"><ele>1365.5</ele></trkpt>
   <trkpt lat="37.138208" lon="-3.498448"><ele>1365.5</ele></trkpt>
   <trkpt lat="37.138318" lon="-3.498384"><ele>1366.5</ele></trkpt>
   <trkpt lat="37.138418" lon="-3.498255"><ele>1369.5</ele></trkpt>
   <trkpt lat="37.138459" lon="-3.498115"><ele>1372</ele></trkpt>
   <trkpt lat="37.138472" lon="-3.497968"><ele>1372.75</ele></trkpt>
   <trkpt lat="37.138339" lon="-3.497461"><ele>1378.5</ele></trkpt>
   <trkpt lat="37.138343" lon="-3.497238"><ele>1382.5</ele></trkpt>
   <trkpt lat="37.138405" lon="-3.496935"><ele>1386.25</ele></trkpt>
   <trkpt lat="37.138418" lon="-3.49678"><ele>1389</ele></trkpt>
   <trkpt lat="37.1384" lon="-3.496459"><ele>1395.25</ele></trkpt>
   <trkpt lat="37.138471" lon="-3.496132"><ele>1399.5</ele></trkpt>
   <trkpt lat="37.138485" lon="-3.495615"><ele>1407.25</ele></trkpt>
   <trkpt lat="37.138523" lon="-3.495476"><ele>1408.5</ele></trkpt>
   <trkpt lat="37.138585" lon="-3.495334"><ele>1409.5</ele></trkpt>
   <trkpt lat="37.13872" lon="-3.495189"><ele>1412</ele></trkpt>
   <trkpt lat="37.138803" lon="-3.495071"><ele>1414.5</ele></trkpt>
   <trkpt lat="37.138824" lon="-3.494988"><ele>1416</ele></trkpt>
   <trkpt lat="37.138818" lon="-3.494889"><ele>1417.75</ele></trkpt>
   <trkpt lat="37.138736" lon="-3.494581"><ele>1422.5</ele></trkpt>
   <trkpt lat="37.138608" lon="-3.494264"><ele>1424.75</ele></trkpt>
   <trkpt lat="37.138596" lon="-3.494133"><ele>1426.25</ele></trkpt>
   <trkpt lat="37.138575" lon="-3.493926"><ele>1427.75</ele></trkpt>
   <trkpt lat="37.138565" lon="-3.493722"><ele>1428.25</ele></trkpt>
   <trkpt lat="37.138531" lon="-3.493446"><ele>1428</ele></trkpt>
   <trkpt lat="37.138467" lon="-3.493221"><ele>1428.25</ele></trkpt>
   <trkpt lat="37.138424" lon="-3.493119"><ele>1428.75</ele></trkpt>
   <trkpt lat="37.138367" lon="-3.492987"><ele>1429.5</ele></trkpt>
   <trkpt lat="37.13833" lon="-3.492802"><ele>1430.75</ele></trkpt>
   <trkpt lat="37.138328" lon="-3.492665"><ele>1431</ele></trkpt>
   <trkpt lat="37.138379" lon="-3.49224"><ele>1430</ele></trkpt>
   <trkpt lat="37.138394" lon="-3.491993"><ele>1430.75</ele></trkpt>
   <trkpt lat="37.138375" lon="-3.491674"><ele>1430.5</ele></trkpt>
   <trkpt lat="37.138356" lon="-3.491566"><ele>1431</ele></trkpt>
   <trkpt lat="37.138328" lon="-3.491481"><ele>1432</ele></trkpt>
   <trkpt lat="37.138176" lon="-3.49118"><ele>1433.75</ele></trkpt>
   <trkpt lat="37.138123" lon="-3.491051"><ele>1434.25</ele></trkpt>
   <trkpt lat="37.13811" lon="-3.490971"><ele>1433.75</ele></trkpt>
   <trkpt lat="37.138112" lon="-3.490893"><ele>1433</ele></trkpt>
   <trkpt lat="37.13817" lon="-3.490561"><ele>1433.25</ele></trkpt>
   <trkpt lat="37.138176" lon="-3.490393"><ele>1434.75</ele></trkpt>
   <trkpt lat="37.138147" lon="-3.49005"><ele>1436.25</ele></trkpt>
   <trkpt lat="37.138125" lon="-3.489897"><ele>1436.5</ele></trkpt>
   <trkpt lat="37.137964" lon="-3.489314"><ele>1436.75</ele></trkpt>
   <trkpt lat="37.137918" lon="-3.489193"><ele>1436.75</ele></trkpt>
   <trkpt lat="37.137556" lon="-3.488231"><ele>1434.75</ele></trkpt>
   <trkpt lat="37.137452" lon="-3.487875"><ele>1433.5</ele></trkpt>
   <trkpt lat="37.137299" lon="-3.487423"><ele>1433.25</ele></trkpt>
   <trkpt lat="37.137218" lon="-3.48725"><ele>1432</ele></trkpt>
   <trkpt lat="37.137047" lon="-3.486878"><ele>1430</ele></trkpt>
   <trkpt lat="37.136801" lon="-3.486288"><ele>1424</ele></trkpt>
   <trkpt lat="37.136697" lon="-3.486077"><ele>1420.25</ele></trkpt>
   <trkpt lat="37.136558" lon="-3.48585"><ele>1417.75</ele></trkpt>
   <trkpt lat="37.136331" lon="-3.485551"><ele>1413</ele></trkpt>
   <trkpt lat="37.136266" lon="-3.485338"><ele>1411</ele></trkpt>
   <trkpt lat="37.136289" lon="-3.485063"><ele>1409</ele></trkpt>
   <trkpt lat="37.136384" lon="-3.484665"><ele>1406.25</ele></trkpt>
   <trkpt lat="37.136409" lon="-3.484406"><ele>1403.5</ele></trkpt>
   <trkpt lat="37.136386" lon="-3.483821"><ele>1399</ele></trkpt>
   <trkpt lat="37.136457" lon="-3.4833"><ele>1398.5</ele></trkpt>
   <trkpt lat="37.136503" lon="-3.482151"><ele>1399</ele></trkpt>
   <trkpt lat="37.136452" lon="-3.480957"><ele>1408.75</ele></trkpt>
   <trkpt lat="37.136272" lon="-3.479913"><ele>1417.5</ele></trkpt>
   <trkpt lat="37.136249" lon="-3.479727"><ele>1419.75</ele></trkpt>
   <trkpt lat="37.136194" lon="-3.477954"><ele>1435.75</ele></trkpt>
   <trkpt lat="37.136092" lon="-3.477031"><ele>1444.75</ele></trkpt>
   <trkpt lat="37.136094" lon="-3.476298"><ele>1454.25</ele></trkpt>
   <trkpt lat="37.135954" lon="-3.475723"><ele>1460</ele></trkpt>
   <trkpt lat="37.135881" lon="-3.475061"><ele>1468.25</ele></trkpt>
   <trkpt lat="37.135895" lon="-3.474792"><ele>1471</ele></trkpt>
   <trkpt lat="37.135821" lon="-3.474338"><ele>1474</ele></trkpt>
   <trkpt lat="37.135809" lon="-3.474133"><ele>1476.5</ele></trkpt>
   <trkpt lat="37.135849" lon="-3.473955"><ele>1479.5</ele></trkpt>
   <trkpt lat="37.135919" lon="-3.473887"><ele>1481.25</ele></trkpt>
   <trkpt lat="37.136005" lon="-3.473851"><ele>1483.25</ele></trkpt>
   <trkpt lat="37.136183" lon="-3.473862"><ele>1485.25</ele></trkpt>
   <trkpt lat="37.136288" lon="-3.473839"><ele>1486.5</ele></trkpt>
   <trkpt lat="37.136385" lon="-3.47375"><ele>1488.25</ele></trkpt>
   <trkpt lat="37.136432" lon="-3.473664"><ele>1489.75</ele></trkpt>
   <trkpt lat="37.136446" lon="-3.47354"><ele>1490.75</ele></trkpt>
   <trkpt lat="37.13646" lon="-3.473258"><ele>1492</ele></trkpt>
   
  </trkseg>
 </trk>
</gpx>
