<?xml version="1.0" encoding="UTF-8"?>
<!-- track-length = 11434 filtered ascend = 485 plain-ascend = 392 cost=17804 energy=0.1kwh time=1h 26m 40s -->
<gpx 
 xmlns="http://www.topografix.com/GPX/1/1" 
 xmlns:xsi="http://www.w3.org/2001/XMLSchema-instance" 
 xsi:schemaLocation="http://www.topografix.com/GPX/1/1 http://www.topografix.com/GPX/1/1/gpx.xsd" 
 version="1.1" 
 creator="BRouter-Web 0.18.1">
 <trk>
  <name>Puerto de las abejas (11.4km)</name>
  <trkseg>
   <trkpt lat="36.728936" lon="-4.865337"><ele>376.25</ele></trkpt>
   <trkpt lat="36.728961" lon="-4.865205"><ele>377.5</ele></trkpt>
   <trkpt lat="36.728954" lon="-4.864895"><ele>379.5</ele></trkpt>
   <trkpt lat="36.72897" lon="-4.86486"><ele>380</ele></trkpt>
   <trkpt lat="36.728997" lon="-4.864826"><ele>380.25</ele></trkpt>
   <trkpt lat="36.728985" lon="-4.864779"><ele>380.25</ele></trkpt>
   <trkpt lat="36.72899" lon="-4.864727"><ele>380.5</ele></trkpt>
   <trkpt lat="36.729008" lon="-4.864673"><ele>380.75</ele></trkpt>
   <trkpt lat="36.729029" lon="-4.864649"><ele>381</ele></trkpt>
   <trkpt lat="36.729055" lon="-4.86464"><ele>381.25</ele></trkpt>
   <trkpt lat="36.729084" lon="-4.86463"><ele>381.25</ele></trkpt>
   <trkpt lat="36.72925" lon="-4.864749"><ele>382</ele></trkpt>
   <trkpt lat="36.729278" lon="-4.864795"><ele>382.25</ele></trkpt>
   <trkpt lat="36.729283" lon="-4.864848"><ele>382.5</ele></trkpt>
   <trkpt lat="36.729272" lon="-4.864895"><ele>382.75</ele></trkpt>
   <trkpt lat="36.729314" lon="-4.865095"><ele>383.75</ele></trkpt>
   <trkpt lat="36.729447" lon="-4.865338"><ele>386.75</ele></trkpt>
   <trkpt lat="36.729497" lon="-4.865461"><ele>388.5</ele></trkpt>
   <trkpt lat="36.729529" lon="-4.865613"><ele>390.25</ele></trkpt>
   <trkpt lat="36.729572" lon="-4.865961"><ele>391.25</ele></trkpt>
   <trkpt lat="36.729633" lon="-4.866468"><ele>392.25</ele></trkpt>
   <trkpt lat="36.72964" lon="-4.866618"><ele>392.75</ele></trkpt>
   <trkpt lat="36.729629" lon="-4.866803"><ele>394.25</ele></trkpt>
   <trkpt lat="36.729571" lon="-4.866997"><ele>395.75</ele></trkpt>
   <trkpt lat="36.729514" lon="-4.867129"><ele>397.25</ele></trkpt>
   <trkpt lat="36.729461" lon="-4.86723"><ele>398.5</ele></trkpt>
   <trkpt lat="36.729181" lon="-4.867695"><ele>400.5</ele></trkpt>
   <trkpt lat="36.729133" lon="-4.867803"><ele>401</ele></trkpt>
   <trkpt lat="36.729112" lon="-4.867901"><ele>401.25</ele></trkpt>
   <trkpt lat="36.729111" lon="-4.867988"><ele>402</ele></trkpt>
   <trkpt lat="36.729128" lon="-4.868069"><ele>403</ele></trkpt>
   <trkpt lat="36.729158" lon="-4.868144"><ele>403</ele></trkpt>
   <trkpt lat="36.729198" lon="-4.868211"><ele>403.5</ele></trkpt>
   <trkpt lat="36.729269" lon="-4.868283"><ele>404</ele></trkpt>
   <trkpt lat="36.729879" lon="-4.868718"><ele>407.75</ele></trkpt>
   <trkpt lat="36.72996" lon="-4.868805"><ele>408.25</ele></trkpt>
   <trkpt lat="36.730017" lon="-4.868881"><ele>408.75</ele></trkpt>
   <trkpt lat="36.730058" lon="-4.868969"><ele>410.25</ele></trkpt>
   <trkpt lat="36.730087" lon="-4.869066"><ele>411.5</ele></trkpt>
   <trkpt lat="36.730098" lon="-4.869161"><ele>411.75</ele></trkpt>
   <trkpt lat="36.730096" lon="-4.869261"><ele>412.5</ele></trkpt>
   <trkpt lat="36.73008" lon="-4.869368"><ele>412.75</ele></trkpt>
   <trkpt lat="36.730017" lon="-4.869618"><ele>412.75</ele></trkpt>
   <trkpt lat="36.730012" lon="-4.869734"><ele>413.5</ele></trkpt>
   <trkpt lat="36.730032" lon="-4.86983"><ele>413.75</ele></trkpt>
   <trkpt lat="36.730068" lon="-4.869907"><ele>414.25</ele></trkpt>
   <trkpt lat="36.730122" lon="-4.86998"><ele>414.75</ele></trkpt>
   <trkpt lat="36.730519" lon="-4.870432"><ele>418.5</ele></trkpt>
   <trkpt lat="36.73057" lon="-4.870505"><ele>420.25</ele></trkpt>
   <trkpt lat="36.730609" lon="-4.870581"><ele>421.25</ele></trkpt>
   <trkpt lat="36.73064" lon="-4.870672"><ele>421.75</ele></trkpt>
   <trkpt lat="36.730686" lon="-4.870901"><ele>421</ele></trkpt>
   <trkpt lat="36.73072" lon="-4.871"><ele>421.25</ele></trkpt>
   <trkpt lat="36.730756" lon="-4.871072"><ele>421.75</ele></trkpt>
   <trkpt lat="36.730801" lon="-4.871125"><ele>422</ele></trkpt>
   <trkpt lat="36.730853" lon="-4.871172"><ele>422.25</ele></trkpt>
   <trkpt lat="36.730917" lon="-4.871214"><ele>423.25</ele></trkpt>
   <trkpt lat="36.731182" lon="-4.871353"><ele>427.75</ele></trkpt>
   <trkpt lat="36.731259" lon="-4.871417"><ele>428.75</ele></trkpt>
   <trkpt lat="36.731323" lon="-4.871494"><ele>429.25</ele></trkpt>
   <trkpt lat="36.731377" lon="-4.87158"><ele>429.75</ele></trkpt>
   <trkpt lat="36.731427" lon="-4.871687"><ele>429.75</ele></trkpt>
   <trkpt lat="36.731742" lon="-4.872485"><ele>433</ele></trkpt>
   <trkpt lat="36.731805" lon="-4.872602"><ele>433.75</ele></trkpt>
   <trkpt lat="36.731864" lon="-4.872681"><ele>434.5</ele></trkpt>
   <trkpt lat="36.731936" lon="-4.872743"><ele>436.25</ele></trkpt>
   <trkpt lat="36.732013" lon="-4.872789"><ele>436.25</ele></trkpt>
   <trkpt lat="36.732096" lon="-4.872821"><ele>436.25</ele></trkpt>
   <trkpt lat="36.732221" lon="-4.872844"><ele>436.75</ele></trkpt>
   <trkpt lat="36.732343" lon="-4.872844"><ele>438.25</ele></trkpt>
   <trkpt lat="36.732775" lon="-4.872813"><ele>442.75</ele></trkpt>
   <trkpt lat="36.73287" lon="-4.872819"><ele>444.25</ele></trkpt>
   <trkpt lat="36.732961" lon="-4.872851"><ele>444.75</ele></trkpt>
   <trkpt lat="36.733038" lon="-4.872897"><ele>444.75</ele></trkpt>
   <trkpt lat="36.734019" lon="-4.87363"><ele>452.75</ele></trkpt>
   <trkpt lat="36.734106" lon="-4.87371"><ele>453.25</ele></trkpt>
   <trkpt lat="36.734164" lon="-4.873782"><ele>453.75</ele></trkpt>
   <trkpt lat="36.734214" lon="-4.873876"><ele>454.25</ele></trkpt>
   <trkpt lat="36.734261" lon="-4.874012"><ele>455.25</ele></trkpt>
   <trkpt lat="36.734317" lon="-4.874263"><ele>456.75</ele></trkpt>
   <trkpt lat="36.734356" lon="-4.874354"><ele>457</ele></trkpt>
   <trkpt lat="36.734402" lon="-4.874423"><ele>456.75</ele></trkpt>
   <trkpt lat="36.734461" lon="-4.874478"><ele>455.75</ele></trkpt>
   <trkpt lat="36.734534" lon="-4.874515"><ele>455.75</ele></trkpt>
   <trkpt lat="36.734613" lon="-4.874535"><ele>456.5</ele></trkpt>
   <trkpt lat="36.734695" lon="-4.87454"><ele>458</ele></trkpt>
   <trkpt lat="36.734788" lon="-4.874528"><ele>458.5</ele></trkpt>
   <trkpt lat="36.734912" lon="-4.874494"><ele>459.5</ele></trkpt>
   <trkpt lat="36.735463" lon="-4.87427"><ele>464.25</ele></trkpt>
   <trkpt lat="36.73561" lon="-4.874226"><ele>464.5</ele></trkpt>
   <trkpt lat="36.735765" lon="-4.874205"><ele>465.25</ele></trkpt>
   <trkpt lat="36.736118" lon="-4.874207"><ele>467</ele></trkpt>
   <trkpt lat="36.736273" lon="-4.874192"><ele>469</ele></trkpt>
   <trkpt lat="36.736504" lon="-4.874151"><ele>471.75</ele></trkpt>
   <trkpt lat="36.736598" lon="-4.874116"><ele>473</ele></trkpt>
   <trkpt lat="36.736694" lon="-4.874062"><ele>474.5</ele></trkpt>
   <trkpt lat="36.736887" lon="-4.873894"><ele>477</ele></trkpt>
   <trkpt lat="36.73697" lon="-4.873855"><ele>477.75</ele></trkpt>
   <trkpt lat="36.73707" lon="-4.873857"><ele>478.5</ele></trkpt>
   <trkpt lat="36.737142" lon="-4.873885"><ele>477.5</ele></trkpt>
   <trkpt lat="36.737202" lon="-4.873934"><ele>477.75</ele></trkpt>
   <trkpt lat="36.737255" lon="-4.874004"><ele>478.5</ele></trkpt>
   <trkpt lat="36.737283" lon="-4.874077"><ele>479</ele></trkpt>
   <trkpt lat="36.737294" lon="-4.874155"><ele>479</ele></trkpt>
   <trkpt lat="36.737293" lon="-4.874237"><ele>480.5</ele></trkpt>
   <trkpt lat="36.737272" lon="-4.874326"><ele>481.75</ele></trkpt>
   <trkpt lat="36.737229" lon="-4.874408"><ele>481.75</ele></trkpt>
   <trkpt lat="36.737113" lon="-4.874568"><ele>484.5</ele></trkpt>
   <trkpt lat="36.736728" lon="-4.875026"><ele>485.5</ele></trkpt>
   <trkpt lat="36.73652" lon="-4.875259"><ele>486.75</ele></trkpt>
   <trkpt lat="36.735912" lon="-4.875885"><ele>485.75</ele></trkpt>
   <trkpt lat="36.735864" lon="-4.875956"><ele>485.5</ele></trkpt>
   <trkpt lat="36.735827" lon="-4.876043"><ele>485.25</ele></trkpt>
   <trkpt lat="36.735802" lon="-4.876168"><ele>485.25</ele></trkpt>
   <trkpt lat="36.735796" lon="-4.876533"><ele>486.25</ele></trkpt>
   <trkpt lat="36.735808" lon="-4.876659"><ele>487</ele></trkpt>
   <trkpt lat="36.735843" lon="-4.876766"><ele>488.25</ele></trkpt>
   <trkpt lat="36.7359" lon="-4.876855"><ele>489.25</ele></trkpt>
   <trkpt lat="36.735963" lon="-4.876913"><ele>489.75</ele></trkpt>
   <trkpt lat="36.736035" lon="-4.87695"><ele>489.75</ele></trkpt>
   <trkpt lat="36.736113" lon="-4.876969"><ele>489.5</ele></trkpt>
   <trkpt lat="36.736492" lon="-4.877004"><ele>491.75</ele></trkpt>
   <trkpt lat="36.736587" lon="-4.877"><ele>492.75</ele></trkpt>
   <trkpt lat="36.736693" lon="-4.876953"><ele>494.25</ele></trkpt>
   <trkpt lat="36.736901" lon="-4.876815"><ele>496.5</ele></trkpt>
   <trkpt lat="36.736998" lon="-4.876776"><ele>497</ele></trkpt>
   <trkpt lat="36.737088" lon="-4.876765"><ele>497.75</ele></trkpt>
   <trkpt lat="36.737198" lon="-4.876771"><ele>498.25</ele></trkpt>
   <trkpt lat="36.737291" lon="-4.876803"><ele>499.25</ele></trkpt>
   <trkpt lat="36.737378" lon="-4.876856"><ele>499.75</ele></trkpt>
   <trkpt lat="36.737458" lon="-4.876926"><ele>499.5</ele></trkpt>
   <trkpt lat="36.737517" lon="-4.876998"><ele>499.5</ele></trkpt>
   <trkpt lat="36.73757" lon="-4.877094"><ele>499.75</ele></trkpt>
   <trkpt lat="36.737623" lon="-4.877218"><ele>500.25</ele></trkpt>
   <trkpt lat="36.737708" lon="-4.877489"><ele>501.25</ele></trkpt>
   <trkpt lat="36.737759" lon="-4.877616"><ele>502.5</ele></trkpt>
   <trkpt lat="36.737817" lon="-4.877707"><ele>504</ele></trkpt>
   <trkpt lat="36.73788" lon="-4.877766"><ele>504.25</ele></trkpt>
   <trkpt lat="36.737958" lon="-4.87781"><ele>503.75</ele></trkpt>
   <trkpt lat="36.738042" lon="-4.877832"><ele>504</ele></trkpt>
   <trkpt lat="36.738154" lon="-4.877837"><ele>505.25</ele></trkpt>
   <trkpt lat="36.739038" lon="-4.877754"><ele>514.75</ele></trkpt>
   <trkpt lat="36.739248" lon="-4.877759"><ele>515.25</ele></trkpt>
   <trkpt lat="36.739345" lon="-4.877793"><ele>515</ele></trkpt>
   <trkpt lat="36.739432" lon="-4.877854"><ele>515.25</ele></trkpt>
   <trkpt lat="36.739502" lon="-4.877941"><ele>513.75</ele></trkpt>
   <trkpt lat="36.739551" lon="-4.878046"><ele>512.5</ele></trkpt>
   <trkpt lat="36.739578" lon="-4.878165"><ele>512.75</ele></trkpt>
   <trkpt lat="36.739581" lon="-4.878292"><ele>513.5</ele></trkpt>
   <trkpt lat="36.739571" lon="-4.878346"><ele>514.25</ele></trkpt>
   <trkpt lat="36.739557" lon="-4.878419"><ele>515.5</ele></trkpt>
   <trkpt lat="36.739508" lon="-4.878538"><ele>516.75</ele></trkpt>
   <trkpt lat="36.739442" lon="-4.878646"><ele>517</ele></trkpt>
   <trkpt lat="36.739362" lon="-4.878736"><ele>519.5</ele></trkpt>
   <trkpt lat="36.739152" lon="-4.878853"><ele>519.25</ele></trkpt>
   <trkpt lat="36.738692" lon="-4.878979"><ele>523.75</ele></trkpt>
   <trkpt lat="36.738593" lon="-4.879045"><ele>525</ele></trkpt>
   <trkpt lat="36.738513" lon="-4.879135"><ele>525.5</ele></trkpt>
   <trkpt lat="36.738456" lon="-4.879246"><ele>526.75</ele></trkpt>
   <trkpt lat="36.738425" lon="-4.87937"><ele>528.25</ele></trkpt>
   <trkpt lat="36.738424" lon="-4.879499"><ele>529.5</ele></trkpt>
   <trkpt lat="36.73845" lon="-4.879624"><ele>529.5</ele></trkpt>
   <trkpt lat="36.738498" lon="-4.879739"><ele>529.75</ele></trkpt>
   <trkpt lat="36.738562" lon="-4.879842"><ele>529</ele></trkpt>
   <trkpt lat="36.73885" lon="-4.880203"><ele>531</ele></trkpt>
   <trkpt lat="36.738903" lon="-4.880302"><ele>533</ele></trkpt>
   <trkpt lat="36.738954" lon="-4.880489"><ele>536</ele></trkpt>
   <trkpt lat="36.738955" lon="-4.880657"><ele>539.25</ele></trkpt>
   <trkpt lat="36.738919" lon="-4.880826"><ele>540.5</ele></trkpt>
   <trkpt lat="36.738846" lon="-4.88097"><ele>542</ele></trkpt>
   <trkpt lat="36.73873" lon="-4.881089"><ele>542.75</ele></trkpt>
   <trkpt lat="36.738567" lon="-4.881161"><ele>541</ele></trkpt>
   <trkpt lat="36.738472" lon="-4.881166"><ele>541</ele></trkpt>
   <trkpt lat="36.738277" lon="-4.881119"><ele>543.75</ele></trkpt>
   <trkpt lat="36.737991" lon="-4.88096"><ele>548.25</ele></trkpt>
   <trkpt lat="36.737506" lon="-4.880612"><ele>553.25</ele></trkpt>
   <trkpt lat="36.737418" lon="-4.880601"><ele>552.75</ele></trkpt>
   <trkpt lat="36.737331" lon="-4.880626"><ele>553.25</ele></trkpt>
   <trkpt lat="36.73725" lon="-4.880685"><ele>553.75</ele></trkpt>
   <trkpt lat="36.737181" lon="-4.88077"><ele>552.5</ele></trkpt>
   <trkpt lat="36.736955" lon="-4.88114"><ele>556.25</ele></trkpt>
   <trkpt lat="36.736785" lon="-4.881321"><ele>556.75</ele></trkpt>
   <trkpt lat="36.736655" lon="-4.881349"><ele>554</ele></trkpt>
   <trkpt lat="36.736539" lon="-4.881282"><ele>554.75</ele></trkpt>
   <trkpt lat="36.736416" lon="-4.881198"><ele>555.75</ele></trkpt>
   <trkpt lat="36.736298" lon="-4.880956"><ele>560</ele></trkpt>
   <trkpt lat="36.736213" lon="-4.880622"><ele>558.5</ele></trkpt>
   <trkpt lat="36.736173" lon="-4.880498"><ele>557.25</ele></trkpt>
   <trkpt lat="36.736118" lon="-4.880394"><ele>557.75</ele></trkpt>
   <trkpt lat="36.736047" lon="-4.880323"><ele>557</ele></trkpt>
   <trkpt lat="36.735957" lon="-4.880302"><ele>557</ele></trkpt>
   <trkpt lat="36.735872" lon="-4.880314"><ele>557.5</ele></trkpt>
   <trkpt lat="36.735793" lon="-4.880365"><ele>557.5</ele></trkpt>
   <trkpt lat="36.735726" lon="-4.880449"><ele>557</ele></trkpt>
   <trkpt lat="36.73567" lon="-4.880553"><ele>558</ele></trkpt>
   <trkpt lat="36.735356" lon="-4.881313"><ele>562.25</ele></trkpt>
   <trkpt lat="36.735309" lon="-4.881458"><ele>563.25</ele></trkpt>
   <trkpt lat="36.735245" lon="-4.881758"><ele>563</ele></trkpt>
   <trkpt lat="36.735201" lon="-4.882329"><ele>568</ele></trkpt>
   <trkpt lat="36.735172" lon="-4.882462"><ele>569.5</ele></trkpt>
   <trkpt lat="36.735025" lon="-4.88273"><ele>572.25</ele></trkpt>
   <trkpt lat="36.734951" lon="-4.882828"><ele>573.5</ele></trkpt>
   <trkpt lat="36.734871" lon="-4.882884"><ele>574.5</ele></trkpt>
   <trkpt lat="36.734786" lon="-4.882906"><ele>574.25</ele></trkpt>
   <trkpt lat="36.734684" lon="-4.882896"><ele>574.5</ele></trkpt>
   <trkpt lat="36.734586" lon="-4.882848"><ele>575.75</ele></trkpt>
   <trkpt lat="36.734314" lon="-4.882573"><ele>576.25</ele></trkpt>
   <trkpt lat="36.734195" lon="-4.882498"><ele>576.25</ele></trkpt>
   <trkpt lat="36.734086" lon="-4.882466"><ele>575.5</ele></trkpt>
   <trkpt lat="36.734003" lon="-4.882465"><ele>575.5</ele></trkpt>
   <trkpt lat="36.733932" lon="-4.88248"><ele>576</ele></trkpt>
   <trkpt lat="36.733873" lon="-4.882508"><ele>577.5</ele></trkpt>
   <trkpt lat="36.733796" lon="-4.882566"><ele>580.5</ele></trkpt>
   <trkpt lat="36.733717" lon="-4.882683"><ele>582.5</ele></trkpt>
   <trkpt lat="36.733688" lon="-4.882774"><ele>582.5</ele></trkpt>
   <trkpt lat="36.733669" lon="-4.882865"><ele>581</ele></trkpt>
   <trkpt lat="36.733678" lon="-4.883031"><ele>580</ele></trkpt>
   <trkpt lat="36.733704" lon="-4.883135"><ele>578.25</ele></trkpt>
   <trkpt lat="36.733937" lon="-4.883729"><ele>573.25</ele></trkpt>
   <trkpt lat="36.734029" lon="-4.883982"><ele>571</ele></trkpt>
   <trkpt lat="36.734154" lon="-4.88451"><ele>566.75</ele></trkpt>
   <trkpt lat="36.734197" lon="-4.88463"><ele>567.5</ele></trkpt>
   <trkpt lat="36.734263" lon="-4.884719"><ele>567.75</ele></trkpt>
   <trkpt lat="36.734411" lon="-4.884869"><ele>565.25</ele></trkpt>
   <trkpt lat="36.734466" lon="-4.88495"><ele>564.5</ele></trkpt>
   <trkpt lat="36.734499" lon="-4.885069"><ele>564.25</ele></trkpt>
   <trkpt lat="36.734507" lon="-4.885206"><ele>564</ele></trkpt>
   <trkpt lat="36.73453" lon="-4.885422"><ele>563.5</ele></trkpt>
   <trkpt lat="36.734575" lon="-4.885556"><ele>562.25</ele></trkpt>
   <trkpt lat="36.734625" lon="-4.88564"><ele>561.5</ele></trkpt>
   <trkpt lat="36.734696" lon="-4.885709"><ele>560.5</ele></trkpt>
   <trkpt lat="36.734955" lon="-4.885894"><ele>558.25</ele></trkpt>
   <trkpt lat="36.735023" lon="-4.885968"><ele>557.25</ele></trkpt>
   <trkpt lat="36.735075" lon="-4.886072"><ele>556.75</ele></trkpt>
   <trkpt lat="36.735092" lon="-4.886151"><ele>558</ele></trkpt>
   <trkpt lat="36.735092" lon="-4.886254"><ele>560</ele></trkpt>
   <trkpt lat="36.734987" lon="-4.886705"><ele>558.25</ele></trkpt>
   <trkpt lat="36.734986" lon="-4.88686"><ele>557.5</ele></trkpt>
   <trkpt lat="36.735014" lon="-4.887029"><ele>557.75</ele></trkpt>
   <trkpt lat="36.735327" lon="-4.888076"><ele>554.25</ele></trkpt>
   <trkpt lat="36.735354" lon="-4.888229"><ele>554.5</ele></trkpt>
   <trkpt lat="36.735377" lon="-4.888558"><ele>554.25</ele></trkpt>
   <trkpt lat="36.735415" lon="-4.888817"><ele>553.25</ele></trkpt>
   <trkpt lat="36.735449" lon="-4.88896"><ele>551.75</ele></trkpt>
   <trkpt lat="36.735494" lon="-4.889088"><ele>550.25</ele></trkpt>
   <trkpt lat="36.735547" lon="-4.889207"><ele>549.5</ele></trkpt>
   <trkpt lat="36.735628" lon="-4.889375"><ele>551</ele></trkpt>
   <trkpt lat="36.735677" lon="-4.889518"><ele>549.75</ele></trkpt>
   <trkpt lat="36.73569" lon="-4.889599"><ele>547.5</ele></trkpt>
   <trkpt lat="36.735687" lon="-4.889657"><ele>545.5</ele></trkpt>
   <trkpt lat="36.735673" lon="-4.889702"><ele>543.25</ele></trkpt>
   <trkpt lat="36.735459" lon="-4.890187"><ele>547.25</ele></trkpt>
   <trkpt lat="36.735426" lon="-4.890238"><ele>550.75</ele></trkpt>
   <trkpt lat="36.735381" lon="-4.890278"><ele>552.5</ele></trkpt>
   <trkpt lat="36.735091" lon="-4.890445"><ele>554.5</ele></trkpt>
   <trkpt lat="36.735002" lon="-4.890515"><ele>553</ele></trkpt>
   <trkpt lat="36.734938" lon="-4.890589"><ele>552.5</ele></trkpt>
   <trkpt lat="36.734877" lon="-4.890691"><ele>553</ele></trkpt>
   <trkpt lat="36.734826" lon="-4.890826"><ele>555</ele></trkpt>
   <trkpt lat="36.734599" lon="-4.891553"><ele>558.25</ele></trkpt>
   <trkpt lat="36.734549" lon="-4.891772"><ele>561.25</ele></trkpt>
   <trkpt lat="36.734507" lon="-4.891996"><ele>564.75</ele></trkpt>
   <trkpt lat="36.734453" lon="-4.892367"><ele>565.25</ele></trkpt>
   <trkpt lat="36.73445" lon="-4.892573"><ele>566</ele></trkpt>
   <trkpt lat="36.734462" lon="-4.892726"><ele>565.75</ele></trkpt>
   <trkpt lat="36.734501" lon="-4.892881"><ele>566.25</ele></trkpt>
   <trkpt lat="36.734585" lon="-4.893129"><ele>564.25</ele></trkpt>
   <trkpt lat="36.735554" lon="-4.895142"><ele>564.25</ele></trkpt>
   <trkpt lat="36.735636" lon="-4.895292"><ele>565</ele></trkpt>
   <trkpt lat="36.735727" lon="-4.895458"><ele>564.25</ele></trkpt>
   <trkpt lat="36.7361" lon="-4.895976"><ele>565.5</ele></trkpt>
   <trkpt lat="36.736195" lon="-4.896129"><ele>565.75</ele></trkpt>
   <trkpt lat="36.736233" lon="-4.896268"><ele>565.25</ele></trkpt>
   <trkpt lat="36.736241" lon="-4.896299"><ele>565</ele></trkpt>
   <trkpt lat="36.736238" lon="-4.89639"><ele>563.75</ele></trkpt>
   <trkpt lat="36.736213" lon="-4.896475"><ele>565.25</ele></trkpt>
   <trkpt lat="36.736167" lon="-4.896556"><ele>566.25</ele></trkpt>
   <trkpt lat="36.736101" lon="-4.896621"><ele>567</ele></trkpt>
   <trkpt lat="36.73602" lon="-4.896664"><ele>567.25</ele></trkpt>
   <trkpt lat="36.735744" lon="-4.89675"><ele>568.25</ele></trkpt>
   <trkpt lat="36.735658" lon="-4.896798"><ele>569</ele></trkpt>
   <trkpt lat="36.735584" lon="-4.896868"><ele>570</ele></trkpt>
   <trkpt lat="36.735525" lon="-4.896959"><ele>570.75</ele></trkpt>
   <trkpt lat="36.735484" lon="-4.897064"><ele>572</ele></trkpt>
   <trkpt lat="36.73546" lon="-4.897175"><ele>573.75</ele></trkpt>
   <trkpt lat="36.735454" lon="-4.897288"><ele>574.5</ele></trkpt>
   <trkpt lat="36.73549" lon="-4.89752"><ele>574.75</ele></trkpt>
   <trkpt lat="36.735744" lon="-4.898423"><ele>579.75</ele></trkpt>
   <trkpt lat="36.735809" lon="-4.898654"><ele>581</ele></trkpt>
   <trkpt lat="36.735858" lon="-4.898891"><ele>584</ele></trkpt>
   <trkpt lat="36.735871" lon="-4.899133"><ele>584.25</ele></trkpt>
   <trkpt lat="36.73586" lon="-4.899254"><ele>585</ele></trkpt>
   <trkpt lat="36.735834" lon="-4.899372"><ele>586.5</ele></trkpt>
   <trkpt lat="36.735746" lon="-4.899594"><ele>587</ele></trkpt>
   <trkpt lat="36.735683" lon="-4.899696"><ele>588.75</ele></trkpt>
   <trkpt lat="36.735658" lon="-4.899724"><ele>589.5</ele></trkpt>
   <trkpt lat="36.735523" lon="-4.899875"><ele>594.25</ele></trkpt>
   <trkpt lat="36.735229" lon="-4.90007"><ele>595.5</ele></trkpt>
   <trkpt lat="36.735023" lon="-4.900143"><ele>597</ele></trkpt>
   <trkpt lat="36.734705" lon="-4.900141"><ele>598.75</ele></trkpt>
   <trkpt lat="36.734602" lon="-4.900154"><ele>598.5</ele></trkpt>
   <trkpt lat="36.734517" lon="-4.900198"><ele>599</ele></trkpt>
   <trkpt lat="36.734438" lon="-4.900262"><ele>599.5</ele></trkpt>
   <trkpt lat="36.734301" lon="-4.900439"><ele>600</ele></trkpt>
   <trkpt lat="36.734268" lon="-4.9005"><ele>600.75</ele></trkpt>
   <trkpt lat="36.734246" lon="-4.900541"><ele>601.25</ele></trkpt>
   <trkpt lat="36.734209" lon="-4.900651"><ele>601</ele></trkpt>
   <trkpt lat="36.734194" lon="-4.900768"><ele>600.5</ele></trkpt>
   <trkpt lat="36.734204" lon="-4.900889"><ele>600.5</ele></trkpt>
   <trkpt lat="36.734346" lon="-4.901375"><ele>599.25</ele></trkpt>
   <trkpt lat="36.734368" lon="-4.901501"><ele>600.25</ele></trkpt>
   <trkpt lat="36.734371" lon="-4.901632"><ele>600.5</ele></trkpt>
   <trkpt lat="36.734359" lon="-4.901763"><ele>600.75</ele></trkpt>
   <trkpt lat="36.734259" lon="-4.902412"><ele>603.5</ele></trkpt>
   <trkpt lat="36.734261" lon="-4.902527"><ele>603.75</ele></trkpt>
   <trkpt lat="36.73428" lon="-4.902633"><ele>602.75</ele></trkpt>
   <trkpt lat="36.73432" lon="-4.902727"><ele>601.5</ele></trkpt>
   <trkpt lat="36.734379" lon="-4.902806"><ele>600.25</ele></trkpt>
   <trkpt lat="36.734452" lon="-4.902865"><ele>598.75</ele></trkpt>
   <trkpt lat="36.734629" lon="-4.902929"><ele>598</ele></trkpt>
   <trkpt lat="36.734952" lon="-4.902934"><ele>600</ele></trkpt>
   <trkpt lat="36.735281" lon="-4.902851"><ele>599.75</ele></trkpt>
   <trkpt lat="36.735466" lon="-4.902845"><ele>602.25</ele></trkpt>
   <trkpt lat="36.735541" lon="-4.90288"><ele>602</ele></trkpt>
   <trkpt lat="36.735598" lon="-4.902942"><ele>603.25</ele></trkpt>
   <trkpt lat="36.735638" lon="-4.903021"><ele>603.25</ele></trkpt>
   <trkpt lat="36.73566" lon="-4.903114"><ele>602.5</ele></trkpt>
   <trkpt lat="36.735662" lon="-4.903212"><ele>600.75</ele></trkpt>
   <trkpt lat="36.735641" lon="-4.903308"><ele>598.5</ele></trkpt>
   <trkpt lat="36.735598" lon="-4.903401"><ele>597.25</ele></trkpt>
   <trkpt lat="36.735533" lon="-4.903475"><ele>597.25</ele></trkpt>
   <trkpt lat="36.735453" lon="-4.903529"><ele>598</ele></trkpt>
   <trkpt lat="36.734832" lon="-4.903786"><ele>604.75</ele></trkpt>
   <trkpt lat="36.734655" lon="-4.903916"><ele>604.75</ele></trkpt>
   <trkpt lat="36.73435" lon="-4.904295"><ele>607.25</ele></trkpt>
   <trkpt lat="36.733876" lon="-4.904735"><ele>610.25</ele></trkpt>
   <trkpt lat="36.733767" lon="-4.904836"><ele>612.75</ele></trkpt>
   <trkpt lat="36.73367" lon="-4.905009"><ele>613.25</ele></trkpt>
   <trkpt lat="36.733644" lon="-4.905112"><ele>612</ele></trkpt>
   <trkpt lat="36.733634" lon="-4.905268"><ele>610.75</ele></trkpt>
   <trkpt lat="36.733638" lon="-4.905586"><ele>610</ele></trkpt>
   <trkpt lat="36.733605" lon="-4.905825"><ele>608.75</ele></trkpt>
   <trkpt lat="36.733526" lon="-4.906049"><ele>607.75</ele></trkpt>
   <trkpt lat="36.733387" lon="-4.906346"><ele>607.5</ele></trkpt>
   <trkpt lat="36.733365" lon="-4.906449"><ele>607.25</ele></trkpt>
   <trkpt lat="36.733363" lon="-4.906552"><ele>606.5</ele></trkpt>
   <trkpt lat="36.733381" lon="-4.906652"><ele>606.25</ele></trkpt>
   <trkpt lat="36.733418" lon="-4.906745"><ele>605.5</ele></trkpt>
   <trkpt lat="36.733473" lon="-4.906827"><ele>605.25</ele></trkpt>
   <trkpt lat="36.733541" lon="-4.90689"><ele>605.5</ele></trkpt>
   <trkpt lat="36.73377" lon="-4.90702"><ele>606.5</ele></trkpt>
   <trkpt lat="36.733878" lon="-4.907146"><ele>606.5</ele></trkpt>
   <trkpt lat="36.733906" lon="-4.907231"><ele>606</ele></trkpt>
   <trkpt lat="36.733915" lon="-4.907331"><ele>606.75</ele></trkpt>
   <trkpt lat="36.733906" lon="-4.907441"><ele>607.25</ele></trkpt>
   <trkpt lat="36.733867" lon="-4.907538"><ele>609.75</ele></trkpt>
   <trkpt lat="36.73379" lon="-4.907597"><ele>613.25</ele></trkpt>
   <trkpt lat="36.733583" lon="-4.907642"><ele>613.25</ele></trkpt>
   <trkpt lat="36.73324" lon="-4.907665"><ele>613</ele></trkpt>
   <trkpt lat="36.732898" lon="-4.907648"><ele>617.25</ele></trkpt>
   <trkpt lat="36.732794" lon="-4.907614"><ele>618</ele></trkpt>
   <trkpt lat="36.732703" lon="-4.90755"><ele>617.75</ele></trkpt>
   <trkpt lat="36.732557" lon="-4.907379"><ele>617.25</ele></trkpt>
   <trkpt lat="36.732414" lon="-4.907261"><ele>617.25</ele></trkpt>
   <trkpt lat="36.732337" lon="-4.907239"><ele>617.25</ele></trkpt>
   <trkpt lat="36.73226" lon="-4.907246"><ele>618</ele></trkpt>
   <trkpt lat="36.73219" lon="-4.907285"><ele>617.75</ele></trkpt>
   <trkpt lat="36.732133" lon="-4.907354"><ele>617</ele></trkpt>
   <trkpt lat="36.732092" lon="-4.907448"><ele>617</ele></trkpt>
   <trkpt lat="36.732068" lon="-4.907557"><ele>617.5</ele></trkpt>
   <trkpt lat="36.732024" lon="-4.907905"><ele>618.75</ele></trkpt>
   <trkpt lat="36.731996" lon="-4.908019"><ele>619.25</ele></trkpt>
   <trkpt lat="36.73195" lon="-4.908123"><ele>619.25</ele></trkpt>
   <trkpt lat="36.731885" lon="-4.908214"><ele>620</ele></trkpt>
   <trkpt lat="36.731716" lon="-4.908336"><ele>621.25</ele></trkpt>
   <trkpt lat="36.731615" lon="-4.908359"><ele>621.75</ele></trkpt>
   <trkpt lat="36.731319" lon="-4.908327"><ele>622.5</ele></trkpt>
   <trkpt lat="36.731153" lon="-4.908358"><ele>624.75</ele></trkpt>
   <trkpt lat="36.73109" lon="-4.90841"><ele>625.25</ele></trkpt>
   <trkpt lat="36.731046" lon="-4.908484"><ele>625</ele></trkpt>
   <trkpt lat="36.73104" lon="-4.908509"><ele>625</ele></trkpt>
   <trkpt lat="36.731032" lon="-4.908539"><ele>624.75</ele></trkpt>
   <trkpt lat="36.731024" lon="-4.908571"><ele>624.75</ele></trkpt>
   <trkpt lat="36.731023" lon="-4.908662"><ele>625</ele></trkpt>
   <trkpt lat="36.731045" lon="-4.90875"><ele>626</ele></trkpt>
   <trkpt lat="36.731086" lon="-4.908827"><ele>627.5</ele></trkpt>
   <trkpt lat="36.731216" lon="-4.908909"><ele>630</ele></trkpt>
   <trkpt lat="36.731362" lon="-4.908912"><ele>632</ele></trkpt>
   <trkpt lat="36.731909" lon="-4.9088"><ele>635.25</ele></trkpt>
   <trkpt lat="36.732033" lon="-4.90876"><ele>636.75</ele></trkpt>
   <trkpt lat="36.732112" lon="-4.908723"><ele>637.75</ele></trkpt>
   <trkpt lat="36.732179" lon="-4.90867"><ele>638</ele></trkpt>
   <trkpt lat="36.732433" lon="-4.908371"><ele>638.75</ele></trkpt>
   <trkpt lat="36.732512" lon="-4.908312"><ele>639.5</ele></trkpt>
   <trkpt lat="36.73259" lon="-4.908286"><ele>640</ele></trkpt>
   <trkpt lat="36.732682" lon="-4.908272"><ele>640.5</ele></trkpt>
   <trkpt lat="36.73289" lon="-4.90828"><ele>642.25</ele></trkpt>
   <trkpt lat="36.732994" lon="-4.908292"><ele>643</ele></trkpt>
   <trkpt lat="36.733098" lon="-4.908327"><ele>644.5</ele></trkpt>
   <trkpt lat="36.733822" lon="-4.908612"><ele>650.75</ele></trkpt>
   <trkpt lat="36.733907" lon="-4.908659"><ele>651.5</ele></trkpt>
   <trkpt lat="36.73397" lon="-4.908731"><ele>652</ele></trkpt>
   <trkpt lat="36.734021" lon="-4.908821"><ele>652.5</ele></trkpt>
   <trkpt lat="36.734053" lon="-4.908904"><ele>653.25</ele></trkpt>
   <trkpt lat="36.734069" lon="-4.909002"><ele>653.5</ele></trkpt>
   <trkpt lat="36.734067" lon="-4.909098"><ele>654.25</ele></trkpt>
   <trkpt lat="36.734044" lon="-4.909213"><ele>654.75</ele></trkpt>
   <trkpt lat="36.733865" lon="-4.909873"><ele>657</ele></trkpt>
   <trkpt lat="36.733827" lon="-4.909997"><ele>658</ele></trkpt>
   <trkpt lat="36.733757" lon="-4.910189"><ele>658.75</ele></trkpt>
   <trkpt lat="36.733197" lon="-4.911427"><ele>658.5</ele></trkpt>
   <trkpt lat="36.73309" lon="-4.911686"><ele>659.25</ele></trkpt>
   <trkpt lat="36.733022" lon="-4.911904"><ele>660.5</ele></trkpt>
   <trkpt lat="36.732972" lon="-4.912136"><ele>662</ele></trkpt>
   <trkpt lat="36.732917" lon="-4.912486"><ele>663.75</ele></trkpt>
   <trkpt lat="36.732895" lon="-4.912639"><ele>665</ele></trkpt>
   <trkpt lat="36.73284" lon="-4.912943"><ele>667.25</ele></trkpt>
   <trkpt lat="36.732787" lon="-4.91312"><ele>668</ele></trkpt>
   <trkpt lat="36.732715" lon="-4.913293"><ele>668.5</ele></trkpt>
   <trkpt lat="36.732633" lon="-4.91345"><ele>669.5</ele></trkpt>
   <trkpt lat="36.73213" lon="-4.91431"><ele>675</ele></trkpt>
   <trkpt lat="36.732057" lon="-4.914446"><ele>676.25</ele></trkpt>
   <trkpt lat="36.732003" lon="-4.914569"><ele>677.5</ele></trkpt>
   <trkpt lat="36.731991" lon="-4.914664"><ele>678.5</ele></trkpt>
   <trkpt lat="36.731987" lon="-4.914763"><ele>679.25</ele></trkpt>
   <trkpt lat="36.732" lon="-4.914866"><ele>680</ele></trkpt>
   <trkpt lat="36.732033" lon="-4.914936"><ele>680.5</ele></trkpt>
   <trkpt lat="36.732071" lon="-4.914983"><ele>680.75</ele></trkpt>
   <trkpt lat="36.732123" lon="-4.915021"><ele>681</ele></trkpt>
   <trkpt lat="36.732181" lon="-4.915065"><ele>681</ele></trkpt>
   <trkpt lat="36.732259" lon="-4.915085"><ele>681.25</ele></trkpt>
   <trkpt lat="36.73283" lon="-4.91516"><ele>685.5</ele></trkpt>
   <trkpt lat="36.732939" lon="-4.915183"><ele>686</ele></trkpt>
   <trkpt lat="36.733012" lon="-4.915213"><ele>686.25</ele></trkpt>
   <trkpt lat="36.733084" lon="-4.915257"><ele>687</ele></trkpt>
   <trkpt lat="36.733185" lon="-4.915342"><ele>687.75</ele></trkpt>
   <trkpt lat="36.73358" lon="-4.915761"><ele>693</ele></trkpt>
   <trkpt lat="36.733678" lon="-4.915842"><ele>693.75</ele></trkpt>
   <trkpt lat="36.733754" lon="-4.915883"><ele>694.75</ele></trkpt>
   <trkpt lat="36.733769" lon="-4.91589"><ele>694.75</ele></trkpt>
   <trkpt lat="36.733875" lon="-4.915924"><ele>696</ele></trkpt>
   <trkpt lat="36.73448" lon="-4.916057"><ele>696.5</ele></trkpt>
   <trkpt lat="36.734555" lon="-4.916085"><ele>696</ele></trkpt>
   <trkpt lat="36.734626" lon="-4.916125"><ele>695.75</ele></trkpt>
   <trkpt lat="36.734701" lon="-4.916215"><ele>695.75</ele></trkpt>
   <trkpt lat="36.734929" lon="-4.916758"><ele>696</ele></trkpt>
   <trkpt lat="36.734998" lon="-4.916885"><ele>696.75</ele></trkpt>
   <trkpt lat="36.735085" lon="-4.916985"><ele>697</ele></trkpt>
   <trkpt lat="36.735315" lon="-4.917204"><ele>697.75</ele></trkpt>
   <trkpt lat="36.735413" lon="-4.917314"><ele>698</ele></trkpt>
   <trkpt lat="36.735514" lon="-4.91744"><ele>698.5</ele></trkpt>
   <trkpt lat="36.735768" lon="-4.917801"><ele>700.75</ele></trkpt>
   <trkpt lat="36.735843" lon="-4.917888"><ele>701</ele></trkpt>
   <trkpt lat="36.735898" lon="-4.917976"><ele>701.25</ele></trkpt>
   <trkpt lat="36.735908" lon="-4.918014"><ele>701.25</ele></trkpt>
   <trkpt lat="36.735919" lon="-4.918094"><ele>701.25</ele></trkpt>
   <trkpt lat="36.735926" lon="-4.918101"><ele>701.25</ele></trkpt>
   <trkpt lat="36.735942" lon="-4.918135"><ele>701.5</ele></trkpt>
   <trkpt lat="36.73594" lon="-4.918175"><ele>701.5</ele></trkpt>
   <trkpt lat="36.735925" lon="-4.918204"><ele>701.5</ele></trkpt>
   <trkpt lat="36.735928" lon="-4.918328"><ele>701.75</ele></trkpt>
   <trkpt lat="36.736005" lon="-4.9184"><ele>702.25</ele></trkpt>
   <trkpt lat="36.736313" lon="-4.918727"><ele>705.25</ele></trkpt>
   <trkpt lat="36.736785" lon="-4.919241"><ele>714.25</ele></trkpt>
   <trkpt lat="36.737433" lon="-4.9195"><ele>719.75</ele></trkpt>
   <trkpt lat="36.737366" lon="-4.919687"><ele>720.75</ele></trkpt>
   <trkpt lat="36.737465" lon="-4.919759"><ele>721.75</ele></trkpt>
   <trkpt lat="36.737532" lon="-4.919828"><ele>722.5</ele></trkpt>
   <trkpt lat="36.737581" lon="-4.919906"><ele>723.25</ele></trkpt>
   <trkpt lat="36.737625" lon="-4.920003"><ele>724.25</ele></trkpt>
   <trkpt lat="36.737658" lon="-4.920113"><ele>725</ele></trkpt>
   <trkpt lat="36.737867" lon="-4.921367"><ele>732</ele></trkpt>
   <trkpt lat="36.737919" lon="-4.921704"><ele>733.5</ele></trkpt>
   <trkpt lat="36.737945" lon="-4.921822"><ele>734</ele></trkpt>
   <trkpt lat="36.737986" lon="-4.921957"><ele>734.5</ele></trkpt>
   <trkpt lat="36.738216" lon="-4.922473"><ele>736.25</ele></trkpt>
   <trkpt lat="36.738307" lon="-4.922554"><ele>736.75</ele></trkpt>
   <trkpt lat="36.738336" lon="-4.92258"><ele>737</ele></trkpt>
   <trkpt lat="36.738368" lon="-4.922579"><ele>737.25</ele></trkpt>
   <trkpt lat="36.738399" lon="-4.92259"><ele>737.75</ele></trkpt>
   <trkpt lat="36.738427" lon="-4.922611"><ele>738</ele></trkpt>
   <trkpt lat="36.738448" lon="-4.922641"><ele>738</ele></trkpt>
   <trkpt lat="36.738463" lon="-4.922677"><ele>738</ele></trkpt>
   <trkpt lat="36.738468" lon="-4.922717"><ele>737.75</ele></trkpt>
   <trkpt lat="36.738464" lon="-4.922757"><ele>737.5</ele></trkpt>
   <trkpt lat="36.738461" lon="-4.922771"><ele>737.5</ele></trkpt>
   <trkpt lat="36.738548" lon="-4.922926"><ele>737.5</ele></trkpt>
   <trkpt lat="36.739047" lon="-4.923373"><ele>740.75</ele></trkpt>
   <trkpt lat="36.739143" lon="-4.923463"><ele>741.5</ele></trkpt>
   <trkpt lat="36.739451" lon="-4.923746"><ele>742.5</ele></trkpt>
   <trkpt lat="36.739599" lon="-4.923858"><ele>743.75</ele></trkpt>
   <trkpt lat="36.739782" lon="-4.923959"><ele>745</ele></trkpt>
   <trkpt lat="36.740275" lon="-4.924175"><ele>748.75</ele></trkpt>
   <trkpt lat="36.740376" lon="-4.924202"><ele>748.75</ele></trkpt>
   <trkpt lat="36.740467" lon="-4.92421"><ele>749</ele></trkpt>
   <trkpt lat="36.740553" lon="-4.92418"><ele>750.5</ele></trkpt>
   <trkpt lat="36.740642" lon="-4.924123"><ele>751</ele></trkpt>
   <trkpt lat="36.740796" lon="-4.923983"><ele>752.25</ele></trkpt>
   <trkpt lat="36.740879" lon="-4.923923"><ele>753.25</ele></trkpt>
   <trkpt lat="36.740971" lon="-4.923897"><ele>754.25</ele></trkpt>
   <trkpt lat="36.741055" lon="-4.923909"><ele>754.25</ele></trkpt>
   <trkpt lat="36.741125" lon="-4.923942"><ele>754.25</ele></trkpt>
   <trkpt lat="36.741182" lon="-4.923982"><ele>755.5</ele></trkpt>
   <trkpt lat="36.741345" lon="-4.924153"><ele>757</ele></trkpt>
   <trkpt lat="36.741427" lon="-4.924206"><ele>757.25</ele></trkpt>
   <trkpt lat="36.741506" lon="-4.924228"><ele>757</ele></trkpt>
   <trkpt lat="36.741598" lon="-4.92421"><ele>758.25</ele></trkpt>
   <trkpt lat="36.741836" lon="-4.924064"><ele>762.25</ele></trkpt>
   <trkpt lat="36.741935" lon="-4.924049"><ele>761.75</ele></trkpt>
   <trkpt lat="36.74205" lon="-4.924088"><ele>762.75</ele></trkpt>
   <trkpt lat="36.742236" lon="-4.924132"><ele>764.5</ele></trkpt>
   <trkpt lat="36.742406" lon="-4.924142"><ele>765.25</ele></trkpt>
   <trkpt lat="36.743243" lon="-4.924073"><ele>772.25</ele></trkpt>
   <trkpt lat="36.743352" lon="-4.924082"><ele>773</ele></trkpt>
   <trkpt lat="36.74345" lon="-4.924118"><ele>773.5</ele></trkpt>
   <trkpt lat="36.74352" lon="-4.924166"><ele>773</ele></trkpt>
   <trkpt lat="36.743595" lon="-4.924244"><ele>773.5</ele></trkpt>
   <trkpt lat="36.743655" lon="-4.924338"><ele>773.75</ele></trkpt>
   <trkpt lat="36.743704" lon="-4.924459"><ele>774.25</ele></trkpt>
   <trkpt lat="36.743753" lon="-4.924759"><ele>776.5</ele></trkpt>
   <trkpt lat="36.743762" lon="-4.924856"><ele>776.75</ele></trkpt>
   <trkpt lat="36.743749" lon="-4.924943"><ele>776.75</ele></trkpt>
   <trkpt lat="36.743715" lon="-4.925033"><ele>776.25</ele></trkpt>
   <trkpt lat="36.743676" lon="-4.925086"><ele>776</ele></trkpt>
   <trkpt lat="36.743622" lon="-4.92514"><ele>775.5</ele></trkpt>
   <trkpt lat="36.743543" lon="-4.925168"><ele>775.75</ele></trkpt>
   <trkpt lat="36.743451" lon="-4.925176"><ele>776.25</ele></trkpt>
   <trkpt lat="36.74329" lon="-4.925145"><ele>776</ele></trkpt>
   <trkpt lat="36.743183" lon="-4.92515"><ele>776.25</ele></trkpt>
   <trkpt lat="36.743092" lon="-4.925174"><ele>777.25</ele></trkpt>
   <trkpt lat="36.742963" lon="-4.925237"><ele>778.75</ele></trkpt>
   <trkpt lat="36.742828" lon="-4.925348"><ele>781</ele></trkpt>
   <trkpt lat="36.742756" lon="-4.925445"><ele>781</ele></trkpt>
   <trkpt lat="36.74271" lon="-4.925542"><ele>781</ele></trkpt>
   <trkpt lat="36.742679" lon="-4.92566"><ele>781.5</ele></trkpt>
   <trkpt lat="36.742665" lon="-4.925793"><ele>782.25</ele></trkpt>
   <trkpt lat="36.742669" lon="-4.926193"><ele>785.25</ele></trkpt>
   <trkpt lat="36.742713" lon="-4.926474"><ele>786.75</ele></trkpt>
   <trkpt lat="36.742817" lon="-4.926745"><ele>790.75</ele></trkpt>
   <trkpt lat="36.743142" lon="-4.927236"><ele>796.5</ele></trkpt>
   <trkpt lat="36.743345" lon="-4.927614"><ele>797.5</ele></trkpt>
   <trkpt lat="36.74343" lon="-4.927719"><ele>798.5</ele></trkpt>
   <trkpt lat="36.743858" lon="-4.928066"><ele>802.5</ele></trkpt>
   <trkpt lat="36.744561" lon="-4.928734"><ele>810.25</ele></trkpt>
   <trkpt lat="36.74473" lon="-4.928818"><ele>810.75</ele></trkpt>
   <trkpt lat="36.744818" lon="-4.928827"><ele>811.5</ele></trkpt>
   <trkpt lat="36.744907" lon="-4.92881"><ele>812</ele></trkpt>
   <trkpt lat="36.744993" lon="-4.928764"><ele>812.25</ele></trkpt>
   <trkpt lat="36.745068" lon="-4.92869"><ele>813.5</ele></trkpt>
   <trkpt lat="36.745129" lon="-4.928593"><ele>814.25</ele></trkpt>
   <trkpt lat="36.745173" lon="-4.928479"><ele>814.5</ele></trkpt>
   <trkpt lat="36.745264" lon="-4.928177"><ele>816.75</ele></trkpt>
   <trkpt lat="36.745318" lon="-4.928038"><ele>818.5</ele></trkpt>
   <trkpt lat="36.745372" lon="-4.927957"><ele>818.5</ele></trkpt>
   <trkpt lat="36.745436" lon="-4.927886"><ele>819</ele></trkpt>
   <trkpt lat="36.745519" lon="-4.927834"><ele>819.75</ele></trkpt>
   <trkpt lat="36.745613" lon="-4.927798"><ele>820.5</ele></trkpt>
   <trkpt lat="36.745704" lon="-4.92779"><ele>821.25</ele></trkpt>
   <trkpt lat="36.745801" lon="-4.927818"><ele>822.5</ele></trkpt>
   
  </trkseg>
 </trk>
</gpx>
