<?xml version="1.0" encoding="UTF-8"?>
<!-- track-length = 12478 filtered ascend = 485 plain-ascend = 360 cost=21087 energy=0.1kwh time=1h 26m 13s -->
<gpx 
 xmlns="http://www.topografix.com/GPX/1/1" 
 xmlns:xsi="http://www.w3.org/2001/XMLSchema-instance" 
 xsi:schemaLocation="http://www.topografix.com/GPX/1/1 http://www.topografix.com/GPX/1/1/gpx.xsd" 
 version="1.1" 
 creator="BRouter-Web 0.18.1">
 <trk>
  <name>Puerto de Tarbena</name>
  <trkseg>
   <trkpt lat="38.675532" lon="-0.109007"><ele>194.5</ele></trkpt>
   <trkpt lat="38.675436" lon="-0.10888"><ele>195</ele></trkpt>
   <trkpt lat="38.675409" lon="-0.108831"><ele>195.75</ele></trkpt>
   <trkpt lat="38.67539" lon="-0.108771"><ele>196.75</ele></trkpt>
   <trkpt lat="38.67538" lon="-0.108719"><ele>197.5</ele></trkpt>
   <trkpt lat="38.675364" lon="-0.108533"><ele>201.5</ele></trkpt>
   <trkpt lat="38.675337" lon="-0.108465"><ele>203.5</ele></trkpt>
   <trkpt lat="38.675315" lon="-0.108436"><ele>204.25</ele></trkpt>
   <trkpt lat="38.675284" lon="-0.108414"><ele>204.5</ele></trkpt>
   <trkpt lat="38.675105" lon="-0.108334"><ele>206.25</ele></trkpt>
   <trkpt lat="38.674965" lon="-0.108278"><ele>207.75</ele></trkpt>
   <trkpt lat="38.674839" lon="-0.108252"><ele>207.25</ele></trkpt>
   <trkpt lat="38.67444" lon="-0.108233"><ele>206</ele></trkpt>
   <trkpt lat="38.674372" lon="-0.108205"><ele>205.75</ele></trkpt>
   <trkpt lat="38.674315" lon="-0.108156"><ele>206</ele></trkpt>
   <trkpt lat="38.674277" lon="-0.1081"><ele>206.25</ele></trkpt>
   <trkpt lat="38.674243" lon="-0.108014"><ele>206.25</ele></trkpt>
   <trkpt lat="38.674214" lon="-0.107858"><ele>205.75</ele></trkpt>
   <trkpt lat="38.674214" lon="-0.107771"><ele>206</ele></trkpt>
   <trkpt lat="38.67424" lon="-0.107648"><ele>205</ele></trkpt>
   <trkpt lat="38.674269" lon="-0.107575"><ele>204.75</ele></trkpt>
   <trkpt lat="38.674286" lon="-0.107542"><ele>204.5</ele></trkpt>
   <trkpt lat="38.674368" lon="-0.10743"><ele>205</ele></trkpt>
   <trkpt lat="38.67441" lon="-0.107356"><ele>205.25</ele></trkpt>
   <trkpt lat="38.674431" lon="-0.107292"><ele>205.25</ele></trkpt>
   <trkpt lat="38.674436" lon="-0.107226"><ele>204.75</ele></trkpt>
   <trkpt lat="38.674431" lon="-0.107158"><ele>205.75</ele></trkpt>
   <trkpt lat="38.674329" lon="-0.106768"><ele>210.25</ele></trkpt>
   <trkpt lat="38.674293" lon="-0.106623"><ele>211.5</ele></trkpt>
   <trkpt lat="38.674262" lon="-0.106545"><ele>211.75</ele></trkpt>
   <trkpt lat="38.674231" lon="-0.106489"><ele>212.25</ele></trkpt>
   <trkpt lat="38.6739" lon="-0.106036"><ele>212.75</ele></trkpt>
   <trkpt lat="38.673673" lon="-0.105686"><ele>213.25</ele></trkpt>
   <trkpt lat="38.673574" lon="-0.105498"><ele>215.5</ele></trkpt>
   <trkpt lat="38.673399" lon="-0.105079"><ele>221</ele></trkpt>
   <trkpt lat="38.673331" lon="-0.104853"><ele>224</ele></trkpt>
   <trkpt lat="38.673321" lon="-0.104792"><ele>224.5</ele></trkpt>
   <trkpt lat="38.67329" lon="-0.104526"><ele>228</ele></trkpt>
   <trkpt lat="38.673215" lon="-0.104166"><ele>230</ele></trkpt>
   <trkpt lat="38.673201" lon="-0.104038"><ele>229.5</ele></trkpt>
   <trkpt lat="38.673208" lon="-0.103947"><ele>229.5</ele></trkpt>
   <trkpt lat="38.673232" lon="-0.103863"><ele>230</ele></trkpt>
   <trkpt lat="38.673263" lon="-0.103793"><ele>230</ele></trkpt>
   <trkpt lat="38.673414" lon="-0.1036"><ele>231.75</ele></trkpt>
   <trkpt lat="38.673458" lon="-0.103526"><ele>232</ele></trkpt>
   <trkpt lat="38.673524" lon="-0.103381"><ele>231.5</ele></trkpt>
   <trkpt lat="38.673676" lon="-0.102981"><ele>230.75</ele></trkpt>
   <trkpt lat="38.673701" lon="-0.102933"><ele>230</ele></trkpt>
   <trkpt lat="38.673793" lon="-0.102794"><ele>228.5</ele></trkpt>
   <trkpt lat="38.673817" lon="-0.10273"><ele>229</ele></trkpt>
   <trkpt lat="38.673834" lon="-0.102633"><ele>230.25</ele></trkpt>
   <trkpt lat="38.673832" lon="-0.10258"><ele>230.5</ele></trkpt>
   <trkpt lat="38.673806" lon="-0.10245"><ele>231.5</ele></trkpt>
   <trkpt lat="38.673702" lon="-0.102151"><ele>235.75</ele></trkpt>
   <trkpt lat="38.673697" lon="-0.102071"><ele>236.5</ele></trkpt>
   <trkpt lat="38.673703" lon="-0.102"><ele>237.5</ele></trkpt>
   <trkpt lat="38.673767" lon="-0.101594"><ele>238</ele></trkpt>
   <trkpt lat="38.67379" lon="-0.101496"><ele>237.5</ele></trkpt>
   <trkpt lat="38.673804" lon="-0.101456"><ele>237.5</ele></trkpt>
   <trkpt lat="38.673965" lon="-0.101125"><ele>237.25</ele></trkpt>
   <trkpt lat="38.674008" lon="-0.101062"><ele>236.75</ele></trkpt>
   <trkpt lat="38.674061" lon="-0.101018"><ele>236.5</ele></trkpt>
   <trkpt lat="38.67412" lon="-0.100991"><ele>237.25</ele></trkpt>
   <trkpt lat="38.67417" lon="-0.100983"><ele>238.25</ele></trkpt>
   <trkpt lat="38.674213" lon="-0.100985"><ele>238.25</ele></trkpt>
   <trkpt lat="38.674321" lon="-0.101007"><ele>239</ele></trkpt>
   <trkpt lat="38.674427" lon="-0.101005"><ele>238.75</ele></trkpt>
   <trkpt lat="38.674553" lon="-0.100974"><ele>239.75</ele></trkpt>
   <trkpt lat="38.674813" lon="-0.100877"><ele>239.75</ele></trkpt>
   <trkpt lat="38.674884" lon="-0.100826"><ele>238.5</ele></trkpt>
   <trkpt lat="38.674928" lon="-0.100768"><ele>237.75</ele></trkpt>
   <trkpt lat="38.674997" lon="-0.100631"><ele>236.75</ele></trkpt>
   <trkpt lat="38.675029" lon="-0.100531"><ele>237.5</ele></trkpt>
   <trkpt lat="38.675039" lon="-0.100484"><ele>238</ele></trkpt>
   <trkpt lat="38.675042" lon="-0.100432"><ele>237.75</ele></trkpt>
   <trkpt lat="38.67504" lon="-0.100339"><ele>237.25</ele></trkpt>
   <trkpt lat="38.67503" lon="-0.100287"><ele>236.75</ele></trkpt>
   <trkpt lat="38.674991" lon="-0.100206"><ele>237</ele></trkpt>
   <trkpt lat="38.674867" lon="-0.100044"><ele>236.75</ele></trkpt>
   <trkpt lat="38.674828" lon="-0.099942"><ele>236.75</ele></trkpt>
   <trkpt lat="38.674821" lon="-0.099887"><ele>236.75</ele></trkpt>
   <trkpt lat="38.674818" lon="-0.099759"><ele>237.25</ele></trkpt>
   <trkpt lat="38.674844" lon="-0.09958"><ele>237.25</ele></trkpt>
   <trkpt lat="38.674875" lon="-0.099465"><ele>237.5</ele></trkpt>
   <trkpt lat="38.67495" lon="-0.099321"><ele>237.75</ele></trkpt>
   <trkpt lat="38.675024" lon="-0.099233"><ele>238.5</ele></trkpt>
   <trkpt lat="38.675393" lon="-0.098859"><ele>240</ele></trkpt>
   <trkpt lat="38.675416" lon="-0.098829"><ele>240</ele></trkpt>
   <trkpt lat="38.675447" lon="-0.098782"><ele>240.25</ele></trkpt>
   <trkpt lat="38.675457" lon="-0.098745"><ele>240</ele></trkpt>
   <trkpt lat="38.675456" lon="-0.098665"><ele>239</ele></trkpt>
   <trkpt lat="38.67543" lon="-0.098579"><ele>237.75</ele></trkpt>
   <trkpt lat="38.675366" lon="-0.098433"><ele>237.75</ele></trkpt>
   <trkpt lat="38.675312" lon="-0.09836"><ele>238.25</ele></trkpt>
   <trkpt lat="38.675229" lon="-0.098305"><ele>240.25</ele></trkpt>
   <trkpt lat="38.675167" lon="-0.098303"><ele>241</ele></trkpt>
   <trkpt lat="38.675061" lon="-0.098324"><ele>241.5</ele></trkpt>
   <trkpt lat="38.674926" lon="-0.09836"><ele>241.75</ele></trkpt>
   <trkpt lat="38.674859" lon="-0.098387"><ele>241.5</ele></trkpt>
   <trkpt lat="38.674783" lon="-0.098381"><ele>242.5</ele></trkpt>
   <trkpt lat="38.674708" lon="-0.098365"><ele>244</ele></trkpt>
   <trkpt lat="38.674664" lon="-0.098327"><ele>246</ele></trkpt>
   <trkpt lat="38.674618" lon="-0.098272"><ele>248</ele></trkpt>
   <trkpt lat="38.674588" lon="-0.09819"><ele>250.75</ele></trkpt>
   <trkpt lat="38.674567" lon="-0.098104"><ele>253.25</ele></trkpt>
   <trkpt lat="38.674578" lon="-0.098027"><ele>255</ele></trkpt>
   <trkpt lat="38.674752" lon="-0.09771"><ele>257.75</ele></trkpt>
   <trkpt lat="38.674802" lon="-0.097544"><ele>261.75</ele></trkpt>
   <trkpt lat="38.675112" lon="-0.096972"><ele>268.75</ele></trkpt>
   <trkpt lat="38.67517" lon="-0.096876"><ele>269.75</ele></trkpt>
   <trkpt lat="38.675232" lon="-0.09681"><ele>270</ele></trkpt>
   <trkpt lat="38.675307" lon="-0.096753"><ele>270</ele></trkpt>
   <trkpt lat="38.675399" lon="-0.096656"><ele>270.75</ele></trkpt>
   <trkpt lat="38.675428" lon="-0.096597"><ele>271.75</ele></trkpt>
   <trkpt lat="38.675438" lon="-0.096533"><ele>272.75</ele></trkpt>
   <trkpt lat="38.675438" lon="-0.096463"><ele>274.25</ele></trkpt>
   <trkpt lat="38.675413" lon="-0.096385"><ele>276.5</ele></trkpt>
   <trkpt lat="38.675313" lon="-0.096189"><ele>280.75</ele></trkpt>
   <trkpt lat="38.675244" lon="-0.095985"><ele>283.75</ele></trkpt>
   <trkpt lat="38.675194" lon="-0.095808"><ele>286.25</ele></trkpt>
   <trkpt lat="38.675164" lon="-0.095647"><ele>289</ele></trkpt>
   <trkpt lat="38.675162" lon="-0.095409"><ele>293.25</ele></trkpt>
   <trkpt lat="38.675181" lon="-0.095304"><ele>294.75</ele></trkpt>
   <trkpt lat="38.675214" lon="-0.095205"><ele>295.25</ele></trkpt>
   <trkpt lat="38.675292" lon="-0.09506"><ele>296.25</ele></trkpt>
   <trkpt lat="38.675321" lon="-0.094974"><ele>299</ele></trkpt>
   <trkpt lat="38.675342" lon="-0.094878"><ele>301.5</ele></trkpt>
   <trkpt lat="38.675361" lon="-0.094647"><ele>306.25</ele></trkpt>
   <trkpt lat="38.675411" lon="-0.094226"><ele>314.5</ele></trkpt>
   <trkpt lat="38.675418" lon="-0.094103"><ele>316.25</ele></trkpt>
   <trkpt lat="38.67542" lon="-0.093993"><ele>317.5</ele></trkpt>
   <trkpt lat="38.675407" lon="-0.093893"><ele>318</ele></trkpt>
   <trkpt lat="38.675384" lon="-0.093799"><ele>318.25</ele></trkpt>
   <trkpt lat="38.675388" lon="-0.093746"><ele>319</ele></trkpt>
   <trkpt lat="38.675411" lon="-0.093722"><ele>320.25</ele></trkpt>
   <trkpt lat="38.675443" lon="-0.093722"><ele>321.5</ele></trkpt>
   <trkpt lat="38.67547" lon="-0.09374"><ele>322.5</ele></trkpt>
   <trkpt lat="38.67556" lon="-0.093875"><ele>324.25</ele></trkpt>
   <trkpt lat="38.675583" lon="-0.093891"><ele>325</ele></trkpt>
   <trkpt lat="38.675612" lon="-0.093885"><ele>326.25</ele></trkpt>
   <trkpt lat="38.675627" lon="-0.09385"><ele>327.5</ele></trkpt>
   <trkpt lat="38.675627" lon="-0.093805"><ele>328</ele></trkpt>
   <trkpt lat="38.675604" lon="-0.093727"><ele>328</ele></trkpt>
   <trkpt lat="38.675593" lon="-0.093665"><ele>328.5</ele></trkpt>
   <trkpt lat="38.675614" lon="-0.093636"><ele>329.5</ele></trkpt>
   <trkpt lat="38.675642" lon="-0.093633"><ele>330.5</ele></trkpt>
   <trkpt lat="38.675677" lon="-0.093663"><ele>331.25</ele></trkpt>
   <trkpt lat="38.675697" lon="-0.093709"><ele>331.5</ele></trkpt>
   <trkpt lat="38.67578" lon="-0.093891"><ele>333.5</ele></trkpt>
   <trkpt lat="38.675807" lon="-0.093934"><ele>335.75</ele></trkpt>
   <trkpt lat="38.675845" lon="-0.09395"><ele>338</ele></trkpt>
   <trkpt lat="38.675882" lon="-0.093936"><ele>339.75</ele></trkpt>
   <trkpt lat="38.675912" lon="-0.093901"><ele>340.75</ele></trkpt>
   <trkpt lat="38.675926" lon="-0.093821"><ele>341.5</ele></trkpt>
   <trkpt lat="38.675931" lon="-0.093743"><ele>342.5</ele></trkpt>
   <trkpt lat="38.675926" lon="-0.093639"><ele>342.75</ele></trkpt>
   <trkpt lat="38.675863" lon="-0.093094"><ele>349.75</ele></trkpt>
   <trkpt lat="38.675857" lon="-0.092933"><ele>351.75</ele></trkpt>
   <trkpt lat="38.675861" lon="-0.092847"><ele>353.25</ele></trkpt>
   <trkpt lat="38.675897" lon="-0.092681"><ele>355.5</ele></trkpt>
   <trkpt lat="38.675922" lon="-0.09263"><ele>356.25</ele></trkpt>
   <trkpt lat="38.675981" lon="-0.092555"><ele>358.75</ele></trkpt>
   <trkpt lat="38.676249" lon="-0.092171"><ele>363.25</ele></trkpt>
   <trkpt lat="38.676284" lon="-0.092107"><ele>363.25</ele></trkpt>
   <trkpt lat="38.676312" lon="-0.092086"><ele>364</ele></trkpt>
   <trkpt lat="38.676337" lon="-0.092095"><ele>365.25</ele></trkpt>
   <trkpt lat="38.676356" lon="-0.092119"><ele>366.75</ele></trkpt>
   <trkpt lat="38.676369" lon="-0.092148"><ele>367.75</ele></trkpt>
   <trkpt lat="38.676368" lon="-0.092195"><ele>368.5</ele></trkpt>
   <trkpt lat="38.676305" lon="-0.092311"><ele>368.5</ele></trkpt>
   <trkpt lat="38.676272" lon="-0.092389"><ele>368.75</ele></trkpt>
   <trkpt lat="38.676247" lon="-0.092496"><ele>370.25</ele></trkpt>
   <trkpt lat="38.676245" lon="-0.09256"><ele>370.75</ele></trkpt>
   <trkpt lat="38.676256" lon="-0.09262"><ele>371.75</ele></trkpt>
   <trkpt lat="38.676285" lon="-0.092712"><ele>373.75</ele></trkpt>
   <trkpt lat="38.676343" lon="-0.092871"><ele>376.75</ele></trkpt>
   <trkpt lat="38.676394" lon="-0.092969"><ele>379</ele></trkpt>
   <trkpt lat="38.676418" lon="-0.093005"><ele>379.5</ele></trkpt>
   <trkpt lat="38.676473" lon="-0.093056"><ele>380.75</ele></trkpt>
   <trkpt lat="38.676499" lon="-0.09307"><ele>381</ele></trkpt>
   <trkpt lat="38.676532" lon="-0.093087"><ele>381.75</ele></trkpt>
   <trkpt lat="38.676578" lon="-0.093137"><ele>382.75</ele></trkpt>
   <trkpt lat="38.676699" lon="-0.093319"><ele>386.75</ele></trkpt>
   <trkpt lat="38.676771" lon="-0.093398"><ele>387.25</ele></trkpt>
   <trkpt lat="38.676829" lon="-0.093453"><ele>387.75</ele></trkpt>
   <trkpt lat="38.676963" lon="-0.093548"><ele>389.5</ele></trkpt>
   <trkpt lat="38.677097" lon="-0.093748"><ele>390.75</ele></trkpt>
   <trkpt lat="38.677131" lon="-0.093827"><ele>390.75</ele></trkpt>
   <trkpt lat="38.677155" lon="-0.093918"><ele>390.5</ele></trkpt>
   <trkpt lat="38.67717" lon="-0.094007"><ele>390.75</ele></trkpt>
   <trkpt lat="38.677195" lon="-0.09432"><ele>390</ele></trkpt>
   <trkpt lat="38.677218" lon="-0.094404"><ele>390</ele></trkpt>
   <trkpt lat="38.677248" lon="-0.094505"><ele>390</ele></trkpt>
   <trkpt lat="38.677396" lon="-0.094816"><ele>390.75</ele></trkpt>
   <trkpt lat="38.677461" lon="-0.094937"><ele>390.5</ele></trkpt>
   <trkpt lat="38.677532" lon="-0.095029"><ele>389.75</ele></trkpt>
   <trkpt lat="38.677652" lon="-0.095163"><ele>389.75</ele></trkpt>
   <trkpt lat="38.677721" lon="-0.095211"><ele>390.5</ele></trkpt>
   <trkpt lat="38.677855" lon="-0.095285"><ele>391.25</ele></trkpt>
   <trkpt lat="38.677932" lon="-0.095302"><ele>391.5</ele></trkpt>
   <trkpt lat="38.678037" lon="-0.095294"><ele>392.5</ele></trkpt>
   <trkpt lat="38.678163" lon="-0.095267"><ele>393.5</ele></trkpt>
   <trkpt lat="38.678253" lon="-0.095229"><ele>394.75</ele></trkpt>
   <trkpt lat="38.678324" lon="-0.095208"><ele>395.25</ele></trkpt>
   <trkpt lat="38.678393" lon="-0.095162"><ele>396</ele></trkpt>
   <trkpt lat="38.678456" lon="-0.095096"><ele>397.25</ele></trkpt>
   <trkpt lat="38.678535" lon="-0.094953"><ele>399.75</ele></trkpt>
   <trkpt lat="38.678569" lon="-0.094864"><ele>401</ele></trkpt>
   <trkpt lat="38.678644" lon="-0.094526"><ele>406.75</ele></trkpt>
   <trkpt lat="38.67873" lon="-0.094301"><ele>411.25</ele></trkpt>
   <trkpt lat="38.679042" lon="-0.09373"><ele>421.75</ele></trkpt>
   <trkpt lat="38.679155" lon="-0.093558"><ele>425.5</ele></trkpt>
   <trkpt lat="38.67921" lon="-0.093507"><ele>427.25</ele></trkpt>
   <trkpt lat="38.679249" lon="-0.093486"><ele>428.25</ele></trkpt>
   <trkpt lat="38.679339" lon="-0.093467"><ele>429.5</ele></trkpt>
   <trkpt lat="38.679771" lon="-0.093491"><ele>436.75</ele></trkpt>
   <trkpt lat="38.679857" lon="-0.093484"><ele>438</ele></trkpt>
   <trkpt lat="38.67994" lon="-0.093456"><ele>439.75</ele></trkpt>
   <trkpt lat="38.680049" lon="-0.093386"><ele>442</ele></trkpt>
   <trkpt lat="38.680099" lon="-0.093341"><ele>443</ele></trkpt>
   <trkpt lat="38.680141" lon="-0.093277"><ele>444</ele></trkpt>
   <trkpt lat="38.68023" lon="-0.093067"><ele>447.25</ele></trkpt>
   <trkpt lat="38.680332" lon="-0.092818"><ele>450.75</ele></trkpt>
   <trkpt lat="38.680401" lon="-0.092684"><ele>452.5</ele></trkpt>
   <trkpt lat="38.680476" lon="-0.092582"><ele>453.75</ele></trkpt>
   <trkpt lat="38.680524" lon="-0.092544"><ele>454.25</ele></trkpt>
   <trkpt lat="38.680612" lon="-0.092499"><ele>455.75</ele></trkpt>
   <trkpt lat="38.680726" lon="-0.092491"><ele>457.5</ele></trkpt>
   <trkpt lat="38.680801" lon="-0.092504"><ele>458.25</ele></trkpt>
   <trkpt lat="38.681201" lon="-0.092606"><ele>463</ele></trkpt>
   <trkpt lat="38.681337" lon="-0.092665"><ele>464.75</ele></trkpt>
   <trkpt lat="38.681741" lon="-0.092877"><ele>467.75</ele></trkpt>
   <trkpt lat="38.682066" lon="-0.093135"><ele>469.5</ele></trkpt>
   <trkpt lat="38.682137" lon="-0.09318"><ele>471</ele></trkpt>
   <trkpt lat="38.682218" lon="-0.093215"><ele>472.75</ele></trkpt>
   <trkpt lat="38.682355" lon="-0.093258"><ele>472.5</ele></trkpt>
   <trkpt lat="38.682507" lon="-0.093271"><ele>472.75</ele></trkpt>
   <trkpt lat="38.683167" lon="-0.093223"><ele>476.25</ele></trkpt>
   <trkpt lat="38.683255" lon="-0.093209"><ele>476.25</ele></trkpt>
   <trkpt lat="38.683389" lon="-0.093167"><ele>476.25</ele></trkpt>
   <trkpt lat="38.683448" lon="-0.093137"><ele>476.25</ele></trkpt>
   <trkpt lat="38.683558" lon="-0.093059"><ele>476.75</ele></trkpt>
   <trkpt lat="38.683617" lon="-0.093035"><ele>476.75</ele></trkpt>
   <trkpt lat="38.683676" lon="-0.093032"><ele>478.25</ele></trkpt>
   <trkpt lat="38.683736" lon="-0.093046"><ele>479.25</ele></trkpt>
   <trkpt lat="38.683791" lon="-0.093076"><ele>479.75</ele></trkpt>
   <trkpt lat="38.684187" lon="-0.093352"><ele>485</ele></trkpt>
   <trkpt lat="38.6843" lon="-0.093411"><ele>486.25</ele></trkpt>
   <trkpt lat="38.68435" lon="-0.093424"><ele>487</ele></trkpt>
   <trkpt lat="38.684394" lon="-0.093419"><ele>488</ele></trkpt>
   <trkpt lat="38.684473" lon="-0.09337"><ele>489.5</ele></trkpt>
   <trkpt lat="38.684503" lon="-0.093336"><ele>490</ele></trkpt>
   <trkpt lat="38.684528" lon="-0.093285"><ele>490.75</ele></trkpt>
   <trkpt lat="38.684553" lon="-0.09318"><ele>492.5</ele></trkpt>
   <trkpt lat="38.68457" lon="-0.09215"><ele>503.5</ele></trkpt>
   <trkpt lat="38.684565" lon="-0.09174"><ele>506</ele></trkpt>
   <trkpt lat="38.684559" lon="-0.091644"><ele>506.5</ele></trkpt>
   <trkpt lat="38.68454" lon="-0.091536"><ele>506.25</ele></trkpt>
   <trkpt lat="38.684498" lon="-0.091431"><ele>506.75</ele></trkpt>
   <trkpt lat="38.68444" lon="-0.091348"><ele>507.25</ele></trkpt>
   <trkpt lat="38.684327" lon="-0.091239"><ele>507.75</ele></trkpt>
   <trkpt lat="38.683873" lon="-0.090838"><ele>509</ele></trkpt>
   <trkpt lat="38.683749" lon="-0.090702"><ele>509.25</ele></trkpt>
   <trkpt lat="38.683634" lon="-0.090554"><ele>509.5</ele></trkpt>
   <trkpt lat="38.683399" lon="-0.090213"><ele>509.25</ele></trkpt>
   <trkpt lat="38.683177" lon="-0.089946"><ele>507.25</ele></trkpt>
   <trkpt lat="38.683133" lon="-0.089905"><ele>506.75</ele></trkpt>
   <trkpt lat="38.683094" lon="-0.089838"><ele>506.25</ele></trkpt>
   <trkpt lat="38.683041" lon="-0.089709"><ele>504.75</ele></trkpt>
   <trkpt lat="38.683029" lon="-0.089634"><ele>504.25</ele></trkpt>
   <trkpt lat="38.683038" lon="-0.089493"><ele>503.75</ele></trkpt>
   <trkpt lat="38.683041" lon="-0.089462"><ele>503.75</ele></trkpt>
   <trkpt lat="38.683073" lon="-0.089387"><ele>503.75</ele></trkpt>
   <trkpt lat="38.683301" lon="-0.088913"><ele>505.75</ele></trkpt>
   <trkpt lat="38.683381" lon="-0.088773"><ele>506.75</ele></trkpt>
   <trkpt lat="38.683507" lon="-0.088618"><ele>507</ele></trkpt>
   <trkpt lat="38.683556" lon="-0.088561"><ele>506.75</ele></trkpt>
   <trkpt lat="38.683655" lon="-0.088328"><ele>505.5</ele></trkpt>
   <trkpt lat="38.683695" lon="-0.088202"><ele>504.75</ele></trkpt>
   <trkpt lat="38.683785" lon="-0.087869"><ele>505</ele></trkpt>
   <trkpt lat="38.683839" lon="-0.087728"><ele>505.25</ele></trkpt>
   <trkpt lat="38.683906" lon="-0.087641"><ele>505.25</ele></trkpt>
   <trkpt lat="38.684103" lon="-0.087512"><ele>504.5</ele></trkpt>
   <trkpt lat="38.684148" lon="-0.08748"><ele>504.5</ele></trkpt>
   <trkpt lat="38.68421" lon="-0.087461"><ele>504.5</ele></trkpt>
   <trkpt lat="38.684235" lon="-0.087463"><ele>504.5</ele></trkpt>
   <trkpt lat="38.684323" lon="-0.08747"><ele>504.5</ele></trkpt>
   <trkpt lat="38.684447" lon="-0.087464"><ele>504.75</ele></trkpt>
   <trkpt lat="38.684802" lon="-0.087394"><ele>506.5</ele></trkpt>
   <trkpt lat="38.684882" lon="-0.087384"><ele>507</ele></trkpt>
   <trkpt lat="38.685025" lon="-0.087381"><ele>507.75</ele></trkpt>
   <trkpt lat="38.685601" lon="-0.087408"><ele>511.25</ele></trkpt>
   <trkpt lat="38.685663" lon="-0.087403"><ele>510.75</ele></trkpt>
   <trkpt lat="38.685753" lon="-0.087362"><ele>511</ele></trkpt>
   <trkpt lat="38.685822" lon="-0.087317"><ele>511.25</ele></trkpt>
   <trkpt lat="38.685989" lon="-0.08718"><ele>511</ele></trkpt>
   <trkpt lat="38.686157" lon="-0.087019"><ele>510.5</ele></trkpt>
   <trkpt lat="38.686243" lon="-0.086901"><ele>510.5</ele></trkpt>
   <trkpt lat="38.686388" lon="-0.086676"><ele>509.75</ele></trkpt>
   <trkpt lat="38.686418" lon="-0.086606"><ele>509.5</ele></trkpt>
   <trkpt lat="38.686527" lon="-0.086287"><ele>510.75</ele></trkpt>
   <trkpt lat="38.686605" lon="-0.086217"><ele>510.75</ele></trkpt>
   <trkpt lat="38.686672" lon="-0.086186"><ele>510.25</ele></trkpt>
   <trkpt lat="38.686798" lon="-0.086128"><ele>512</ele></trkpt>
   <trkpt lat="38.686858" lon="-0.086112"><ele>512.5</ele></trkpt>
   <trkpt lat="38.686896" lon="-0.086123"><ele>512.5</ele></trkpt>
   <trkpt lat="38.686938" lon="-0.086161"><ele>512.25</ele></trkpt>
   <trkpt lat="38.686968" lon="-0.086209"><ele>512.25</ele></trkpt>
   <trkpt lat="38.687018" lon="-0.086351"><ele>512</ele></trkpt>
   <trkpt lat="38.687053" lon="-0.086413"><ele>512.25</ele></trkpt>
   <trkpt lat="38.687133" lon="-0.086512"><ele>513.25</ele></trkpt>
   <trkpt lat="38.68757" lon="-0.086971"><ele>515.5</ele></trkpt>
   <trkpt lat="38.687616" lon="-0.087016"><ele>515</ele></trkpt>
   <trkpt lat="38.688045" lon="-0.087287"><ele>519.25</ele></trkpt>
   <trkpt lat="38.689547" lon="-0.088196"><ele>516.75</ele></trkpt>
   <trkpt lat="38.690028" lon="-0.088532"><ele>516.25</ele></trkpt>
   <trkpt lat="38.690095" lon="-0.088585"><ele>516</ele></trkpt>
   <trkpt lat="38.690213" lon="-0.08862"><ele>517.5</ele></trkpt>
   <trkpt lat="38.690357" lon="-0.088612"><ele>518.75</ele></trkpt>
   <trkpt lat="38.690441" lon="-0.088629"><ele>518.75</ele></trkpt>
   <trkpt lat="38.690463" lon="-0.088678"><ele>518</ele></trkpt>
   <trkpt lat="38.690617" lon="-0.088874"><ele>518.75</ele></trkpt>
   <trkpt lat="38.690766" lon="-0.089224"><ele>520</ele></trkpt>
   <trkpt lat="38.69095" lon="-0.089614"><ele>521</ele></trkpt>
   <trkpt lat="38.690989" lon="-0.089685"><ele>521</ele></trkpt>
   <trkpt lat="38.691275" lon="-0.089933"><ele>522.5</ele></trkpt>
   <trkpt lat="38.691395" lon="-0.090047"><ele>523</ele></trkpt>
   <trkpt lat="38.691665" lon="-0.090417"><ele>523.75</ele></trkpt>
   <trkpt lat="38.691793" lon="-0.090632"><ele>523.75</ele></trkpt>
   <trkpt lat="38.691858" lon="-0.090755"><ele>524.5</ele></trkpt>
   <trkpt lat="38.6919" lon="-0.090935"><ele>523.5</ele></trkpt>
   <trkpt lat="38.691906" lon="-0.09108"><ele>521.75</ele></trkpt>
   <trkpt lat="38.691904" lon="-0.091225"><ele>520.25</ele></trkpt>
   <trkpt lat="38.691914" lon="-0.091351"><ele>519.75</ele></trkpt>
   <trkpt lat="38.691935" lon="-0.091485"><ele>519.75</ele></trkpt>
   <trkpt lat="38.691958" lon="-0.091697"><ele>519.25</ele></trkpt>
   <trkpt lat="38.691969" lon="-0.092035"><ele>519</ele></trkpt>
   <trkpt lat="38.691956" lon="-0.092241"><ele>518.5</ele></trkpt>
   <trkpt lat="38.691941" lon="-0.09234"><ele>518.5</ele></trkpt>
   <trkpt lat="38.69192" lon="-0.092598"><ele>518.25</ele></trkpt>
   <trkpt lat="38.691916" lon="-0.092708"><ele>517.75</ele></trkpt>
   <trkpt lat="38.691935" lon="-0.092928"><ele>517.25</ele></trkpt>
   <trkpt lat="38.692059" lon="-0.093574"><ele>516</ele></trkpt>
   <trkpt lat="38.692121" lon="-0.093896"><ele>515.5</ele></trkpt>
   <trkpt lat="38.692147" lon="-0.093993"><ele>515</ele></trkpt>
   <trkpt lat="38.692176" lon="-0.094057"><ele>514.5</ele></trkpt>
   <trkpt lat="38.692209" lon="-0.094095"><ele>514.25</ele></trkpt>
   <trkpt lat="38.692251" lon="-0.094124"><ele>514</ele></trkpt>
   <trkpt lat="38.692386" lon="-0.094154"><ele>513.25</ele></trkpt>
   <trkpt lat="38.692393" lon="-0.094212"><ele>512</ele></trkpt>
   <trkpt lat="38.692451" lon="-0.0942"><ele>512.25</ele></trkpt>
   <trkpt lat="38.692695" lon="-0.094178"><ele>513.75</ele></trkpt>
   <trkpt lat="38.693149" lon="-0.094154"><ele>516.75</ele></trkpt>
   <trkpt lat="38.693522" lon="-0.094107"><ele>519.5</ele></trkpt>
   <trkpt lat="38.693581" lon="-0.09412"><ele>519.25</ele></trkpt>
   <trkpt lat="38.693648" lon="-0.094164"><ele>519</ele></trkpt>
   <trkpt lat="38.693709" lon="-0.094237"><ele>519</ele></trkpt>
   <trkpt lat="38.694024" lon="-0.094785"><ele>521.5</ele></trkpt>
   <trkpt lat="38.694039" lon="-0.09487"><ele>522</ele></trkpt>
   <trkpt lat="38.694046" lon="-0.094996"><ele>522</ele></trkpt>
   <trkpt lat="38.694027" lon="-0.095331"><ele>526</ele></trkpt>
   <trkpt lat="38.694037" lon="-0.095481"><ele>525.5</ele></trkpt>
   <trkpt lat="38.694059" lon="-0.095629"><ele>525.25</ele></trkpt>
   <trkpt lat="38.69409" lon="-0.095745"><ele>525.25</ele></trkpt>
   <trkpt lat="38.694127" lon="-0.095836"><ele>525.5</ele></trkpt>
   <trkpt lat="38.694182" lon="-0.095903"><ele>526.25</ele></trkpt>
   <trkpt lat="38.694299" lon="-0.095999"><ele>527.25</ele></trkpt>
   <trkpt lat="38.694433" lon="-0.096059"><ele>528.75</ele></trkpt>
   <trkpt lat="38.694609" lon="-0.09617"><ele>528.5</ele></trkpt>
   <trkpt lat="38.694803" lon="-0.096311"><ele>529.25</ele></trkpt>
   <trkpt lat="38.694879" lon="-0.096373"><ele>529.5</ele></trkpt>
   <trkpt lat="38.694943" lon="-0.09644"><ele>530</ele></trkpt>
   <trkpt lat="38.695059" lon="-0.096572"><ele>530.75</ele></trkpt>
   <trkpt lat="38.695344" lon="-0.096957"><ele>534.5</ele></trkpt>
   <trkpt lat="38.695734" lon="-0.097573"><ele>536.75</ele></trkpt>
   <trkpt lat="38.695802" lon="-0.097664"><ele>537.5</ele></trkpt>
   <trkpt lat="38.696559" lon="-0.098555"><ele>542.75</ele></trkpt>
   <trkpt lat="38.696638" lon="-0.098683"><ele>544.25</ele></trkpt>
   <trkpt lat="38.696748" lon="-0.098972"><ele>547.5</ele></trkpt>
   <trkpt lat="38.696918" lon="-0.099567"><ele>549</ele></trkpt>
   <trkpt lat="38.69698" lon="-0.099829"><ele>551</ele></trkpt>
   <trkpt lat="38.697005" lon="-0.099985"><ele>551.25</ele></trkpt>
   <trkpt lat="38.697012" lon="-0.100081"><ele>552</ele></trkpt>
   <trkpt lat="38.69701" lon="-0.100165"><ele>552.25</ele></trkpt>
   <trkpt lat="38.696979" lon="-0.10045"><ele>553</ele></trkpt>
   <trkpt lat="38.696959" lon="-0.100561"><ele>553.5</ele></trkpt>
   <trkpt lat="38.696933" lon="-0.100682"><ele>554</ele></trkpt>
   <trkpt lat="38.696881" lon="-0.100847"><ele>554.75</ele></trkpt>
   <trkpt lat="38.696771" lon="-0.101097"><ele>555.25</ele></trkpt>
   <trkpt lat="38.696712" lon="-0.101255"><ele>555.75</ele></trkpt>
   <trkpt lat="38.696688" lon="-0.101374"><ele>556.25</ele></trkpt>
   <trkpt lat="38.696674" lon="-0.101519"><ele>557</ele></trkpt>
   <trkpt lat="38.696641" lon="-0.101858"><ele>559</ele></trkpt>
   <trkpt lat="38.696639" lon="-0.101888"><ele>559</ele></trkpt>
   <trkpt lat="38.696626" lon="-0.102033"><ele>559.5</ele></trkpt>
   <trkpt lat="38.696562" lon="-0.10273"><ele>564</ele></trkpt>
   <trkpt lat="38.696536" lon="-0.102874"><ele>565.25</ele></trkpt>
   <trkpt lat="38.696504" lon="-0.102959"><ele>565.5</ele></trkpt>
   <trkpt lat="38.696475" lon="-0.103004"><ele>565.75</ele></trkpt>
   <trkpt lat="38.696421" lon="-0.103044"><ele>566</ele></trkpt>
   <trkpt lat="38.696337" lon="-0.103056"><ele>566.25</ele></trkpt>
   <trkpt lat="38.696176" lon="-0.103048"><ele>567.25</ele></trkpt>
   <trkpt lat="38.696127" lon="-0.103062"><ele>567.75</ele></trkpt>
   <trkpt lat="38.696079" lon="-0.103088"><ele>567.5</ele></trkpt>
   <trkpt lat="38.696023" lon="-0.103145"><ele>567</ele></trkpt>
   <trkpt lat="38.695955" lon="-0.103237"><ele>567.25</ele></trkpt>
   <trkpt lat="38.695812" lon="-0.103459"><ele>569</ele></trkpt>
   <trkpt lat="38.695766" lon="-0.103536"><ele>570.25</ele></trkpt>
   <trkpt lat="38.695734" lon="-0.10361"><ele>571.75</ele></trkpt>
   <trkpt lat="38.69572" lon="-0.103678"><ele>573</ele></trkpt>
   <trkpt lat="38.69572" lon="-0.10372"><ele>573.75</ele></trkpt>
   <trkpt lat="38.695721" lon="-0.103723"><ele>573.75</ele></trkpt>
   <trkpt lat="38.695729" lon="-0.103763"><ele>574.25</ele></trkpt>
   <trkpt lat="38.695777" lon="-0.103881"><ele>575.25</ele></trkpt>
   <trkpt lat="38.695804" lon="-0.103928"><ele>575.5</ele></trkpt>
   <trkpt lat="38.695858" lon="-0.104009"><ele>576.25</ele></trkpt>
   <trkpt lat="38.695967" lon="-0.104103"><ele>577</ele></trkpt>
   <trkpt lat="38.696038" lon="-0.104144"><ele>576.75</ele></trkpt>
   <trkpt lat="38.696751" lon="-0.104402"><ele>581.5</ele></trkpt>
   <trkpt lat="38.696817" lon="-0.104415"><ele>582</ele></trkpt>
   <trkpt lat="38.696893" lon="-0.104392"><ele>582</ele></trkpt>
   <trkpt lat="38.696961" lon="-0.104336"><ele>582</ele></trkpt>
   <trkpt lat="38.697075" lon="-0.10421"><ele>582.5</ele></trkpt>
   <trkpt lat="38.697321" lon="-0.103897"><ele>584.75</ele></trkpt>
   <trkpt lat="38.6974" lon="-0.103787"><ele>585.25</ele></trkpt>
   <trkpt lat="38.697416" lon="-0.103764"><ele>585.25</ele></trkpt>
   <trkpt lat="38.697472" lon="-0.103652"><ele>585.5</ele></trkpt>
   <trkpt lat="38.697516" lon="-0.103546"><ele>586.5</ele></trkpt>
   <trkpt lat="38.69754" lon="-0.103426"><ele>587.25</ele></trkpt>
   <trkpt lat="38.697554" lon="-0.103288"><ele>587.25</ele></trkpt>
   <trkpt lat="38.697581" lon="-0.102847"><ele>586.75</ele></trkpt>
   <trkpt lat="38.697595" lon="-0.102733"><ele>586.75</ele></trkpt>
   <trkpt lat="38.697621" lon="-0.102619"><ele>586.5</ele></trkpt>
   <trkpt lat="38.697641" lon="-0.102576"><ele>586.75</ele></trkpt>
   <trkpt lat="38.697693" lon="-0.1025"><ele>587.5</ele></trkpt>
   <trkpt lat="38.697837" lon="-0.102366"><ele>589.25</ele></trkpt>
   <trkpt lat="38.697947" lon="-0.102286"><ele>592.25</ele></trkpt>
   <trkpt lat="38.698155" lon="-0.102136"><ele>592.25</ele></trkpt>
   <trkpt lat="38.698239" lon="-0.102091"><ele>592.75</ele></trkpt>
   <trkpt lat="38.698279" lon="-0.10208"><ele>593.25</ele></trkpt>
   <trkpt lat="38.698363" lon="-0.10207"><ele>593.75</ele></trkpt>
    </trkseg>
 </trk>
</gpx>
 </trkseg>
 </trk>
</gpx>
