<?xml version="1.0" encoding="UTF-8"?>
<!-- track-length = 20041 filtered ascend = 629 plain-ascend = 602 cost=23782 energy=0.2kwh time=2h 9m 52s -->
<gpx 
 xmlns="http://www.topografix.com/GPX/1/1" 
 xmlns:xsi="http://www.w3.org/2001/XMLSchema-instance" 
 xsi:schemaLocation="http://www.topografix.com/GPX/1/1 http://www.topografix.com/GPX/1/1/gpx.xsd" 
 version="1.1" 
 creator="BRouter-Web 0.18.1">
 <trk>
  <name>Puerto de la Serratella (20km)</name>
  <trkseg>
   <trkpt lat="40.30752" lon="0.115973"><ele>178.5</ele></trkpt>
   <trkpt lat="40.307431" lon="0.115705"><ele>180.5</ele></trkpt>
   <trkpt lat="40.307392" lon="0.11559"><ele>181.5</ele></trkpt>
   <trkpt lat="40.307083" lon="0.114674"><ele>183.5</ele></trkpt>
   <trkpt lat="40.306873" lon="0.114051"><ele>185</ele></trkpt>
   <trkpt lat="40.306849" lon="0.113982"><ele>185</ele></trkpt>
   <trkpt lat="40.306838" lon="0.113881"><ele>185</ele></trkpt>
   <trkpt lat="40.306838" lon="0.113809"><ele>185.25</ele></trkpt>
   <trkpt lat="40.306848" lon="0.113736"><ele>185.5</ele></trkpt>
   <trkpt lat="40.306878" lon="0.113634"><ele>185.75</ele></trkpt>
   <trkpt lat="40.306915" lon="0.113613"><ele>185.75</ele></trkpt>
   <trkpt lat="40.306947" lon="0.113582"><ele>186</ele></trkpt>
   <trkpt lat="40.306975" lon="0.113543"><ele>186</ele></trkpt>
   <trkpt lat="40.307005" lon="0.113462"><ele>186</ele></trkpt>
   <trkpt lat="40.307012" lon="0.113372"><ele>186</ele></trkpt>
   <trkpt lat="40.306995" lon="0.113286"><ele>186</ele></trkpt>
   <trkpt lat="40.306957" lon="0.113213"><ele>186.25</ele></trkpt>
   <trkpt lat="40.306931" lon="0.113184"><ele>186.5</ele></trkpt>
   <trkpt lat="40.306881" lon="0.11315"><ele>186.5</ele></trkpt>
   <trkpt lat="40.306827" lon="0.113137"><ele>186.25</ele></trkpt>
   <trkpt lat="40.306771" lon="0.113144"><ele>186.25</ele></trkpt>
   <trkpt lat="40.306707" lon="0.113109"><ele>186</ele></trkpt>
   <trkpt lat="40.306304" lon="0.112731"><ele>186.25</ele></trkpt>
   <trkpt lat="40.305972" lon="0.112451"><ele>186.5</ele></trkpt>
   <trkpt lat="40.305819" lon="0.112367"><ele>186.25</ele></trkpt>
   <trkpt lat="40.30505" lon="0.111717"><ele>185.75</ele></trkpt>
   <trkpt lat="40.304422" lon="0.111198"><ele>185</ele></trkpt>
   <trkpt lat="40.304183" lon="0.111"><ele>185</ele></trkpt>
   <trkpt lat="40.303093" lon="0.110101"><ele>188</ele></trkpt>
   <trkpt lat="40.300398" lon="0.107878"><ele>198.5</ele></trkpt>
   <trkpt lat="40.297059" lon="0.105104"><ele>210.25</ele></trkpt>
   <trkpt lat="40.296866" lon="0.104922"><ele>211.25</ele></trkpt>
   <trkpt lat="40.296336" lon="0.104391"><ele>213.75</ele></trkpt>
   <trkpt lat="40.294947" lon="0.102878"><ele>218.5</ele></trkpt>
   <trkpt lat="40.293616" lon="0.101425"><ele>223.75</ele></trkpt>
   <trkpt lat="40.293154" lon="0.100964"><ele>223.25</ele></trkpt>
   <trkpt lat="40.292798" lon="0.100677"><ele>224</ele></trkpt>
   <trkpt lat="40.292461" lon="0.100451"><ele>224</ele></trkpt>
   <trkpt lat="40.291096" lon="0.099578"><ele>222</ele></trkpt>
   <trkpt lat="40.290839" lon="0.099414"><ele>224.25</ele></trkpt>
   <trkpt lat="40.288916" lon="0.098191"><ele>227.25</ele></trkpt>
   <trkpt lat="40.28821" lon="0.097778"><ele>227</ele></trkpt>
   <trkpt lat="40.28748" lon="0.097408"><ele>226.75</ele></trkpt>
   <trkpt lat="40.286908" lon="0.097136"><ele>226</ele></trkpt>
   <trkpt lat="40.286807" lon="0.097088"><ele>226</ele></trkpt>
   <trkpt lat="40.28669" lon="0.097033"><ele>226.25</ele></trkpt>
   <trkpt lat="40.286569" lon="0.096975"><ele>226.25</ele></trkpt>
   <trkpt lat="40.284789" lon="0.096122"><ele>225.5</ele></trkpt>
   <trkpt lat="40.284185" lon="0.095858"><ele>225.75</ele></trkpt>
   <trkpt lat="40.283864" lon="0.095723"><ele>226.25</ele></trkpt>
   <trkpt lat="40.283203" lon="0.095489"><ele>226.5</ele></trkpt>
   <trkpt lat="40.28272" lon="0.095338"><ele>225</ele></trkpt>
   <trkpt lat="40.281466" lon="0.094944"><ele>227</ele></trkpt>
   <trkpt lat="40.281405" lon="0.094925"><ele>227</ele></trkpt>
   <trkpt lat="40.280452" lon="0.094626"><ele>234.5</ele></trkpt>
   <trkpt lat="40.279512" lon="0.094289"><ele>239.5</ele></trkpt>
   <trkpt lat="40.279454" lon="0.094268"><ele>239.5</ele></trkpt>
   <trkpt lat="40.278599" lon="0.093917"><ele>239.75</ele></trkpt>
   <trkpt lat="40.275308" lon="0.092506"><ele>244.75</ele></trkpt>
   <trkpt lat="40.275065" lon="0.092402"><ele>245</ele></trkpt>
   <trkpt lat="40.274633" lon="0.092166"><ele>246.5</ele></trkpt>
   <trkpt lat="40.274307" lon="0.091947"><ele>246</ele></trkpt>
   <trkpt lat="40.274009" lon="0.091711"><ele>246.5</ele></trkpt>
   <trkpt lat="40.273603" lon="0.091312"><ele>245</ele></trkpt>
   <trkpt lat="40.273332" lon="0.090989"><ele>243.75</ele></trkpt>
   <trkpt lat="40.272988" lon="0.090502"><ele>242.5</ele></trkpt>
   <trkpt lat="40.271082" lon="0.087638"><ele>244.75</ele></trkpt>
   <trkpt lat="40.271028" lon="0.087557"><ele>244.75</ele></trkpt>
   <trkpt lat="40.266153" lon="0.080191"><ele>245.25</ele></trkpt>
   <trkpt lat="40.26587" lon="0.079816"><ele>246.5</ele></trkpt>
   <trkpt lat="40.265638" lon="0.079575"><ele>247.25</ele></trkpt>
   <trkpt lat="40.265343" lon="0.079314"><ele>248.25</ele></trkpt>
   <trkpt lat="40.263976" lon="0.078263"><ele>254</ele></trkpt>
   <trkpt lat="40.263452" lon="0.077889"><ele>257.25</ele></trkpt>
   <trkpt lat="40.263013" lon="0.077635"><ele>259</ele></trkpt>
   <trkpt lat="40.262752" lon="0.077536"><ele>260.75</ele></trkpt>
   <trkpt lat="40.262454" lon="0.077463"><ele>263</ele></trkpt>
   <trkpt lat="40.262071" lon="0.077416"><ele>266.25</ele></trkpt>
   <trkpt lat="40.261748" lon="0.077416"><ele>269.5</ele></trkpt>
   <trkpt lat="40.261367" lon="0.077474"><ele>274</ele></trkpt>
   <trkpt lat="40.260945" lon="0.077575"><ele>278</ele></trkpt>
   <trkpt lat="40.25999" lon="0.077926"><ele>282</ele></trkpt>
   <trkpt lat="40.259545" lon="0.077988"><ele>281.5</ele></trkpt>
   <trkpt lat="40.259269" lon="0.078008"><ele>280.25</ele></trkpt>
   <trkpt lat="40.259109" lon="0.07802"><ele>280.25</ele></trkpt>
   <trkpt lat="40.258654" lon="0.078016"><ele>279</ele></trkpt>
   <trkpt lat="40.25843" lon="0.077986"><ele>278</ele></trkpt>
   <trkpt lat="40.258398" lon="0.07802"><ele>277.5</ele></trkpt>
   <trkpt lat="40.25832" lon="0.078071"><ele>276.75</ele></trkpt>
   <trkpt lat="40.258305" lon="0.078189"><ele>275.75</ele></trkpt>
   <trkpt lat="40.258401" lon="0.078398"><ele>276</ele></trkpt>
   <trkpt lat="40.25852" lon="0.078782"><ele>276</ele></trkpt>
   <trkpt lat="40.258667" lon="0.079543"><ele>279</ele></trkpt>
   <trkpt lat="40.258761" lon="0.07983"><ele>279.5</ele></trkpt>
   <trkpt lat="40.258917" lon="0.08013"><ele>279.5</ele></trkpt>
   <trkpt lat="40.259127" lon="0.080495"><ele>279.5</ele></trkpt>
   <trkpt lat="40.259201" lon="0.080562"><ele>278.75</ele></trkpt>
   <trkpt lat="40.259307" lon="0.080567"><ele>278.5</ele></trkpt>
   <trkpt lat="40.259368" lon="0.080525"><ele>278.25</ele></trkpt>
   <trkpt lat="40.259419" lon="0.080442"><ele>278.75</ele></trkpt>
   <trkpt lat="40.260181" lon="0.078184"><ele>286.25</ele></trkpt>
   <trkpt lat="40.260404" lon="0.077524"><ele>286.75</ele></trkpt>
   <trkpt lat="40.260746" lon="0.076523"><ele>292.25</ele></trkpt>
   <trkpt lat="40.261037" lon="0.075677"><ele>292.25</ele></trkpt>
   <trkpt lat="40.261909" lon="0.073281"><ele>297</ele></trkpt>
   <trkpt lat="40.261928" lon="0.073227"><ele>297.25</ele></trkpt>
   <trkpt lat="40.262159" lon="0.072648"><ele>299.25</ele></trkpt>
   <trkpt lat="40.262754" lon="0.071076"><ele>303</ele></trkpt>
   <trkpt lat="40.262791" lon="0.070978"><ele>303.25</ele></trkpt>
   <trkpt lat="40.2629" lon="0.070736"><ele>303</ele></trkpt>
   <trkpt lat="40.262989" lon="0.070615"><ele>304</ele></trkpt>
   <trkpt lat="40.263027" lon="0.070562"><ele>304.75</ele></trkpt>
   <trkpt lat="40.263117" lon="0.07034"><ele>305.25</ele></trkpt>
   <trkpt lat="40.263238" lon="0.070153"><ele>305.5</ele></trkpt>
   <trkpt lat="40.263273" lon="0.0701"><ele>306</ele></trkpt>
   <trkpt lat="40.263301" lon="0.069954"><ele>307</ele></trkpt>
   <trkpt lat="40.263305" lon="0.069935"><ele>307</ele></trkpt>
   <trkpt lat="40.263331" lon="0.069803"><ele>307.5</ele></trkpt>
   <trkpt lat="40.263388" lon="0.069508"><ele>308.75</ele></trkpt>
   <trkpt lat="40.263407" lon="0.069413"><ele>309.25</ele></trkpt>
   <trkpt lat="40.26343" lon="0.069159"><ele>310.25</ele></trkpt>
   <trkpt lat="40.263435" lon="0.069113"><ele>310.5</ele></trkpt>
   <trkpt lat="40.263447" lon="0.068981"><ele>311</ele></trkpt>
   <trkpt lat="40.26346" lon="0.068451"><ele>311.75</ele></trkpt>
   <trkpt lat="40.263499" lon="0.068224"><ele>312.25</ele></trkpt>
   <trkpt lat="40.263578" lon="0.068074"><ele>312.75</ele></trkpt>
   <trkpt lat="40.263945" lon="0.067659"><ele>314.75</ele></trkpt>
   <trkpt lat="40.265664" lon="0.065739"><ele>322.75</ele></trkpt>
   <trkpt lat="40.266408" lon="0.065145"><ele>326</ele></trkpt>
   <trkpt lat="40.267672" lon="0.064135"><ele>331.5</ele></trkpt>
   <trkpt lat="40.267971" lon="0.063783"><ele>333</ele></trkpt>
   <trkpt lat="40.268175" lon="0.063464"><ele>334.75</ele></trkpt>
   <trkpt lat="40.269107" lon="0.061775"><ele>340.5</ele></trkpt>
   <trkpt lat="40.270391" lon="0.059449"><ele>352.25</ele></trkpt>
   <trkpt lat="40.271066" lon="0.058226"><ele>358.5</ele></trkpt>
   <trkpt lat="40.271268" lon="0.057793"><ele>360.75</ele></trkpt>
   <trkpt lat="40.271375" lon="0.057364"><ele>363.25</ele></trkpt>
   <trkpt lat="40.27153" lon="0.054025"><ele>374.75</ele></trkpt>
   <trkpt lat="40.271675" lon="0.053381"><ele>378.5</ele></trkpt>
   <trkpt lat="40.271774" lon="0.052941"><ele>379.5</ele></trkpt>
   <trkpt lat="40.271891" lon="0.052684"><ele>381</ele></trkpt>
   <trkpt lat="40.272643" lon="0.051707"><ele>383.5</ele></trkpt>
   <trkpt lat="40.272711" lon="0.051542"><ele>383.5</ele></trkpt>
   <trkpt lat="40.272711" lon="0.051414"><ele>384.75</ele></trkpt>
   <trkpt lat="40.272658" lon="0.051302"><ele>383.5</ele></trkpt>
   <trkpt lat="40.272577" lon="0.051274"><ele>383.75</ele></trkpt>
   <trkpt lat="40.271671" lon="0.051431"><ele>387.75</ele></trkpt>
   <trkpt lat="40.271515" lon="0.051403"><ele>388.75</ele></trkpt>
   <trkpt lat="40.271409" lon="0.05129"><ele>388.25</ele></trkpt>
   <trkpt lat="40.271245" lon="0.050848"><ele>389.5</ele></trkpt>
   <trkpt lat="40.27121" lon="0.05057"><ele>390.75</ele></trkpt>
   <trkpt lat="40.271224" lon="0.050377"><ele>391</ele></trkpt>
   <trkpt lat="40.271596" lon="0.049506"><ele>392.25</ele></trkpt>
   <trkpt lat="40.271994" lon="0.048938"><ele>393.75</ele></trkpt>
   <trkpt lat="40.272561" lon="0.048414"><ele>395.25</ele></trkpt>
   <trkpt lat="40.272631" lon="0.048305"><ele>395.5</ele></trkpt>
   <trkpt lat="40.272633" lon="0.048156"><ele>395.75</ele></trkpt>
   <trkpt lat="40.271917" lon="0.045444"><ele>409</ele></trkpt>
   <trkpt lat="40.271888" lon="0.045183"><ele>411.5</ele></trkpt>
   <trkpt lat="40.271898" lon="0.045053"><ele>412.5</ele></trkpt>
   <trkpt lat="40.271974" lon="0.044848"><ele>413.75</ele></trkpt>
   <trkpt lat="40.272241" lon="0.044409"><ele>413</ele></trkpt>
   <trkpt lat="40.272309" lon="0.044181"><ele>414.75</ele></trkpt>
   <trkpt lat="40.272306" lon="0.043763"><ele>413.75</ele></trkpt>
   <trkpt lat="40.272205" lon="0.043303"><ele>415.75</ele></trkpt>
   <trkpt lat="40.271436" lon="0.041627"><ele>423.75</ele></trkpt>
   <trkpt lat="40.271389" lon="0.041414"><ele>423.25</ele></trkpt>
   <trkpt lat="40.271526" lon="0.040353"><ele>427.5</ele></trkpt>
   <trkpt lat="40.271552" lon="0.040057"><ele>428.5</ele></trkpt>
   <trkpt lat="40.271534" lon="0.03986"><ele>429</ele></trkpt>
   <trkpt lat="40.27127" lon="0.039347"><ele>434.25</ele></trkpt>
   <trkpt lat="40.271236" lon="0.039149"><ele>434</ele></trkpt>
   <trkpt lat="40.271251" lon="0.038988"><ele>434.25</ele></trkpt>
   <trkpt lat="40.271304" lon="0.038844"><ele>434.25</ele></trkpt>
   <trkpt lat="40.271389" lon="0.038758"><ele>433.75</ele></trkpt>
   <trkpt lat="40.271997" lon="0.038465"><ele>436.75</ele></trkpt>
   <trkpt lat="40.272115" lon="0.038428"><ele>435.75</ele></trkpt>
   <trkpt lat="40.272216" lon="0.038448"><ele>434</ele></trkpt>
   <trkpt lat="40.272276" lon="0.03852"><ele>432.25</ele></trkpt>
   <trkpt lat="40.272401" lon="0.038729"><ele>432.25</ele></trkpt>
   <trkpt lat="40.272444" lon="0.038784"><ele>434.25</ele></trkpt>
   <trkpt lat="40.272494" lon="0.0388"><ele>436.5</ele></trkpt>
   <trkpt lat="40.272562" lon="0.038784"><ele>437.5</ele></trkpt>
   <trkpt lat="40.272967" lon="0.038439"><ele>441</ele></trkpt>
   <trkpt lat="40.273317" lon="0.037948"><ele>444.5</ele></trkpt>
   <trkpt lat="40.273379" lon="0.037789"><ele>445.5</ele></trkpt>
   <trkpt lat="40.273589" lon="0.036843"><ele>450</ele></trkpt>
   <trkpt lat="40.273658" lon="0.036639"><ele>451.75</ele></trkpt>
   <trkpt lat="40.273767" lon="0.036484"><ele>452.5</ele></trkpt>
   <trkpt lat="40.274195" lon="0.036313"><ele>457.25</ele></trkpt>
   <trkpt lat="40.275204" lon="0.035722"><ele>466.5</ele></trkpt>
   <trkpt lat="40.275777" lon="0.035233"><ele>472.5</ele></trkpt>
   <trkpt lat="40.275904" lon="0.035233"><ele>474.5</ele></trkpt>
   <trkpt lat="40.27598" lon="0.035332"><ele>475.5</ele></trkpt>
   <trkpt lat="40.276009" lon="0.035469"><ele>476.25</ele></trkpt>
   <trkpt lat="40.275977" lon="0.035726"><ele>477.25</ele></trkpt>
   <trkpt lat="40.275718" lon="0.036282"><ele>480.5</ele></trkpt>
   <trkpt lat="40.275716" lon="0.03642"><ele>482</ele></trkpt>
   <trkpt lat="40.27578" lon="0.036623"><ele>483</ele></trkpt>
   <trkpt lat="40.275892" lon="0.036721"><ele>483.5</ele></trkpt>
   <trkpt lat="40.275987" lon="0.036765"><ele>484</ele></trkpt>
   <trkpt lat="40.276079" lon="0.036743"><ele>483.75</ele></trkpt>
   <trkpt lat="40.276703" lon="0.036312"><ele>487.5</ele></trkpt>
   <trkpt lat="40.276783" lon="0.036193"><ele>489</ele></trkpt>
   <trkpt lat="40.27708" lon="0.035141"><ele>495.5</ele></trkpt>
   <trkpt lat="40.277062" lon="0.034581"><ele>499</ele></trkpt>
   <trkpt lat="40.276916" lon="0.034141"><ele>500.25</ele></trkpt>
   <trkpt lat="40.276934" lon="0.034049"><ele>500.75</ele></trkpt>
   <trkpt lat="40.277004" lon="0.033997"><ele>502.5</ele></trkpt>
   <trkpt lat="40.277086" lon="0.034018"><ele>504.75</ele></trkpt>
   <trkpt lat="40.277273" lon="0.03444"><ele>507.75</ele></trkpt>
   <trkpt lat="40.277411" lon="0.034662"><ele>508.25</ele></trkpt>
   <trkpt lat="40.27775" lon="0.035004"><ele>512.25</ele></trkpt>
   <trkpt lat="40.277966" lon="0.035487"><ele>514.5</ele></trkpt>
   <trkpt lat="40.278037" lon="0.03561"><ele>514.75</ele></trkpt>
   <trkpt lat="40.278229" lon="0.035809"><ele>516.5</ele></trkpt>
   <trkpt lat="40.278364" lon="0.035883"><ele>517.25</ele></trkpt>
   <trkpt lat="40.278452" lon="0.035854"><ele>518.25</ele></trkpt>
   <trkpt lat="40.278494" lon="0.035747"><ele>520.75</ele></trkpt>
   <trkpt lat="40.278473" lon="0.035613"><ele>523.25</ele></trkpt>
   <trkpt lat="40.278278" lon="0.03535"><ele>524.5</ele></trkpt>
   <trkpt lat="40.277801" lon="0.034263"><ele>530.5</ele></trkpt>
   <trkpt lat="40.277795" lon="0.034114"><ele>531.5</ele></trkpt>
   <trkpt lat="40.277879" lon="0.034015"><ele>532.25</ele></trkpt>
   <trkpt lat="40.277975" lon="0.033998"><ele>534.25</ele></trkpt>
   <trkpt lat="40.278081" lon="0.034062"><ele>536</ele></trkpt>
   <trkpt lat="40.278593" lon="0.035075"><ele>537.75</ele></trkpt>
   <trkpt lat="40.278955" lon="0.035369"><ele>539.75</ele></trkpt>
   <trkpt lat="40.279087" lon="0.03545"><ele>539.5</ele></trkpt>
   <trkpt lat="40.279242" lon="0.035427"><ele>540.25</ele></trkpt>
   <trkpt lat="40.279613" lon="0.035074"><ele>548.25</ele></trkpt>
   <trkpt lat="40.279749" lon="0.035031"><ele>548.5</ele></trkpt>
   <trkpt lat="40.27981" lon="0.035057"><ele>551.75</ele></trkpt>
   <trkpt lat="40.279968" lon="0.035612"><ele>547</ele></trkpt>
   <trkpt lat="40.280182" lon="0.035985"><ele>549.25</ele></trkpt>
   <trkpt lat="40.280299" lon="0.036073"><ele>552.25</ele></trkpt>
   <trkpt lat="40.280438" lon="0.036235"><ele>554</ele></trkpt>
   <trkpt lat="40.280492" lon="0.036396"><ele>553</ele></trkpt>
   <trkpt lat="40.280503" lon="0.036568"><ele>554</ele></trkpt>
   <trkpt lat="40.280505" lon="0.036721"><ele>553.75</ele></trkpt>
   <trkpt lat="40.280538" lon="0.036861"><ele>554</ele></trkpt>
   <trkpt lat="40.280679" lon="0.037086"><ele>557.25</ele></trkpt>
   <trkpt lat="40.28073" lon="0.037195"><ele>557.75</ele></trkpt>
   <trkpt lat="40.280785" lon="0.037575"><ele>555.75</ele></trkpt>
   <trkpt lat="40.280844" lon="0.037778"><ele>558.25</ele></trkpt>
   <trkpt lat="40.280957" lon="0.037937"><ele>558</ele></trkpt>
   <trkpt lat="40.281093" lon="0.038036"><ele>559</ele></trkpt>
   <trkpt lat="40.281274" lon="0.038075"><ele>560.5</ele></trkpt>
   <trkpt lat="40.281584" lon="0.038073"><ele>563</ele></trkpt>
   <trkpt lat="40.281789" lon="0.037999"><ele>564.5</ele></trkpt>
   <trkpt lat="40.282024" lon="0.037816"><ele>566.25</ele></trkpt>
   <trkpt lat="40.282212" lon="0.03761"><ele>567.75</ele></trkpt>
   <trkpt lat="40.282311" lon="0.037408"><ele>570.75</ele></trkpt>
   <trkpt lat="40.282406" lon="0.03717"><ele>573.5</ele></trkpt>
   <trkpt lat="40.282492" lon="0.037008"><ele>573.75</ele></trkpt>
   <trkpt lat="40.282887" lon="0.036586"><ele>577.75</ele></trkpt>
   <trkpt lat="40.282979" lon="0.036519"><ele>578</ele></trkpt>
   <trkpt lat="40.283041" lon="0.036509"><ele>576.5</ele></trkpt>
   <trkpt lat="40.283107" lon="0.036528"><ele>578</ele></trkpt>
   <trkpt lat="40.283407" lon="0.036841"><ele>577.75</ele></trkpt>
   <trkpt lat="40.283513" lon="0.036907"><ele>577.75</ele></trkpt>
   <trkpt lat="40.283647" lon="0.036903"><ele>580.25</ele></trkpt>
   <trkpt lat="40.283907" lon="0.036792"><ele>582</ele></trkpt>
   <trkpt lat="40.284037" lon="0.036768"><ele>583.25</ele></trkpt>
   <trkpt lat="40.284094" lon="0.036773"><ele>583</ele></trkpt>
   <trkpt lat="40.284149" lon="0.036799"><ele>582</ele></trkpt>
   <trkpt lat="40.284189" lon="0.036838"><ele>583</ele></trkpt>
   <trkpt lat="40.284224" lon="0.036894"><ele>584.75</ele></trkpt>
   <trkpt lat="40.284253" lon="0.03697"><ele>585.5</ele></trkpt>
   <trkpt lat="40.284308" lon="0.037219"><ele>582.75</ele></trkpt>
   <trkpt lat="40.284365" lon="0.037379"><ele>582</ele></trkpt>
   <trkpt lat="40.284506" lon="0.037628"><ele>584.75</ele></trkpt>
   <trkpt lat="40.28454" lon="0.037704"><ele>584.75</ele></trkpt>
   <trkpt lat="40.284557" lon="0.037758"><ele>584</ele></trkpt>
   <trkpt lat="40.284568" lon="0.037841"><ele>584</ele></trkpt>
   <trkpt lat="40.284565" lon="0.037942"><ele>584.25</ele></trkpt>
   <trkpt lat="40.284555" lon="0.038002"><ele>583.75</ele></trkpt>
   <trkpt lat="40.284472" lon="0.038346"><ele>585</ele></trkpt>
   <trkpt lat="40.284444" lon="0.038527"><ele>584.25</ele></trkpt>
   <trkpt lat="40.284433" lon="0.038819"><ele>584.25</ele></trkpt>
   <trkpt lat="40.284455" lon="0.038949"><ele>584.75</ele></trkpt>
   <trkpt lat="40.284486" lon="0.03904"><ele>584.75</ele></trkpt>
   <trkpt lat="40.284536" lon="0.039124"><ele>585.25</ele></trkpt>
   <trkpt lat="40.284594" lon="0.039184"><ele>585.75</ele></trkpt>
   <trkpt lat="40.284654" lon="0.039223"><ele>586</ele></trkpt>
   <trkpt lat="40.284727" lon="0.039248"><ele>587</ele></trkpt>
   <trkpt lat="40.285341" lon="0.039234"><ele>593</ele></trkpt>
   <trkpt lat="40.28544" lon="0.039253"><ele>594.25</ele></trkpt>
   <trkpt lat="40.285516" lon="0.039289"><ele>594.5</ele></trkpt>
   <trkpt lat="40.285582" lon="0.039341"><ele>595</ele></trkpt>
   <trkpt lat="40.285616" lon="0.039383"><ele>595.25</ele></trkpt>
   <trkpt lat="40.285898" lon="0.039917"><ele>597.75</ele></trkpt>
   <trkpt lat="40.286086" lon="0.040183"><ele>600.5</ele></trkpt>
   <trkpt lat="40.286183" lon="0.040277"><ele>601.75</ele></trkpt>
   <trkpt lat="40.286287" lon="0.040359"><ele>601.75</ele></trkpt>
   <trkpt lat="40.286377" lon="0.040414"><ele>602.75</ele></trkpt>
   <trkpt lat="40.286573" lon="0.040496"><ele>604.5</ele></trkpt>
   <trkpt lat="40.286774" lon="0.040565"><ele>605.75</ele></trkpt>
   <trkpt lat="40.28702" lon="0.040591"><ele>607.25</ele></trkpt>
   <trkpt lat="40.287161" lon="0.040583"><ele>608.5</ele></trkpt>
   <trkpt lat="40.287295" lon="0.040554"><ele>610</ele></trkpt>
   <trkpt lat="40.287426" lon="0.040498"><ele>611</ele></trkpt>
   <trkpt lat="40.28753" lon="0.040432"><ele>611.5</ele></trkpt>
   <trkpt lat="40.287592" lon="0.040368"><ele>611.5</ele></trkpt>
   <trkpt lat="40.287638" lon="0.040296"><ele>612</ele></trkpt>
   <trkpt lat="40.287689" lon="0.040193"><ele>612.5</ele></trkpt>
   <trkpt lat="40.287729" lon="0.040071"><ele>613.25</ele></trkpt>
   <trkpt lat="40.287733" lon="0.039913"><ele>614.5</ele></trkpt>
   <trkpt lat="40.287723" lon="0.039832"><ele>615</ele></trkpt>
   <trkpt lat="40.287473" lon="0.038461"><ele>621</ele></trkpt>
   <trkpt lat="40.287138" lon="0.03751"><ele>625.75</ele></trkpt>
   <trkpt lat="40.287069" lon="0.037253"><ele>627.5</ele></trkpt>
   <trkpt lat="40.287055" lon="0.037106"><ele>628.75</ele></trkpt>
   <trkpt lat="40.287074" lon="0.036815"><ele>630</ele></trkpt>
   <trkpt lat="40.287125" lon="0.03656"><ele>631</ele></trkpt>
   <trkpt lat="40.287185" lon="0.036376"><ele>631</ele></trkpt>
   <trkpt lat="40.287511" lon="0.035735"><ele>632.5</ele></trkpt>
   <trkpt lat="40.287543" lon="0.035577"><ele>633</ele></trkpt>
   <trkpt lat="40.287549" lon="0.03529"><ele>636.5</ele></trkpt>
   <trkpt lat="40.287569" lon="0.035123"><ele>637.25</ele></trkpt>
   <trkpt lat="40.287614" lon="0.034986"><ele>637.25</ele></trkpt>
   <trkpt lat="40.287739" lon="0.03483"><ele>638.25</ele></trkpt>
   <trkpt lat="40.287891" lon="0.034738"><ele>640.5</ele></trkpt>
   <trkpt lat="40.288014" lon="0.034771"><ele>640</ele></trkpt>
   <trkpt lat="40.288107" lon="0.034869"><ele>640.75</ele></trkpt>
   <trkpt lat="40.288429" lon="0.035535"><ele>643</ele></trkpt>
   <trkpt lat="40.288666" lon="0.035816"><ele>644.5</ele></trkpt>
   <trkpt lat="40.288863" lon="0.03599"><ele>645.25</ele></trkpt>
   <trkpt lat="40.288941" lon="0.035993"><ele>645</ele></trkpt>
   <trkpt lat="40.289001" lon="0.035928"><ele>644.75</ele></trkpt>
   <trkpt lat="40.289023" lon="0.035818"><ele>645.5</ele></trkpt>
   <trkpt lat="40.288961" lon="0.035393"><ele>651.25</ele></trkpt>
   <trkpt lat="40.288956" lon="0.035143"><ele>652.5</ele></trkpt>
   <trkpt lat="40.289002" lon="0.034244"><ele>658.25</ele></trkpt>
   <trkpt lat="40.288929" lon="0.033827"><ele>661.25</ele></trkpt>
   <trkpt lat="40.288946" lon="0.033558"><ele>662.75</ele></trkpt>
   <trkpt lat="40.288982" lon="0.033336"><ele>664.25</ele></trkpt>
   <trkpt lat="40.289044" lon="0.033174"><ele>666.25</ele></trkpt>
   <trkpt lat="40.289171" lon="0.033031"><ele>667.25</ele></trkpt>
   <trkpt lat="40.28942" lon="0.032903"><ele>669</ele></trkpt>
   <trkpt lat="40.289534" lon="0.032862"><ele>670.25</ele></trkpt>
   <trkpt lat="40.289654" lon="0.032862"><ele>671</ele></trkpt>
   <trkpt lat="40.289826" lon="0.032921"><ele>672.25</ele></trkpt>
   <trkpt lat="40.290021" lon="0.033048"><ele>673.75</ele></trkpt>
   <trkpt lat="40.290127" lon="0.033174"><ele>674.5</ele></trkpt>
   <trkpt lat="40.290301" lon="0.033648"><ele>676.5</ele></trkpt>
   <trkpt lat="40.290373" lon="0.033759"><ele>675.25</ele></trkpt>
   <trkpt lat="40.29046" lon="0.033795"><ele>676.25</ele></trkpt>
   <trkpt lat="40.290564" lon="0.03378"><ele>678.5</ele></trkpt>
   <trkpt lat="40.290956" lon="0.033421"><ele>683.25</ele></trkpt>
   <trkpt lat="40.290991" lon="0.033289"><ele>685.5</ele></trkpt>
   <trkpt lat="40.290986" lon="0.033122"><ele>687.25</ele></trkpt>
   <trkpt lat="40.290907" lon="0.032957"><ele>689.25</ele></trkpt>
   <trkpt lat="40.290792" lon="0.032833"><ele>690.5</ele></trkpt>
   <trkpt lat="40.290444" lon="0.032629"><ele>692</ele></trkpt>
   <trkpt lat="40.290309" lon="0.032491"><ele>693.5</ele></trkpt>
   <trkpt lat="40.290027" lon="0.032042"><ele>698.75</ele></trkpt>
   <trkpt lat="40.289393" lon="0.031639"><ele>703.75</ele></trkpt>
   <trkpt lat="40.288188" lon="0.031304"><ele>711.5</ele></trkpt>
   <trkpt lat="40.288077" lon="0.031227"><ele>713</ele></trkpt>
   <trkpt lat="40.287981" lon="0.030989"><ele>716.25</ele></trkpt>
   <trkpt lat="40.28797" lon="0.030882"><ele>717.25</ele></trkpt>
   <trkpt lat="40.287968" lon="0.030719"><ele>717.75</ele></trkpt>
   <trkpt lat="40.288009" lon="0.030603"><ele>718.75</ele></trkpt>
   <trkpt lat="40.288084" lon="0.030578"><ele>720.25</ele></trkpt>
   <trkpt lat="40.288574" lon="0.030744"><ele>725</ele></trkpt>
   <trkpt lat="40.288952" lon="0.030872"><ele>727.5</ele></trkpt>
   <trkpt lat="40.289133" lon="0.030908"><ele>728.75</ele></trkpt>
   <trkpt lat="40.289606" lon="0.03096"><ele>734</ele></trkpt>
   <trkpt lat="40.289816" lon="0.031015"><ele>735.75</ele></trkpt>
   <trkpt lat="40.290912" lon="0.031373"><ele>743.25</ele></trkpt>
   <trkpt lat="40.291087" lon="0.031395"><ele>744.25</ele></trkpt>
   <trkpt lat="40.291419" lon="0.031396"><ele>747.75</ele></trkpt>
   <trkpt lat="40.291576" lon="0.031384"><ele>748.75</ele></trkpt>
   <trkpt lat="40.292216" lon="0.031284"><ele>752.75</ele></trkpt>
   <trkpt lat="40.292294" lon="0.031271"><ele>753.75</ele></trkpt>
   <trkpt lat="40.292515" lon="0.031238"><ele>756.5</ele></trkpt>
   <trkpt lat="40.292657" lon="0.031173"><ele>757.5</ele></trkpt>
   <trkpt lat="40.292771" lon="0.031083"><ele>756.5</ele></trkpt>
   <trkpt lat="40.293173" lon="0.030766"><ele>756</ele></trkpt>
   <trkpt lat="40.293332" lon="0.03068"><ele>756.5</ele></trkpt>
   <trkpt lat="40.293909" lon="0.030509"><ele>756</ele></trkpt>
   <trkpt lat="40.294097" lon="0.030511"><ele>755.25</ele></trkpt>
   <trkpt lat="40.295161" lon="0.030929"><ele>753.25</ele></trkpt>
   <trkpt lat="40.295237" lon="0.030959"><ele>752.75</ele></trkpt>
   <trkpt lat="40.295403" lon="0.030993"><ele>752.25</ele></trkpt>
   <trkpt lat="40.295553" lon="0.030981"><ele>751.5</ele></trkpt>
   <trkpt lat="40.29587" lon="0.030823"><ele>755.25</ele></trkpt>
   <trkpt lat="40.296035" lon="0.030695"><ele>756.5</ele></trkpt>
   <trkpt lat="40.296073" lon="0.030634"><ele>756.75</ele></trkpt>
   <trkpt lat="40.296103" lon="0.030586"><ele>756.75</ele></trkpt>
   <trkpt lat="40.296239" lon="0.030264"><ele>758</ele></trkpt>
   <trkpt lat="40.296296" lon="0.030185"><ele>758</ele></trkpt>
   <trkpt lat="40.296371" lon="0.030135"><ele>759</ele></trkpt>
   <trkpt lat="40.296585" lon="0.030127"><ele>760.25</ele></trkpt>
   <trkpt lat="40.296673" lon="0.030075"><ele>760.5</ele></trkpt>
   <trkpt lat="40.296759" lon="0.029971"><ele>761.5</ele></trkpt>
   <trkpt lat="40.296797" lon="0.029832"><ele>761.75</ele></trkpt>
   <trkpt lat="40.296808" lon="0.029117"><ele>765.25</ele></trkpt>
   <trkpt lat="40.296796" lon="0.02896"><ele>767</ele></trkpt>
   <trkpt lat="40.29669" lon="0.028698"><ele>766.5</ele></trkpt>
   <trkpt lat="40.296114" lon="0.027573"><ele>769</ele></trkpt>
   <trkpt lat="40.29606" lon="0.027351"><ele>769.75</ele></trkpt>
   <trkpt lat="40.296048" lon="0.027212"><ele>770.75</ele></trkpt>
   <trkpt lat="40.296073" lon="0.027119"><ele>769.5</ele></trkpt>
   <trkpt lat="40.296124" lon="0.02706"><ele>769.5</ele></trkpt>
   <trkpt lat="40.296342" lon="0.026995"><ele>770.5</ele></trkpt>
   <trkpt lat="40.296473" lon="0.026982"><ele>770</ele></trkpt>
   <trkpt lat="40.296566" lon="0.027036"><ele>770.25</ele></trkpt>
   <trkpt lat="40.297276" lon="0.027773"><ele>776.5</ele></trkpt>
   <trkpt lat="40.299062" lon="0.029627"><ele>794.25</ele></trkpt>
   <trkpt lat="40.299134" lon="0.029679"><ele>795</ele></trkpt>
   <trkpt lat="40.299218" lon="0.029687"><ele>796.25</ele></trkpt>
   <trkpt lat="40.2993" lon="0.029645"><ele>797</ele></trkpt>
   <trkpt lat="40.299431" lon="0.029481"><ele>797</ele></trkpt>
   <trkpt lat="40.299564" lon="0.029227"><ele>798.75</ele></trkpt>
   <trkpt lat="40.299819" lon="0.028665"><ele>800.5</ele></trkpt>
   <trkpt lat="40.299864" lon="0.028615"><ele>800.5</ele></trkpt>
   <trkpt lat="40.299965" lon="0.028605"><ele>802</ele></trkpt>
   <trkpt lat="40.300535" lon="0.02894"><ele>804</ele></trkpt>
   <trkpt lat="40.300961" lon="0.029327"><ele>802.5</ele></trkpt>
   <trkpt lat="40.302122" lon="0.030356"><ele>802.25</ele></trkpt>
   <trkpt lat="40.302219" lon="0.030384"><ele>801.75</ele></trkpt>
   <trkpt lat="40.302716" lon="0.03033"><ele>803.25</ele></trkpt>
   <trkpt lat="40.302847" lon="0.030337"><ele>804.25</ele></trkpt>
   <trkpt lat="40.302928" lon="0.030356"><ele>804.75</ele></trkpt>
   <trkpt lat="40.303023" lon="0.03043"><ele>804.5</ele></trkpt>
   <trkpt lat="40.303596" lon="0.031163"><ele>802.25</ele></trkpt>
   <trkpt lat="40.303704" lon="0.031222"><ele>802</ele></trkpt>
   <trkpt lat="40.303835" lon="0.031237"><ele>802.25</ele></trkpt>
   <trkpt lat="40.304646" lon="0.030968"><ele>804</ele></trkpt>
   <trkpt lat="40.304745" lon="0.030915"><ele>804.25</ele></trkpt>
   <trkpt lat="40.304814" lon="0.030796"><ele>804.25</ele></trkpt>
   <trkpt lat="40.304918" lon="0.030367"><ele>806.25</ele></trkpt>
   <trkpt lat="40.305014" lon="0.03024"><ele>806.5</ele></trkpt>
   <trkpt lat="40.305142" lon="0.03019"><ele>807.5</ele></trkpt>
   
  </trkseg>
 </trk>
</gpx>
