<?xml version="1.0" encoding="UTF-8"?>
<!-- track-length = 15915 filtered ascend = 653 plain-ascend = 623 cost=19737 energy=0.2kwh time=1h 59m 51s -->
<gpx 
 xmlns="http://www.topografix.com/GPX/1/1" 
 xmlns:xsi="http://www.w3.org/2001/XMLSchema-instance" 
 xsi:schemaLocation="http://www.topografix.com/GPX/1/1 http://www.topografix.com/GPX/1/1/gpx.xsd" 
 version="1.1" 
 creator="BRouter-Web 0.18.1">
 <trk>
  <name>Puerto el Remolcador</name>
  <trkseg>
   <trkpt lat="40.120436" lon="-0.241395"><ele>338.75</ele></trkpt>
   <trkpt lat="40.120374" lon="-0.242412"><ele>339.75</ele></trkpt>
   <trkpt lat="40.120283" lon="-0.243547"><ele>341.25</ele></trkpt>
   <trkpt lat="40.120263" lon="-0.243716"><ele>341.25</ele></trkpt>
   <trkpt lat="40.120222" lon="-0.243972"><ele>342</ele></trkpt>
   <trkpt lat="40.120208" lon="-0.244263"><ele>343</ele></trkpt>
   <trkpt lat="40.120225" lon="-0.244744"><ele>344</ele></trkpt>
   <trkpt lat="40.120189" lon="-0.244903"><ele>344.75</ele></trkpt>
   <trkpt lat="40.119953" lon="-0.245603"><ele>346</ele></trkpt>
   <trkpt lat="40.119902" lon="-0.245944"><ele>345.75</ele></trkpt>
   <trkpt lat="40.119864" lon="-0.246109"><ele>344.5</ele></trkpt>
   <trkpt lat="40.119657" lon="-0.246573"><ele>342.5</ele></trkpt>
   <trkpt lat="40.119609" lon="-0.246695"><ele>345</ele></trkpt>
   <trkpt lat="40.119602" lon="-0.246802"><ele>346.5</ele></trkpt>
   <trkpt lat="40.119627" lon="-0.246891"><ele>347.5</ele></trkpt>
   <trkpt lat="40.119678" lon="-0.246963"><ele>348.25</ele></trkpt>
   <trkpt lat="40.119752" lon="-0.247006"><ele>347.75</ele></trkpt>
   <trkpt lat="40.120367" lon="-0.24729"><ele>346</ele></trkpt>
   <trkpt lat="40.120597" lon="-0.247414"><ele>345.5</ele></trkpt>
   <trkpt lat="40.120773" lon="-0.247536"><ele>344.75</ele></trkpt>
   <trkpt lat="40.120924" lon="-0.247658"><ele>345</ele></trkpt>
   <trkpt lat="40.121028" lon="-0.247781"><ele>344.75</ele></trkpt>
   <trkpt lat="40.121628" lon="-0.248961"><ele>356.25</ele></trkpt>
   <trkpt lat="40.121701" lon="-0.249139"><ele>358.5</ele></trkpt>
   <trkpt lat="40.121764" lon="-0.249368"><ele>362</ele></trkpt>
   <trkpt lat="40.121793" lon="-0.249609"><ele>365.75</ele></trkpt>
   <trkpt lat="40.121817" lon="-0.250242"><ele>369.25</ele></trkpt>
   <trkpt lat="40.121844" lon="-0.250456"><ele>369</ele></trkpt>
   <trkpt lat="40.121901" lon="-0.250662"><ele>370.25</ele></trkpt>
   <trkpt lat="40.122013" lon="-0.250871"><ele>373.25</ele></trkpt>
   <trkpt lat="40.122139" lon="-0.251016"><ele>375</ele></trkpt>
   <trkpt lat="40.123081" lon="-0.251732"><ele>385.5</ele></trkpt>
   <trkpt lat="40.123229" lon="-0.251903"><ele>387.5</ele></trkpt>
   <trkpt lat="40.123347" lon="-0.252103"><ele>388.75</ele></trkpt>
   <trkpt lat="40.124378" lon="-0.25406"><ele>400.25</ele></trkpt>
   <trkpt lat="40.124715" lon="-0.254591"><ele>403</ele></trkpt>
   <trkpt lat="40.124782" lon="-0.254721"><ele>403.75</ele></trkpt>
   <trkpt lat="40.124836" lon="-0.254825"><ele>404.75</ele></trkpt>
   <trkpt lat="40.124904" lon="-0.254959"><ele>405.75</ele></trkpt>
   <trkpt lat="40.125114" lon="-0.255367"><ele>406.5</ele></trkpt>
   <trkpt lat="40.125252" lon="-0.25571"><ele>407.75</ele></trkpt>
   <trkpt lat="40.125796" lon="-0.256761"><ele>409.75</ele></trkpt>
   <trkpt lat="40.125869" lon="-0.256927"><ele>410.25</ele></trkpt>
   <trkpt lat="40.125968" lon="-0.257311"><ele>413</ele></trkpt>
   <trkpt lat="40.126024" lon="-0.257435"><ele>414.5</ele></trkpt>
   <trkpt lat="40.126121" lon="-0.257592"><ele>415</ele></trkpt>
   <trkpt lat="40.126253" lon="-0.257771"><ele>414.5</ele></trkpt>
   <trkpt lat="40.126342" lon="-0.257963"><ele>415.75</ele></trkpt>
   <trkpt lat="40.126451" lon="-0.258333"><ele>411</ele></trkpt>
   <trkpt lat="40.126519" lon="-0.258499"><ele>415</ele></trkpt>
   <trkpt lat="40.126792" lon="-0.258987"><ele>414</ele></trkpt>
   <trkpt lat="40.127008" lon="-0.259253"><ele>413</ele></trkpt>
   <trkpt lat="40.127149" lon="-0.259398"><ele>413.75</ele></trkpt>
   <trkpt lat="40.127382" lon="-0.259582"><ele>414.5</ele></trkpt>
   <trkpt lat="40.127644" lon="-0.259766"><ele>415.5</ele></trkpt>
   <trkpt lat="40.1278" lon="-0.259965"><ele>416.5</ele></trkpt>
   <trkpt lat="40.12801" lon="-0.260212"><ele>417.25</ele></trkpt>
   <trkpt lat="40.128193" lon="-0.260518"><ele>418.25</ele></trkpt>
   <trkpt lat="40.128269" lon="-0.26073"><ele>418.75</ele></trkpt>
   <trkpt lat="40.128309" lon="-0.260998"><ele>419.75</ele></trkpt>
   <trkpt lat="40.128468" lon="-0.262384"><ele>426.75</ele></trkpt>
   <trkpt lat="40.128504" lon="-0.264211"><ele>434</ele></trkpt>
   <trkpt lat="40.128493" lon="-0.264433"><ele>434.25</ele></trkpt>
   <trkpt lat="40.128361" lon="-0.265107"><ele>436.5</ele></trkpt>
   <trkpt lat="40.128338" lon="-0.265269"><ele>436.75</ele></trkpt>
   <trkpt lat="40.128341" lon="-0.265542"><ele>437.75</ele></trkpt>
   <trkpt lat="40.128389" lon="-0.266918"><ele>443</ele></trkpt>
   <trkpt lat="40.1284" lon="-0.2671"><ele>444.25</ele></trkpt>
   <trkpt lat="40.128435" lon="-0.267244"><ele>445.5</ele></trkpt>
   <trkpt lat="40.128516" lon="-0.267349"><ele>446.25</ele></trkpt>
   <trkpt lat="40.128638" lon="-0.267423"><ele>447.25</ele></trkpt>
   <trkpt lat="40.129079" lon="-0.267656"><ele>449.75</ele></trkpt>
   <trkpt lat="40.12922" lon="-0.267778"><ele>450.25</ele></trkpt>
   <trkpt lat="40.129358" lon="-0.267943"><ele>450.75</ele></trkpt>
   <trkpt lat="40.129481" lon="-0.268145"><ele>449</ele></trkpt>
   <trkpt lat="40.129552" lon="-0.268323"><ele>445.75</ele></trkpt>
   <trkpt lat="40.129573" lon="-0.268441"><ele>447</ele></trkpt>
   <trkpt lat="40.129585" lon="-0.268502"><ele>447</ele></trkpt>
   <trkpt lat="40.129587" lon="-0.268672"><ele>449</ele></trkpt>
   <trkpt lat="40.129556" lon="-0.268834"><ele>449.75</ele></trkpt>
   <trkpt lat="40.129496" lon="-0.268997"><ele>449.5</ele></trkpt>
   <trkpt lat="40.129398" lon="-0.26914"><ele>450.75</ele></trkpt>
   <trkpt lat="40.129289" lon="-0.269239"><ele>449.5</ele></trkpt>
   <trkpt lat="40.129068" lon="-0.269368"><ele>449</ele></trkpt>
   <trkpt lat="40.1288" lon="-0.269559"><ele>447.75</ele></trkpt>
   <trkpt lat="40.128631" lon="-0.269658"><ele>449</ele></trkpt>
   <trkpt lat="40.128456" lon="-0.269729"><ele>448.75</ele></trkpt>
   <trkpt lat="40.128023" lon="-0.269845"><ele>448.25</ele></trkpt>
   <trkpt lat="40.1278" lon="-0.269896"><ele>448.75</ele></trkpt>
   <trkpt lat="40.127311" lon="-0.269946"><ele>451</ele></trkpt>
   <trkpt lat="40.127184" lon="-0.269973"><ele>451.25</ele></trkpt>
   <trkpt lat="40.12683" lon="-0.270115"><ele>452</ele></trkpt>
   <trkpt lat="40.12668" lon="-0.270216"><ele>453.5</ele></trkpt>
   <trkpt lat="40.126035" lon="-0.27108"><ele>456.75</ele></trkpt>
   <trkpt lat="40.125701" lon="-0.27151"><ele>459.5</ele></trkpt>
   <trkpt lat="40.125667" lon="-0.27162"><ele>458.5</ele></trkpt>
   <trkpt lat="40.125675" lon="-0.271717"><ele>457.75</ele></trkpt>
   <trkpt lat="40.125713" lon="-0.271809"><ele>457.25</ele></trkpt>
   <trkpt lat="40.125869" lon="-0.271997"><ele>458.25</ele></trkpt>
   <trkpt lat="40.12591" lon="-0.272041"><ele>459.25</ele></trkpt>
   <trkpt lat="40.125975" lon="-0.27209"><ele>460.25</ele></trkpt>
   <trkpt lat="40.126071" lon="-0.27212"><ele>460.5</ele></trkpt>
   <trkpt lat="40.126175" lon="-0.272116"><ele>461</ele></trkpt>
   <trkpt lat="40.126285" lon="-0.272084"><ele>461.75</ele></trkpt>
   <trkpt lat="40.12644" lon="-0.271979"><ele>461.75</ele></trkpt>
   <trkpt lat="40.126894" lon="-0.271611"><ele>464.25</ele></trkpt>
   <trkpt lat="40.126996" lon="-0.271547"><ele>464.75</ele></trkpt>
   <trkpt lat="40.127057" lon="-0.271523"><ele>465</ele></trkpt>
   <trkpt lat="40.127172" lon="-0.271529"><ele>466.25</ele></trkpt>
   <trkpt lat="40.127467" lon="-0.27159"><ele>467.5</ele></trkpt>
   <trkpt lat="40.127651" lon="-0.271612"><ele>468.5</ele></trkpt>
   <trkpt lat="40.127788" lon="-0.271594"><ele>468.75</ele></trkpt>
   <trkpt lat="40.127928" lon="-0.271529"><ele>471</ele></trkpt>
   <trkpt lat="40.128176" lon="-0.271358"><ele>472.5</ele></trkpt>
   <trkpt lat="40.128318" lon="-0.271284"><ele>473.25</ele></trkpt>
   <trkpt lat="40.128428" lon="-0.271259"><ele>472.75</ele></trkpt>
   <trkpt lat="40.128555" lon="-0.271286"><ele>473.25</ele></trkpt>
   <trkpt lat="40.128845" lon="-0.271412"><ele>474</ele></trkpt>
   <trkpt lat="40.129123" lon="-0.271569"><ele>476</ele></trkpt>
   <trkpt lat="40.129475" lon="-0.27187"><ele>478.25</ele></trkpt>
   <trkpt lat="40.129603" lon="-0.271961"><ele>478.5</ele></trkpt>
   <trkpt lat="40.129827" lon="-0.272092"><ele>479.5</ele></trkpt>
   <trkpt lat="40.130117" lon="-0.272239"><ele>482</ele></trkpt>
   <trkpt lat="40.130262" lon="-0.272323"><ele>483.5</ele></trkpt>
   <trkpt lat="40.130389" lon="-0.272435"><ele>483.75</ele></trkpt>
   <trkpt lat="40.130606" lon="-0.272682"><ele>486</ele></trkpt>
   <trkpt lat="40.130695" lon="-0.272748"><ele>487</ele></trkpt>
   <trkpt lat="40.130803" lon="-0.272784"><ele>487.25</ele></trkpt>
   <trkpt lat="40.13094" lon="-0.272777"><ele>488</ele></trkpt>
   <trkpt lat="40.13109" lon="-0.272719"><ele>488.5</ele></trkpt>
   <trkpt lat="40.131206" lon="-0.272654"><ele>490.25</ele></trkpt>
   <trkpt lat="40.131259" lon="-0.27261"><ele>491</ele></trkpt>
   <trkpt lat="40.131323" lon="-0.272538"><ele>491.5</ele></trkpt>
   <trkpt lat="40.131409" lon="-0.272398"><ele>492.5</ele></trkpt>
   <trkpt lat="40.1318" lon="-0.271589"><ele>496.5</ele></trkpt>
   <trkpt lat="40.131902" lon="-0.271396"><ele>497.5</ele></trkpt>
   <trkpt lat="40.131959" lon="-0.271318"><ele>498</ele></trkpt>
   <trkpt lat="40.131991" lon="-0.271274"><ele>498.25</ele></trkpt>
   <trkpt lat="40.132118" lon="-0.271176"><ele>499.5</ele></trkpt>
   <trkpt lat="40.132238" lon="-0.271144"><ele>501</ele></trkpt>
   <trkpt lat="40.132339" lon="-0.271139"><ele>501.75</ele></trkpt>
   <trkpt lat="40.13246" lon="-0.271183"><ele>504.25</ele></trkpt>
   <trkpt lat="40.132568" lon="-0.271259"><ele>505</ele></trkpt>
   <trkpt lat="40.132647" lon="-0.271372"><ele>505.5</ele></trkpt>
   <trkpt lat="40.132709" lon="-0.27155"><ele>506.25</ele></trkpt>
   <trkpt lat="40.132732" lon="-0.271733"><ele>507.25</ele></trkpt>
   <trkpt lat="40.132723" lon="-0.272233"><ele>512.5</ele></trkpt>
   <trkpt lat="40.13273" lon="-0.272433"><ele>513.5</ele></trkpt>
   <trkpt lat="40.132857" lon="-0.273307"><ele>515.75</ele></trkpt>
   <trkpt lat="40.132905" lon="-0.273534"><ele>518.25</ele></trkpt>
   <trkpt lat="40.132965" lon="-0.273697"><ele>518.75</ele></trkpt>
   <trkpt lat="40.133364" lon="-0.274594"><ele>521.5</ele></trkpt>
   <trkpt lat="40.13342" lon="-0.27476"><ele>521.75</ele></trkpt>
   <trkpt lat="40.133447" lon="-0.274969"><ele>527.75</ele></trkpt>
   <trkpt lat="40.133438" lon="-0.275158"><ele>529.75</ele></trkpt>
   <trkpt lat="40.13337" lon="-0.27584"><ele>527.75</ele></trkpt>
   <trkpt lat="40.133324" lon="-0.276428"><ele>527.25</ele></trkpt>
   <trkpt lat="40.13331" lon="-0.276726"><ele>527</ele></trkpt>
   <trkpt lat="40.133326" lon="-0.277043"><ele>527.5</ele></trkpt>
   <trkpt lat="40.133369" lon="-0.277327"><ele>530.5</ele></trkpt>
   <trkpt lat="40.133431" lon="-0.277561"><ele>532.25</ele></trkpt>
   <trkpt lat="40.133527" lon="-0.277786"><ele>533.25</ele></trkpt>
   <trkpt lat="40.133684" lon="-0.278114"><ele>536</ele></trkpt>
   <trkpt lat="40.133797" lon="-0.278312"><ele>537.5</ele></trkpt>
   <trkpt lat="40.133932" lon="-0.278507"><ele>538.75</ele></trkpt>
   <trkpt lat="40.134113" lon="-0.278725"><ele>539</ele></trkpt>
   <trkpt lat="40.134266" lon="-0.278874"><ele>539.25</ele></trkpt>
   <trkpt lat="40.134417" lon="-0.278969"><ele>539.5</ele></trkpt>
   <trkpt lat="40.134548" lon="-0.279029"><ele>539.25</ele></trkpt>
   <trkpt lat="40.134782" lon="-0.279108"><ele>540.25</ele></trkpt>
   <trkpt lat="40.134891" lon="-0.27911"><ele>541.75</ele></trkpt>
   <trkpt lat="40.134994" lon="-0.279072"><ele>541.75</ele></trkpt>
   <trkpt lat="40.135098" lon="-0.278998"><ele>542.75</ele></trkpt>
   <trkpt lat="40.135248" lon="-0.278852"><ele>543.75</ele></trkpt>
   <trkpt lat="40.135349" lon="-0.278754"><ele>543.5</ele></trkpt>
   <trkpt lat="40.135417" lon="-0.278699"><ele>543.75</ele></trkpt>
   <trkpt lat="40.135478" lon="-0.278671"><ele>544.75</ele></trkpt>
   <trkpt lat="40.135573" lon="-0.278677"><ele>546.5</ele></trkpt>
   <trkpt lat="40.135638" lon="-0.278716"><ele>546.75</ele></trkpt>
   <trkpt lat="40.13569" lon="-0.27879"><ele>547.25</ele></trkpt>
   <trkpt lat="40.135728" lon="-0.278917"><ele>548</ele></trkpt>
   <trkpt lat="40.135731" lon="-0.279048"><ele>548.25</ele></trkpt>
   <trkpt lat="40.135715" lon="-0.279183"><ele>549</ele></trkpt>
   <trkpt lat="40.135655" lon="-0.279513"><ele>548</ele></trkpt>
   <trkpt lat="40.135594" lon="-0.279783"><ele>549</ele></trkpt>
   <trkpt lat="40.135465" lon="-0.28012"><ele>552.5</ele></trkpt>
   <trkpt lat="40.135342" lon="-0.2804"><ele>552.5</ele></trkpt>
   <trkpt lat="40.135323" lon="-0.280525"><ele>552</ele></trkpt>
   <trkpt lat="40.135334" lon="-0.280619"><ele>552</ele></trkpt>
   <trkpt lat="40.135361" lon="-0.280697"><ele>552.5</ele></trkpt>
   <trkpt lat="40.135404" lon="-0.280772"><ele>552.75</ele></trkpt>
   <trkpt lat="40.135476" lon="-0.280844"><ele>553.25</ele></trkpt>
   <trkpt lat="40.135542" lon="-0.280883"><ele>554.25</ele></trkpt>
   <trkpt lat="40.135672" lon="-0.280922"><ele>555.75</ele></trkpt>
   <trkpt lat="40.135755" lon="-0.280925"><ele>556.25</ele></trkpt>
   <trkpt lat="40.135836" lon="-0.280904"><ele>556.25</ele></trkpt>
   <trkpt lat="40.135972" lon="-0.280844"><ele>556</ele></trkpt>
   <trkpt lat="40.136037" lon="-0.280834"><ele>556.25</ele></trkpt>
   <trkpt lat="40.136097" lon="-0.280861"><ele>557</ele></trkpt>
   <trkpt lat="40.136133" lon="-0.280841"><ele>557.5</ele></trkpt>
   <trkpt lat="40.136452" lon="-0.28067"><ele>560</ele></trkpt>
   <trkpt lat="40.136512" lon="-0.280604"><ele>559.75</ele></trkpt>
   <trkpt lat="40.136853" lon="-0.280344"><ele>561</ele></trkpt>
   <trkpt lat="40.136962" lon="-0.280301"><ele>562</ele></trkpt>
   <trkpt lat="40.137144" lon="-0.280284"><ele>563.25</ele></trkpt>
   <trkpt lat="40.137284" lon="-0.280333"><ele>565.5</ele></trkpt>
   <trkpt lat="40.137468" lon="-0.280373"><ele>566</ele></trkpt>
   <trkpt lat="40.137594" lon="-0.280401"><ele>566.5</ele></trkpt>
   <trkpt lat="40.137708" lon="-0.280398"><ele>566.5</ele></trkpt>
   <trkpt lat="40.137958" lon="-0.280308"><ele>565</ele></trkpt>
   <trkpt lat="40.138001" lon="-0.28036"><ele>565</ele></trkpt>
   <trkpt lat="40.138013" lon="-0.280422"><ele>565.25</ele></trkpt>
   <trkpt lat="40.137949" lon="-0.280657"><ele>566</ele></trkpt>
   <trkpt lat="40.137891" lon="-0.280787"><ele>567.25</ele></trkpt>
   <trkpt lat="40.13782" lon="-0.28098"><ele>568.25</ele></trkpt>
   <trkpt lat="40.137725" lon="-0.28114"><ele>569.75</ele></trkpt>
   <trkpt lat="40.137555" lon="-0.281322"><ele>569.75</ele></trkpt>
   <trkpt lat="40.137192" lon="-0.281697"><ele>572.25</ele></trkpt>
   <trkpt lat="40.136978" lon="-0.281981"><ele>573.5</ele></trkpt>
   <trkpt lat="40.136754" lon="-0.282251"><ele>577.25</ele></trkpt>
   <trkpt lat="40.136346" lon="-0.283009"><ele>580.5</ele></trkpt>
   <trkpt lat="40.136286" lon="-0.283089"><ele>579.75</ele></trkpt>
   <trkpt lat="40.136209" lon="-0.283151"><ele>580</ele></trkpt>
   <trkpt lat="40.136035" lon="-0.283249"><ele>583.25</ele></trkpt>
   <trkpt lat="40.135947" lon="-0.283284"><ele>584.5</ele></trkpt>
   <trkpt lat="40.13579" lon="-0.283392"><ele>586.75</ele></trkpt>
   <trkpt lat="40.135598" lon="-0.283798"><ele>588.75</ele></trkpt>
   <trkpt lat="40.135435" lon="-0.283973"><ele>587.75</ele></trkpt>
   <trkpt lat="40.135213" lon="-0.284018"><ele>588.75</ele></trkpt>
   <trkpt lat="40.1351" lon="-0.284024"><ele>589.75</ele></trkpt>
   <trkpt lat="40.13502" lon="-0.284013"><ele>591.25</ele></trkpt>
   <trkpt lat="40.135005" lon="-0.284008"><ele>591.75</ele></trkpt>
   <trkpt lat="40.134988" lon="-0.284002"><ele>592</ele></trkpt>
   <trkpt lat="40.134988" lon="-0.283945"><ele>594.5</ele></trkpt>
   <trkpt lat="40.134965" lon="-0.283914"><ele>595.75</ele></trkpt>
   <trkpt lat="40.1349" lon="-0.283866"><ele>597.75</ele></trkpt>
   <trkpt lat="40.134691" lon="-0.283831"><ele>598.75</ele></trkpt>
   <trkpt lat="40.134505" lon="-0.283779"><ele>599.75</ele></trkpt>
   <trkpt lat="40.134161" lon="-0.283669"><ele>602</ele></trkpt>
   <trkpt lat="40.1339" lon="-0.283614"><ele>605.75</ele></trkpt>
   <trkpt lat="40.13384" lon="-0.283584"><ele>606</ele></trkpt>
   <trkpt lat="40.133696" lon="-0.283512"><ele>607</ele></trkpt>
   <trkpt lat="40.133576" lon="-0.283493"><ele>607.5</ele></trkpt>
   <trkpt lat="40.133301" lon="-0.283512"><ele>608.25</ele></trkpt>
   <trkpt lat="40.133203" lon="-0.283553"><ele>609</ele></trkpt>
   <trkpt lat="40.132906" lon="-0.283733"><ele>610.75</ele></trkpt>
   <trkpt lat="40.132637" lon="-0.283831"><ele>611.5</ele></trkpt>
   <trkpt lat="40.13255" lon="-0.283897"><ele>609.5</ele></trkpt>
   <trkpt lat="40.132416" lon="-0.28415"><ele>605</ele></trkpt>
   <trkpt lat="40.132397" lon="-0.284216"><ele>607</ele></trkpt>
   <trkpt lat="40.132396" lon="-0.284281"><ele>608.75</ele></trkpt>
   <trkpt lat="40.132417" lon="-0.284365"><ele>610</ele></trkpt>
   <trkpt lat="40.132471" lon="-0.284483"><ele>611.5</ele></trkpt>
   <trkpt lat="40.132632" lon="-0.284742"><ele>613</ele></trkpt>
   <trkpt lat="40.132742" lon="-0.284868"><ele>613.75</ele></trkpt>
   <trkpt lat="40.132823" lon="-0.284922"><ele>614.5</ele></trkpt>
   <trkpt lat="40.132928" lon="-0.284936"><ele>614.5</ele></trkpt>
   <trkpt lat="40.133053" lon="-0.28496"><ele>615</ele></trkpt>
   <trkpt lat="40.133177" lon="-0.285026"><ele>614.5</ele></trkpt>
   <trkpt lat="40.133353" lon="-0.285196"><ele>616.5</ele></trkpt>
   <trkpt lat="40.13344" lon="-0.2853"><ele>617.75</ele></trkpt>
   <trkpt lat="40.133507" lon="-0.28544"><ele>619.5</ele></trkpt>
   <trkpt lat="40.133527" lon="-0.28558"><ele>622</ele></trkpt>
   <trkpt lat="40.133512" lon="-0.285698"><ele>622</ele></trkpt>
   <trkpt lat="40.133473" lon="-0.28581"><ele>623</ele></trkpt>
   <trkpt lat="40.133227" lon="-0.286264"><ele>626</ele></trkpt>
   <trkpt lat="40.133187" lon="-0.286397"><ele>626.5</ele></trkpt>
   <trkpt lat="40.133185" lon="-0.286419"><ele>627.25</ele></trkpt>
   <trkpt lat="40.133179" lon="-0.286525"><ele>627.25</ele></trkpt>
   <trkpt lat="40.133199" lon="-0.286648"><ele>627.25</ele></trkpt>
   <trkpt lat="40.133252" lon="-0.28676"><ele>627.75</ele></trkpt>
   <trkpt lat="40.133317" lon="-0.286834"><ele>628</ele></trkpt>
   <trkpt lat="40.133386" lon="-0.286888"><ele>628.5</ele></trkpt>
   <trkpt lat="40.133507" lon="-0.286964"><ele>629.5</ele></trkpt>
   <trkpt lat="40.133583" lon="-0.287057"><ele>630.25</ele></trkpt>
   <trkpt lat="40.133632" lon="-0.287191"><ele>631</ele></trkpt>
   <trkpt lat="40.13365" lon="-0.287347"><ele>632.25</ele></trkpt>
   <trkpt lat="40.133653" lon="-0.287621"><ele>634.5</ele></trkpt>
   <trkpt lat="40.133663" lon="-0.287792"><ele>635.25</ele></trkpt>
   <trkpt lat="40.133695" lon="-0.287896"><ele>636.5</ele></trkpt>
   <trkpt lat="40.133746" lon="-0.287973"><ele>637.5</ele></trkpt>
   <trkpt lat="40.133807" lon="-0.288016"><ele>638</ele></trkpt>
   <trkpt lat="40.133885" lon="-0.288023"><ele>638</ele></trkpt>
   <trkpt lat="40.134044" lon="-0.287987"><ele>638.5</ele></trkpt>
   <trkpt lat="40.134168" lon="-0.287999"><ele>639.75</ele></trkpt>
   <trkpt lat="40.134273" lon="-0.288052"><ele>639.75</ele></trkpt>
   <trkpt lat="40.134377" lon="-0.288163"><ele>640.75</ele></trkpt>
   <trkpt lat="40.134896" lon="-0.288853"><ele>645.5</ele></trkpt>
   <trkpt lat="40.134982" lon="-0.288935"><ele>646.25</ele></trkpt>
   <trkpt lat="40.135049" lon="-0.288964"><ele>647.5</ele></trkpt>
   <trkpt lat="40.135125" lon="-0.288965"><ele>648.75</ele></trkpt>
   <trkpt lat="40.135215" lon="-0.288932"><ele>649</ele></trkpt>
   <trkpt lat="40.135267" lon="-0.288889"><ele>647.75</ele></trkpt>
   <trkpt lat="40.135317" lon="-0.288813"><ele>648.5</ele></trkpt>
   <trkpt lat="40.135393" lon="-0.28865"><ele>648.75</ele></trkpt>
   <trkpt lat="40.135461" lon="-0.288551"><ele>649</ele></trkpt>
   <trkpt lat="40.135547" lon="-0.288484"><ele>650.25</ele></trkpt>
   <trkpt lat="40.135625" lon="-0.288455"><ele>650.25</ele></trkpt>
   <trkpt lat="40.135737" lon="-0.288454"><ele>650.75</ele></trkpt>
   <trkpt lat="40.135845" lon="-0.288496"><ele>651.75</ele></trkpt>
   <trkpt lat="40.136157" lon="-0.28868"><ele>654.25</ele></trkpt>
   <trkpt lat="40.136336" lon="-0.28876"><ele>655</ele></trkpt>
   <trkpt lat="40.136577" lon="-0.28885"><ele>657</ele></trkpt>
   <trkpt lat="40.13664" lon="-0.288897"><ele>659</ele></trkpt>
   <trkpt lat="40.13668" lon="-0.288955"><ele>659.5</ele></trkpt>
   <trkpt lat="40.136697" lon="-0.289016"><ele>660</ele></trkpt>
   <trkpt lat="40.136698" lon="-0.289086"><ele>660.75</ele></trkpt>
   <trkpt lat="40.136665" lon="-0.28917"><ele>662</ele></trkpt>
   <trkpt lat="40.136609" lon="-0.289219"><ele>664</ele></trkpt>
   <trkpt lat="40.136524" lon="-0.289232"><ele>665</ele></trkpt>
   <trkpt lat="40.1363" lon="-0.289119"><ele>663.75</ele></trkpt>
   <trkpt lat="40.136202" lon="-0.289079"><ele>663.75</ele></trkpt>
   <trkpt lat="40.136086" lon="-0.289069"><ele>664.5</ele></trkpt>
   <trkpt lat="40.13599" lon="-0.289092"><ele>665</ele></trkpt>
   <trkpt lat="40.13589" lon="-0.28916"><ele>666.75</ele></trkpt>
   <trkpt lat="40.135805" lon="-0.289271"><ele>667.75</ele></trkpt>
   <trkpt lat="40.135735" lon="-0.289461"><ele>668.5</ele></trkpt>
   <trkpt lat="40.135681" lon="-0.28974"><ele>670.25</ele></trkpt>
   <trkpt lat="40.135651" lon="-0.289968"><ele>671</ele></trkpt>
   <trkpt lat="40.135597" lon="-0.290119"><ele>672.25</ele></trkpt>
   <trkpt lat="40.135525" lon="-0.290218"><ele>673.25</ele></trkpt>
   <trkpt lat="40.135424" lon="-0.290274"><ele>674.25</ele></trkpt>
   <trkpt lat="40.135355" lon="-0.290286"><ele>674.75</ele></trkpt>
   <trkpt lat="40.135227" lon="-0.290275"><ele>675.25</ele></trkpt>
   <trkpt lat="40.134955" lon="-0.290225"><ele>677.25</ele></trkpt>
   <trkpt lat="40.134495" lon="-0.290078"><ele>680.75</ele></trkpt>
   <trkpt lat="40.134061" lon="-0.2899"><ele>682.5</ele></trkpt>
   <trkpt lat="40.133976" lon="-0.289884"><ele>683</ele></trkpt>
   <trkpt lat="40.133888" lon="-0.289902"><ele>683.75</ele></trkpt>
   <trkpt lat="40.133805" lon="-0.289968"><ele>684.5</ele></trkpt>
   <trkpt lat="40.133757" lon="-0.29008"><ele>685</ele></trkpt>
   <trkpt lat="40.13375" lon="-0.290191"><ele>684.75</ele></trkpt>
   <trkpt lat="40.133767" lon="-0.290287"><ele>685</ele></trkpt>
   <trkpt lat="40.13381" lon="-0.290369"><ele>685.5</ele></trkpt>
   <trkpt lat="40.133861" lon="-0.29042"><ele>686.75</ele></trkpt>
   <trkpt lat="40.133908" lon="-0.290449"><ele>687.5</ele></trkpt>
   <trkpt lat="40.134245" lon="-0.290621"><ele>690.5</ele></trkpt>
   <trkpt lat="40.134336" lon="-0.290692"><ele>691</ele></trkpt>
   <trkpt lat="40.134438" lon="-0.290797"><ele>692.25</ele></trkpt>
   <trkpt lat="40.134635" lon="-0.291046"><ele>694.75</ele></trkpt>
   <trkpt lat="40.134768" lon="-0.291182"><ele>696</ele></trkpt>
   <trkpt lat="40.13487" lon="-0.291261"><ele>696.75</ele></trkpt>
   <trkpt lat="40.135243" lon="-0.291467"><ele>700.75</ele></trkpt>
   <trkpt lat="40.135344" lon="-0.291556"><ele>701.5</ele></trkpt>
   <trkpt lat="40.1355" lon="-0.291774"><ele>703.25</ele></trkpt>
   <trkpt lat="40.135615" lon="-0.291905"><ele>705</ele></trkpt>
   <trkpt lat="40.135758" lon="-0.292013"><ele>708</ele></trkpt>
   <trkpt lat="40.135947" lon="-0.292111"><ele>709.75</ele></trkpt>
   <trkpt lat="40.136175" lon="-0.292197"><ele>710.25</ele></trkpt>
   <trkpt lat="40.136321" lon="-0.292227"><ele>711.75</ele></trkpt>
   <trkpt lat="40.136451" lon="-0.292214"><ele>712.25</ele></trkpt>
   <trkpt lat="40.13656" lon="-0.292168"><ele>712.25</ele></trkpt>
   <trkpt lat="40.136888" lon="-0.291969"><ele>715.75</ele></trkpt>
   <trkpt lat="40.136986" lon="-0.291938"><ele>717.25</ele></trkpt>
   <trkpt lat="40.137088" lon="-0.291957"><ele>718.5</ele></trkpt>
   <trkpt lat="40.137187" lon="-0.292034"><ele>719.5</ele></trkpt>
   <trkpt lat="40.137247" lon="-0.292133"><ele>720.5</ele></trkpt>
   <trkpt lat="40.137277" lon="-0.292268"><ele>721.75</ele></trkpt>
   <trkpt lat="40.137243" lon="-0.293338"><ele>727.75</ele></trkpt>
   <trkpt lat="40.137231" lon="-0.293997"><ele>727.75</ele></trkpt>
   <trkpt lat="40.137309" lon="-0.295094"><ele>730.25</ele></trkpt>
   <trkpt lat="40.137328" lon="-0.29536"><ele>731.25</ele></trkpt>
   <trkpt lat="40.137321" lon="-0.29552"><ele>732</ele></trkpt>
   <trkpt lat="40.13728" lon="-0.295669"><ele>732.25</ele></trkpt>
   <trkpt lat="40.137213" lon="-0.295822"><ele>732</ele></trkpt>
   <trkpt lat="40.136604" lon="-0.296695"><ele>736.5</ele></trkpt>
   <trkpt lat="40.136529" lon="-0.296848"><ele>737.25</ele></trkpt>
   <trkpt lat="40.136472" lon="-0.297017"><ele>737.75</ele></trkpt>
   <trkpt lat="40.13645" lon="-0.297178"><ele>738.5</ele></trkpt>
   <trkpt lat="40.136453" lon="-0.297431"><ele>740.5</ele></trkpt>
   <trkpt lat="40.136463" lon="-0.297507"><ele>741.25</ele></trkpt>
   <trkpt lat="40.136532" lon="-0.29804"><ele>744</ele></trkpt>
   <trkpt lat="40.136581" lon="-0.298289"><ele>743.5</ele></trkpt>
   <trkpt lat="40.136706" lon="-0.29881"><ele>744.5</ele></trkpt>
   <trkpt lat="40.136712" lon="-0.298858"><ele>744.5</ele></trkpt>
   <trkpt lat="40.136734" lon="-0.299008"><ele>745.5</ele></trkpt>
   <trkpt lat="40.136749" lon="-0.29924"><ele>746.75</ele></trkpt>
   <trkpt lat="40.136784" lon="-0.299854"><ele>750</ele></trkpt>
   <trkpt lat="40.13681" lon="-0.300013"><ele>748.75</ele></trkpt>
   <trkpt lat="40.136942" lon="-0.300453"><ele>751.5</ele></trkpt>
   <trkpt lat="40.136963" lon="-0.300545"><ele>752.75</ele></trkpt>
   <trkpt lat="40.136997" lon="-0.300744"><ele>755</ele></trkpt>
   <trkpt lat="40.137015" lon="-0.300924"><ele>756.75</ele></trkpt>
   <trkpt lat="40.136995" lon="-0.301307"><ele>757.5</ele></trkpt>
   <trkpt lat="40.137002" lon="-0.301428"><ele>757.5</ele></trkpt>
   <trkpt lat="40.13704" lon="-0.301536"><ele>757.25</ele></trkpt>
   <trkpt lat="40.137121" lon="-0.301677"><ele>757.5</ele></trkpt>
   <trkpt lat="40.137237" lon="-0.30182"><ele>759.25</ele></trkpt>
   <trkpt lat="40.137343" lon="-0.301922"><ele>760</ele></trkpt>
   <trkpt lat="40.13744" lon="-0.301991"><ele>760</ele></trkpt>
   <trkpt lat="40.137558" lon="-0.302055"><ele>760</ele></trkpt>
   <trkpt lat="40.137785" lon="-0.302112"><ele>762.5</ele></trkpt>
   <trkpt lat="40.13788" lon="-0.302159"><ele>761.5</ele></trkpt>
   <trkpt lat="40.137965" lon="-0.302258"><ele>758.75</ele></trkpt>
   <trkpt lat="40.138029" lon="-0.302409"><ele>759.75</ele></trkpt>
   <trkpt lat="40.138048" lon="-0.302526"><ele>761</ele></trkpt>
   <trkpt lat="40.138033" lon="-0.302644"><ele>762</ele></trkpt>
   <trkpt lat="40.137999" lon="-0.302761"><ele>762.75</ele></trkpt>
   <trkpt lat="40.137935" lon="-0.302875"><ele>763.25</ele></trkpt>
   <trkpt lat="40.137834" lon="-0.303024"><ele>763.75</ele></trkpt>
   <trkpt lat="40.137791" lon="-0.303133"><ele>763.75</ele></trkpt>
   <trkpt lat="40.137778" lon="-0.303262"><ele>764.25</ele></trkpt>
   <trkpt lat="40.137798" lon="-0.303607"><ele>766.75</ele></trkpt>
   <trkpt lat="40.137785" lon="-0.303784"><ele>768</ele></trkpt>
   <trkpt lat="40.137744" lon="-0.304058"><ele>768.25</ele></trkpt>
   <trkpt lat="40.137741" lon="-0.304194"><ele>769.25</ele></trkpt>
   <trkpt lat="40.137761" lon="-0.304312"><ele>770.75</ele></trkpt>
   <trkpt lat="40.137802" lon="-0.304421"><ele>772.25</ele></trkpt>
   <trkpt lat="40.137886" lon="-0.304511"><ele>772</ele></trkpt>
   <trkpt lat="40.138042" lon="-0.304641"><ele>773.5</ele></trkpt>
   <trkpt lat="40.138141" lon="-0.304754"><ele>775.25</ele></trkpt>
   <trkpt lat="40.138213" lon="-0.304892"><ele>774.75</ele></trkpt>
   <trkpt lat="40.138292" lon="-0.305097"><ele>775</ele></trkpt>
   <trkpt lat="40.138366" lon="-0.305236"><ele>777.5</ele></trkpt>
   <trkpt lat="40.138582" lon="-0.305551"><ele>776.75</ele></trkpt>
   <trkpt lat="40.138687" lon="-0.305673"><ele>777</ele></trkpt>
   <trkpt lat="40.138797" lon="-0.305779"><ele>777</ele></trkpt>
   <trkpt lat="40.139178" lon="-0.306073"><ele>780.75</ele></trkpt>
   <trkpt lat="40.139276" lon="-0.306166"><ele>782.25</ele></trkpt>
   <trkpt lat="40.139814" lon="-0.306826"><ele>781.75</ele></trkpt>
   <trkpt lat="40.139908" lon="-0.30697"><ele>781</ele></trkpt>
   <trkpt lat="40.139967" lon="-0.307122"><ele>782</ele></trkpt>
   <trkpt lat="40.139979" lon="-0.307222"><ele>782</ele></trkpt>
   <trkpt lat="40.139973" lon="-0.307338"><ele>782.25</ele></trkpt>
   <trkpt lat="40.139947" lon="-0.307503"><ele>782.25</ele></trkpt>
   <trkpt lat="40.139943" lon="-0.307656"><ele>782.75</ele></trkpt>
   <trkpt lat="40.139973" lon="-0.307792"><ele>784</ele></trkpt>
   <trkpt lat="40.14004" lon="-0.30791"><ele>786</ele></trkpt>
   <trkpt lat="40.140163" lon="-0.308022"><ele>788.25</ele></trkpt>
   <trkpt lat="40.140389" lon="-0.308169"><ele>792.25</ele></trkpt>
   <trkpt lat="40.140495" lon="-0.308258"><ele>792.25</ele></trkpt>
   <trkpt lat="40.14056" lon="-0.308344"><ele>790</ele></trkpt>
   <trkpt lat="40.140614" lon="-0.30849"><ele>791.5</ele></trkpt>
   <trkpt lat="40.140626" lon="-0.308649"><ele>792.5</ele></trkpt>
   <trkpt lat="40.140603" lon="-0.308795"><ele>793.75</ele></trkpt>
   <trkpt lat="40.140505" lon="-0.309013"><ele>793.5</ele></trkpt>
   <trkpt lat="40.140477" lon="-0.30914"><ele>794.5</ele></trkpt>
   <trkpt lat="40.140483" lon="-0.309277"><ele>793.75</ele></trkpt>
   <trkpt lat="40.140512" lon="-0.309423"><ele>793.5</ele></trkpt>
   <trkpt lat="40.140603" lon="-0.309793"><ele>794.75</ele></trkpt>
   <trkpt lat="40.140664" lon="-0.309959"><ele>795.25</ele></trkpt>
   <trkpt lat="40.140735" lon="-0.31009"><ele>795.25</ele></trkpt>
   <trkpt lat="40.140834" lon="-0.310222"><ele>795.5</ele></trkpt>
   <trkpt lat="40.140962" lon="-0.310347"><ele>795.5</ele></trkpt>
   <trkpt lat="40.141397" lon="-0.310718"><ele>797.75</ele></trkpt>
   <trkpt lat="40.141517" lon="-0.310856"><ele>799</ele></trkpt>
   <trkpt lat="40.141624" lon="-0.311047"><ele>798.5</ele></trkpt>
   <trkpt lat="40.141804" lon="-0.311451"><ele>802</ele></trkpt>
   <trkpt lat="40.141937" lon="-0.311707"><ele>801.75</ele></trkpt>
   <trkpt lat="40.142128" lon="-0.312016"><ele>802.25</ele></trkpt>
   <trkpt lat="40.142619" lon="-0.312662"><ele>802</ele></trkpt>
   <trkpt lat="40.142675" lon="-0.312788"><ele>801</ele></trkpt>
   <trkpt lat="40.142701" lon="-0.312915"><ele>801.5</ele></trkpt>
   <trkpt lat="40.142691" lon="-0.313046"><ele>801</ele></trkpt>
   <trkpt lat="40.142661" lon="-0.31317"><ele>802</ele></trkpt>
   <trkpt lat="40.142608" lon="-0.313266"><ele>802.25</ele></trkpt>
   <trkpt lat="40.142504" lon="-0.313394"><ele>801.75</ele></trkpt>
   <trkpt lat="40.142429" lon="-0.313488"><ele>802</ele></trkpt>
   <trkpt lat="40.142387" lon="-0.313585"><ele>802.25</ele></trkpt>
   <trkpt lat="40.142368" lon="-0.313668"><ele>801.75</ele></trkpt>
   <trkpt lat="40.142362" lon="-0.313801"><ele>801</ele></trkpt>
   <trkpt lat="40.142379" lon="-0.313965"><ele>800.75</ele></trkpt>
   <trkpt lat="40.142417" lon="-0.314139"><ele>801.75</ele></trkpt>
   <trkpt lat="40.142477" lon="-0.314327"><ele>802.25</ele></trkpt>
   <trkpt lat="40.14255" lon="-0.314487"><ele>801.5</ele></trkpt>
   <trkpt lat="40.143009" lon="-0.315203"><ele>802.75</ele></trkpt>
   <trkpt lat="40.143119" lon="-0.315315"><ele>802.25</ele></trkpt>
   <trkpt lat="40.143301" lon="-0.315407"><ele>802.75</ele></trkpt>
   <trkpt lat="40.143382" lon="-0.315468"><ele>802</ele></trkpt>
   <trkpt lat="40.143431" lon="-0.315537"><ele>800.75</ele></trkpt>
   <trkpt lat="40.143451" lon="-0.315627"><ele>800.75</ele></trkpt>
   <trkpt lat="40.143452" lon="-0.31582"><ele>801.25</ele></trkpt>
   <trkpt lat="40.143434" lon="-0.315949"><ele>801.75</ele></trkpt>
   <trkpt lat="40.143391" lon="-0.316032"><ele>801.75</ele></trkpt>
   <trkpt lat="40.143317" lon="-0.31609"><ele>803.25</ele></trkpt>
   <trkpt lat="40.143146" lon="-0.316152"><ele>805.5</ele></trkpt>
   <trkpt lat="40.14266" lon="-0.316292"><ele>806.5</ele></trkpt>
   <trkpt lat="40.14252" lon="-0.316305"><ele>806.75</ele></trkpt>
   <trkpt lat="40.142402" lon="-0.316285"><ele>809.5</ele></trkpt>
   <trkpt lat="40.142276" lon="-0.316209"><ele>810.75</ele></trkpt>
   <trkpt lat="40.142159" lon="-0.316091"><ele>811.25</ele></trkpt>
   <trkpt lat="40.141905" lon="-0.315763"><ele>811.75</ele></trkpt>
   <trkpt lat="40.141756" lon="-0.315602"><ele>812.5</ele></trkpt>
   <trkpt lat="40.141595" lon="-0.315461"><ele>814.25</ele></trkpt>
   <trkpt lat="40.141372" lon="-0.315296"><ele>816.25</ele></trkpt>
   <trkpt lat="40.141287" lon="-0.315205"><ele>818</ele></trkpt>
   <trkpt lat="40.141219" lon="-0.31506"><ele>819.5</ele></trkpt>
   <trkpt lat="40.141125" lon="-0.314707"><ele>821.25</ele></trkpt>
   <trkpt lat="40.14106" lon="-0.314528"><ele>824</ele></trkpt>
   <trkpt lat="40.140948" lon="-0.314297"><ele>824.25</ele></trkpt>
   <trkpt lat="40.140817" lon="-0.31406"><ele>824</ele></trkpt>
   <trkpt lat="40.140303" lon="-0.312825"><ele>827</ele></trkpt>
   <trkpt lat="40.140225" lon="-0.312657"><ele>827</ele></trkpt>
   <trkpt lat="40.140153" lon="-0.312579"><ele>827.75</ele></trkpt>
   <trkpt lat="40.140096" lon="-0.312577"><ele>829.25</ele></trkpt>
   <trkpt lat="40.140051" lon="-0.312603"><ele>830.75</ele></trkpt>
   <trkpt lat="40.140015" lon="-0.312674"><ele>832.5</ele></trkpt>
   <trkpt lat="40.140009" lon="-0.312748"><ele>833.25</ele></trkpt>
   <trkpt lat="40.140025" lon="-0.312826"><ele>835</ele></trkpt>
   <trkpt lat="40.140451" lon="-0.313558"><ele>834.25</ele></trkpt>
   <trkpt lat="40.140527" lon="-0.313754"><ele>835.25</ele></trkpt>
   <trkpt lat="40.140724" lon="-0.314461"><ele>841.25</ele></trkpt>
   <trkpt lat="40.140754" lon="-0.314617"><ele>841.5</ele></trkpt>
   <trkpt lat="40.140756" lon="-0.314741"><ele>842.75</ele></trkpt>
   <trkpt lat="40.140735" lon="-0.314961"><ele>843.75</ele></trkpt>
   <trkpt lat="40.140684" lon="-0.315347"><ele>844.25</ele></trkpt>
   <trkpt lat="40.140638" lon="-0.315526"><ele>844.75</ele></trkpt>
   <trkpt lat="40.140424" lon="-0.316147"><ele>848</ele></trkpt>
   <trkpt lat="40.140278" lon="-0.31654"><ele>848.5</ele></trkpt>
   <trkpt lat="40.14021" lon="-0.316742"><ele>848.5</ele></trkpt>
   <trkpt lat="40.140142" lon="-0.316944"><ele>848.5</ele></trkpt>
   <trkpt lat="40.140102" lon="-0.317105"><ele>848.5</ele></trkpt>
   <trkpt lat="40.140094" lon="-0.31721"><ele>848.5</ele></trkpt>
   <trkpt lat="40.140105" lon="-0.317295"><ele>848.5</ele></trkpt>
   <trkpt lat="40.14015" lon="-0.317423"><ele>848.75</ele></trkpt>
   <trkpt lat="40.140294" lon="-0.317762"><ele>849.5</ele></trkpt>
   <trkpt lat="40.140322" lon="-0.317873"><ele>849.75</ele></trkpt>
   <trkpt lat="40.140325" lon="-0.317988"><ele>849</ele></trkpt>
   <trkpt lat="40.140305" lon="-0.31811"><ele>848.5</ele></trkpt>
   <trkpt lat="40.140262" lon="-0.318217"><ele>848.5</ele></trkpt>
   <trkpt lat="40.140206" lon="-0.318293"><ele>848.75</ele></trkpt>
   <trkpt lat="40.14014" lon="-0.318348"><ele>849.75</ele></trkpt>
   <trkpt lat="40.140067" lon="-0.318384"><ele>850.75</ele></trkpt>
   <trkpt lat="40.139981" lon="-0.31841"><ele>851.25</ele></trkpt>
   <trkpt lat="40.139857" lon="-0.318448"><ele>850.25</ele></trkpt>
   <trkpt lat="40.13975" lon="-0.318518"><ele>850.25</ele></trkpt>
   <trkpt lat="40.139692" lon="-0.318571"><ele>850.5</ele></trkpt>
   <trkpt lat="40.139603" lon="-0.318685"><ele>851.25</ele></trkpt>
   <trkpt lat="40.139532" lon="-0.318815"><ele>852.25</ele></trkpt>
   <trkpt lat="40.13948" lon="-0.318952"><ele>853</ele></trkpt>
   <trkpt lat="40.139435" lon="-0.319135"><ele>852.5</ele></trkpt>
   <trkpt lat="40.139394" lon="-0.319353"><ele>854</ele></trkpt>
   <trkpt lat="40.139389" lon="-0.31947"><ele>854.5</ele></trkpt>
   <trkpt lat="40.1394" lon="-0.319552"><ele>854.5</ele></trkpt>
   <trkpt lat="40.139433" lon="-0.319641"><ele>855</ele></trkpt>
   <trkpt lat="40.139478" lon="-0.319718"><ele>855.75</ele></trkpt>
   <trkpt lat="40.139564" lon="-0.3198"><ele>855.5</ele></trkpt>
   <trkpt lat="40.139682" lon="-0.319889"><ele>856.25</ele></trkpt>
   <trkpt lat="40.139767" lon="-0.319982"><ele>857</ele></trkpt>
   <trkpt lat="40.139826" lon="-0.320073"><ele>858</ele></trkpt>
   <trkpt lat="40.139879" lon="-0.320196"><ele>858</ele></trkpt>
   <trkpt lat="40.139911" lon="-0.320309"><ele>858</ele></trkpt>
   <trkpt lat="40.139929" lon="-0.320432"><ele>858.75</ele></trkpt>
   <trkpt lat="40.139934" lon="-0.320545"><ele>858.75</ele></trkpt>
   <trkpt lat="40.139924" lon="-0.320755"><ele>859.25</ele></trkpt>
   <trkpt lat="40.1398" lon="-0.321631"><ele>860</ele></trkpt>
   <trkpt lat="40.139792" lon="-0.321751"><ele>859.75</ele></trkpt>
   <trkpt lat="40.139797" lon="-0.322034"><ele>859.5</ele></trkpt>
   <trkpt lat="40.139982" lon="-0.324365"><ele>865</ele></trkpt>
   <trkpt lat="40.140007" lon="-0.324539"><ele>865</ele></trkpt>
   <trkpt lat="40.140051" lon="-0.32469"><ele>865.75</ele></trkpt>
   <trkpt lat="40.140102" lon="-0.324799"><ele>866.25</ele></trkpt>
   <trkpt lat="40.140174" lon="-0.324906"><ele>866.5</ele></trkpt>
   <trkpt lat="40.140243" lon="-0.324977"><ele>866.75</ele></trkpt>
   <trkpt lat="40.140385" lon="-0.325086"><ele>866.75</ele></trkpt>
   <trkpt lat="40.140783" lon="-0.325352"><ele>867.25</ele></trkpt>
   <trkpt lat="40.140906" lon="-0.325485"><ele>866.75</ele></trkpt>
   <trkpt lat="40.140994" lon="-0.325615"><ele>866.25</ele></trkpt>
   <trkpt lat="40.141056" lon="-0.32576"><ele>866</ele></trkpt>
   <trkpt lat="40.141105" lon="-0.325965"><ele>866.75</ele></trkpt>
   <trkpt lat="40.141174" lon="-0.326401"><ele>866.75</ele></trkpt>
   <trkpt lat="40.141194" lon="-0.32648"><ele>866.75</ele></trkpt>
   <trkpt lat="40.141223" lon="-0.326591"><ele>867</ele></trkpt>
   <trkpt lat="40.141291" lon="-0.326775"><ele>867.5</ele></trkpt>
   <trkpt lat="40.14143" lon="-0.327051"><ele>868.5</ele></trkpt>
   <trkpt lat="40.142828" lon="-0.329634"><ele>886</ele></trkpt>
   <trkpt lat="40.143336" lon="-0.330571"><ele>886</ele></trkpt>
   <trkpt lat="40.143425" lon="-0.330773"><ele>886.25</ele></trkpt>
   <trkpt lat="40.143479" lon="-0.330959"><ele>887.75</ele></trkpt>
   <trkpt lat="40.143504" lon="-0.33112"><ele>889.75</ele></trkpt>
   <trkpt lat="40.143519" lon="-0.331352"><ele>891</ele></trkpt>
   <trkpt lat="40.143503" lon="-0.331612"><ele>891.25</ele></trkpt>
   <trkpt lat="40.143438" lon="-0.331992"><ele>889.25</ele></trkpt>
   <trkpt lat="40.143417" lon="-0.332115"><ele>889.75</ele></trkpt>
   <trkpt lat="40.143393" lon="-0.332366"><ele>891.5</ele></trkpt>
   <trkpt lat="40.143322" lon="-0.333313"><ele>897.25</ele></trkpt>
   <trkpt lat="40.143343" lon="-0.334453"><ele>902.75</ele></trkpt>
   <trkpt lat="40.143342" lon="-0.334669"><ele>903.5</ele></trkpt>
   <trkpt lat="40.143324" lon="-0.334867"><ele>904.75</ele></trkpt>
   <trkpt lat="40.143273" lon="-0.335059"><ele>906.5</ele></trkpt>
   <trkpt lat="40.143199" lon="-0.335223"><ele>907.25</ele></trkpt>
   <trkpt lat="40.143108" lon="-0.335363"><ele>908</ele></trkpt>
   <trkpt lat="40.142993" lon="-0.335477"><ele>908.75</ele></trkpt>
   <trkpt lat="40.142871" lon="-0.335561"><ele>909.5</ele></trkpt>
   <trkpt lat="40.142326" lon="-0.335842"><ele>912.25</ele></trkpt>
   <trkpt lat="40.142169" lon="-0.335934"><ele>912.75</ele></trkpt>
   <trkpt lat="40.142007" lon="-0.336052"><ele>914</ele></trkpt>
   <trkpt lat="40.141866" lon="-0.336208"><ele>915.5</ele></trkpt>
   <trkpt lat="40.141587" lon="-0.336624"><ele>917.5</ele></trkpt>
   <trkpt lat="40.141416" lon="-0.336806"><ele>919.25</ele></trkpt>
   <trkpt lat="40.141291" lon="-0.336897"><ele>920</ele></trkpt>
   <trkpt lat="40.141164" lon="-0.336957"><ele>920.25</ele></trkpt>
   <trkpt lat="40.140986" lon="-0.337013"><ele>922</ele></trkpt>
   <trkpt lat="40.140705" lon="-0.337084"><ele>924.75</ele></trkpt>
   <trkpt lat="40.140581" lon="-0.337139"><ele>925.25</ele></trkpt>
   <trkpt lat="40.140483" lon="-0.337242"><ele>924.75</ele></trkpt>
   <trkpt lat="40.140421" lon="-0.337354"><ele>924</ele></trkpt>
   <trkpt lat="40.1404" lon="-0.337475"><ele>922.25</ele></trkpt>
   <trkpt lat="40.140418" lon="-0.337623"><ele>923.25</ele></trkpt>
   <trkpt lat="40.140469" lon="-0.337741"><ele>924.75</ele></trkpt>
   <trkpt lat="40.140541" lon="-0.33784"><ele>927</ele></trkpt>
   <trkpt lat="40.140632" lon="-0.337893"><ele>928.25</ele></trkpt>
   <trkpt lat="40.140725" lon="-0.337907"><ele>928.5</ele></trkpt>
   <trkpt lat="40.141379" lon="-0.337828"><ele>930.75</ele></trkpt>
   <trkpt lat="40.141486" lon="-0.337845"><ele>930.5</ele></trkpt>
   <trkpt lat="40.141574" lon="-0.33788"><ele>930.5</ele></trkpt>
   <trkpt lat="40.141657" lon="-0.337944"><ele>931</ele></trkpt>
   <trkpt lat="40.141722" lon="-0.338035"><ele>932</ele></trkpt>
   <trkpt lat="40.141778" lon="-0.33816"><ele>932.25</ele></trkpt>
   <trkpt lat="40.141795" lon="-0.338282"><ele>932.75</ele></trkpt>
   <trkpt lat="40.141783" lon="-0.338395"><ele>933.25</ele></trkpt>
   <trkpt lat="40.141741" lon="-0.338519"><ele>934</ele></trkpt>
   <trkpt lat="40.141669" lon="-0.338683"><ele>935.25</ele></trkpt>
   <trkpt lat="40.141319" lon="-0.339328"><ele>939.25</ele></trkpt>
   <trkpt lat="40.141237" lon="-0.339522"><ele>940.75</ele></trkpt>
   <trkpt lat="40.141175" lon="-0.339762"><ele>940.75</ele></trkpt>
   <trkpt lat="40.141058" lon="-0.340402"><ele>944.5</ele></trkpt>
   <trkpt lat="40.141028" lon="-0.340636"><ele>945</ele></trkpt>
   <trkpt lat="40.140954" lon="-0.341219"><ele>945.75</ele></trkpt>
   <trkpt lat="40.140902" lon="-0.341428"><ele>946.5</ele></trkpt>
   <trkpt lat="40.140836" lon="-0.341593"><ele>948</ele></trkpt>
   <trkpt lat="40.14073" lon="-0.341764"><ele>949</ele></trkpt>
   <trkpt lat="40.140588" lon="-0.341974"><ele>949.75</ele></trkpt>
   <trkpt lat="40.140532" lon="-0.3421"><ele>950.75</ele></trkpt>
   <trkpt lat="40.140501" lon="-0.342221"><ele>950.75</ele></trkpt>
   <trkpt lat="40.140494" lon="-0.342341"><ele>951.5</ele></trkpt>
   <trkpt lat="40.140521" lon="-0.342476"><ele>952</ele></trkpt>
   <trkpt lat="40.140641" lon="-0.342802"><ele>953.25</ele></trkpt>
   <trkpt lat="40.140676" lon="-0.342952"><ele>954.25</ele></trkpt>
   <trkpt lat="40.140683" lon="-0.343108"><ele>955.25</ele></trkpt>
   <trkpt lat="40.140658" lon="-0.343289"><ele>956</ele></trkpt>
   <trkpt lat="40.140608" lon="-0.343435"><ele>956.25</ele></trkpt>
   <trkpt lat="40.140541" lon="-0.343552"><ele>956.75</ele></trkpt>
   <trkpt lat="40.140451" lon="-0.343655"><ele>957</ele></trkpt>
   <trkpt lat="40.140303" lon="-0.34375"><ele>958.25</ele></trkpt>
   <trkpt lat="40.140125" lon="-0.343855"><ele>959.5</ele></trkpt>
   <trkpt lat="40.140006" lon="-0.343964"><ele>960.25</ele></trkpt>
   <trkpt lat="40.139928" lon="-0.344068"><ele>961</ele></trkpt>
   <trkpt lat="40.139872" lon="-0.344217"><ele>961.75</ele></trkpt>
   <trkpt lat="40.139841" lon="-0.344372"><ele>962.5</ele></trkpt>
   <trkpt lat="40.139826" lon="-0.344632"><ele>963</ele></trkpt>
   <trkpt lat="40.13976" lon="-0.34626"><ele>969</ele></trkpt>
   <trkpt lat="40.139776" lon="-0.346431"><ele>970</ele></trkpt>
   <trkpt lat="40.139833" lon="-0.346594"><ele>971.25</ele></trkpt>
   <trkpt lat="40.139921" lon="-0.346741"><ele>971.75</ele></trkpt>
   <trkpt lat="40.140897" lon="-0.348076"><ele>978.5</ele></trkpt>
   <trkpt lat="40.141013" lon="-0.348268"><ele>978.75</ele></trkpt>
   <trkpt lat="40.141087" lon="-0.348449"><ele>979.75</ele></trkpt>
   <trkpt lat="40.141154" lon="-0.34871"><ele>981.5</ele></trkpt>
   <trkpt lat="40.141184" lon="-0.34893"><ele>982</ele></trkpt>
   <trkpt lat="40.141175" lon="-0.349172"><ele>982.75</ele></trkpt>
   <trkpt lat="40.141122" lon="-0.349493"><ele>984.25</ele></trkpt>
   <trkpt lat="40.141065" lon="-0.349755"><ele>985.5</ele></trkpt>
   <trkpt lat="40.141051" lon="-0.349818"><ele>985.75</ele></trkpt>
   <trkpt lat="40.141029" lon="-0.349988"><ele>986.5</ele></trkpt>
   <trkpt lat="40.141043" lon="-0.35012"><ele>986.5</ele></trkpt>
    </trkseg>
 </trk>
</gpx>
