<?xml version="1.0" encoding="UTF-8"?>
<!-- track-length = 10444 filtered ascend = 678 plain-ascend = 573 cost=18565 energy=0.2kwh time=1h 48m 29s -->
<gpx 
 xmlns="http://www.topografix.com/GPX/1/1" 
 xmlns:xsi="http://www.w3.org/2001/XMLSchema-instance" 
 xsi:schemaLocation="http://www.topografix.com/GPX/1/1 http://www.topografix.com/GPX/1/1/gpx.xsd" 
 version="1.1" 
 creator="BRouter-Web 0.18.1">
 <trk>
  <name>Puerto de el duque (10.4km)</name>
  <trkseg>
   <trkpt lat="37.150037" lon="-3.41536"><ele>1023</ele></trkpt>
   <trkpt lat="37.149987" lon="-3.415337"><ele>1023</ele></trkpt>
   <trkpt lat="37.149943" lon="-3.415332"><ele>1025.25</ele></trkpt>
   <trkpt lat="37.149881" lon="-3.41536"><ele>1027.25</ele></trkpt>
   <trkpt lat="37.149811" lon="-3.415424"><ele>1028.25</ele></trkpt>
   <trkpt lat="37.149625" lon="-3.415765"><ele>1028</ele></trkpt>
   <trkpt lat="37.149442" lon="-3.416069"><ele>1027.25</ele></trkpt>
   <trkpt lat="37.149402" lon="-3.41612"><ele>1026.25</ele></trkpt>
   <trkpt lat="37.149328" lon="-3.416168"><ele>1026</ele></trkpt>
   <trkpt lat="37.149266" lon="-3.41619"><ele>1026</ele></trkpt>
   <trkpt lat="37.149133" lon="-3.416194"><ele>1026.5</ele></trkpt>
   <trkpt lat="37.149018" lon="-3.416162"><ele>1025.5</ele></trkpt>
   <trkpt lat="37.148596" lon="-3.415845"><ele>1027.75</ele></trkpt>
   <trkpt lat="37.148519" lon="-3.415772"><ele>1033</ele></trkpt>
   <trkpt lat="37.148365" lon="-3.415623"><ele>1033</ele></trkpt>
   <trkpt lat="37.147895" lon="-3.415285"><ele>1031.5</ele></trkpt>
   <trkpt lat="37.147641" lon="-3.41514"><ele>1034.75</ele></trkpt>
   <trkpt lat="37.146586" lon="-3.414354"><ele>1039.75</ele></trkpt>
   <trkpt lat="37.146511" lon="-3.414288"><ele>1043.25</ele></trkpt>
   <trkpt lat="37.146456" lon="-3.414196"><ele>1048.75</ele></trkpt>
   <trkpt lat="37.146194" lon="-3.413508"><ele>1050.75</ele></trkpt>
   <trkpt lat="37.146046" lon="-3.413241"><ele>1047.25</ele></trkpt>
   <trkpt lat="37.145936" lon="-3.413119"><ele>1047.25</ele></trkpt>
   <trkpt lat="37.145736" lon="-3.412929"><ele>1048</ele></trkpt>
   <trkpt lat="37.145547" lon="-3.412714"><ele>1057.25</ele></trkpt>
   <trkpt lat="37.145215" lon="-3.412354"><ele>1065.5</ele></trkpt>
   <trkpt lat="37.145177" lon="-3.412312"><ele>1062.5</ele></trkpt>
   <trkpt lat="37.145012" lon="-3.412191"><ele>1050.25</ele></trkpt>
   <trkpt lat="37.144907" lon="-3.412144"><ele>1051.75</ele></trkpt>
   <trkpt lat="37.144802" lon="-3.412131"><ele>1052.25</ele></trkpt>
   <trkpt lat="37.144722" lon="-3.412139"><ele>1051.25</ele></trkpt>
   <trkpt lat="37.144314" lon="-3.412303"><ele>1054.25</ele></trkpt>
   <trkpt lat="37.144266" lon="-3.412304"><ele>1057.5</ele></trkpt>
   <trkpt lat="37.144094" lon="-3.412305"><ele>1057.5</ele></trkpt>
   <trkpt lat="37.143752" lon="-3.412271"><ele>1058.25</ele></trkpt>
   <trkpt lat="37.143558" lon="-3.412265"><ele>1058.5</ele></trkpt>
   <trkpt lat="37.143301" lon="-3.412269"><ele>1062.25</ele></trkpt>
   <trkpt lat="37.143258" lon="-3.412189"><ele>1062</ele></trkpt>
   <trkpt lat="37.143092" lon="-3.411626"><ele>1059.25</ele></trkpt>
   <trkpt lat="37.142841" lon="-3.411312"><ele>1064.5</ele></trkpt>
   <trkpt lat="37.142755" lon="-3.411126"><ele>1065</ele></trkpt>
   <trkpt lat="37.142653" lon="-3.410939"><ele>1069.25</ele></trkpt>
   <trkpt lat="37.142426" lon="-3.410643"><ele>1072</ele></trkpt>
   <trkpt lat="37.142341" lon="-3.410468"><ele>1071</ele></trkpt>
   <trkpt lat="37.142282" lon="-3.410258"><ele>1069</ele></trkpt>
   <trkpt lat="37.142227" lon="-3.409983"><ele>1068.75</ele></trkpt>
   <trkpt lat="37.142177" lon="-3.409899"><ele>1070.25</ele></trkpt>
   <trkpt lat="37.142089" lon="-3.409839"><ele>1072.5</ele></trkpt>
   <trkpt lat="37.142071" lon="-3.409803"><ele>1072</ele></trkpt>
   <trkpt lat="37.142076" lon="-3.409742"><ele>1070</ele></trkpt>
   <trkpt lat="37.142103" lon="-3.409688"><ele>1070.25</ele></trkpt>
   <trkpt lat="37.142211" lon="-3.409527"><ele>1070.25</ele></trkpt>
   <trkpt lat="37.142352" lon="-3.409344"><ele>1072.5</ele></trkpt>
   <trkpt lat="37.142542" lon="-3.408972"><ele>1074</ele></trkpt>
   <trkpt lat="37.142563" lon="-3.40886"><ele>1074</ele></trkpt>
   <trkpt lat="37.142539" lon="-3.408795"><ele>1073.5</ele></trkpt>
   <trkpt lat="37.142445" lon="-3.408757"><ele>1076.25</ele></trkpt>
   <trkpt lat="37.142317" lon="-3.408686"><ele>1079</ele></trkpt>
   <trkpt lat="37.142211" lon="-3.408606"><ele>1077.5</ele></trkpt>
   <trkpt lat="37.142138" lon="-3.408531"><ele>1080.25</ele></trkpt>
   <trkpt lat="37.142078" lon="-3.408346"><ele>1081</ele></trkpt>
   <trkpt lat="37.14205" lon="-3.408107"><ele>1080.5</ele></trkpt>
   <trkpt lat="37.14201" lon="-3.408058"><ele>1081.75</ele></trkpt>
   <trkpt lat="37.14197" lon="-3.40806"><ele>1083.75</ele></trkpt>
   <trkpt lat="37.141953" lon="-3.4081"><ele>1085</ele></trkpt>
   <trkpt lat="37.14194" lon="-3.408203"><ele>1087.25</ele></trkpt>
   <trkpt lat="37.142027" lon="-3.40852"><ele>1086.75</ele></trkpt>
   <trkpt lat="37.142018" lon="-3.408566"><ele>1088</ele></trkpt>
   <trkpt lat="37.141991" lon="-3.408594"><ele>1090</ele></trkpt>
   <trkpt lat="37.141956" lon="-3.408562"><ele>1091.5</ele></trkpt>
   <trkpt lat="37.141907" lon="-3.408401"><ele>1093</ele></trkpt>
   <trkpt lat="37.141734" lon="-3.407913"><ele>1099.5</ele></trkpt>
   <trkpt lat="37.141505" lon="-3.407424"><ele>1106.25</ele></trkpt>
   <trkpt lat="37.141477" lon="-3.407228"><ele>1107.5</ele></trkpt>
   <trkpt lat="37.141444" lon="-3.407198"><ele>1109.5</ele></trkpt>
   <trkpt lat="37.141412" lon="-3.407263"><ele>1111.5</ele></trkpt>
   <trkpt lat="37.141397" lon="-3.407312"><ele>1112.75</ele></trkpt>
   <trkpt lat="37.141399" lon="-3.407423"><ele>1113</ele></trkpt>
   <trkpt lat="37.141365" lon="-3.407473"><ele>1115</ele></trkpt>
   <trkpt lat="37.141359" lon="-3.407552"><ele>1116.25</ele></trkpt>
   <trkpt lat="37.14139" lon="-3.407667"><ele>1116.75</ele></trkpt>
   <trkpt lat="37.141441" lon="-3.407769"><ele>1116</ele></trkpt>
   <trkpt lat="37.141444" lon="-3.40784"><ele>1116.75</ele></trkpt>
   <trkpt lat="37.141412" lon="-3.40785"><ele>1118.5</ele></trkpt>
   <trkpt lat="37.141294" lon="-3.407714"><ele>1122</ele></trkpt>
   <trkpt lat="37.141155" lon="-3.407586"><ele>1126</ele></trkpt>
   <trkpt lat="37.14095" lon="-3.407292"><ele>1132</ele></trkpt>
   <trkpt lat="37.140875" lon="-3.407136"><ele>1133.25</ele></trkpt>
   <trkpt lat="37.140799" lon="-3.406929"><ele>1135.25</ele></trkpt>
   <trkpt lat="37.140802" lon="-3.40681"><ele>1135.5</ele></trkpt>
   <trkpt lat="37.140811" lon="-3.406716"><ele>1135.5</ele></trkpt>
   <trkpt lat="37.140806" lon="-3.406639"><ele>1135.5</ele></trkpt>
   <trkpt lat="37.140666" lon="-3.406469"><ele>1137.75</ele></trkpt>
   <trkpt lat="37.140593" lon="-3.406337"><ele>1139</ele></trkpt>
   <trkpt lat="37.140421" lon="-3.405941"><ele>1145.75</ele></trkpt>
   <trkpt lat="37.140375" lon="-3.405787"><ele>1147.25</ele></trkpt>
   <trkpt lat="37.140283" lon="-3.40557"><ele>1149.75</ele></trkpt>
   <trkpt lat="37.140172" lon="-3.405387"><ele>1152.75</ele></trkpt>
   <trkpt lat="37.140035" lon="-3.405131"><ele>1156.5</ele></trkpt>
   <trkpt lat="37.139776" lon="-3.404344"><ele>1162.25</ele></trkpt>
   <trkpt lat="37.139601" lon="-3.404051"><ele>1166.5</ele></trkpt>
   <trkpt lat="37.139391" lon="-3.403745"><ele>1170.25</ele></trkpt>
   <trkpt lat="37.139092" lon="-3.403425"><ele>1180</ele></trkpt>
   <trkpt lat="37.138981" lon="-3.403185"><ele>1182</ele></trkpt>
   <trkpt lat="37.138878" lon="-3.402848"><ele>1183.75</ele></trkpt>
   <trkpt lat="37.13882" lon="-3.402738"><ele>1183.75</ele></trkpt>
   <trkpt lat="37.138719" lon="-3.40269"><ele>1185.5</ele></trkpt>
   <trkpt lat="37.138646" lon="-3.402745"><ele>1189.75</ele></trkpt>
   <trkpt lat="37.13866" lon="-3.40298"><ele>1194.25</ele></trkpt>
   <trkpt lat="37.138746" lon="-3.403249"><ele>1195.5</ele></trkpt>
   <trkpt lat="37.139075" lon="-3.404063"><ele>1196.25</ele></trkpt>
   <trkpt lat="37.13924" lon="-3.404431"><ele>1197.25</ele></trkpt>
   <trkpt lat="37.139218" lon="-3.404597"><ele>1198</ele></trkpt>
   <trkpt lat="37.139141" lon="-3.404779"><ele>1200.25</ele></trkpt>
   <trkpt lat="37.139039" lon="-3.404857"><ele>1203.25</ele></trkpt>
   <trkpt lat="37.138818" lon="-3.404926"><ele>1210.5</ele></trkpt>
   <trkpt lat="37.138738" lon="-3.404989"><ele>1211.5</ele></trkpt>
   <trkpt lat="37.138709" lon="-3.405082"><ele>1212.5</ele></trkpt>
   <trkpt lat="37.138704" lon="-3.405211"><ele>1213.75</ele></trkpt>
   <trkpt lat="37.13872" lon="-3.405516"><ele>1216.75</ele></trkpt>
   <trkpt lat="37.138659" lon="-3.405628"><ele>1219</ele></trkpt>
   <trkpt lat="37.138567" lon="-3.405729"><ele>1221.25</ele></trkpt>
   <trkpt lat="37.138515" lon="-3.405822"><ele>1221.5</ele></trkpt>
   <trkpt lat="37.138479" lon="-3.405921"><ele>1223.25</ele></trkpt>
   <trkpt lat="37.138448" lon="-3.40595"><ele>1225</ele></trkpt>
   <trkpt lat="37.138405" lon="-3.405921"><ele>1227</ele></trkpt>
   <trkpt lat="37.138388" lon="-3.405874"><ele>1227.5</ele></trkpt>
   <trkpt lat="37.138427" lon="-3.405475"><ele>1230.5</ele></trkpt>
   <trkpt lat="37.138388" lon="-3.405363"><ele>1231</ele></trkpt>
   <trkpt lat="37.13831" lon="-3.405224"><ele>1233.75</ele></trkpt>
   <trkpt lat="37.138277" lon="-3.404991"><ele>1234.5</ele></trkpt>
   <trkpt lat="37.13833" lon="-3.404655"><ele>1237.5</ele></trkpt>
   <trkpt lat="37.138315" lon="-3.404342"><ele>1239.75</ele></trkpt>
   <trkpt lat="37.138264" lon="-3.40413"><ele>1242</ele></trkpt>
   <trkpt lat="37.13814" lon="-3.403919"><ele>1245.75</ele></trkpt>
   <trkpt lat="37.137872" lon="-3.403644"><ele>1254.5</ele></trkpt>
   <trkpt lat="37.137547" lon="-3.403042"><ele>1261.5</ele></trkpt>
   <trkpt lat="37.13737" lon="-3.402657"><ele>1266</ele></trkpt>
   <trkpt lat="37.137306" lon="-3.402532"><ele>1266.75</ele></trkpt>
   <trkpt lat="37.137098" lon="-3.402337"><ele>1271.25</ele></trkpt>
   <trkpt lat="37.136633" lon="-3.401937"><ele>1278.25</ele></trkpt>
   <trkpt lat="37.136384" lon="-3.401822"><ele>1285.5</ele></trkpt>
   <trkpt lat="37.136111" lon="-3.40173"><ele>1288.5</ele></trkpt>
   <trkpt lat="37.135932" lon="-3.401697"><ele>1290</ele></trkpt>
   <trkpt lat="37.135713" lon="-3.401749"><ele>1296.75</ele></trkpt>
   <trkpt lat="37.135581" lon="-3.401755"><ele>1299</ele></trkpt>
   <trkpt lat="37.135367" lon="-3.401644"><ele>1300.5</ele></trkpt>
   <trkpt lat="37.135297" lon="-3.401539"><ele>1300.25</ele></trkpt>
   <trkpt lat="37.135156" lon="-3.401299"><ele>1303.5</ele></trkpt>
   <trkpt lat="37.135024" lon="-3.400999"><ele>1305.75</ele></trkpt>
   <trkpt lat="37.134894" lon="-3.400856"><ele>1306.75</ele></trkpt>
   <trkpt lat="37.134596" lon="-3.400693"><ele>1310</ele></trkpt>
   <trkpt lat="37.134419" lon="-3.400611"><ele>1311.25</ele></trkpt>
   <trkpt lat="37.134291" lon="-3.400588"><ele>1310.75</ele></trkpt>
   <trkpt lat="37.134163" lon="-3.40059"><ele>1311</ele></trkpt>
   <trkpt lat="37.133969" lon="-3.400733"><ele>1311.5</ele></trkpt>
   <trkpt lat="37.133567" lon="-3.400945"><ele>1314</ele></trkpt>
   <trkpt lat="37.133262" lon="-3.400982"><ele>1316.25</ele></trkpt>
   <trkpt lat="37.133139" lon="-3.400938"><ele>1317.5</ele></trkpt>
   <trkpt lat="37.133075" lon="-3.400746"><ele>1316.5</ele></trkpt>
   <trkpt lat="37.133001" lon="-3.400646"><ele>1317</ele></trkpt>
   <trkpt lat="37.132625" lon="-3.400465"><ele>1325.5</ele></trkpt>
   <trkpt lat="37.132617" lon="-3.400338"><ele>1326</ele></trkpt>
   <trkpt lat="37.132642" lon="-3.400187"><ele>1326.25</ele></trkpt>
   <trkpt lat="37.132767" lon="-3.399799"><ele>1328.75</ele></trkpt>
   <trkpt lat="37.132815" lon="-3.399459"><ele>1332</ele></trkpt>
   <trkpt lat="37.132814" lon="-3.399123"><ele>1334.25</ele></trkpt>
   <trkpt lat="37.132829" lon="-3.398838"><ele>1335</ele></trkpt>
   <trkpt lat="37.132802" lon="-3.398719"><ele>1337.25</ele></trkpt>
   <trkpt lat="37.132748" lon="-3.398567"><ele>1340.5</ele></trkpt>
   <trkpt lat="37.13273" lon="-3.398575"><ele>1341.25</ele></trkpt>
   <trkpt lat="37.132695" lon="-3.398698"><ele>1342</ele></trkpt>
   <trkpt lat="37.132656" lon="-3.398743"><ele>1342.75</ele></trkpt>
   <trkpt lat="37.132498" lon="-3.399225"><ele>1347</ele></trkpt>
   <trkpt lat="37.132422" lon="-3.399612"><ele>1347</ele></trkpt>
   <trkpt lat="37.132249" lon="-3.3998"><ele>1351</ele></trkpt>
   <trkpt lat="37.132042" lon="-3.400176"><ele>1354.25</ele></trkpt>
   <trkpt lat="37.131899" lon="-3.400407"><ele>1357.25</ele></trkpt>
   <trkpt lat="37.13157" lon="-3.400657"><ele>1364.5</ele></trkpt>
   <trkpt lat="37.131519" lon="-3.400722"><ele>1365</ele></trkpt>
   <trkpt lat="37.131478" lon="-3.400809"><ele>1364.75</ele></trkpt>
   <trkpt lat="37.131476" lon="-3.400898"><ele>1366.5</ele></trkpt>
   <trkpt lat="37.131529" lon="-3.400995"><ele>1367.75</ele></trkpt>
   <trkpt lat="37.131661" lon="-3.401098"><ele>1365.75</ele></trkpt>
   <trkpt lat="37.131774" lon="-3.401234"><ele>1367.25</ele></trkpt>
   <trkpt lat="37.131912" lon="-3.401516"><ele>1370.25</ele></trkpt>
   <trkpt lat="37.132043" lon="-3.401834"><ele>1374.75</ele></trkpt>
   <trkpt lat="37.132144" lon="-3.401983"><ele>1376.25</ele></trkpt>
   <trkpt lat="37.132337" lon="-3.402115"><ele>1376.5</ele></trkpt>
   <trkpt lat="37.132674" lon="-3.402381"><ele>1379.5</ele></trkpt>
   <trkpt lat="37.132834" lon="-3.402503"><ele>1379.5</ele></trkpt>
   <trkpt lat="37.133092" lon="-3.402614"><ele>1381</ele></trkpt>
   <trkpt lat="37.133272" lon="-3.402666"><ele>1381.5</ele></trkpt>
   <trkpt lat="37.133495" lon="-3.402719"><ele>1381.5</ele></trkpt>
   <trkpt lat="37.13358" lon="-3.402789"><ele>1383.5</ele></trkpt>
   <trkpt lat="37.133813" lon="-3.40312"><ele>1388.5</ele></trkpt>
   <trkpt lat="37.133945" lon="-3.403257"><ele>1391.5</ele></trkpt>
   <trkpt lat="37.134098" lon="-3.403304"><ele>1393</ele></trkpt>
   <trkpt lat="37.134283" lon="-3.403313"><ele>1393</ele></trkpt>
   <trkpt lat="37.134428" lon="-3.403342"><ele>1394.25</ele></trkpt>
   <trkpt lat="37.134536" lon="-3.403407"><ele>1394.5</ele></trkpt>
   <trkpt lat="37.134648" lon="-3.403543"><ele>1396.75</ele></trkpt>
   <trkpt lat="37.134721" lon="-3.4037"><ele>1398.75</ele></trkpt>
   <trkpt lat="37.13474" lon="-3.403799"><ele>1399.5</ele></trkpt>
   <trkpt lat="37.13474" lon="-3.403907"><ele>1400.5</ele></trkpt>
   <trkpt lat="37.134699" lon="-3.40403"><ele>1401.25</ele></trkpt>
   <trkpt lat="37.134652" lon="-3.404123"><ele>1402</ele></trkpt>
   <trkpt lat="37.134555" lon="-3.404237"><ele>1403.5</ele></trkpt>
   <trkpt lat="37.134484" lon="-3.404286"><ele>1404.25</ele></trkpt>
   <trkpt lat="37.134378" lon="-3.404327"><ele>1405.5</ele></trkpt>
   <trkpt lat="37.134114" lon="-3.404337"><ele>1409.25</ele></trkpt>
   <trkpt lat="37.134012" lon="-3.404376"><ele>1411</ele></trkpt>
   <trkpt lat="37.133958" lon="-3.404459"><ele>1411.75</ele></trkpt>
   <trkpt lat="37.133931" lon="-3.404603"><ele>1413</ele></trkpt>
   <trkpt lat="37.133915" lon="-3.404788"><ele>1413.5</ele></trkpt>
   <trkpt lat="37.133862" lon="-3.404952"><ele>1414.5</ele></trkpt>
   <trkpt lat="37.133843" lon="-3.404996"><ele>1417</ele></trkpt>
   <trkpt lat="37.133795" lon="-3.405106"><ele>1417</ele></trkpt>
   <trkpt lat="37.13377" lon="-3.405246"><ele>1417.75</ele></trkpt>
   <trkpt lat="37.133771" lon="-3.405545"><ele>1420</ele></trkpt>
   <trkpt lat="37.133792" lon="-3.40576"><ele>1421.75</ele></trkpt>
   <trkpt lat="37.133799" lon="-3.405933"><ele>1423.75</ele></trkpt>
   <trkpt lat="37.133827" lon="-3.406057"><ele>1423.75</ele></trkpt>
   <trkpt lat="37.133949" lon="-3.406362"><ele>1424.25</ele></trkpt>
   <trkpt lat="37.133976" lon="-3.406497"><ele>1424.25</ele></trkpt>
   <trkpt lat="37.133941" lon="-3.406675"><ele>1427</ele></trkpt>
   <trkpt lat="37.133867" lon="-3.406908"><ele>1429.75</ele></trkpt>
   <trkpt lat="37.133738" lon="-3.407213"><ele>1431.75</ele></trkpt>
   <trkpt lat="37.133638" lon="-3.407388"><ele>1432.5</ele></trkpt>
   <trkpt lat="37.133404" lon="-3.407626"><ele>1435.75</ele></trkpt>
   <trkpt lat="37.133331" lon="-3.407736"><ele>1437.25</ele></trkpt>
   <trkpt lat="37.133311" lon="-3.407828"><ele>1438.75</ele></trkpt>
   <trkpt lat="37.133325" lon="-3.407998"><ele>1439</ele></trkpt>
   <trkpt lat="37.133347" lon="-3.408129"><ele>1439.5</ele></trkpt>
   <trkpt lat="37.133467" lon="-3.408826"><ele>1444.25</ele></trkpt>
   <trkpt lat="37.133505" lon="-3.409168"><ele>1448</ele></trkpt>
   <trkpt lat="37.133564" lon="-3.409327"><ele>1449.25</ele></trkpt>
   <trkpt lat="37.133804" lon="-3.409725"><ele>1452</ele></trkpt>
   <trkpt lat="37.133889" lon="-3.41005"><ele>1452.25</ele></trkpt>
   <trkpt lat="37.134055" lon="-3.410637"><ele>1456.5</ele></trkpt>
   <trkpt lat="37.134031" lon="-3.410818"><ele>1458.25</ele></trkpt>
   <trkpt lat="37.133968" lon="-3.410997"><ele>1461.25</ele></trkpt>
   <trkpt lat="37.133936" lon="-3.411229"><ele>1463</ele></trkpt>
   <trkpt lat="37.133923" lon="-3.411793"><ele>1465.75</ele></trkpt>
   <trkpt lat="37.133898" lon="-3.412053"><ele>1468.75</ele></trkpt>
   <trkpt lat="37.133905" lon="-3.412233"><ele>1471</ele></trkpt>
   <trkpt lat="37.13394" lon="-3.41238"><ele>1474</ele></trkpt>
   <trkpt lat="37.134051" lon="-3.412548"><ele>1473</ele></trkpt>
   <trkpt lat="37.134123" lon="-3.412706"><ele>1474.5</ele></trkpt>
   <trkpt lat="37.134208" lon="-3.412809"><ele>1475.25</ele></trkpt>
   <trkpt lat="37.134321" lon="-3.412921"><ele>1475.75</ele></trkpt>
   <trkpt lat="37.134378" lon="-3.413019"><ele>1476.5</ele></trkpt>
   <trkpt lat="37.134386" lon="-3.413126"><ele>1478</ele></trkpt>
   <trkpt lat="37.134386" lon="-3.413307"><ele>1480</ele></trkpt>
   <trkpt lat="37.134401" lon="-3.413404"><ele>1481.25</ele></trkpt>
   <trkpt lat="37.134451" lon="-3.41347"><ele>1482.25</ele></trkpt>
   <trkpt lat="37.134524" lon="-3.413503"><ele>1483.5</ele></trkpt>
   <trkpt lat="37.134615" lon="-3.413502"><ele>1485</ele></trkpt>
   <trkpt lat="37.134699" lon="-3.413471"><ele>1485</ele></trkpt>
   <trkpt lat="37.134796" lon="-3.413416"><ele>1485.75</ele></trkpt>
   <trkpt lat="37.134878" lon="-3.413325"><ele>1485.25</ele></trkpt>
   <trkpt lat="37.135104" lon="-3.41292"><ele>1484.5</ele></trkpt>
   <trkpt lat="37.135163" lon="-3.41288"><ele>1484.25</ele></trkpt>
   <trkpt lat="37.135285" lon="-3.412893"><ele>1485.75</ele></trkpt>
   <trkpt lat="37.135373" lon="-3.412962"><ele>1486.25</ele></trkpt>
   <trkpt lat="37.135469" lon="-3.413099"><ele>1488</ele></trkpt>
   <trkpt lat="37.135588" lon="-3.413352"><ele>1491.25</ele></trkpt>
   <trkpt lat="37.135652" lon="-3.413573"><ele>1494.5</ele></trkpt>
   <trkpt lat="37.135733" lon="-3.413702"><ele>1496</ele></trkpt>
   <trkpt lat="37.135907" lon="-3.413854"><ele>1497</ele></trkpt>
   <trkpt lat="37.13607" lon="-3.414008"><ele>1496.25</ele></trkpt>
   <trkpt lat="37.136129" lon="-3.414196"><ele>1498.5</ele></trkpt>
   <trkpt lat="37.136157" lon="-3.414717"><ele>1502.25</ele></trkpt>
   <trkpt lat="37.136163" lon="-3.415085"><ele>1504.75</ele></trkpt>
   <trkpt lat="37.136193" lon="-3.415188"><ele>1505.75</ele></trkpt>
   <trkpt lat="37.136213" lon="-3.415261"><ele>1506.5</ele></trkpt>
   <trkpt lat="37.136413" lon="-3.415492"><ele>1508</ele></trkpt>
   <trkpt lat="37.136478" lon="-3.41561"><ele>1509.25</ele></trkpt>
   <trkpt lat="37.136598" lon="-3.416007"><ele>1512.25</ele></trkpt>
   <trkpt lat="37.136673" lon="-3.416134"><ele>1512.75</ele></trkpt>
   <trkpt lat="37.13676" lon="-3.416215"><ele>1513.5</ele></trkpt>
   <trkpt lat="37.136945" lon="-3.416347"><ele>1514</ele></trkpt>
   <trkpt lat="37.137045" lon="-3.416464"><ele>1514.5</ele></trkpt>
   <trkpt lat="37.137168" lon="-3.416743"><ele>1517.25</ele></trkpt>
   <trkpt lat="37.137192" lon="-3.416909"><ele>1519</ele></trkpt>
   <trkpt lat="37.137172" lon="-3.417037"><ele>1519.75</ele></trkpt>
   <trkpt lat="37.137101" lon="-3.417199"><ele>1521.5</ele></trkpt>
   <trkpt lat="37.137064" lon="-3.417354"><ele>1524</ele></trkpt>
   <trkpt lat="37.137077" lon="-3.417501"><ele>1525.25</ele></trkpt>
   <trkpt lat="37.137127" lon="-3.417606"><ele>1523.5</ele></trkpt>
   <trkpt lat="37.137099" lon="-3.417662"><ele>1524.75</ele></trkpt>
   <trkpt lat="37.137104" lon="-3.417738"><ele>1525</ele></trkpt>
   <trkpt lat="37.137123" lon="-3.41784"><ele>1524.5</ele></trkpt>
   <trkpt lat="37.137118" lon="-3.417952"><ele>1524.75</ele></trkpt>
   <trkpt lat="37.137064" lon="-3.418063"><ele>1526.25</ele></trkpt>
   <trkpt lat="37.136816" lon="-3.418377"><ele>1528</ele></trkpt>
   <trkpt lat="37.136761" lon="-3.41852"><ele>1527.5</ele></trkpt>
   <trkpt lat="37.136735" lon="-3.418683"><ele>1527.5</ele></trkpt>
   <trkpt lat="37.136755" lon="-3.418834"><ele>1528</ele></trkpt>
   <trkpt lat="37.136816" lon="-3.418953"><ele>1528.75</ele></trkpt>
   <trkpt lat="37.136888" lon="-3.419018"><ele>1529.75</ele></trkpt>
   <trkpt lat="37.137069" lon="-3.419141"><ele>1531.5</ele></trkpt>
   <trkpt lat="37.137151" lon="-3.419217"><ele>1532</ele></trkpt>
   <trkpt lat="37.137184" lon="-3.419322"><ele>1532.5</ele></trkpt>
   <trkpt lat="37.137186" lon="-3.419457"><ele>1533.25</ele></trkpt>
   <trkpt lat="37.137144" lon="-3.419547"><ele>1532.5</ele></trkpt>
   <trkpt lat="37.136957" lon="-3.419749"><ele>1536.25</ele></trkpt>
   <trkpt lat="37.136899" lon="-3.419866"><ele>1538</ele></trkpt>
   <trkpt lat="37.136872" lon="-3.42"><ele>1539.5</ele></trkpt>
   <trkpt lat="37.136867" lon="-3.420119"><ele>1540.5</ele></trkpt>
   <trkpt lat="37.136885" lon="-3.420231"><ele>1540.75</ele></trkpt>
   <trkpt lat="37.136929" lon="-3.420317"><ele>1541</ele></trkpt>
   <trkpt lat="37.136977" lon="-3.420364"><ele>1541.25</ele></trkpt>
   <trkpt lat="37.13716" lon="-3.420489"><ele>1541.25</ele></trkpt>
   <trkpt lat="37.137275" lon="-3.420646"><ele>1544</ele></trkpt>
   <trkpt lat="37.137323" lon="-3.420749"><ele>1545</ele></trkpt>
   <trkpt lat="37.13739" lon="-3.42096"><ele>1546</ele></trkpt>
   <trkpt lat="37.137389" lon="-3.421165"><ele>1547</ele></trkpt>
   <trkpt lat="37.137326" lon="-3.421342"><ele>1548.5</ele></trkpt>
   <trkpt lat="37.137294" lon="-3.421452"><ele>1549.75</ele></trkpt>
   <trkpt lat="37.137283" lon="-3.421529"><ele>1550.75</ele></trkpt>
   <trkpt lat="37.137289" lon="-3.42162"><ele>1551</ele></trkpt>
   <trkpt lat="37.137309" lon="-3.421691"><ele>1551</ele></trkpt>
   <trkpt lat="37.137342" lon="-3.421762"><ele>1551.5</ele></trkpt>
   <trkpt lat="37.137406" lon="-3.42187"><ele>1551.75</ele></trkpt>
   <trkpt lat="37.13747" lon="-3.422016"><ele>1552</ele></trkpt>
   <trkpt lat="37.137519" lon="-3.422274"><ele>1554</ele></trkpt>
   <trkpt lat="37.137555" lon="-3.422646"><ele>1557.25</ele></trkpt>
   <trkpt lat="37.137586" lon="-3.422833"><ele>1558.75</ele></trkpt>
   <trkpt lat="37.137687" lon="-3.423029"><ele>1559.5</ele></trkpt>
   <trkpt lat="37.137779" lon="-3.423151"><ele>1559.5</ele></trkpt>
   <trkpt lat="37.137826" lon="-3.423237"><ele>1560</ele></trkpt>
   <trkpt lat="37.137839" lon="-3.423402"><ele>1562</ele></trkpt>
   <trkpt lat="37.137811" lon="-3.423667"><ele>1563.5</ele></trkpt>
   <trkpt lat="37.137713" lon="-3.424037"><ele>1566.5</ele></trkpt>
   <trkpt lat="37.137684" lon="-3.42423"><ele>1568.25</ele></trkpt>
   <trkpt lat="37.137672" lon="-3.424593"><ele>1571</ele></trkpt>
   <trkpt lat="37.137643" lon="-3.424825"><ele>1572.25</ele></trkpt>
   <trkpt lat="37.137675" lon="-3.425145"><ele>1572</ele></trkpt>
   <trkpt lat="37.137667" lon="-3.425259"><ele>1573.75</ele></trkpt>
   <trkpt lat="37.137566" lon="-3.42547"><ele>1576.5</ele></trkpt>
   <trkpt lat="37.137546" lon="-3.425596"><ele>1577.5</ele></trkpt>
   <trkpt lat="37.137561" lon="-3.425693"><ele>1579.25</ele></trkpt>
   <trkpt lat="37.137614" lon="-3.42579"><ele>1578.5</ele></trkpt>
   <trkpt lat="37.137663" lon="-3.425937"><ele>1578.5</ele></trkpt>
   <trkpt lat="37.137714" lon="-3.426336"><ele>1581.75</ele></trkpt>
   <trkpt lat="37.137761" lon="-3.42658"><ele>1581.75</ele></trkpt>
   <trkpt lat="37.137785" lon="-3.426762"><ele>1582.25</ele></trkpt>
   <trkpt lat="37.137789" lon="-3.426983"><ele>1583.75</ele></trkpt>
   <trkpt lat="37.137777" lon="-3.427185"><ele>1585.75</ele></trkpt>
   <trkpt lat="37.137787" lon="-3.427408"><ele>1586.75</ele></trkpt>
   <trkpt lat="37.137807" lon="-3.427608"><ele>1588.75</ele></trkpt>
   <trkpt lat="37.137852" lon="-3.427821"><ele>1591.25</ele></trkpt>
   <trkpt lat="37.137948" lon="-3.428031"><ele>1594.25</ele></trkpt>
   <trkpt lat="37.138086" lon="-3.428198"><ele>1593</ele></trkpt>
   <trkpt lat="37.13829" lon="-3.428421"><ele>1594.5</ele></trkpt>
   <trkpt lat="37.138341" lon="-3.428496"><ele>1595</ele></trkpt>
   <trkpt lat="37.138567" lon="-3.42914"><ele>1600.75</ele></trkpt>
   <trkpt lat="37.138581" lon="-3.429244"><ele>1601.25</ele></trkpt>
   <trkpt lat="37.138565" lon="-3.429363"><ele>1601.75</ele></trkpt>
   <trkpt lat="37.138519" lon="-3.429453"><ele>1602</ele></trkpt>
   <trkpt lat="37.13845" lon="-3.429527"><ele>1601.5</ele></trkpt>
   <trkpt lat="37.138362" lon="-3.429564"><ele>1601.5</ele></trkpt>
   <trkpt lat="37.138147" lon="-3.429595"><ele>1603</ele></trkpt>
   <trkpt lat="37.137975" lon="-3.429604"><ele>1605</ele></trkpt>
   <trkpt lat="37.137853" lon="-3.429581"><ele>1606.75</ele></trkpt>
   <trkpt lat="37.137762" lon="-3.429508"><ele>1608.25</ele></trkpt>
   <trkpt lat="37.137718" lon="-3.429421"><ele>1609.25</ele></trkpt>
   <trkpt lat="37.13769" lon="-3.429342"><ele>1609.75</ele></trkpt>
   <trkpt lat="37.137669" lon="-3.429205"><ele>1610.25</ele></trkpt>
   <trkpt lat="37.137656" lon="-3.428972"><ele>1610.25</ele></trkpt>
   <trkpt lat="37.137635" lon="-3.428856"><ele>1610.5</ele></trkpt>
   <trkpt lat="37.137603" lon="-3.428755"><ele>1611.25</ele></trkpt>
   <trkpt lat="37.13753" lon="-3.428664"><ele>1613</ele></trkpt>
   <trkpt lat="37.137446" lon="-3.428619"><ele>1614.75</ele></trkpt>
   <trkpt lat="37.137326" lon="-3.428619"><ele>1617</ele></trkpt>
   <trkpt lat="37.13724" lon="-3.428655"><ele>1618.75</ele></trkpt>
   <trkpt lat="37.137168" lon="-3.428741"><ele>1621.75</ele></trkpt>
   <trkpt lat="37.137122" lon="-3.428823"><ele>1623.5</ele></trkpt>
   <trkpt lat="37.137104" lon="-3.428915"><ele>1624.25</ele></trkpt>
   <trkpt lat="37.137136" lon="-3.429452"><ele>1620.75</ele></trkpt>
   <trkpt lat="37.137128" lon="-3.42955"><ele>1620</ele></trkpt>
   <trkpt lat="37.137076" lon="-3.42973"><ele>1619.5</ele></trkpt>
   <trkpt lat="37.136986" lon="-3.429845"><ele>1620.25</ele></trkpt>
   <trkpt lat="37.136935" lon="-3.429878"><ele>1621</ele></trkpt>
   <trkpt lat="37.136869" lon="-3.429897"><ele>1621.75</ele></trkpt>
   <trkpt lat="37.136808" lon="-3.429893"><ele>1622.75</ele></trkpt>
   <trkpt lat="37.136746" lon="-3.429874"><ele>1624</ele></trkpt>
   <trkpt lat="37.136645" lon="-3.429797"><ele>1627.25</ele></trkpt>
   <trkpt lat="37.136608" lon="-3.429736"><ele>1629.75</ele></trkpt>
   <trkpt lat="37.136586" lon="-3.429678"><ele>1631.25</ele></trkpt>
   <trkpt lat="37.136565" lon="-3.429593"><ele>1633</ele></trkpt>
   <trkpt lat="37.136567" lon="-3.429506"><ele>1634</ele></trkpt>
   <trkpt lat="37.136594" lon="-3.429401"><ele>1634.25</ele></trkpt>
   <trkpt lat="37.136698" lon="-3.42917"><ele>1632.25</ele></trkpt>
   <trkpt lat="37.136823" lon="-3.428856"><ele>1633</ele></trkpt>
   <trkpt lat="37.136831" lon="-3.428786"><ele>1633</ele></trkpt>
   <trkpt lat="37.136817" lon="-3.428739"><ele>1633.75</ele></trkpt>
   <trkpt lat="37.136786" lon="-3.428708"><ele>1635</ele></trkpt>
   <trkpt lat="37.136756" lon="-3.428715"><ele>1636</ele></trkpt>
   <trkpt lat="37.136735" lon="-3.428732"><ele>1636.75</ele></trkpt>
   <trkpt lat="37.136722" lon="-3.428764"><ele>1637</ele></trkpt>
   <trkpt lat="37.136684" lon="-3.428949"><ele>1636.25</ele></trkpt>
   <trkpt lat="37.13663" lon="-3.429081"><ele>1635.75</ele></trkpt>
   <trkpt lat="37.136559" lon="-3.429199"><ele>1637</ele></trkpt>
   <trkpt lat="37.136407" lon="-3.429386"><ele>1640.25</ele></trkpt>
   <trkpt lat="37.136343" lon="-3.429497"><ele>1641.5</ele></trkpt>
   <trkpt lat="37.136307" lon="-3.429595"><ele>1642.25</ele></trkpt>
   <trkpt lat="37.136155" lon="-3.430091"><ele>1645</ele></trkpt>
   <trkpt lat="37.136111" lon="-3.430194"><ele>1645.75</ele></trkpt>
   <trkpt lat="37.135768" lon="-3.430756"><ele>1649.5</ele></trkpt>
   <trkpt lat="37.135707" lon="-3.430836"><ele>1650</ele></trkpt>
   <trkpt lat="37.135658" lon="-3.430883"><ele>1650.75</ele></trkpt>
   <trkpt lat="37.135421" lon="-3.430983"><ele>1655</ele></trkpt>
   <trkpt lat="37.135348" lon="-3.431081"><ele>1655</ele></trkpt>
   <trkpt lat="37.135295" lon="-3.431206"><ele>1655.25</ele></trkpt>
   <trkpt lat="37.135227" lon="-3.431327"><ele>1656.25</ele></trkpt>
   <trkpt lat="37.135097" lon="-3.431455"><ele>1656.75</ele></trkpt>
   <trkpt lat="37.134874" lon="-3.431497"><ele>1660.25</ele></trkpt>
   <trkpt lat="37.134777" lon="-3.43154"><ele>1661.25</ele></trkpt>
   <trkpt lat="37.13455" lon="-3.431765"><ele>1663.5</ele></trkpt>
   <trkpt lat="37.134488" lon="-3.431826"><ele>1664.5</ele></trkpt>
   <trkpt lat="37.13433" lon="-3.432131"><ele>1666.25</ele></trkpt>
   <trkpt lat="37.134261" lon="-3.43224"><ele>1667.25</ele></trkpt>
   <trkpt lat="37.134047" lon="-3.43251"><ele>1669.5</ele></trkpt>
   <trkpt lat="37.133986" lon="-3.432575"><ele>1669.75</ele></trkpt>
   <trkpt lat="37.133928" lon="-3.432613"><ele>1670.5</ele></trkpt>
   <trkpt lat="37.133724" lon="-3.432709"><ele>1672.5</ele></trkpt>
   <trkpt lat="37.133449" lon="-3.432893"><ele>1675.25</ele></trkpt>
   <trkpt lat="37.133158" lon="-3.433127"><ele>1676.75</ele></trkpt>
   
  </trkseg>
 </trk>
</gpx>
