<?xml version="1.0" encoding="UTF-8"?>
<!-- track-length = 15443 filtered ascend = 615 plain-ascend = 471 cost=24778 energy=0.2kwh time=1h 50m 3s -->
<gpx 
 xmlns="http://www.topografix.com/GPX/1/1" 
 xmlns:xsi="http://www.w3.org/2001/XMLSchema-instance" 
 xsi:schemaLocation="http://www.topografix.com/GPX/1/1 http://www.topografix.com/GPX/1/1/gpx.xsd" 
 version="1.1" 
 creator="BRouter-Web 0.18.1">
 <trk>
  <name>Puerto de Tudons</name>
  <trkseg>
   <trkpt lat="38.709856" lon="-0.365617"><ele>478</ele></trkpt>
   <trkpt lat="38.709592" lon="-0.365754"><ele>478.75</ele></trkpt>
   <trkpt lat="38.709531" lon="-0.365763"><ele>479.5</ele></trkpt>
   <trkpt lat="38.709459" lon="-0.365745"><ele>480.75</ele></trkpt>
   <trkpt lat="38.709385" lon="-0.365708"><ele>481.75</ele></trkpt>
   <trkpt lat="38.70933" lon="-0.36564"><ele>482.25</ele></trkpt>
   <trkpt lat="38.709287" lon="-0.365556"><ele>482.5</ele></trkpt>
   <trkpt lat="38.709005" lon="-0.364861"><ele>484.25</ele></trkpt>
   <trkpt lat="38.708954" lon="-0.364792"><ele>485.75</ele></trkpt>
   <trkpt lat="38.708895" lon="-0.36475"><ele>488.25</ele></trkpt>
   <trkpt lat="38.708814" lon="-0.364726"><ele>488.5</ele></trkpt>
   <trkpt lat="38.708762" lon="-0.364745"><ele>488.5</ele></trkpt>
   <trkpt lat="38.708712" lon="-0.364786"><ele>489.25</ele></trkpt>
   <trkpt lat="38.708666" lon="-0.364858"><ele>491</ele></trkpt>
   <trkpt lat="38.708649" lon="-0.364913"><ele>492.5</ele></trkpt>
   <trkpt lat="38.708644" lon="-0.36496"><ele>493.75</ele></trkpt>
   <trkpt lat="38.708758" lon="-0.365389"><ele>496.75</ele></trkpt>
   <trkpt lat="38.708836" lon="-0.3656"><ele>497.25</ele></trkpt>
   <trkpt lat="38.708937" lon="-0.36578"><ele>496.5</ele></trkpt>
   <trkpt lat="38.708973" lon="-0.365878"><ele>496.25</ele></trkpt>
   <trkpt lat="38.708982" lon="-0.365954"><ele>496.75</ele></trkpt>
   <trkpt lat="38.708966" lon="-0.366217"><ele>499.75</ele></trkpt>
   <trkpt lat="38.708882" lon="-0.366763"><ele>503.5</ele></trkpt>
   <trkpt lat="38.708837" lon="-0.366898"><ele>504.75</ele></trkpt>
   <trkpt lat="38.708795" lon="-0.366955"><ele>505</ele></trkpt>
   <trkpt lat="38.708756" lon="-0.366988"><ele>504.75</ele></trkpt>
   <trkpt lat="38.708647" lon="-0.36701"><ele>504.25</ele></trkpt>
   <trkpt lat="38.708578" lon="-0.367"><ele>504.25</ele></trkpt>
   <trkpt lat="38.708519" lon="-0.366961"><ele>505.75</ele></trkpt>
   <trkpt lat="38.708082" lon="-0.366611"><ele>512.75</ele></trkpt>
   <trkpt lat="38.707454" lon="-0.366108"><ele>517.5</ele></trkpt>
   <trkpt lat="38.707345" lon="-0.366003"><ele>517.5</ele></trkpt>
   <trkpt lat="38.707289" lon="-0.365923"><ele>517.75</ele></trkpt>
   <trkpt lat="38.707152" lon="-0.365662"><ele>518.25</ele></trkpt>
   <trkpt lat="38.707097" lon="-0.365618"><ele>518</ele></trkpt>
   <trkpt lat="38.70699" lon="-0.365584"><ele>517.75</ele></trkpt>
   <trkpt lat="38.706925" lon="-0.365575"><ele>518</ele></trkpt>
   <trkpt lat="38.706852" lon="-0.365611"><ele>518.25</ele></trkpt>
   <trkpt lat="38.706801" lon="-0.365653"><ele>518.5</ele></trkpt>
   <trkpt lat="38.70676" lon="-0.365723"><ele>518.5</ele></trkpt>
   <trkpt lat="38.706682" lon="-0.365904"><ele>518.25</ele></trkpt>
   <trkpt lat="38.70661" lon="-0.36604"><ele>517.75</ele></trkpt>
   <trkpt lat="38.70655" lon="-0.366106"><ele>517.75</ele></trkpt>
   <trkpt lat="38.706482" lon="-0.366154"><ele>516.25</ele></trkpt>
   <trkpt lat="38.706322" lon="-0.36624"><ele>515</ele></trkpt>
   <trkpt lat="38.706233" lon="-0.366302"><ele>515.25</ele></trkpt>
   <trkpt lat="38.706064" lon="-0.366467"><ele>516.5</ele></trkpt>
   <trkpt lat="38.70598" lon="-0.366567"><ele>516.25</ele></trkpt>
   <trkpt lat="38.705911" lon="-0.366657"><ele>516</ele></trkpt>
   <trkpt lat="38.705857" lon="-0.36676"><ele>515</ele></trkpt>
   <trkpt lat="38.705667" lon="-0.367174"><ele>511.75</ele></trkpt>
   <trkpt lat="38.705571" lon="-0.367311"><ele>510</ele></trkpt>
   <trkpt lat="38.705439" lon="-0.367436"><ele>510</ele></trkpt>
   <trkpt lat="38.705331" lon="-0.36755"><ele>510</ele></trkpt>
   <trkpt lat="38.705291" lon="-0.367609"><ele>509.75</ele></trkpt>
   <trkpt lat="38.705259" lon="-0.367677"><ele>508.75</ele></trkpt>
   <trkpt lat="38.705237" lon="-0.36776"><ele>507.25</ele></trkpt>
   <trkpt lat="38.705224" lon="-0.367848"><ele>507.25</ele></trkpt>
   <trkpt lat="38.705033" lon="-0.370161"><ele>521.5</ele></trkpt>
   <trkpt lat="38.70497" lon="-0.370354"><ele>522</ele></trkpt>
   <trkpt lat="38.704851" lon="-0.370477"><ele>523</ele></trkpt>
   <trkpt lat="38.7047" lon="-0.370541"><ele>523</ele></trkpt>
   <trkpt lat="38.704564" lon="-0.370526"><ele>524</ele></trkpt>
   <trkpt lat="38.704451" lon="-0.370403"><ele>524.75</ele></trkpt>
   <trkpt lat="38.704392" lon="-0.37022"><ele>526.75</ele></trkpt>
   <trkpt lat="38.704468" lon="-0.369839"><ele>527.25</ele></trkpt>
   <trkpt lat="38.704432" lon="-0.369672"><ele>528.5</ele></trkpt>
   <trkpt lat="38.704307" lon="-0.369549"><ele>528.75</ele></trkpt>
   <trkpt lat="38.704116" lon="-0.369571"><ele>530.5</ele></trkpt>
   <trkpt lat="38.703928" lon="-0.369743"><ele>533.75</ele></trkpt>
   <trkpt lat="38.703668" lon="-0.370107"><ele>535.5</ele></trkpt>
   <trkpt lat="38.703438" lon="-0.370354"><ele>539</ele></trkpt>
   <trkpt lat="38.70308" lon="-0.37067"><ele>542.5</ele></trkpt>
   <trkpt lat="38.702789" lon="-0.370966"><ele>544.75</ele></trkpt>
   <trkpt lat="38.702655" lon="-0.371175"><ele>546.25</ele></trkpt>
   <trkpt lat="38.702295" lon="-0.371931"><ele>552.25</ele></trkpt>
   <trkpt lat="38.702107" lon="-0.372178"><ele>555.5</ele></trkpt>
   <trkpt lat="38.701784" lon="-0.372554"><ele>556.25</ele></trkpt>
   <trkpt lat="38.701487" lon="-0.373042"><ele>556.75</ele></trkpt>
   <trkpt lat="38.701471" lon="-0.37307"><ele>555.75</ele></trkpt>
   <trkpt lat="38.701117" lon="-0.373722"><ele>555.75</ele></trkpt>
   <trkpt lat="38.700804" lon="-0.374256"><ele>554.5</ele></trkpt>
   <trkpt lat="38.700003" lon="-0.375008"><ele>554.75</ele></trkpt>
   <trkpt lat="38.698695" lon="-0.376199"><ele>556.5</ele></trkpt>
   <trkpt lat="38.698656" lon="-0.376235"><ele>556.75</ele></trkpt>
   <trkpt lat="38.698077" lon="-0.375062"><ele>561.5</ele></trkpt>
   <trkpt lat="38.697181" lon="-0.373214"><ele>570.25</ele></trkpt>
   <trkpt lat="38.696422" lon="-0.371667"><ele>581.5</ele></trkpt>
   <trkpt lat="38.694386" lon="-0.367469"><ele>596.5</ele></trkpt>
   <trkpt lat="38.694281" lon="-0.367294"><ele>597.5</ele></trkpt>
   <trkpt lat="38.694206" lon="-0.367198"><ele>598.25</ele></trkpt>
   <trkpt lat="38.694145" lon="-0.367134"><ele>598.5</ele></trkpt>
   <trkpt lat="38.693831" lon="-0.366883"><ele>600.5</ele></trkpt>
   <trkpt lat="38.693772" lon="-0.366827"><ele>601</ele></trkpt>
   <trkpt lat="38.693711" lon="-0.366745"><ele>601.25</ele></trkpt>
   <trkpt lat="38.693682" lon="-0.366694"><ele>601</ele></trkpt>
   <trkpt lat="38.693656" lon="-0.36662"><ele>601.25</ele></trkpt>
   <trkpt lat="38.693641" lon="-0.366535"><ele>601.75</ele></trkpt>
   <trkpt lat="38.693634" lon="-0.366426"><ele>602.25</ele></trkpt>
   <trkpt lat="38.693645" lon="-0.365989"><ele>604.25</ele></trkpt>
   <trkpt lat="38.693625" lon="-0.365836"><ele>604.5</ele></trkpt>
   <trkpt lat="38.693588" lon="-0.3657"><ele>605.25</ele></trkpt>
   <trkpt lat="38.69347" lon="-0.365336"><ele>605.75</ele></trkpt>
   <trkpt lat="38.69343" lon="-0.365171"><ele>606.25</ele></trkpt>
   <trkpt lat="38.693416" lon="-0.365089"><ele>606.75</ele></trkpt>
   <trkpt lat="38.693414" lon="-0.364996"><ele>607.25</ele></trkpt>
   <trkpt lat="38.693422" lon="-0.364916"><ele>608.5</ele></trkpt>
   <trkpt lat="38.693439" lon="-0.364831"><ele>609.75</ele></trkpt>
   <trkpt lat="38.693476" lon="-0.364734"><ele>610.75</ele></trkpt>
   <trkpt lat="38.693534" lon="-0.36462"><ele>610.5</ele></trkpt>
   <trkpt lat="38.693577" lon="-0.364511"><ele>610.25</ele></trkpt>
   <trkpt lat="38.693598" lon="-0.364396"><ele>610</ele></trkpt>
   <trkpt lat="38.693602" lon="-0.364282"><ele>610</ele></trkpt>
   <trkpt lat="38.69341" lon="-0.360596"><ele>624.25</ele></trkpt>
   <trkpt lat="38.693411" lon="-0.360356"><ele>626</ele></trkpt>
   <trkpt lat="38.693426" lon="-0.360269"><ele>626.25</ele></trkpt>
   <trkpt lat="38.693447" lon="-0.36019"><ele>627.25</ele></trkpt>
   <trkpt lat="38.693489" lon="-0.36009"><ele>627.75</ele></trkpt>
   <trkpt lat="38.693613" lon="-0.359823"><ele>627.75</ele></trkpt>
   <trkpt lat="38.693658" lon="-0.359636"><ele>628.5</ele></trkpt>
   <trkpt lat="38.693668" lon="-0.359532"><ele>629</ele></trkpt>
   <trkpt lat="38.693664" lon="-0.359428"><ele>629.5</ele></trkpt>
   <trkpt lat="38.693651" lon="-0.359323"><ele>630.25</ele></trkpt>
   <trkpt lat="38.693545" lon="-0.358937"><ele>632.25</ele></trkpt>
   <trkpt lat="38.693463" lon="-0.358709"><ele>633.75</ele></trkpt>
   <trkpt lat="38.69331" lon="-0.35837"><ele>636</ele></trkpt>
   <trkpt lat="38.692996" lon="-0.357754"><ele>640.75</ele></trkpt>
   <trkpt lat="38.692942" lon="-0.357624"><ele>641.75</ele></trkpt>
   <trkpt lat="38.692915" lon="-0.35748"><ele>642</ele></trkpt>
   <trkpt lat="38.692912" lon="-0.35732"><ele>643.25</ele></trkpt>
   <trkpt lat="38.692968" lon="-0.356669"><ele>645.75</ele></trkpt>
   <trkpt lat="38.693063" lon="-0.355591"><ele>649.5</ele></trkpt>
   <trkpt lat="38.69307" lon="-0.355419"><ele>650</ele></trkpt>
   <trkpt lat="38.69306" lon="-0.355274"><ele>650.75</ele></trkpt>
   <trkpt lat="38.693044" lon="-0.355182"><ele>651</ele></trkpt>
   <trkpt lat="38.693016" lon="-0.355073"><ele>651.25</ele></trkpt>
   <trkpt lat="38.692902" lon="-0.35475"><ele>653</ele></trkpt>
   <trkpt lat="38.692676" lon="-0.354151"><ele>655</ele></trkpt>
   <trkpt lat="38.692622" lon="-0.353964"><ele>655.25</ele></trkpt>
   <trkpt lat="38.692594" lon="-0.353826"><ele>655.75</ele></trkpt>
   <trkpt lat="38.692375" lon="-0.352426"><ele>660.5</ele></trkpt>
   <trkpt lat="38.692305" lon="-0.352072"><ele>661.5</ele></trkpt>
   <trkpt lat="38.692274" lon="-0.351983"><ele>661.75</ele></trkpt>
   <trkpt lat="38.692229" lon="-0.351892"><ele>662.25</ele></trkpt>
   <trkpt lat="38.692167" lon="-0.351804"><ele>662.25</ele></trkpt>
   <trkpt lat="38.691372" lon="-0.351051"><ele>668.75</ele></trkpt>
   <trkpt lat="38.691256" lon="-0.350901"><ele>669.25</ele></trkpt>
   <trkpt lat="38.691167" lon="-0.350733"><ele>669.5</ele></trkpt>
   <trkpt lat="38.691045" lon="-0.350418"><ele>669.5</ele></trkpt>
   <trkpt lat="38.691044" lon="-0.350414"><ele>669.5</ele></trkpt>
   <trkpt lat="38.690928" lon="-0.350082"><ele>670.5</ele></trkpt>
   <trkpt lat="38.690895" lon="-0.349953"><ele>671</ele></trkpt>
   <trkpt lat="38.690878" lon="-0.349811"><ele>671.75</ele></trkpt>
   <trkpt lat="38.690883" lon="-0.349634"><ele>672.25</ele></trkpt>
   <trkpt lat="38.691003" lon="-0.348653"><ele>677.5</ele></trkpt>
   <trkpt lat="38.691005" lon="-0.348533"><ele>678.25</ele></trkpt>
   <trkpt lat="38.690993" lon="-0.348416"><ele>679</ele></trkpt>
   <trkpt lat="38.690876" lon="-0.347741"><ele>680.25</ele></trkpt>
   <trkpt lat="38.690822" lon="-0.347395"><ele>681</ele></trkpt>
   <trkpt lat="38.690792" lon="-0.347026"><ele>681.75</ele></trkpt>
   <trkpt lat="38.690735" lon="-0.346464"><ele>683.75</ele></trkpt>
   <trkpt lat="38.69058" lon="-0.344916"><ele>688</ele></trkpt>
   <trkpt lat="38.690559" lon="-0.344787"><ele>688.5</ele></trkpt>
   <trkpt lat="38.69051" lon="-0.344683"><ele>689.25</ele></trkpt>
   <trkpt lat="38.690464" lon="-0.344641"><ele>689.5</ele></trkpt>
   <trkpt lat="38.690421" lon="-0.344622"><ele>689.75</ele></trkpt>
   <trkpt lat="38.69037" lon="-0.344613"><ele>690</ele></trkpt>
   <trkpt lat="38.690272" lon="-0.344605"><ele>690.5</ele></trkpt>
   <trkpt lat="38.690135" lon="-0.344605"><ele>691.75</ele></trkpt>
   <trkpt lat="38.689896" lon="-0.344627"><ele>693.25</ele></trkpt>
   <trkpt lat="38.689845" lon="-0.344632"><ele>693.5</ele></trkpt>
   <trkpt lat="38.689481" lon="-0.344666"><ele>694.75</ele></trkpt>
   <trkpt lat="38.689302" lon="-0.344673"><ele>694.5</ele></trkpt>
   <trkpt lat="38.689264" lon="-0.344674"><ele>694.25</ele></trkpt>
   <trkpt lat="38.68917" lon="-0.344653"><ele>694.25</ele></trkpt>
   <trkpt lat="38.689056" lon="-0.34457"><ele>693.75</ele></trkpt>
   <trkpt lat="38.689025" lon="-0.344522"><ele>694</ele></trkpt>
   <trkpt lat="38.688997" lon="-0.34444"><ele>694.25</ele></trkpt>
   <trkpt lat="38.68897" lon="-0.344327"><ele>694</ele></trkpt>
   <trkpt lat="38.6889" lon="-0.343951"><ele>694.75</ele></trkpt>
   <trkpt lat="38.688877" lon="-0.343826"><ele>695</ele></trkpt>
   <trkpt lat="38.688529" lon="-0.34202"><ele>701.25</ele></trkpt>
   <trkpt lat="38.688483" lon="-0.341782"><ele>702.25</ele></trkpt>
   <trkpt lat="38.688428" lon="-0.341499"><ele>704.25</ele></trkpt>
   <trkpt lat="38.68831" lon="-0.340885"><ele>706.5</ele></trkpt>
   <trkpt lat="38.688272" lon="-0.340624"><ele>708</ele></trkpt>
   <trkpt lat="38.688249" lon="-0.340434"><ele>709.25</ele></trkpt>
   <trkpt lat="38.688174" lon="-0.339784"><ele>709.25</ele></trkpt>
   <trkpt lat="38.688131" lon="-0.339793"><ele>708.5</ele></trkpt>
   <trkpt lat="38.68808" lon="-0.339795"><ele>707.5</ele></trkpt>
   <trkpt lat="38.687978" lon="-0.339779"><ele>705.75</ele></trkpt>
   <trkpt lat="38.687887" lon="-0.339746"><ele>704.5</ele></trkpt>
   <trkpt lat="38.687794" lon="-0.339677"><ele>703.25</ele></trkpt>
   <trkpt lat="38.687707" lon="-0.339576"><ele>702.5</ele></trkpt>
   <trkpt lat="38.687613" lon="-0.339417"><ele>702.25</ele></trkpt>
   <trkpt lat="38.687503" lon="-0.339209"><ele>703.5</ele></trkpt>
   <trkpt lat="38.687433" lon="-0.339076"><ele>703.25</ele></trkpt>
   <trkpt lat="38.687376" lon="-0.338954"><ele>702.75</ele></trkpt>
   <trkpt lat="38.687267" lon="-0.33866"><ele>700</ele></trkpt>
   <trkpt lat="38.687233" lon="-0.338566"><ele>700</ele></trkpt>
   <trkpt lat="38.687189" lon="-0.338355"><ele>699.5</ele></trkpt>
   <trkpt lat="38.687148" lon="-0.337613"><ele>696</ele></trkpt>
   <trkpt lat="38.687126" lon="-0.337517"><ele>695.25</ele></trkpt>
   <trkpt lat="38.687077" lon="-0.337421"><ele>695</ele></trkpt>
   <trkpt lat="38.687023" lon="-0.337363"><ele>694.25</ele></trkpt>
   <trkpt lat="38.687004" lon="-0.337351"><ele>693.75</ele></trkpt>
   <trkpt lat="38.686949" lon="-0.337319"><ele>692.75</ele></trkpt>
   <trkpt lat="38.68686" lon="-0.337294"><ele>691.75</ele></trkpt>
   <trkpt lat="38.686741" lon="-0.337286"><ele>690.75</ele></trkpt>
   <trkpt lat="38.686587" lon="-0.337265"><ele>689.25</ele></trkpt>
   <trkpt lat="38.686473" lon="-0.337226"><ele>688.75</ele></trkpt>
   <trkpt lat="38.686378" lon="-0.337147"><ele>688.5</ele></trkpt>
   <trkpt lat="38.686302" lon="-0.337052"><ele>688</ele></trkpt>
   <trkpt lat="38.686236" lon="-0.336909"><ele>687</ele></trkpt>
   <trkpt lat="38.686183" lon="-0.336695"><ele>684.75</ele></trkpt>
   <trkpt lat="38.686163" lon="-0.336591"><ele>684.25</ele></trkpt>
   <trkpt lat="38.686113" lon="-0.336513"><ele>683.5</ele></trkpt>
   <trkpt lat="38.68604" lon="-0.336475"><ele>683.25</ele></trkpt>
   <trkpt lat="38.685955" lon="-0.336447"><ele>682.75</ele></trkpt>
   <trkpt lat="38.685848" lon="-0.336452"><ele>682.25</ele></trkpt>
   <trkpt lat="38.685751" lon="-0.336494"><ele>682.75</ele></trkpt>
   <trkpt lat="38.685667" lon="-0.336575"><ele>682.5</ele></trkpt>
   <trkpt lat="38.68555" lon="-0.336738"><ele>680.5</ele></trkpt>
   <trkpt lat="38.685472" lon="-0.336878"><ele>679.75</ele></trkpt>
   <trkpt lat="38.685404" lon="-0.337036"><ele>678.75</ele></trkpt>
   <trkpt lat="38.68528" lon="-0.337272"><ele>677.25</ele></trkpt>
   <trkpt lat="38.6852" lon="-0.337384"><ele>674.5</ele></trkpt>
   <trkpt lat="38.685128" lon="-0.33746"><ele>673.25</ele></trkpt>
   <trkpt lat="38.685055" lon="-0.337499"><ele>673.25</ele></trkpt>
   <trkpt lat="38.684976" lon="-0.33749"><ele>673.5</ele></trkpt>
   <trkpt lat="38.684889" lon="-0.337423"><ele>672</ele></trkpt>
   <trkpt lat="38.68482" lon="-0.337311"><ele>671.5</ele></trkpt>
   <trkpt lat="38.684766" lon="-0.337186"><ele>671.25</ele></trkpt>
   <trkpt lat="38.684701" lon="-0.336901"><ele>670.5</ele></trkpt>
   <trkpt lat="38.684478" lon="-0.335769"><ele>666.75</ele></trkpt>
   <trkpt lat="38.684419" lon="-0.335498"><ele>665.25</ele></trkpt>
   <trkpt lat="38.684383" lon="-0.335407"><ele>664.75</ele></trkpt>
   <trkpt lat="38.684338" lon="-0.335336"><ele>664</ele></trkpt>
   <trkpt lat="38.684224" lon="-0.33519"><ele>662.75</ele></trkpt>
   <trkpt lat="38.684092" lon="-0.335049"><ele>661.25</ele></trkpt>
   <trkpt lat="38.68401" lon="-0.33497"><ele>660.75</ele></trkpt>
   <trkpt lat="38.683847" lon="-0.334844"><ele>658</ele></trkpt>
   <trkpt lat="38.68379" lon="-0.334785"><ele>657</ele></trkpt>
   <trkpt lat="38.683757" lon="-0.334733"><ele>657</ele></trkpt>
   <trkpt lat="38.683739" lon="-0.334679"><ele>656.25</ele></trkpt>
   <trkpt lat="38.68373" lon="-0.334619"><ele>655.75</ele></trkpt>
   <trkpt lat="38.683725" lon="-0.334536"><ele>655</ele></trkpt>
   <trkpt lat="38.683731" lon="-0.334377"><ele>654.75</ele></trkpt>
   <trkpt lat="38.683726" lon="-0.33425"><ele>654.75</ele></trkpt>
   <trkpt lat="38.683709" lon="-0.334092"><ele>654.25</ele></trkpt>
   <trkpt lat="38.683687" lon="-0.333963"><ele>653.5</ele></trkpt>
   <trkpt lat="38.683654" lon="-0.333876"><ele>653</ele></trkpt>
   <trkpt lat="38.683627" lon="-0.333829"><ele>652.25</ele></trkpt>
   <trkpt lat="38.68359" lon="-0.333795"><ele>651.75</ele></trkpt>
   <trkpt lat="38.683487" lon="-0.333753"><ele>651.5</ele></trkpt>
   <trkpt lat="38.683349" lon="-0.333744"><ele>651.5</ele></trkpt>
   <trkpt lat="38.683285" lon="-0.333743"><ele>651.5</ele></trkpt>
   <trkpt lat="38.683216" lon="-0.333732"><ele>651.5</ele></trkpt>
   <trkpt lat="38.68313" lon="-0.333704"><ele>651.75</ele></trkpt>
   <trkpt lat="38.682877" lon="-0.333578"><ele>655</ele></trkpt>
   <trkpt lat="38.682553" lon="-0.333396"><ele>658.25</ele></trkpt>
   <trkpt lat="38.68239" lon="-0.333292"><ele>658</ele></trkpt>
   <trkpt lat="38.682154" lon="-0.333079"><ele>656.5</ele></trkpt>
   <trkpt lat="38.68203" lon="-0.332936"><ele>657.75</ele></trkpt>
   <trkpt lat="38.681949" lon="-0.332838"><ele>660.75</ele></trkpt>
   <trkpt lat="38.681798" lon="-0.332671"><ele>665.75</ele></trkpt>
   <trkpt lat="38.681693" lon="-0.332567"><ele>666.5</ele></trkpt>
   <trkpt lat="38.68163" lon="-0.332519"><ele>666.75</ele></trkpt>
   <trkpt lat="38.68153" lon="-0.332472"><ele>667.25</ele></trkpt>
   <trkpt lat="38.681405" lon="-0.332444"><ele>668.25</ele></trkpt>
   <trkpt lat="38.681281" lon="-0.332446"><ele>669.5</ele></trkpt>
   <trkpt lat="38.681222" lon="-0.332456"><ele>670.25</ele></trkpt>
   <trkpt lat="38.681147" lon="-0.332484"><ele>671.25</ele></trkpt>
   <trkpt lat="38.681051" lon="-0.332546"><ele>672.5</ele></trkpt>
   <trkpt lat="38.680961" lon="-0.332626"><ele>673.75</ele></trkpt>
   <trkpt lat="38.680782" lon="-0.332825"><ele>677.75</ele></trkpt>
   <trkpt lat="38.680684" lon="-0.332972"><ele>680.25</ele></trkpt>
   <trkpt lat="38.680664" lon="-0.333025"><ele>681.25</ele></trkpt>
   <trkpt lat="38.680634" lon="-0.333169"><ele>683.75</ele></trkpt>
   <trkpt lat="38.680635" lon="-0.333305"><ele>686</ele></trkpt>
   <trkpt lat="38.680507" lon="-0.333298"><ele>686.5</ele></trkpt>
   <trkpt lat="38.680415" lon="-0.33332"><ele>688</ele></trkpt>
   <trkpt lat="38.68034" lon="-0.333347"><ele>689.5</ele></trkpt>
   <trkpt lat="38.680246" lon="-0.333449"><ele>692</ele></trkpt>
   <trkpt lat="38.679653" lon="-0.333358"><ele>690</ele></trkpt>
   <trkpt lat="38.679486" lon="-0.333385"><ele>689.25</ele></trkpt>
   <trkpt lat="38.679426" lon="-0.333358"><ele>688.5</ele></trkpt>
   <trkpt lat="38.679356" lon="-0.333289"><ele>688.5</ele></trkpt>
   <trkpt lat="38.679281" lon="-0.333125"><ele>689.75</ele></trkpt>
   <trkpt lat="38.679199" lon="-0.333039"><ele>692</ele></trkpt>
   <trkpt lat="38.679082" lon="-0.332985"><ele>693</ele></trkpt>
   <trkpt lat="38.678965" lon="-0.332991"><ele>693.75</ele></trkpt>
   <trkpt lat="38.678496" lon="-0.332892"><ele>695</ele></trkpt>
   <trkpt lat="38.678047" lon="-0.332693"><ele>696.25</ele></trkpt>
   <trkpt lat="38.677907" lon="-0.33258"><ele>697</ele></trkpt>
   <trkpt lat="38.677861" lon="-0.332535"><ele>697.25</ele></trkpt>
   <trkpt lat="38.67775" lon="-0.331929"><ele>699.25</ele></trkpt>
   <trkpt lat="38.677688" lon="-0.331744"><ele>701</ele></trkpt>
   <trkpt lat="38.677627" lon="-0.331626"><ele>701.5</ele></trkpt>
   <trkpt lat="38.677574" lon="-0.331593"><ele>701.5</ele></trkpt>
   <trkpt lat="38.677331" lon="-0.331604"><ele>704</ele></trkpt>
   <trkpt lat="38.677143" lon="-0.331516"><ele>704.5</ele></trkpt>
   <trkpt lat="38.677009" lon="-0.331317"><ele>705.25</ele></trkpt>
   <trkpt lat="38.676931" lon="-0.331095"><ele>705.5</ele></trkpt>
   <trkpt lat="38.676898" lon="-0.330912"><ele>708.75</ele></trkpt>
   <trkpt lat="38.676934" lon="-0.330789"><ele>709</ele></trkpt>
   <trkpt lat="38.676899" lon="-0.330751"><ele>710.75</ele></trkpt>
   <trkpt lat="38.676881" lon="-0.330708"><ele>711.75</ele></trkpt>
   <trkpt lat="38.67689" lon="-0.330636"><ele>712.5</ele></trkpt>
   <trkpt lat="38.676923" lon="-0.330561"><ele>712.5</ele></trkpt>
   <trkpt lat="38.676932" lon="-0.330483"><ele>712.75</ele></trkpt>
   <trkpt lat="38.676921" lon="-0.33044"><ele>713.25</ele></trkpt>
   <trkpt lat="38.676865" lon="-0.330432"><ele>714.75</ele></trkpt>
   <trkpt lat="38.67681" lon="-0.33047"><ele>716</ele></trkpt>
   <trkpt lat="38.676747" lon="-0.330475"><ele>717.75</ele></trkpt>
   <trkpt lat="38.67666" lon="-0.330443"><ele>719.75</ele></trkpt>
   <trkpt lat="38.676502" lon="-0.33055"><ele>722.5</ele></trkpt>
   <trkpt lat="38.675987" lon="-0.331322"><ele>734</ele></trkpt>
   <trkpt lat="38.675939" lon="-0.331369"><ele>735</ele></trkpt>
   <trkpt lat="38.675902" lon="-0.331335"><ele>735.25</ele></trkpt>
   <trkpt lat="38.675629" lon="-0.331189"><ele>736.75</ele></trkpt>
   <trkpt lat="38.675598" lon="-0.331187"><ele>737.25</ele></trkpt>
   <trkpt lat="38.675565" lon="-0.331201"><ele>737.75</ele></trkpt>
   <trkpt lat="38.675501" lon="-0.331235"><ele>738.5</ele></trkpt>
   <trkpt lat="38.675393" lon="-0.331267"><ele>739</ele></trkpt>
   <trkpt lat="38.675252" lon="-0.331312"><ele>739.75</ele></trkpt>
   <trkpt lat="38.674742" lon="-0.331207"><ele>740.5</ele></trkpt>
   <trkpt lat="38.674714" lon="-0.331189"><ele>740.5</ele></trkpt>
   <trkpt lat="38.674698" lon="-0.331163"><ele>740.25</ele></trkpt>
   <trkpt lat="38.67461" lon="-0.330922"><ele>738</ele></trkpt>
   <trkpt lat="38.674563" lon="-0.330766"><ele>735</ele></trkpt>
   <trkpt lat="38.674549" lon="-0.33074"><ele>734.25</ele></trkpt>
   <trkpt lat="38.674516" lon="-0.330712"><ele>733</ele></trkpt>
   <trkpt lat="38.674493" lon="-0.330706"><ele>732.75</ele></trkpt>
   <trkpt lat="38.674473" lon="-0.330708"><ele>732.5</ele></trkpt>
   <trkpt lat="38.674442" lon="-0.33073"><ele>732.75</ele></trkpt>
   <trkpt lat="38.674324" lon="-0.330876"><ele>734.75</ele></trkpt>
   <trkpt lat="38.674283" lon="-0.330914"><ele>734.5</ele></trkpt>
   <trkpt lat="38.674194" lon="-0.330946"><ele>733.5</ele></trkpt>
   <trkpt lat="38.673953" lon="-0.330999"><ele>732</ele></trkpt>
   <trkpt lat="38.673186" lon="-0.331109"><ele>727.25</ele></trkpt>
   <trkpt lat="38.673109" lon="-0.331092"><ele>727</ele></trkpt>
   <trkpt lat="38.673062" lon="-0.33106"><ele>726.5</ele></trkpt>
   <trkpt lat="38.673016" lon="-0.330992"><ele>727.25</ele></trkpt>
   <trkpt lat="38.672952" lon="-0.330869"><ele>728.25</ele></trkpt>
   <trkpt lat="38.672885" lon="-0.330763"><ele>728</ele></trkpt>
   <trkpt lat="38.672826" lon="-0.330707"><ele>728.25</ele></trkpt>
   <trkpt lat="38.672739" lon="-0.33065"><ele>728.75</ele></trkpt>
   <trkpt lat="38.67264" lon="-0.330611"><ele>728.75</ele></trkpt>
   <trkpt lat="38.672438" lon="-0.330574"><ele>728.75</ele></trkpt>
   <trkpt lat="38.672337" lon="-0.330568"><ele>728.5</ele></trkpt>
   <trkpt lat="38.6722" lon="-0.33059"><ele>729.5</ele></trkpt>
   <trkpt lat="38.672052" lon="-0.330643"><ele>730</ele></trkpt>
   <trkpt lat="38.671459" lon="-0.330936"><ele>730.25</ele></trkpt>
   <trkpt lat="38.671387" lon="-0.330964"><ele>730.5</ele></trkpt>
   <trkpt lat="38.671335" lon="-0.330974"><ele>731.25</ele></trkpt>
   <trkpt lat="38.671273" lon="-0.33097"><ele>731.25</ele></trkpt>
   <trkpt lat="38.671097" lon="-0.330901"><ele>729.75</ele></trkpt>
   <trkpt lat="38.671035" lon="-0.3309"><ele>729.5</ele></trkpt>
   <trkpt lat="38.670982" lon="-0.330925"><ele>729.75</ele></trkpt>
   <trkpt lat="38.670928" lon="-0.330974"><ele>730.25</ele></trkpt>
   <trkpt lat="38.670824" lon="-0.331129"><ele>731.25</ele></trkpt>
   <trkpt lat="38.670802" lon="-0.331145"><ele>731.75</ele></trkpt>
   <trkpt lat="38.670743" lon="-0.331156"><ele>732.75</ele></trkpt>
   <trkpt lat="38.670691" lon="-0.331134"><ele>733.25</ele></trkpt>
   <trkpt lat="38.670459" lon="-0.330975"><ele>734.25</ele></trkpt>
   <trkpt lat="38.670408" lon="-0.330951"><ele>734</ele></trkpt>
   <trkpt lat="38.670356" lon="-0.330941"><ele>734</ele></trkpt>
   <trkpt lat="38.670331" lon="-0.330944"><ele>734.25</ele></trkpt>
   <trkpt lat="38.670265" lon="-0.330957"><ele>734.5</ele></trkpt>
   <trkpt lat="38.669912" lon="-0.331076"><ele>735.5</ele></trkpt>
   <trkpt lat="38.669734" lon="-0.331158"><ele>736.75</ele></trkpt>
   <trkpt lat="38.669482" lon="-0.331304"><ele>738</ele></trkpt>
   <trkpt lat="38.66941" lon="-0.331338"><ele>738.5</ele></trkpt>
   <trkpt lat="38.669373" lon="-0.331347"><ele>738.75</ele></trkpt>
   <trkpt lat="38.669312" lon="-0.331354"><ele>739</ele></trkpt>
   <trkpt lat="38.669253" lon="-0.331351"><ele>739</ele></trkpt>
   <trkpt lat="38.669132" lon="-0.331319"><ele>738</ele></trkpt>
   <trkpt lat="38.668949" lon="-0.331269"><ele>738.25</ele></trkpt>
   <trkpt lat="38.668872" lon="-0.33122"><ele>738.25</ele></trkpt>
   <trkpt lat="38.668807" lon="-0.331162"><ele>738.25</ele></trkpt>
   <trkpt lat="38.668784" lon="-0.331128"><ele>738.25</ele></trkpt>
   <trkpt lat="38.668765" lon="-0.331058"><ele>739.5</ele></trkpt>
   <trkpt lat="38.668775" lon="-0.330987"><ele>740.5</ele></trkpt>
   <trkpt lat="38.668808" lon="-0.330937"><ele>740.5</ele></trkpt>
   <trkpt lat="38.66889" lon="-0.330855"><ele>739.5</ele></trkpt>
   <trkpt lat="38.669179" lon="-0.330635"><ele>743.5</ele></trkpt>
   <trkpt lat="38.669296" lon="-0.330539"><ele>743.75</ele></trkpt>
   <trkpt lat="38.669373" lon="-0.330462"><ele>744.25</ele></trkpt>
   <trkpt lat="38.669437" lon="-0.330388"><ele>744.5</ele></trkpt>
   <trkpt lat="38.669586" lon="-0.330155"><ele>745.5</ele></trkpt>
   <trkpt lat="38.669674" lon="-0.32996"><ele>746.75</ele></trkpt>
   <trkpt lat="38.669706" lon="-0.329805"><ele>748</ele></trkpt>
   <trkpt lat="38.66971" lon="-0.329689"><ele>749</ele></trkpt>
   <trkpt lat="38.669697" lon="-0.329617"><ele>749.25</ele></trkpt>
   <trkpt lat="38.669626" lon="-0.329366"><ele>751.5</ele></trkpt>
   <trkpt lat="38.669523" lon="-0.328893"><ele>754.25</ele></trkpt>
   <trkpt lat="38.669385" lon="-0.328656"><ele>757.75</ele></trkpt>
   <trkpt lat="38.669249" lon="-0.328193"><ele>760</ele></trkpt>
   <trkpt lat="38.669203" lon="-0.328097"><ele>764.5</ele></trkpt>
   <trkpt lat="38.66899" lon="-0.327645"><ele>764.5</ele></trkpt>
   <trkpt lat="38.668747" lon="-0.327122"><ele>769.5</ele></trkpt>
   <trkpt lat="38.668682" lon="-0.326937"><ele>770.75</ele></trkpt>
   <trkpt lat="38.668614" lon="-0.326675"><ele>770.75</ele></trkpt>
   <trkpt lat="38.668458" lon="-0.326351"><ele>774</ele></trkpt>
   <trkpt lat="38.668391" lon="-0.326285"><ele>775</ele></trkpt>
   <trkpt lat="38.668327" lon="-0.326258"><ele>776.5</ele></trkpt>
   <trkpt lat="38.668266" lon="-0.326268"><ele>776.5</ele></trkpt>
   <trkpt lat="38.668196" lon="-0.3263"><ele>777.25</ele></trkpt>
   <trkpt lat="38.667997" lon="-0.326436"><ele>780.75</ele></trkpt>
   <trkpt lat="38.667671" lon="-0.326683"><ele>783.75</ele></trkpt>
   <trkpt lat="38.667584" lon="-0.326789"><ele>784.75</ele></trkpt>
   <trkpt lat="38.667516" lon="-0.326899"><ele>785</ele></trkpt>
   <trkpt lat="38.667449" lon="-0.327024"><ele>786.5</ele></trkpt>
   <trkpt lat="38.667378" lon="-0.327115"><ele>788</ele></trkpt>
   <trkpt lat="38.66729" lon="-0.327165"><ele>788</ele></trkpt>
   <trkpt lat="38.667202" lon="-0.327193"><ele>787.75</ele></trkpt>
   <trkpt lat="38.667098" lon="-0.327175"><ele>788.5</ele></trkpt>
   <trkpt lat="38.666989" lon="-0.327143"><ele>789.25</ele></trkpt>
   <trkpt lat="38.666879" lon="-0.327076"><ele>790</ele></trkpt>
   <trkpt lat="38.666831" lon="-0.32695"><ele>790.5</ele></trkpt>
   <trkpt lat="38.666824" lon="-0.326817"><ele>791.75</ele></trkpt>
   <trkpt lat="38.666848" lon="-0.326479"><ele>795.25</ele></trkpt>
   <trkpt lat="38.666905" lon="-0.32621"><ele>796.25</ele></trkpt>
   <trkpt lat="38.666972" lon="-0.325942"><ele>797.5</ele></trkpt>
   <trkpt lat="38.667004" lon="-0.325842"><ele>798.5</ele></trkpt>
   <trkpt lat="38.667093" lon="-0.325702"><ele>800</ele></trkpt>
   <trkpt lat="38.667394" lon="-0.32525"><ele>803.5</ele></trkpt>
   <trkpt lat="38.667434" lon="-0.325101"><ele>804.25</ele></trkpt>
   <trkpt lat="38.667442" lon="-0.32496"><ele>805.25</ele></trkpt>
   <trkpt lat="38.667387" lon="-0.324705"><ele>808</ele></trkpt>
   <trkpt lat="38.667335" lon="-0.324541"><ele>808.5</ele></trkpt>
   <trkpt lat="38.667252" lon="-0.324364"><ele>810</ele></trkpt>
   <trkpt lat="38.6671" lon="-0.323985"><ele>812.75</ele></trkpt>
   <trkpt lat="38.666949" lon="-0.323574"><ele>816</ele></trkpt>
   <trkpt lat="38.666905" lon="-0.323497"><ele>815.5</ele></trkpt>
   <trkpt lat="38.666824" lon="-0.323449"><ele>815.5</ele></trkpt>
   <trkpt lat="38.666705" lon="-0.323435"><ele>816.25</ele></trkpt>
   <trkpt lat="38.666411" lon="-0.323475"><ele>817.5</ele></trkpt>
   <trkpt lat="38.6663" lon="-0.323467"><ele>818.25</ele></trkpt>
   <trkpt lat="38.666197" lon="-0.323427"><ele>818.25</ele></trkpt>
   <trkpt lat="38.666127" lon="-0.323361"><ele>817.5</ele></trkpt>
   <trkpt lat="38.666023" lon="-0.323245"><ele>818.75</ele></trkpt>
   <trkpt lat="38.665499" lon="-0.322697"><ele>822.25</ele></trkpt>
   <trkpt lat="38.665365" lon="-0.322596"><ele>823.75</ele></trkpt>
   <trkpt lat="38.664889" lon="-0.322317"><ele>827.25</ele></trkpt>
   <trkpt lat="38.664767" lon="-0.322265"><ele>829</ele></trkpt>
   <trkpt lat="38.664676" lon="-0.322244"><ele>829.5</ele></trkpt>
   <trkpt lat="38.66454" lon="-0.322271"><ele>830.25</ele></trkpt>
   <trkpt lat="38.664341" lon="-0.322361"><ele>831.5</ele></trkpt>
   <trkpt lat="38.66423" lon="-0.322433"><ele>832.25</ele></trkpt>
   <trkpt lat="38.663764" lon="-0.322626"><ele>834</ele></trkpt>
   <trkpt lat="38.663623" lon="-0.322753"><ele>834.5</ele></trkpt>
   <trkpt lat="38.663537" lon="-0.32283"><ele>835</ele></trkpt>
   <trkpt lat="38.66337" lon="-0.323098"><ele>837.5</ele></trkpt>
   <trkpt lat="38.663161" lon="-0.323313"><ele>839.25</ele></trkpt>
   <trkpt lat="38.663017" lon="-0.323402"><ele>840</ele></trkpt>
   <trkpt lat="38.662882" lon="-0.323469"><ele>841</ele></trkpt>
   <trkpt lat="38.662417" lon="-0.323587"><ele>843.25</ele></trkpt>
   <trkpt lat="38.662121" lon="-0.3236"><ele>845.75</ele></trkpt>
   <trkpt lat="38.661929" lon="-0.323584"><ele>847.75</ele></trkpt>
   <trkpt lat="38.661865" lon="-0.323563"><ele>847.75</ele></trkpt>
   <trkpt lat="38.66181" lon="-0.323525"><ele>848</ele></trkpt>
   <trkpt lat="38.66177" lon="-0.323455"><ele>848.25</ele></trkpt>
   <trkpt lat="38.661752" lon="-0.323385"><ele>848.5</ele></trkpt>
   <trkpt lat="38.66176" lon="-0.322906"><ele>849.75</ele></trkpt>
   <trkpt lat="38.661788" lon="-0.322627"><ele>851.5</ele></trkpt>
   <trkpt lat="38.661892" lon="-0.322209"><ele>853.75</ele></trkpt>
   <trkpt lat="38.661891" lon="-0.322113"><ele>854.5</ele></trkpt>
   <trkpt lat="38.661869" lon="-0.322012"><ele>855.75</ele></trkpt>
   <trkpt lat="38.661677" lon="-0.321584"><ele>859.5</ele></trkpt>
   <trkpt lat="38.661642" lon="-0.321442"><ele>859.75</ele></trkpt>
   <trkpt lat="38.66163" lon="-0.321286"><ele>860.25</ele></trkpt>
   <trkpt lat="38.661634" lon="-0.321117"><ele>860.75</ele></trkpt>
   <trkpt lat="38.661675" lon="-0.321038"><ele>861.75</ele></trkpt>
   <trkpt lat="38.661715" lon="-0.320984"><ele>862.75</ele></trkpt>
   <trkpt lat="38.66177" lon="-0.320931"><ele>863.5</ele></trkpt>
   <trkpt lat="38.661994" lon="-0.320811"><ele>863.5</ele></trkpt>
   <trkpt lat="38.662256" lon="-0.320644"><ele>863.5</ele></trkpt>
   <trkpt lat="38.662472" lon="-0.32044"><ele>867.25</ele></trkpt>
   <trkpt lat="38.662723" lon="-0.32019"><ele>868.75</ele></trkpt>
   <trkpt lat="38.662822" lon="-0.320059"><ele>869.75</ele></trkpt>
   <trkpt lat="38.662882" lon="-0.319904"><ele>870.25</ele></trkpt>
   <trkpt lat="38.662902" lon="-0.319643"><ele>872</ele></trkpt>
   <trkpt lat="38.662974" lon="-0.319312"><ele>873.5</ele></trkpt>
   <trkpt lat="38.662969" lon="-0.319241"><ele>874.75</ele></trkpt>
   <trkpt lat="38.662947" lon="-0.319199"><ele>875.75</ele></trkpt>
   <trkpt lat="38.662916" lon="-0.319189"><ele>876.5</ele></trkpt>
   <trkpt lat="38.662893" lon="-0.319194"><ele>877</ele></trkpt>
   <trkpt lat="38.66283" lon="-0.319245"><ele>878</ele></trkpt>
   <trkpt lat="38.662798" lon="-0.319295"><ele>878.5</ele></trkpt>
   <trkpt lat="38.662782" lon="-0.319367"><ele>878.25</ele></trkpt>
   <trkpt lat="38.662736" lon="-0.319682"><ele>879.5</ele></trkpt>
   <trkpt lat="38.662713" lon="-0.319789"><ele>879</ele></trkpt>
   <trkpt lat="38.66265" lon="-0.319886"><ele>879</ele></trkpt>
   <trkpt lat="38.662576" lon="-0.319964"><ele>879.5</ele></trkpt>
   <trkpt lat="38.662357" lon="-0.320111"><ele>881</ele></trkpt>
   <trkpt lat="38.661858" lon="-0.320311"><ele>884.5</ele></trkpt>
   <trkpt lat="38.661764" lon="-0.32034"><ele>884.5</ele></trkpt>
   <trkpt lat="38.661685" lon="-0.320337"><ele>885.5</ele></trkpt>
   <trkpt lat="38.661597" lon="-0.320323"><ele>886.5</ele></trkpt>
   <trkpt lat="38.661415" lon="-0.320274"><ele>889</ele></trkpt>
   <trkpt lat="38.661186" lon="-0.320261"><ele>891.5</ele></trkpt>
   <trkpt lat="38.66111" lon="-0.320283"><ele>891.75</ele></trkpt>
   <trkpt lat="38.660987" lon="-0.320364"><ele>893</ele></trkpt>
   <trkpt lat="38.660905" lon="-0.320443"><ele>893.75</ele></trkpt>
   <trkpt lat="38.660821" lon="-0.320542"><ele>894.5</ele></trkpt>
   <trkpt lat="38.660771" lon="-0.320641"><ele>895</ele></trkpt>
   <trkpt lat="38.660638" lon="-0.321075"><ele>898</ele></trkpt>
   <trkpt lat="38.660538" lon="-0.321296"><ele>900.5</ele></trkpt>
   <trkpt lat="38.66037" lon="-0.321442"><ele>901.25</ele></trkpt>
   <trkpt lat="38.660272" lon="-0.321478"><ele>902</ele></trkpt>
   <trkpt lat="38.66016" lon="-0.321508"><ele>902.75</ele></trkpt>
   <trkpt lat="38.659912" lon="-0.321501"><ele>906</ele></trkpt>
   <trkpt lat="38.659828" lon="-0.321528"><ele>906</ele></trkpt>
   <trkpt lat="38.65978" lon="-0.321567"><ele>905.75</ele></trkpt>
   <trkpt lat="38.659745" lon="-0.321626"><ele>905</ele></trkpt>
   <trkpt lat="38.659724" lon="-0.321709"><ele>905.25</ele></trkpt>
   <trkpt lat="38.659724" lon="-0.321909"><ele>906.5</ele></trkpt>
   <trkpt lat="38.659744" lon="-0.322159"><ele>907.25</ele></trkpt>
   <trkpt lat="38.659716" lon="-0.322429"><ele>909.25</ele></trkpt>
   <trkpt lat="38.659635" lon="-0.322785"><ele>912</ele></trkpt>
   <trkpt lat="38.65957" lon="-0.322966"><ele>912.5</ele></trkpt>
   <trkpt lat="38.659466" lon="-0.323206"><ele>914</ele></trkpt>
   <trkpt lat="38.659413" lon="-0.323312"><ele>915.25</ele></trkpt>
   <trkpt lat="38.659381" lon="-0.323435"><ele>916.25</ele></trkpt>
   <trkpt lat="38.659274" lon="-0.324344"><ele>917.5</ele></trkpt>
   <trkpt lat="38.659221" lon="-0.324513"><ele>918.75</ele></trkpt>
   <trkpt lat="38.659167" lon="-0.324609"><ele>920.25</ele></trkpt>
   <trkpt lat="38.659082" lon="-0.324678"><ele>921</ele></trkpt>
   <trkpt lat="38.65899" lon="-0.324729"><ele>921.75</ele></trkpt>
   <trkpt lat="38.65891" lon="-0.324745"><ele>922.25</ele></trkpt>
   <trkpt lat="38.658809" lon="-0.324745"><ele>922.25</ele></trkpt>
   <trkpt lat="38.658759" lon="-0.324701"><ele>922.75</ele></trkpt>
   <trkpt lat="38.658713" lon="-0.324609"><ele>923.25</ele></trkpt>
   <trkpt lat="38.658718" lon="-0.324501"><ele>924.5</ele></trkpt>
   <trkpt lat="38.658805" lon="-0.324193"><ele>926.75</ele></trkpt>
   <trkpt lat="38.658877" lon="-0.323909"><ele>928.75</ele></trkpt>
   <trkpt lat="38.658885" lon="-0.323762"><ele>929.75</ele></trkpt>
   <trkpt lat="38.658876" lon="-0.323681"><ele>930.5</ele></trkpt>
   <trkpt lat="38.658854" lon="-0.323583"><ele>931.25</ele></trkpt>
   <trkpt lat="38.658784" lon="-0.32349"><ele>932.25</ele></trkpt>
   <trkpt lat="38.658709" lon="-0.323445"><ele>933</ele></trkpt>
   <trkpt lat="38.658637" lon="-0.32342"><ele>933.75</ele></trkpt>
   <trkpt lat="38.658396" lon="-0.323358"><ele>935.25</ele></trkpt>
   <trkpt lat="38.658242" lon="-0.323345"><ele>936.75</ele></trkpt>
   <trkpt lat="38.65809" lon="-0.323357"><ele>938.25</ele></trkpt>
   <trkpt lat="38.658015" lon="-0.323388"><ele>938.75</ele></trkpt>
   <trkpt lat="38.657959" lon="-0.323442"><ele>939</ele></trkpt>
   <trkpt lat="38.657722" lon="-0.323723"><ele>941.75</ele></trkpt>
   <trkpt lat="38.657644" lon="-0.323801"><ele>942</ele></trkpt>
   <trkpt lat="38.657583" lon="-0.323812"><ele>942.5</ele></trkpt>
   <trkpt lat="38.657531" lon="-0.323795"><ele>943.25</ele></trkpt>
   <trkpt lat="38.657223" lon="-0.32352"><ele>945.75</ele></trkpt>
   <trkpt lat="38.656911" lon="-0.32327"><ele>947.25</ele></trkpt>
   <trkpt lat="38.656451" lon="-0.322952"><ele>951.25</ele></trkpt>
   <trkpt lat="38.6564" lon="-0.322902"><ele>952</ele></trkpt>
   <trkpt lat="38.656373" lon="-0.322864"><ele>952.5</ele></trkpt>
   <trkpt lat="38.656357" lon="-0.322819"><ele>953</ele></trkpt>
   <trkpt lat="38.656357" lon="-0.322791"><ele>953.25</ele></trkpt>
   <trkpt lat="38.656369" lon="-0.322728"><ele>954.5</ele></trkpt>
   <trkpt lat="38.656392" lon="-0.322698"><ele>955</ele></trkpt>
   <trkpt lat="38.65643" lon="-0.322673"><ele>955.5</ele></trkpt>
   <trkpt lat="38.656984" lon="-0.322441"><ele>959.25</ele></trkpt>
   <trkpt lat="38.657099" lon="-0.322372"><ele>959.5</ele></trkpt>
   <trkpt lat="38.657212" lon="-0.322265"><ele>961</ele></trkpt>
   <trkpt lat="38.657269" lon="-0.322186"><ele>961.75</ele></trkpt>
   <trkpt lat="38.657358" lon="-0.32205"><ele>962.5</ele></trkpt>
   <trkpt lat="38.657427" lon="-0.321958"><ele>963.25</ele></trkpt>
   <trkpt lat="38.657516" lon="-0.321848"><ele>963.75</ele></trkpt>
   <trkpt lat="38.657686" lon="-0.321671"><ele>965.25</ele></trkpt>
   <trkpt lat="38.657738" lon="-0.321596"><ele>965.25</ele></trkpt>
   <trkpt lat="38.657748" lon="-0.321549"><ele>965.5</ele></trkpt>
   <trkpt lat="38.657744" lon="-0.321498"><ele>965.75</ele></trkpt>
   <trkpt lat="38.65773" lon="-0.321463"><ele>966</ele></trkpt>
   <trkpt lat="38.657706" lon="-0.321431"><ele>966.5</ele></trkpt>
   <trkpt lat="38.657669" lon="-0.321404"><ele>967</ele></trkpt>
   <trkpt lat="38.657625" lon="-0.32139"><ele>967.5</ele></trkpt>
   <trkpt lat="38.657279" lon="-0.321364"><ele>971</ele></trkpt>
   <trkpt lat="38.657119" lon="-0.321325"><ele>972.5</ele></trkpt>
   <trkpt lat="38.656962" lon="-0.321264"><ele>974.5</ele></trkpt>
   <trkpt lat="38.656845" lon="-0.321232"><ele>975.75</ele></trkpt>
   <trkpt lat="38.65675" lon="-0.321224"><ele>976.5</ele></trkpt>
   <trkpt lat="38.656613" lon="-0.321239"><ele>977.25</ele></trkpt>
   <trkpt lat="38.656251" lon="-0.32131"><ele>978.75</ele></trkpt>
   <trkpt lat="38.656177" lon="-0.321314"><ele>979.25</ele></trkpt>
   <trkpt lat="38.656088" lon="-0.321305"><ele>980</ele></trkpt>
   <trkpt lat="38.655955" lon="-0.321264"><ele>980.25</ele></trkpt>
   <trkpt lat="38.655779" lon="-0.321189"><ele>982</ele></trkpt>
   <trkpt lat="38.65565" lon="-0.321153"><ele>983</ele></trkpt>
   <trkpt lat="38.655536" lon="-0.321134"><ele>984</ele></trkpt>
   <trkpt lat="38.655431" lon="-0.321149"><ele>986</ele></trkpt>
   <trkpt lat="38.65539" lon="-0.321165"><ele>986.5</ele></trkpt>
   <trkpt lat="38.655349" lon="-0.321197"><ele>987</ele></trkpt>
   <trkpt lat="38.655309" lon="-0.32124"><ele>987.25</ele></trkpt>
   <trkpt lat="38.655185" lon="-0.321452"><ele>988</ele></trkpt>
   <trkpt lat="38.655123" lon="-0.321534"><ele>988.5</ele></trkpt>
   <trkpt lat="38.655061" lon="-0.321602"><ele>989.25</ele></trkpt>
   <trkpt lat="38.654894" lon="-0.321753"><ele>990.5</ele></trkpt>
   <trkpt lat="38.654753" lon="-0.321844"><ele>992.25</ele></trkpt>
   <trkpt lat="38.65435" lon="-0.321988"><ele>994.5</ele></trkpt>
   <trkpt lat="38.653632" lon="-0.322219"><ele>1000.5</ele></trkpt>
   <trkpt lat="38.653497" lon="-0.322255"><ele>1000.5</ele></trkpt>
   <trkpt lat="38.653373" lon="-0.322276"><ele>1000.75</ele></trkpt>
   <trkpt lat="38.653213" lon="-0.322288"><ele>1003</ele></trkpt>
   <trkpt lat="38.653103" lon="-0.322308"><ele>1004.5</ele></trkpt>
   <trkpt lat="38.652989" lon="-0.322355"><ele>1005.75</ele></trkpt>
   <trkpt lat="38.652788" lon="-0.322492"><ele>1006.75</ele></trkpt>
   <trkpt lat="38.652683" lon="-0.322583"><ele>1008.5</ele></trkpt>
   <trkpt lat="38.652627" lon="-0.322654"><ele>1009</ele></trkpt>
   <trkpt lat="38.652586" lon="-0.32272"><ele>1009</ele></trkpt>
   <trkpt lat="38.652513" lon="-0.322862"><ele>1008.75</ele></trkpt>
   <trkpt lat="38.652318" lon="-0.323187"><ele>1009.25</ele></trkpt>
   <trkpt lat="38.652104" lon="-0.323487"><ele>1010.5</ele></trkpt>
   <trkpt lat="38.651978" lon="-0.323666"><ele>1009.75</ele></trkpt>
   <trkpt lat="38.651678" lon="-0.324045"><ele>1013.5</ele></trkpt>
   <trkpt lat="38.65153" lon="-0.324195"><ele>1014.5</ele></trkpt>
   <trkpt lat="38.6513" lon="-0.324405"><ele>1016.25</ele></trkpt>
   <trkpt lat="38.651172" lon="-0.324501"><ele>1017</ele></trkpt>
   <trkpt lat="38.65103" lon="-0.324593"><ele>1018.25</ele></trkpt>
   <trkpt lat="38.650669" lon="-0.324769"><ele>1021.5</ele></trkpt>
   <trkpt lat="38.650507" lon="-0.324806"><ele>1023.5</ele></trkpt>
   <trkpt lat="38.650261" lon="-0.324813"><ele>1025.5</ele></trkpt>
   <trkpt lat="38.650202" lon="-0.324813"><ele>1025.75</ele></trkpt>
   <trkpt lat="38.650119" lon="-0.324806"><ele>1026</ele></trkpt>
   <trkpt lat="38.649942" lon="-0.324798"><ele>1026.25</ele></trkpt>
    </trkseg>
 </trk>
</gpx>
