<?xml version="1.0" encoding="UTF-8"?>
<!-- track-length = 12665 filtered ascend = 595 plain-ascend = 556 cost=17113 energy=0.2kwh time=1h 45m 32s -->
<gpx 
 xmlns="http://www.topografix.com/GPX/1/1" 
 xmlns:xsi="http://www.w3.org/2001/XMLSchema-instance" 
 xsi:schemaLocation="http://www.topografix.com/GPX/1/1 http://www.topografix.com/GPX/1/1/gpx.xsd" 
 version="1.1" 
 creator="BRouter-Web 0.18.1">
 <trk>
  <name>Puerto de Los Villares</name>
  <trkseg>
   <trkpt lat="37.695719" lon="-3.813203"><ele>598</ele></trkpt>
   <trkpt lat="37.695927" lon="-3.81299"><ele>596.75</ele></trkpt>
   <trkpt lat="37.696095" lon="-3.812799"><ele>595</ele></trkpt>
   <trkpt lat="37.69608" lon="-3.812765"><ele>595.25</ele></trkpt>
   <trkpt lat="37.696085" lon="-3.812727"><ele>595.5</ele></trkpt>
   <trkpt lat="37.696106" lon="-3.8127"><ele>595.5</ele></trkpt>
   <trkpt lat="37.696059" lon="-3.812641"><ele>596.25</ele></trkpt>
   <trkpt lat="37.695687" lon="-3.812172"><ele>604.75</ele></trkpt>
   <trkpt lat="37.695251" lon="-3.811699"><ele>613.75</ele></trkpt>
   <trkpt lat="37.695183" lon="-3.811625"><ele>615</ele></trkpt>
   <trkpt lat="37.695128" lon="-3.811598"><ele>615.75</ele></trkpt>
   <trkpt lat="37.69505" lon="-3.811559"><ele>617.5</ele></trkpt>
   <trkpt lat="37.694379" lon="-3.811222"><ele>625.5</ele></trkpt>
   <trkpt lat="37.693859" lon="-3.810997"><ele>630.5</ele></trkpt>
   <trkpt lat="37.693465" lon="-3.810812"><ele>632</ele></trkpt>
   <trkpt lat="37.691415" lon="-3.810654"><ele>630</ele></trkpt>
   <trkpt lat="37.690447" lon="-3.810707"><ele>636</ele></trkpt>
   <trkpt lat="37.689697" lon="-3.810762"><ele>643</ele></trkpt>
   <trkpt lat="37.689557" lon="-3.810728"><ele>643.25</ele></trkpt>
   <trkpt lat="37.689462" lon="-3.810691"><ele>644</ele></trkpt>
   <trkpt lat="37.689165" lon="-3.810578"><ele>644.75</ele></trkpt>
   <trkpt lat="37.689046" lon="-3.810545"><ele>645.5</ele></trkpt>
   <trkpt lat="37.688855" lon="-3.810584"><ele>646.5</ele></trkpt>
   <trkpt lat="37.688747" lon="-3.810682"><ele>647.5</ele></trkpt>
   <trkpt lat="37.688654" lon="-3.810845"><ele>647</ele></trkpt>
   <trkpt lat="37.688375" lon="-3.811518"><ele>648.25</ele></trkpt>
   <trkpt lat="37.688195" lon="-3.81218"><ele>649.75</ele></trkpt>
   <trkpt lat="37.688159" lon="-3.812413"><ele>650.25</ele></trkpt>
   <trkpt lat="37.688178" lon="-3.812606"><ele>650</ele></trkpt>
   <trkpt lat="37.688272" lon="-3.81307"><ele>648.25</ele></trkpt>
   <trkpt lat="37.688205" lon="-3.813262"><ele>648</ele></trkpt>
   <trkpt lat="37.688094" lon="-3.813304"><ele>649</ele></trkpt>
   <trkpt lat="37.688005" lon="-3.813301"><ele>650.5</ele></trkpt>
   <trkpt lat="37.68794" lon="-3.813401"><ele>650</ele></trkpt>
   <trkpt lat="37.687774" lon="-3.813536"><ele>649.5</ele></trkpt>
   <trkpt lat="37.687655" lon="-3.813518"><ele>649</ele></trkpt>
   <trkpt lat="37.687124" lon="-3.813319"><ele>651.75</ele></trkpt>
   <trkpt lat="37.686762" lon="-3.813183"><ele>652.75</ele></trkpt>
   <trkpt lat="37.686638" lon="-3.813175"><ele>652.25</ele></trkpt>
   <trkpt lat="37.686534" lon="-3.813186"><ele>652.75</ele></trkpt>
   <trkpt lat="37.686211" lon="-3.813292"><ele>652</ele></trkpt>
   <trkpt lat="37.686075" lon="-3.813298"><ele>652.5</ele></trkpt>
   <trkpt lat="37.685927" lon="-3.813262"><ele>652.75</ele></trkpt>
   <trkpt lat="37.685816" lon="-3.81322"><ele>653.25</ele></trkpt>
   <trkpt lat="37.685095" lon="-3.812816"><ele>653</ele></trkpt>
   <trkpt lat="37.684965" lon="-3.812758"><ele>653.5</ele></trkpt>
   <trkpt lat="37.684833" lon="-3.812715"><ele>654.75</ele></trkpt>
   <trkpt lat="37.684437" lon="-3.812658"><ele>655</ele></trkpt>
   <trkpt lat="37.684302" lon="-3.812608"><ele>654.5</ele></trkpt>
   <trkpt lat="37.684185" lon="-3.812548"><ele>654.75</ele></trkpt>
   <trkpt lat="37.684046" lon="-3.812445"><ele>655</ele></trkpt>
   <trkpt lat="37.683912" lon="-3.812309"><ele>656</ele></trkpt>
   <trkpt lat="37.683779" lon="-3.812153"><ele>657.25</ele></trkpt>
   <trkpt lat="37.683669" lon="-3.811982"><ele>659.25</ele></trkpt>
   <trkpt lat="37.683582" lon="-3.811822"><ele>659.5</ele></trkpt>
   <trkpt lat="37.683492" lon="-3.811637"><ele>659.5</ele></trkpt>
   <trkpt lat="37.68341" lon="-3.811509"><ele>659.75</ele></trkpt>
   <trkpt lat="37.683347" lon="-3.811445"><ele>660</ele></trkpt>
   <trkpt lat="37.68329" lon="-3.811418"><ele>660.25</ele></trkpt>
   <trkpt lat="37.683212" lon="-3.811406"><ele>660.5</ele></trkpt>
   <trkpt lat="37.683139" lon="-3.811419"><ele>660.75</ele></trkpt>
   <trkpt lat="37.68307" lon="-3.811466"><ele>661</ele></trkpt>
   <trkpt lat="37.683003" lon="-3.811548"><ele>661</ele></trkpt>
   <trkpt lat="37.682878" lon="-3.811736"><ele>662.75</ele></trkpt>
   <trkpt lat="37.682788" lon="-3.811829"><ele>662</ele></trkpt>
   <trkpt lat="37.682682" lon="-3.811895"><ele>661</ele></trkpt>
   <trkpt lat="37.682536" lon="-3.811936"><ele>660</ele></trkpt>
   <trkpt lat="37.6824" lon="-3.811963"><ele>660.25</ele></trkpt>
   <trkpt lat="37.682107" lon="-3.811985"><ele>661</ele></trkpt>
   <trkpt lat="37.681975" lon="-3.811969"><ele>661.75</ele></trkpt>
   <trkpt lat="37.681874" lon="-3.81193"><ele>662</ele></trkpt>
   <trkpt lat="37.681714" lon="-3.811847"><ele>661.5</ele></trkpt>
   <trkpt lat="37.681284" lon="-3.811645"><ele>664</ele></trkpt>
   <trkpt lat="37.681129" lon="-3.81156"><ele>665.5</ele></trkpt>
   <trkpt lat="37.681035" lon="-3.811491"><ele>665.5</ele></trkpt>
   <trkpt lat="37.680701" lon="-3.811169"><ele>667</ele></trkpt>
   <trkpt lat="37.680582" lon="-3.811083"><ele>668.25</ele></trkpt>
   <trkpt lat="37.680476" lon="-3.811027"><ele>669.25</ele></trkpt>
   <trkpt lat="37.680315" lon="-3.810975"><ele>669.75</ele></trkpt>
   <trkpt lat="37.680233" lon="-3.810936"><ele>670</ele></trkpt>
   <trkpt lat="37.680143" lon="-3.81087"><ele>670</ele></trkpt>
   <trkpt lat="37.680049" lon="-3.810759"><ele>670.5</ele></trkpt>
   <trkpt lat="37.679856" lon="-3.810497"><ele>672</ele></trkpt>
   <trkpt lat="37.679767" lon="-3.810396"><ele>671.5</ele></trkpt>
   <trkpt lat="37.679653" lon="-3.81031"><ele>670.75</ele></trkpt>
   <trkpt lat="37.678562" lon="-3.809851"><ele>677.25</ele></trkpt>
   <trkpt lat="37.67844" lon="-3.809811"><ele>676.5</ele></trkpt>
   <trkpt lat="37.678304" lon="-3.809779"><ele>675.5</ele></trkpt>
   <trkpt lat="37.678161" lon="-3.809786"><ele>676.25</ele></trkpt>
   <trkpt lat="37.678024" lon="-3.809813"><ele>676.25</ele></trkpt>
   <trkpt lat="37.677869" lon="-3.80987"><ele>676.75</ele></trkpt>
   <trkpt lat="37.677768" lon="-3.809934"><ele>677.25</ele></trkpt>
   <trkpt lat="37.677469" lon="-3.810202"><ele>677</ele></trkpt>
   <trkpt lat="37.677393" lon="-3.810258"><ele>677</ele></trkpt>
   <trkpt lat="37.677275" lon="-3.810317"><ele>677.5</ele></trkpt>
   <trkpt lat="37.677158" lon="-3.810343"><ele>677.5</ele></trkpt>
   <trkpt lat="37.675179" lon="-3.810288"><ele>685.5</ele></trkpt>
   <trkpt lat="37.675062" lon="-3.810272"><ele>686.25</ele></trkpt>
   <trkpt lat="37.674935" lon="-3.810221"><ele>688</ele></trkpt>
   <trkpt lat="37.674836" lon="-3.810124"><ele>690</ele></trkpt>
   <trkpt lat="37.674481" lon="-3.809685"><ele>691.75</ele></trkpt>
   <trkpt lat="37.674402" lon="-3.809606"><ele>692</ele></trkpt>
   <trkpt lat="37.674339" lon="-3.809571"><ele>692.5</ele></trkpt>
   <trkpt lat="37.674259" lon="-3.809551"><ele>692.75</ele></trkpt>
   <trkpt lat="37.674175" lon="-3.809562"><ele>692.25</ele></trkpt>
   <trkpt lat="37.673912" lon="-3.809667"><ele>696</ele></trkpt>
   <trkpt lat="37.673805" lon="-3.809693"><ele>696.25</ele></trkpt>
   <trkpt lat="37.673711" lon="-3.80971"><ele>696.5</ele></trkpt>
   <trkpt lat="37.673595" lon="-3.809694"><ele>698.5</ele></trkpt>
   <trkpt lat="37.673466" lon="-3.809654"><ele>700</ele></trkpt>
   <trkpt lat="37.672911" lon="-3.809393"><ele>704.5</ele></trkpt>
   <trkpt lat="37.672507" lon="-3.809212"><ele>707.25</ele></trkpt>
   <trkpt lat="37.672355" lon="-3.809124"><ele>708.75</ele></trkpt>
   <trkpt lat="37.672211" lon="-3.809025"><ele>710.75</ele></trkpt>
   <trkpt lat="37.671664" lon="-3.808611"><ele>713.75</ele></trkpt>
   <trkpt lat="37.671544" lon="-3.808508"><ele>713.75</ele></trkpt>
   <trkpt lat="37.671382" lon="-3.808343"><ele>716.25</ele></trkpt>
   <trkpt lat="37.671301" lon="-3.808279"><ele>717</ele></trkpt>
   <trkpt lat="37.671195" lon="-3.808208"><ele>716.75</ele></trkpt>
   <trkpt lat="37.671124" lon="-3.808141"><ele>716.5</ele></trkpt>
   <trkpt lat="37.670995" lon="-3.807984"><ele>718.5</ele></trkpt>
   <trkpt lat="37.670815" lon="-3.807741"><ele>720.5</ele></trkpt>
   <trkpt lat="37.670552" lon="-3.807364"><ele>721.25</ele></trkpt>
   <trkpt lat="37.670489" lon="-3.807299"><ele>722</ele></trkpt>
   <trkpt lat="37.670403" lon="-3.807242"><ele>723</ele></trkpt>
   <trkpt lat="37.670329" lon="-3.807222"><ele>723.75</ele></trkpt>
   <trkpt lat="37.67007" lon="-3.807194"><ele>725.5</ele></trkpt>
   <trkpt lat="37.669948" lon="-3.807158"><ele>726.25</ele></trkpt>
   <trkpt lat="37.669834" lon="-3.807105"><ele>726.25</ele></trkpt>
   <trkpt lat="37.669559" lon="-3.806945"><ele>729.75</ele></trkpt>
   <trkpt lat="37.669362" lon="-3.806795"><ele>731.25</ele></trkpt>
   <trkpt lat="37.669222" lon="-3.806673"><ele>732.25</ele></trkpt>
   <trkpt lat="37.668775" lon="-3.80623"><ele>737.25</ele></trkpt>
   <trkpt lat="37.668085" lon="-3.805562"><ele>744</ele></trkpt>
   <trkpt lat="37.668014" lon="-3.805472"><ele>745.25</ele></trkpt>
   <trkpt lat="37.66796" lon="-3.805378"><ele>746.25</ele></trkpt>
   <trkpt lat="37.667931" lon="-3.805291"><ele>747.5</ele></trkpt>
   <trkpt lat="37.66791" lon="-3.805167"><ele>748.25</ele></trkpt>
   <trkpt lat="37.667897" lon="-3.804952"><ele>749.75</ele></trkpt>
   <trkpt lat="37.667884" lon="-3.804425"><ele>752.25</ele></trkpt>
   <trkpt lat="37.667903" lon="-3.804151"><ele>754.25</ele></trkpt>
   <trkpt lat="37.668082" lon="-3.80275"><ele>764.5</ele></trkpt>
   <trkpt lat="37.66809" lon="-3.802605"><ele>765</ele></trkpt>
   <trkpt lat="37.668085" lon="-3.802491"><ele>765.25</ele></trkpt>
   <trkpt lat="37.66804" lon="-3.80231"><ele>767.5</ele></trkpt>
   <trkpt lat="37.667944" lon="-3.802066"><ele>771.5</ele></trkpt>
   <trkpt lat="37.667836" lon="-3.801867"><ele>772.5</ele></trkpt>
   <trkpt lat="37.667683" lon="-3.801655"><ele>772</ele></trkpt>
   <trkpt lat="37.667408" lon="-3.80133"><ele>775.75</ele></trkpt>
   <trkpt lat="37.667037" lon="-3.801025"><ele>779</ele></trkpt>
   <trkpt lat="37.666919" lon="-3.800871"><ele>780.5</ele></trkpt>
   <trkpt lat="37.666835" lon="-3.800721"><ele>781.25</ele></trkpt>
   <trkpt lat="37.666732" lon="-3.80049"><ele>783</ele></trkpt>
   <trkpt lat="37.66667" lon="-3.800264"><ele>785</ele></trkpt>
   <trkpt lat="37.666646" lon="-3.800082"><ele>786.5</ele></trkpt>
   <trkpt lat="37.666638" lon="-3.799894"><ele>788.25</ele></trkpt>
   <trkpt lat="37.666649" lon="-3.799363"><ele>793</ele></trkpt>
   <trkpt lat="37.666651" lon="-3.798702"><ele>797.75</ele></trkpt>
   <trkpt lat="37.666638" lon="-3.798583"><ele>798.75</ele></trkpt>
   <trkpt lat="37.666605" lon="-3.798508"><ele>799.25</ele></trkpt>
   <trkpt lat="37.666551" lon="-3.798454"><ele>800</ele></trkpt>
   <trkpt lat="37.66649" lon="-3.798435"><ele>801</ele></trkpt>
   <trkpt lat="37.666424" lon="-3.798445"><ele>801.75</ele></trkpt>
   <trkpt lat="37.666362" lon="-3.798494"><ele>801.75</ele></trkpt>
   <trkpt lat="37.666299" lon="-3.798584"><ele>802</ele></trkpt>
   <trkpt lat="37.666237" lon="-3.798725"><ele>801.75</ele></trkpt>
   <trkpt lat="37.666139" lon="-3.799016"><ele>802</ele></trkpt>
   <trkpt lat="37.666088" lon="-3.79912"><ele>803.5</ele></trkpt>
   <trkpt lat="37.666025" lon="-3.799201"><ele>803.75</ele></trkpt>
   <trkpt lat="37.665985" lon="-3.799233"><ele>803.75</ele></trkpt>
   <trkpt lat="37.665931" lon="-3.799248"><ele>804.5</ele></trkpt>
   <trkpt lat="37.665875" lon="-3.799237"><ele>805.5</ele></trkpt>
   <trkpt lat="37.66582" lon="-3.7992"><ele>806.5</ele></trkpt>
   <trkpt lat="37.665777" lon="-3.799147"><ele>806.5</ele></trkpt>
   <trkpt lat="37.66575" lon="-3.79907"><ele>807</ele></trkpt>
   <trkpt lat="37.665697" lon="-3.798864"><ele>808</ele></trkpt>
   <trkpt lat="37.665472" lon="-3.797875"><ele>814</ele></trkpt>
   <trkpt lat="37.665434" lon="-3.797763"><ele>814.75</ele></trkpt>
   <trkpt lat="37.665391" lon="-3.797699"><ele>815.5</ele></trkpt>
   <trkpt lat="37.665323" lon="-3.797644"><ele>816</ele></trkpt>
   <trkpt lat="37.665237" lon="-3.797625"><ele>816.75</ele></trkpt>
   <trkpt lat="37.665172" lon="-3.797632"><ele>817.75</ele></trkpt>
   <trkpt lat="37.664875" lon="-3.797709"><ele>820.5</ele></trkpt>
   <trkpt lat="37.66477" lon="-3.797708"><ele>822</ele></trkpt>
   <trkpt lat="37.664679" lon="-3.797674"><ele>823</ele></trkpt>
   <trkpt lat="37.664608" lon="-3.797627"><ele>823.25</ele></trkpt>
   <trkpt lat="37.664522" lon="-3.797522"><ele>824.5</ele></trkpt>
   <trkpt lat="37.664073" lon="-3.796912"><ele>829.5</ele></trkpt>
   <trkpt lat="37.663996" lon="-3.796829"><ele>830.5</ele></trkpt>
   <trkpt lat="37.663912" lon="-3.796774"><ele>831.25</ele></trkpt>
   <trkpt lat="37.663826" lon="-3.796752"><ele>832</ele></trkpt>
   <trkpt lat="37.663461" lon="-3.796776"><ele>833</ele></trkpt>
   <trkpt lat="37.663138" lon="-3.796753"><ele>835</ele></trkpt>
   <trkpt lat="37.662894" lon="-3.796698"><ele>837.5</ele></trkpt>
   <trkpt lat="37.662718" lon="-3.796639"><ele>839.25</ele></trkpt>
   <trkpt lat="37.662586" lon="-3.796568"><ele>840</ele></trkpt>
   <trkpt lat="37.662394" lon="-3.796417"><ele>842.25</ele></trkpt>
   <trkpt lat="37.662293" lon="-3.796315"><ele>843.75</ele></trkpt>
   <trkpt lat="37.662226" lon="-3.796224"><ele>844.25</ele></trkpt>
   <trkpt lat="37.66216" lon="-3.796086"><ele>845</ele></trkpt>
   <trkpt lat="37.662091" lon="-3.795889"><ele>847</ele></trkpt>
   <trkpt lat="37.662038" lon="-3.795709"><ele>849.5</ele></trkpt>
   <trkpt lat="37.661968" lon="-3.795465"><ele>849.5</ele></trkpt>
   <trkpt lat="37.661928" lon="-3.795354"><ele>849.25</ele></trkpt>
   <trkpt lat="37.66189" lon="-3.79529"><ele>850</ele></trkpt>
   <trkpt lat="37.66184" lon="-3.795257"><ele>850.5</ele></trkpt>
   <trkpt lat="37.661768" lon="-3.795238"><ele>851.5</ele></trkpt>
   <trkpt lat="37.66169" lon="-3.79526"><ele>851.25</ele></trkpt>
   <trkpt lat="37.66162" lon="-3.79531"><ele>851.75</ele></trkpt>
   <trkpt lat="37.661437" lon="-3.795504"><ele>853</ele></trkpt>
   <trkpt lat="37.661052" lon="-3.795968"><ele>854.5</ele></trkpt>
   <trkpt lat="37.660974" lon="-3.796027"><ele>855</ele></trkpt>
   <trkpt lat="37.660921" lon="-3.796033"><ele>855.75</ele></trkpt>
   <trkpt lat="37.660864" lon="-3.79603"><ele>857</ele></trkpt>
   <trkpt lat="37.66081" lon="-3.796"><ele>857.25</ele></trkpt>
   <trkpt lat="37.660756" lon="-3.795921"><ele>857.25</ele></trkpt>
   <trkpt lat="37.66063" lon="-3.795591"><ele>860.75</ele></trkpt>
   <trkpt lat="37.660572" lon="-3.79551"><ele>861.75</ele></trkpt>
   <trkpt lat="37.660451" lon="-3.795405"><ele>863.75</ele></trkpt>
   <trkpt lat="37.660117" lon="-3.795253"><ele>866.75</ele></trkpt>
   <trkpt lat="37.660002" lon="-3.79523"><ele>867.75</ele></trkpt>
   <trkpt lat="37.659875" lon="-3.795235"><ele>869.5</ele></trkpt>
   <trkpt lat="37.659678" lon="-3.795285"><ele>870.75</ele></trkpt>
   <trkpt lat="37.659563" lon="-3.795278"><ele>871.5</ele></trkpt>
   <trkpt lat="37.659484" lon="-3.795246"><ele>872.25</ele></trkpt>
   <trkpt lat="37.659393" lon="-3.795179"><ele>872.75</ele></trkpt>
   <trkpt lat="37.659267" lon="-3.795037"><ele>874</ele></trkpt>
   <trkpt lat="37.6591" lon="-3.794815"><ele>876.5</ele></trkpt>
   <trkpt lat="37.659025" lon="-3.794742"><ele>877.5</ele></trkpt>
   <trkpt lat="37.65894" lon="-3.794708"><ele>878</ele></trkpt>
   <trkpt lat="37.658861" lon="-3.794705"><ele>878.75</ele></trkpt>
   <trkpt lat="37.658778" lon="-3.794733"><ele>879.75</ele></trkpt>
   <trkpt lat="37.658538" lon="-3.794926"><ele>880.75</ele></trkpt>
   <trkpt lat="37.65844" lon="-3.794983"><ele>881.25</ele></trkpt>
   <trkpt lat="37.658363" lon="-3.795014"><ele>882</ele></trkpt>
   <trkpt lat="37.658257" lon="-3.795029"><ele>882.5</ele></trkpt>
   <trkpt lat="37.657945" lon="-3.795009"><ele>885.25</ele></trkpt>
   <trkpt lat="37.657733" lon="-3.794973"><ele>887.75</ele></trkpt>
   <trkpt lat="37.657589" lon="-3.794926"><ele>889.5</ele></trkpt>
   <trkpt lat="37.657479" lon="-3.794865"><ele>890.75</ele></trkpt>
   <trkpt lat="37.657376" lon="-3.794777"><ele>892</ele></trkpt>
   <trkpt lat="37.657272" lon="-3.794649"><ele>894.5</ele></trkpt>
   <trkpt lat="37.657228" lon="-3.794566"><ele>895.25</ele></trkpt>
   <trkpt lat="37.657146" lon="-3.79441"><ele>897.75</ele></trkpt>
   <trkpt lat="37.657083" lon="-3.794331"><ele>899</ele></trkpt>
   <trkpt lat="37.656581" lon="-3.793893"><ele>901.75</ele></trkpt>
   <trkpt lat="37.656508" lon="-3.79385"><ele>903</ele></trkpt>
   <trkpt lat="37.656415" lon="-3.79382"><ele>903.5</ele></trkpt>
   <trkpt lat="37.656264" lon="-3.793809"><ele>904.75</ele></trkpt>
   <trkpt lat="37.656059" lon="-3.793844"><ele>905.75</ele></trkpt>
   <trkpt lat="37.655836" lon="-3.793934"><ele>906.25</ele></trkpt>
   <trkpt lat="37.655047" lon="-3.794293"><ele>911.5</ele></trkpt>
   <trkpt lat="37.654901" lon="-3.794369"><ele>912.75</ele></trkpt>
   <trkpt lat="37.65483" lon="-3.794426"><ele>913</ele></trkpt>
   <trkpt lat="37.654743" lon="-3.79453"><ele>913.5</ele></trkpt>
   <trkpt lat="37.654693" lon="-3.79462"><ele>914</ele></trkpt>
   <trkpt lat="37.654642" lon="-3.794747"><ele>914.75</ele></trkpt>
   <trkpt lat="37.654618" lon="-3.794885"><ele>914.5</ele></trkpt>
   <trkpt lat="37.654604" lon="-3.795021"><ele>914</ele></trkpt>
   <trkpt lat="37.654608" lon="-3.795057"><ele>914</ele></trkpt>
   <trkpt lat="37.654628" lon="-3.795286"><ele>915</ele></trkpt>
   <trkpt lat="37.654668" lon="-3.795384"><ele>916.25</ele></trkpt>
   <trkpt lat="37.654788" lon="-3.795543"><ele>917.25</ele></trkpt>
   <trkpt lat="37.655235" lon="-3.795991"><ele>920.25</ele></trkpt>
   <trkpt lat="37.65541" lon="-3.796197"><ele>923.75</ele></trkpt>
   <trkpt lat="37.655668" lon="-3.796678"><ele>925.75</ele></trkpt>
   <trkpt lat="37.655796" lon="-3.796885"><ele>928.25</ele></trkpt>
   <trkpt lat="37.656292" lon="-3.797318"><ele>931.25</ele></trkpt>
   <trkpt lat="37.656466" lon="-3.797544"><ele>931.5</ele></trkpt>
   <trkpt lat="37.656543" lon="-3.797738"><ele>933.25</ele></trkpt>
   <trkpt lat="37.656611" lon="-3.797976"><ele>935.75</ele></trkpt>
   <trkpt lat="37.656641" lon="-3.798201"><ele>937.25</ele></trkpt>
   <trkpt lat="37.656645" lon="-3.798426"><ele>938</ele></trkpt>
   <trkpt lat="37.656634" lon="-3.79867"><ele>939.5</ele></trkpt>
   <trkpt lat="37.656662" lon="-3.798824"><ele>939</ele></trkpt>
   <trkpt lat="37.6567" lon="-3.798919"><ele>938.75</ele></trkpt>
   <trkpt lat="37.656781" lon="-3.799033"><ele>939.75</ele></trkpt>
   <trkpt lat="37.656893" lon="-3.79913"><ele>940</ele></trkpt>
   <trkpt lat="37.657074" lon="-3.799228"><ele>939.5</ele></trkpt>
   <trkpt lat="37.657139" lon="-3.7993"><ele>940.25</ele></trkpt>
   <trkpt lat="37.657207" lon="-3.79942"><ele>941.75</ele></trkpt>
   <trkpt lat="37.657235" lon="-3.799513"><ele>942.25</ele></trkpt>
   <trkpt lat="37.657248" lon="-3.799672"><ele>943.5</ele></trkpt>
   <trkpt lat="37.657255" lon="-3.799907"><ele>944.5</ele></trkpt>
   <trkpt lat="37.657277" lon="-3.800062"><ele>944.5</ele></trkpt>
   <trkpt lat="37.657312" lon="-3.800176"><ele>944.5</ele></trkpt>
   <trkpt lat="37.657378" lon="-3.800317"><ele>945.25</ele></trkpt>
   <trkpt lat="37.657503" lon="-3.800518"><ele>946.25</ele></trkpt>
   <trkpt lat="37.657584" lon="-3.800632"><ele>947.5</ele></trkpt>
   <trkpt lat="37.657657" lon="-3.800704"><ele>948.25</ele></trkpt>
   <trkpt lat="37.65775" lon="-3.800754"><ele>948.5</ele></trkpt>
   <trkpt lat="37.657851" lon="-3.800778"><ele>948.75</ele></trkpt>
   <trkpt lat="37.658031" lon="-3.800791"><ele>949</ele></trkpt>
   <trkpt lat="37.658116" lon="-3.800822"><ele>949.5</ele></trkpt>
   <trkpt lat="37.658194" lon="-3.800885"><ele>950.25</ele></trkpt>
   <trkpt lat="37.658244" lon="-3.800969"><ele>951.25</ele></trkpt>
   <trkpt lat="37.658274" lon="-3.801069"><ele>952.75</ele></trkpt>
   <trkpt lat="37.658287" lon="-3.801193"><ele>954</ele></trkpt>
   <trkpt lat="37.658284" lon="-3.801453"><ele>957</ele></trkpt>
   <trkpt lat="37.658296" lon="-3.801586"><ele>957.5</ele></trkpt>
   <trkpt lat="37.658338" lon="-3.801737"><ele>957.5</ele></trkpt>
   <trkpt lat="37.65841" lon="-3.801891"><ele>958</ele></trkpt>
   <trkpt lat="37.658515" lon="-3.802071"><ele>958.75</ele></trkpt>
   <trkpt lat="37.658747" lon="-3.802385"><ele>960.75</ele></trkpt>
   <trkpt lat="37.658823" lon="-3.802525"><ele>962.5</ele></trkpt>
   <trkpt lat="37.658844" lon="-3.802641"><ele>962.75</ele></trkpt>
   <trkpt lat="37.65885" lon="-3.802766"><ele>963.5</ele></trkpt>
   <trkpt lat="37.658828" lon="-3.802906"><ele>964.25</ele></trkpt>
   <trkpt lat="37.65873" lon="-3.803269"><ele>965.25</ele></trkpt>
   <trkpt lat="37.658693" lon="-3.803503"><ele>966.25</ele></trkpt>
   <trkpt lat="37.658639" lon="-3.803955"><ele>968.5</ele></trkpt>
   <trkpt lat="37.658577" lon="-3.804392"><ele>971</ele></trkpt>
   <trkpt lat="37.658536" lon="-3.804586"><ele>972</ele></trkpt>
   <trkpt lat="37.658479" lon="-3.804763"><ele>973</ele></trkpt>
   <trkpt lat="37.65833" lon="-3.805155"><ele>976</ele></trkpt>
   <trkpt lat="37.658286" lon="-3.805323"><ele>978.5</ele></trkpt>
   <trkpt lat="37.658281" lon="-3.805466"><ele>979.5</ele></trkpt>
   <trkpt lat="37.658308" lon="-3.805621"><ele>979.25</ele></trkpt>
   <trkpt lat="37.658461" lon="-3.80615"><ele>982</ele></trkpt>
   <trkpt lat="37.658551" lon="-3.806378"><ele>982.75</ele></trkpt>
   <trkpt lat="37.658742" lon="-3.806759"><ele>983.5</ele></trkpt>
   <trkpt lat="37.658897" lon="-3.807103"><ele>985.75</ele></trkpt>
   <trkpt lat="37.658948" lon="-3.807247"><ele>985.75</ele></trkpt>
   <trkpt lat="37.658982" lon="-3.807425"><ele>986.5</ele></trkpt>
   <trkpt lat="37.658994" lon="-3.807571"><ele>987.25</ele></trkpt>
   <trkpt lat="37.658947" lon="-3.809016"><ele>995</ele></trkpt>
   <trkpt lat="37.658953" lon="-3.809148"><ele>996</ele></trkpt>
   <trkpt lat="37.658981" lon="-3.80931"><ele>997.5</ele></trkpt>
   <trkpt lat="37.659026" lon="-3.809428"><ele>998.25</ele></trkpt>
   <trkpt lat="37.659119" lon="-3.809639"><ele>1000</ele></trkpt>
   <trkpt lat="37.659407" lon="-3.810215"><ele>1003.75</ele></trkpt>
   <trkpt lat="37.659489" lon="-3.810338"><ele>1004.75</ele></trkpt>
   <trkpt lat="37.659618" lon="-3.810459"><ele>1005.75</ele></trkpt>
   <trkpt lat="37.659764" lon="-3.81058"><ele>1006.75</ele></trkpt>
   <trkpt lat="37.660208" lon="-3.810858"><ele>1010</ele></trkpt>
   <trkpt lat="37.660248" lon="-3.810922"><ele>1010.25</ele></trkpt>
   <trkpt lat="37.660255" lon="-3.810974"><ele>1010.75</ele></trkpt>
   <trkpt lat="37.660251" lon="-3.811031"><ele>1011.25</ele></trkpt>
   <trkpt lat="37.660223" lon="-3.811087"><ele>1012.25</ele></trkpt>
   <trkpt lat="37.660183" lon="-3.811126"><ele>1013</ele></trkpt>
   <trkpt lat="37.660125" lon="-3.811137"><ele>1014</ele></trkpt>
   <trkpt lat="37.660058" lon="-3.811125"><ele>1014.5</ele></trkpt>
   <trkpt lat="37.659591" lon="-3.810842"><ele>1019</ele></trkpt>
   <trkpt lat="37.659164" lon="-3.81055"><ele>1020.75</ele></trkpt>
   <trkpt lat="37.658548" lon="-3.810028"><ele>1026.25</ele></trkpt>
   <trkpt lat="37.658281" lon="-3.809753"><ele>1029.25</ele></trkpt>
   <trkpt lat="37.657859" lon="-3.809302"><ele>1031.25</ele></trkpt>
   <trkpt lat="37.657729" lon="-3.809155"><ele>1033.5</ele></trkpt>
   <trkpt lat="37.657656" lon="-3.809048"><ele>1034</ele></trkpt>
   <trkpt lat="37.657594" lon="-3.808907"><ele>1033.5</ele></trkpt>
   <trkpt lat="37.657182" lon="-3.80773"><ele>1041.75</ele></trkpt>
   <trkpt lat="37.657128" lon="-3.807561"><ele>1043.25</ele></trkpt>
   <trkpt lat="37.657102" lon="-3.807385"><ele>1044.75</ele></trkpt>
   <trkpt lat="37.657095" lon="-3.807229"><ele>1045.75</ele></trkpt>
   <trkpt lat="37.657109" lon="-3.806968"><ele>1047</ele></trkpt>
   <trkpt lat="37.657107" lon="-3.806864"><ele>1046.75</ele></trkpt>
   <trkpt lat="37.657083" lon="-3.806726"><ele>1046.75</ele></trkpt>
   <trkpt lat="37.657048" lon="-3.806623"><ele>1047.5</ele></trkpt>
   <trkpt lat="37.656835" lon="-3.806187"><ele>1049.5</ele></trkpt>
   <trkpt lat="37.656777" lon="-3.806105"><ele>1050</ele></trkpt>
   <trkpt lat="37.656711" lon="-3.806062"><ele>1051</ele></trkpt>
   <trkpt lat="37.656675" lon="-3.806069"><ele>1052</ele></trkpt>
   <trkpt lat="37.65663" lon="-3.806093"><ele>1053.75</ele></trkpt>
   <trkpt lat="37.656599" lon="-3.806135"><ele>1055.25</ele></trkpt>
   <trkpt lat="37.656591" lon="-3.806192"><ele>1056.25</ele></trkpt>
   <trkpt lat="37.656602" lon="-3.806274"><ele>1057</ele></trkpt>
   <trkpt lat="37.656628" lon="-3.806344"><ele>1057</ele></trkpt>
   <trkpt lat="37.656781" lon="-3.806602"><ele>1057.5</ele></trkpt>
   <trkpt lat="37.656831" lon="-3.806746"><ele>1057.5</ele></trkpt>
   <trkpt lat="37.656851" lon="-3.806852"><ele>1057.5</ele></trkpt>
   <trkpt lat="37.656861" lon="-3.806968"><ele>1057.75</ele></trkpt>
   <trkpt lat="37.656853" lon="-3.807074"><ele>1057.5</ele></trkpt>
   <trkpt lat="37.656831" lon="-3.807221"><ele>1057.25</ele></trkpt>
   <trkpt lat="37.656781" lon="-3.807367"><ele>1056.75</ele></trkpt>
   <trkpt lat="37.656726" lon="-3.807485"><ele>1056.5</ele></trkpt>
   <trkpt lat="37.656504" lon="-3.807825"><ele>1058</ele></trkpt>
   <trkpt lat="37.656442" lon="-3.807958"><ele>1058.25</ele></trkpt>
   <trkpt lat="37.656399" lon="-3.808091"><ele>1059</ele></trkpt>
   <trkpt lat="37.656382" lon="-3.808203"><ele>1060</ele></trkpt>
   <trkpt lat="37.656378" lon="-3.808315"><ele>1061</ele></trkpt>
   <trkpt lat="37.656385" lon="-3.808439"><ele>1061.75</ele></trkpt>
   <trkpt lat="37.656409" lon="-3.808577"><ele>1062.25</ele></trkpt>
   <trkpt lat="37.656441" lon="-3.808692"><ele>1063.5</ele></trkpt>
   <trkpt lat="37.656713" lon="-3.80919"><ele>1065.75</ele></trkpt>
   <trkpt lat="37.657001" lon="-3.809783"><ele>1069.5</ele></trkpt>
   <trkpt lat="37.65723" lon="-3.810174"><ele>1070.25</ele></trkpt>
   <trkpt lat="37.657282" lon="-3.81029"><ele>1070.5</ele></trkpt>
   <trkpt lat="37.657341" lon="-3.810482"><ele>1072.75</ele></trkpt>
   <trkpt lat="37.657743" lon="-3.812194"><ele>1079.75</ele></trkpt>
   <trkpt lat="37.6578" lon="-3.812464"><ele>1081</ele></trkpt>
   <trkpt lat="37.657844" lon="-3.812736"><ele>1081.75</ele></trkpt>
   <trkpt lat="37.657894" lon="-3.812888"><ele>1082.5</ele></trkpt>
   <trkpt lat="37.658072" lon="-3.813211"><ele>1083.25</ele></trkpt>
   <trkpt lat="37.658113" lon="-3.813347"><ele>1084</ele></trkpt>
   <trkpt lat="37.658122" lon="-3.81347"><ele>1084.25</ele></trkpt>
   <trkpt lat="37.658106" lon="-3.813584"><ele>1085.25</ele></trkpt>
   <trkpt lat="37.658062" lon="-3.81368"><ele>1086.25</ele></trkpt>
   <trkpt lat="37.657982" lon="-3.813822"><ele>1086.5</ele></trkpt>
   <trkpt lat="37.657943" lon="-3.813913"><ele>1087</ele></trkpt>
   <trkpt lat="37.657921" lon="-3.813995"><ele>1088</ele></trkpt>
   <trkpt lat="37.657913" lon="-3.814115"><ele>1089</ele></trkpt>
   <trkpt lat="37.657956" lon="-3.814528"><ele>1092</ele></trkpt>
   <trkpt lat="37.657946" lon="-3.814703"><ele>1092.5</ele></trkpt>
   <trkpt lat="37.657921" lon="-3.814819"><ele>1092.5</ele></trkpt>
   <trkpt lat="37.657877" lon="-3.814959"><ele>1092.75</ele></trkpt>
   <trkpt lat="37.657768" lon="-3.815237"><ele>1095.25</ele></trkpt>
   <trkpt lat="37.657669" lon="-3.815562"><ele>1097.25</ele></trkpt>
   <trkpt lat="37.657636" lon="-3.815716"><ele>1098</ele></trkpt>
   <trkpt lat="37.657619" lon="-3.815827"><ele>1098.25</ele></trkpt>
   <trkpt lat="37.65762" lon="-3.81598"><ele>1099</ele></trkpt>
   <trkpt lat="37.657698" lon="-3.816476"><ele>1102</ele></trkpt>
   <trkpt lat="37.657704" lon="-3.816582"><ele>1102.25</ele></trkpt>
   <trkpt lat="37.657697" lon="-3.816696"><ele>1102.75</ele></trkpt>
   <trkpt lat="37.657671" lon="-3.816846"><ele>1103</ele></trkpt>
   <trkpt lat="37.657473" lon="-3.817571"><ele>1106.5</ele></trkpt>
   <trkpt lat="37.657444" lon="-3.817733"><ele>1107.25</ele></trkpt>
   <trkpt lat="37.657439" lon="-3.817931"><ele>1108.5</ele></trkpt>
   <trkpt lat="37.657446" lon="-3.818123"><ele>1109.5</ele></trkpt>
   <trkpt lat="37.657466" lon="-3.818363"><ele>1110</ele></trkpt>
   <trkpt lat="37.657554" lon="-3.819164"><ele>1113.75</ele></trkpt>
   <trkpt lat="37.657553" lon="-3.81929"><ele>1114</ele></trkpt>
   <trkpt lat="37.657538" lon="-3.819396"><ele>1114.25</ele></trkpt>
   <trkpt lat="37.657501" lon="-3.819512"><ele>1115</ele></trkpt>
   <trkpt lat="37.657464" lon="-3.819598"><ele>1116.75</ele></trkpt>
   <trkpt lat="37.657409" lon="-3.819683"><ele>1118.5</ele></trkpt>
   <trkpt lat="37.657296" lon="-3.819791"><ele>1120</ele></trkpt>
   <trkpt lat="37.656722" lon="-3.820233"><ele>1124.25</ele></trkpt>
   <trkpt lat="37.656626" lon="-3.820327"><ele>1125.75</ele></trkpt>
   <trkpt lat="37.656548" lon="-3.820428"><ele>1128.25</ele></trkpt>
   <trkpt lat="37.656495" lon="-3.820536"><ele>1127.75</ele></trkpt>
   <trkpt lat="37.656415" lon="-3.820764"><ele>1127.75</ele></trkpt>
   <trkpt lat="37.656369" lon="-3.820984"><ele>1128.75</ele></trkpt>
   <trkpt lat="37.656346" lon="-3.821149"><ele>1129.5</ele></trkpt>
   <trkpt lat="37.656336" lon="-3.821301"><ele>1129.5</ele></trkpt>
   <trkpt lat="37.656318" lon="-3.821411"><ele>1129.25</ele></trkpt>
   <trkpt lat="37.656271" lon="-3.821508"><ele>1128.25</ele></trkpt>
   <trkpt lat="37.656191" lon="-3.821589"><ele>1128.75</ele></trkpt>
   <trkpt lat="37.655952" lon="-3.821734"><ele>1129.5</ele></trkpt>
   <trkpt lat="37.655806" lon="-3.821843"><ele>1130.5</ele></trkpt>
   <trkpt lat="37.655694" lon="-3.821955"><ele>1132.25</ele></trkpt>
   <trkpt lat="37.655572" lon="-3.82213"><ele>1134</ele></trkpt>
   <trkpt lat="37.655459" lon="-3.822364"><ele>1135.25</ele></trkpt>
   <trkpt lat="37.655207" lon="-3.822977"><ele>1139.5</ele></trkpt>
   <trkpt lat="37.655179" lon="-3.823066"><ele>1140.25</ele></trkpt>
   <trkpt lat="37.655168" lon="-3.823161"><ele>1141.25</ele></trkpt>
   <trkpt lat="37.655171" lon="-3.823242"><ele>1141.5</ele></trkpt>
   <trkpt lat="37.6552" lon="-3.823319"><ele>1141</ele></trkpt>
   <trkpt lat="37.655243" lon="-3.823385"><ele>1141</ele></trkpt>
   <trkpt lat="37.655314" lon="-3.823462"><ele>1141.25</ele></trkpt>
   <trkpt lat="37.655434" lon="-3.82356"><ele>1142</ele></trkpt>
   <trkpt lat="37.655487" lon="-3.823638"><ele>1143</ele></trkpt>
   <trkpt lat="37.65553" lon="-3.823732"><ele>1143.25</ele></trkpt>
   <trkpt lat="37.655552" lon="-3.823835"><ele>1143.5</ele></trkpt>
   <trkpt lat="37.655566" lon="-3.824026"><ele>1144.25</ele></trkpt>
   <trkpt lat="37.655595" lon="-3.824608"><ele>1145.75</ele></trkpt>
   <trkpt lat="37.65559" lon="-3.824745"><ele>1146.5</ele></trkpt>
   <trkpt lat="37.655569" lon="-3.824887"><ele>1147.75</ele></trkpt>
   <trkpt lat="37.655537" lon="-3.825015"><ele>1149.75</ele></trkpt>
   <trkpt lat="37.655479" lon="-3.825171"><ele>1150.5</ele></trkpt>
   <trkpt lat="37.65542" lon="-3.825294"><ele>1151.5</ele></trkpt>
   <trkpt lat="37.65535" lon="-3.825399"><ele>1152.5</ele></trkpt>
   <trkpt lat="37.655184" lon="-3.825615"><ele>1155</ele></trkpt>
   <trkpt lat="37.654778" lon="-3.826086"><ele>1156.5</ele></trkpt>
   <trkpt lat="37.653873" lon="-3.827145"><ele>1164.75</ele></trkpt>
   <trkpt lat="37.653725" lon="-3.827381"><ele>1164.25</ele></trkpt>
   <trkpt lat="37.65361" lon="-3.827609"><ele>1168.25</ele></trkpt>
   <trkpt lat="37.653548" lon="-3.827776"><ele>1169.25</ele></trkpt>
   <trkpt lat="37.65339" lon="-3.828295"><ele>1172.25</ele></trkpt>
   <trkpt lat="37.653303" lon="-3.828543"><ele>1176</ele></trkpt>
   <trkpt lat="37.653202" lon="-3.828731"><ele>1177.5</ele></trkpt>
   <trkpt lat="37.653059" lon="-3.828934"><ele>1178.75</ele></trkpt>
   <trkpt lat="37.652835" lon="-3.829186"><ele>1181.25</ele></trkpt>
   <trkpt lat="37.652543" lon="-3.829462"><ele>1187</ele></trkpt>
   <trkpt lat="37.652197" lon="-3.829791"><ele>1187</ele></trkpt>
   <trkpt lat="37.651767" lon="-3.830202"><ele>1189.25</ele></trkpt>
   <trkpt lat="37.651345" lon="-3.830604"><ele>1189.25</ele></trkpt>
   <trkpt lat="37.650639" lon="-3.831277"><ele>1189</ele></trkpt>
    </trkseg>
 </trk>
</gpx>
