<?xml version="1.0" encoding="UTF-8"?>
<!-- track-length = 14485 filtered ascend = 500 plain-ascend = 394 cost=21274 energy=0.2kwh time=1h 37m 24s -->
<gpx 
 xmlns="http://www.topografix.com/GPX/1/1" 
 xmlns:xsi="http://www.w3.org/2001/XMLSchema-instance" 
 xsi:schemaLocation="http://www.topografix.com/GPX/1/1 http://www.topografix.com/GPX/1/1/gpx.xsd" 
 version="1.1" 
 creator="BRouter-Web 0.18.1">
 <trk>
  <name>Puerto du granada (14.5km)</name>
  <trkseg>
   <trkpt lat="37.232275" lon="-3.963451"><ele>554.75</ele></trkpt>
   <trkpt lat="37.232257" lon="-3.963483"><ele>555.25</ele></trkpt>
   <trkpt lat="37.232188" lon="-3.963591"><ele>556.25</ele></trkpt>
   <trkpt lat="37.23207" lon="-3.963747"><ele>555.75</ele></trkpt>
   <trkpt lat="37.231996" lon="-3.963885"><ele>558</ele></trkpt>
   <trkpt lat="37.231948" lon="-3.964045"><ele>559.5</ele></trkpt>
   <trkpt lat="37.231932" lon="-3.964215"><ele>560</ele></trkpt>
   <trkpt lat="37.231944" lon="-3.964389"><ele>561.5</ele></trkpt>
   <trkpt lat="37.23199" lon="-3.964549"><ele>561</ele></trkpt>
   <trkpt lat="37.232065" lon="-3.96469"><ele>561</ele></trkpt>
   <trkpt lat="37.232158" lon="-3.964801"><ele>561.5</ele></trkpt>
   <trkpt lat="37.232269" lon="-3.964886"><ele>562.25</ele></trkpt>
   <trkpt lat="37.23239" lon="-3.964937"><ele>562.5</ele></trkpt>
   <trkpt lat="37.232512" lon="-3.964954"><ele>562.25</ele></trkpt>
   <trkpt lat="37.233031" lon="-3.964979"><ele>563.25</ele></trkpt>
   <trkpt lat="37.233164" lon="-3.964964"><ele>563.75</ele></trkpt>
   <trkpt lat="37.233254" lon="-3.964944"><ele>563.25</ele></trkpt>
   <trkpt lat="37.233342" lon="-3.964903"><ele>562.75</ele></trkpt>
   <trkpt lat="37.233426" lon="-3.964832"><ele>561.25</ele></trkpt>
   <trkpt lat="37.233488" lon="-3.964761"><ele>561.25</ele></trkpt>
   <trkpt lat="37.233573" lon="-3.964618"><ele>561.75</ele></trkpt>
   <trkpt lat="37.23363" lon="-3.96447"><ele>562.25</ele></trkpt>
   <trkpt lat="37.233652" lon="-3.96431"><ele>560.75</ele></trkpt>
   <trkpt lat="37.233627" lon="-3.964019"><ele>560</ele></trkpt>
   <trkpt lat="37.233636" lon="-3.963841"><ele>559</ele></trkpt>
   <trkpt lat="37.233688" lon="-3.963663"><ele>556.75</ele></trkpt>
   <trkpt lat="37.233771" lon="-3.963499"><ele>555.5</ele></trkpt>
   <trkpt lat="37.233872" lon="-3.963384"><ele>555.75</ele></trkpt>
   <trkpt lat="37.234004" lon="-3.963281"><ele>555.25</ele></trkpt>
   <trkpt lat="37.234123" lon="-3.963258"><ele>554.75</ele></trkpt>
   <trkpt lat="37.234311" lon="-3.963252"><ele>554.75</ele></trkpt>
   <trkpt lat="37.236236" lon="-3.963398"><ele>555</ele></trkpt>
   <trkpt lat="37.236705" lon="-3.963434"><ele>555.5</ele></trkpt>
   <trkpt lat="37.237358" lon="-3.963485"><ele>556</ele></trkpt>
   <trkpt lat="37.237604" lon="-3.963504"><ele>556</ele></trkpt>
   <trkpt lat="37.238059" lon="-3.963539"><ele>556.75</ele></trkpt>
   <trkpt lat="37.238121" lon="-3.963544"><ele>556.75</ele></trkpt>
   <trkpt lat="37.240047" lon="-3.963697"><ele>560</ele></trkpt>
   <trkpt lat="37.240427" lon="-3.963732"><ele>560.75</ele></trkpt>
   <trkpt lat="37.240756" lon="-3.963755"><ele>560.5</ele></trkpt>
   <trkpt lat="37.24179" lon="-3.963832"><ele>562.75</ele></trkpt>
   <trkpt lat="37.243457" lon="-3.963956"><ele>566.25</ele></trkpt>
   <trkpt lat="37.244736" lon="-3.964041"><ele>573.75</ele></trkpt>
   <trkpt lat="37.244847" lon="-3.964103"><ele>576.25</ele></trkpt>
   <trkpt lat="37.244894" lon="-3.964185"><ele>577.5</ele></trkpt>
   <trkpt lat="37.244947" lon="-3.964305"><ele>578.75</ele></trkpt>
   <trkpt lat="37.245076" lon="-3.964833"><ele>580</ele></trkpt>
   <trkpt lat="37.245138" lon="-3.964982"><ele>581</ele></trkpt>
   <trkpt lat="37.245241" lon="-3.965107"><ele>582.25</ele></trkpt>
   <trkpt lat="37.245379" lon="-3.965195"><ele>582.5</ele></trkpt>
   <trkpt lat="37.246564" lon="-3.965404"><ele>583.25</ele></trkpt>
   <trkpt lat="37.246764" lon="-3.965418"><ele>584.75</ele></trkpt>
   <trkpt lat="37.248577" lon="-3.965297"><ele>584.25</ele></trkpt>
   <trkpt lat="37.248781" lon="-3.965246"><ele>585.75</ele></trkpt>
   <trkpt lat="37.249112" lon="-3.965128"><ele>586</ele></trkpt>
   <trkpt lat="37.249328" lon="-3.965032"><ele>586</ele></trkpt>
   <trkpt lat="37.24948" lon="-3.964925"><ele>585.75</ele></trkpt>
   <trkpt lat="37.249791" lon="-3.96463"><ele>585.5</ele></trkpt>
   <trkpt lat="37.249889" lon="-3.96457"><ele>585.5</ele></trkpt>
   <trkpt lat="37.250001" lon="-3.964533"><ele>585.25</ele></trkpt>
   <trkpt lat="37.25108" lon="-3.964378"><ele>588.75</ele></trkpt>
   <trkpt lat="37.252505" lon="-3.964172"><ele>588.75</ele></trkpt>
   <trkpt lat="37.252831" lon="-3.964153"><ele>589</ele></trkpt>
   <trkpt lat="37.253076" lon="-3.964177"><ele>589</ele></trkpt>
   <trkpt lat="37.253284" lon="-3.964234"><ele>589.25</ele></trkpt>
   <trkpt lat="37.253511" lon="-3.96434"><ele>589.25</ele></trkpt>
   <trkpt lat="37.253737" lon="-3.964502"><ele>589</ele></trkpt>
   <trkpt lat="37.253927" lon="-3.964684"><ele>588.5</ele></trkpt>
   <trkpt lat="37.25407" lon="-3.96483"><ele>588.75</ele></trkpt>
   <trkpt lat="37.258307" lon="-3.969345"><ele>596.5</ele></trkpt>
   <trkpt lat="37.258379" lon="-3.969432"><ele>595.5</ele></trkpt>
   <trkpt lat="37.258425" lon="-3.969529"><ele>595.25</ele></trkpt>
   <trkpt lat="37.25845" lon="-3.969644"><ele>595</ele></trkpt>
   <trkpt lat="37.258434" lon="-3.969862"><ele>594.5</ele></trkpt>
   <trkpt lat="37.25823" lon="-3.970753"><ele>594.75</ele></trkpt>
   <trkpt lat="37.258181" lon="-3.97102"><ele>596</ele></trkpt>
   <trkpt lat="37.258182" lon="-3.971132"><ele>597.25</ele></trkpt>
   <trkpt lat="37.258203" lon="-3.971232"><ele>598.75</ele></trkpt>
   <trkpt lat="37.258254" lon="-3.971356"><ele>600.25</ele></trkpt>
   <trkpt lat="37.259044" lon="-3.972346"><ele>606.75</ele></trkpt>
   <trkpt lat="37.2597" lon="-3.973279"><ele>611.75</ele></trkpt>
   <trkpt lat="37.259833" lon="-3.973547"><ele>616</ele></trkpt>
   <trkpt lat="37.26134" lon="-3.978206"><ele>634</ele></trkpt>
   <trkpt lat="37.261373" lon="-3.978365"><ele>635</ele></trkpt>
   <trkpt lat="37.261378" lon="-3.97856"><ele>635.75</ele></trkpt>
   <trkpt lat="37.261303" lon="-3.979647"><ele>641.75</ele></trkpt>
   <trkpt lat="37.261315" lon="-3.979813"><ele>642.5</ele></trkpt>
   <trkpt lat="37.26137" lon="-3.979974"><ele>643</ele></trkpt>
   <trkpt lat="37.261806" lon="-3.98071"><ele>646.75</ele></trkpt>
   <trkpt lat="37.261865" lon="-3.980878"><ele>648</ele></trkpt>
   <trkpt lat="37.261889" lon="-3.981037"><ele>648.5</ele></trkpt>
   <trkpt lat="37.261887" lon="-3.98118"><ele>649.25</ele></trkpt>
   <trkpt lat="37.261857" lon="-3.981325"><ele>650.25</ele></trkpt>
   <trkpt lat="37.261697" lon="-3.98174"><ele>652.25</ele></trkpt>
   <trkpt lat="37.261675" lon="-3.981879"><ele>652.75</ele></trkpt>
   <trkpt lat="37.26169" lon="-3.982019"><ele>653.5</ele></trkpt>
   <trkpt lat="37.261723" lon="-3.982119"><ele>654.5</ele></trkpt>
   <trkpt lat="37.261893" lon="-3.982444"><ele>657</ele></trkpt>
   <trkpt lat="37.261943" lon="-3.982645"><ele>657.5</ele></trkpt>
   <trkpt lat="37.261942" lon="-3.982808"><ele>658</ele></trkpt>
   <trkpt lat="37.261887" lon="-3.9832"><ele>660.75</ele></trkpt>
   <trkpt lat="37.261874" lon="-3.983466"><ele>662.25</ele></trkpt>
   <trkpt lat="37.261957" lon="-3.985054"><ele>669</ele></trkpt>
   <trkpt lat="37.261994" lon="-3.985218"><ele>670</ele></trkpt>
   <trkpt lat="37.262053" lon="-3.985343"><ele>670.75</ele></trkpt>
   <trkpt lat="37.262155" lon="-3.985458"><ele>671.25</ele></trkpt>
   <trkpt lat="37.262254" lon="-3.985522"><ele>671.5</ele></trkpt>
   <trkpt lat="37.262376" lon="-3.985552"><ele>672.5</ele></trkpt>
   <trkpt lat="37.262919" lon="-3.985592"><ele>676.5</ele></trkpt>
   <trkpt lat="37.263398" lon="-3.985638"><ele>680.25</ele></trkpt>
   <trkpt lat="37.263518" lon="-3.98561"><ele>680.75</ele></trkpt>
   <trkpt lat="37.263613" lon="-3.985542"><ele>681</ele></trkpt>
   <trkpt lat="37.263693" lon="-3.985423"><ele>683</ele></trkpt>
   <trkpt lat="37.263907" lon="-3.984886"><ele>684</ele></trkpt>
   <trkpt lat="37.264011" lon="-3.984702"><ele>686</ele></trkpt>
   <trkpt lat="37.264147" lon="-3.984572"><ele>686.5</ele></trkpt>
   <trkpt lat="37.264912" lon="-3.984084"><ele>692.25</ele></trkpt>
   <trkpt lat="37.265767" lon="-3.983416"><ele>698.25</ele></trkpt>
   <trkpt lat="37.265996" lon="-3.983268"><ele>700</ele></trkpt>
   <trkpt lat="37.266228" lon="-3.983187"><ele>702</ele></trkpt>
   <trkpt lat="37.267311" lon="-3.982888"><ele>709.25</ele></trkpt>
   <trkpt lat="37.267935" lon="-3.982641"><ele>715</ele></trkpt>
   <trkpt lat="37.268068" lon="-3.98262"><ele>716</ele></trkpt>
   <trkpt lat="37.268191" lon="-3.982657"><ele>715.75</ele></trkpt>
   <trkpt lat="37.268273" lon="-3.982728"><ele>716.5</ele></trkpt>
   <trkpt lat="37.268363" lon="-3.982841"><ele>717.25</ele></trkpt>
   <trkpt lat="37.268422" lon="-3.983001"><ele>718.75</ele></trkpt>
   <trkpt lat="37.268469" lon="-3.983236"><ele>720.75</ele></trkpt>
   <trkpt lat="37.2685" lon="-3.983506"><ele>722.75</ele></trkpt>
   <trkpt lat="37.26851" lon="-3.984013"><ele>725.5</ele></trkpt>
   <trkpt lat="37.268551" lon="-3.984229"><ele>727.25</ele></trkpt>
   <trkpt lat="37.268641" lon="-3.984357"><ele>727.75</ele></trkpt>
   <trkpt lat="37.268775" lon="-3.984473"><ele>728.75</ele></trkpt>
   <trkpt lat="37.268926" lon="-3.984533"><ele>729.5</ele></trkpt>
   <trkpt lat="37.269107" lon="-3.98456"><ele>731.5</ele></trkpt>
   <trkpt lat="37.269315" lon="-3.984549"><ele>732</ele></trkpt>
   <trkpt lat="37.269527" lon="-3.984498"><ele>732.75</ele></trkpt>
   <trkpt lat="37.270099" lon="-3.98427"><ele>737.75</ele></trkpt>
   <trkpt lat="37.270269" lon="-3.984229"><ele>739</ele></trkpt>
   <trkpt lat="37.270427" lon="-3.98424"><ele>739.5</ele></trkpt>
   <trkpt lat="37.270559" lon="-3.984274"><ele>740.25</ele></trkpt>
   <trkpt lat="37.270669" lon="-3.984354"><ele>740.25</ele></trkpt>
   <trkpt lat="37.270775" lon="-3.984483"><ele>741.25</ele></trkpt>
   <trkpt lat="37.270843" lon="-3.984671"><ele>742</ele></trkpt>
   <trkpt lat="37.270853" lon="-3.984824"><ele>743</ele></trkpt>
   <trkpt lat="37.2708" lon="-3.985223"><ele>746.75</ele></trkpt>
   <trkpt lat="37.270812" lon="-3.985382"><ele>747.75</ele></trkpt>
   <trkpt lat="37.270855" lon="-3.985493"><ele>747.75</ele></trkpt>
   <trkpt lat="37.270947" lon="-3.985604"><ele>748</ele></trkpt>
   <trkpt lat="37.271341" lon="-3.985905"><ele>751.75</ele></trkpt>
   <trkpt lat="37.271424" lon="-3.986024"><ele>752.75</ele></trkpt>
   <trkpt lat="37.271472" lon="-3.986184"><ele>754</ele></trkpt>
   <trkpt lat="37.271545" lon="-3.986756"><ele>757.75</ele></trkpt>
   <trkpt lat="37.271594" lon="-3.986944"><ele>757.75</ele></trkpt>
   <trkpt lat="37.271677" lon="-3.987097"><ele>759</ele></trkpt>
   <trkpt lat="37.271836" lon="-3.987267"><ele>760.75</ele></trkpt>
   <trkpt lat="37.272006" lon="-3.987362"><ele>761.75</ele></trkpt>
   <trkpt lat="37.272219" lon="-3.987422"><ele>763</ele></trkpt>
   <trkpt lat="37.272406" lon="-3.987551"><ele>764.75</ele></trkpt>
   <trkpt lat="37.273249" lon="-3.988351"><ele>773.5</ele></trkpt>
   <trkpt lat="37.27351" lon="-3.9886"><ele>775.25</ele></trkpt>
   <trkpt lat="37.273665" lon="-3.988805"><ele>778.25</ele></trkpt>
   <trkpt lat="37.273963" lon="-3.989378"><ele>784</ele></trkpt>
   <trkpt lat="37.274068" lon="-3.989504"><ele>783</ele></trkpt>
   <trkpt lat="37.274157" lon="-3.98953"><ele>780</ele></trkpt>
   <trkpt lat="37.274235" lon="-3.989495"><ele>780.5</ele></trkpt>
   <trkpt lat="37.274305" lon="-3.989412"><ele>783.25</ele></trkpt>
   <trkpt lat="37.274328" lon="-3.989347"><ele>785.5</ele></trkpt>
   <trkpt lat="37.274334" lon="-3.989257"><ele>787.5</ele></trkpt>
   <trkpt lat="37.274311" lon="-3.989022"><ele>786</ele></trkpt>
   <trkpt lat="37.274327" lon="-3.988831"><ele>785.5</ele></trkpt>
   <trkpt lat="37.274393" lon="-3.988356"><ele>784.5</ele></trkpt>
   <trkpt lat="37.274447" lon="-3.988176"><ele>787.25</ele></trkpt>
   <trkpt lat="37.274518" lon="-3.988062"><ele>788.75</ele></trkpt>
   <trkpt lat="37.275182" lon="-3.987205"><ele>794.75</ele></trkpt>
   <trkpt lat="37.275271" lon="-3.987039"><ele>796</ele></trkpt>
   <trkpt lat="37.275314" lon="-3.986887"><ele>796.5</ele></trkpt>
   <trkpt lat="37.275383" lon="-3.98654"><ele>797.75</ele></trkpt>
   <trkpt lat="37.275487" lon="-3.986294"><ele>799.5</ele></trkpt>
   <trkpt lat="37.27563" lon="-3.986035"><ele>801.75</ele></trkpt>
   <trkpt lat="37.275789" lon="-3.985809"><ele>801.75</ele></trkpt>
   <trkpt lat="37.275935" lon="-3.985662"><ele>803</ele></trkpt>
   <trkpt lat="37.276079" lon="-3.985574"><ele>805.25</ele></trkpt>
   <trkpt lat="37.276317" lon="-3.985501"><ele>806.5</ele></trkpt>
   <trkpt lat="37.27666" lon="-3.985464"><ele>810.25</ele></trkpt>
   <trkpt lat="37.276809" lon="-3.985493"><ele>811.25</ele></trkpt>
   <trkpt lat="37.276933" lon="-3.985561"><ele>812</ele></trkpt>
   <trkpt lat="37.277628" lon="-3.986292"><ele>821.25</ele></trkpt>
   <trkpt lat="37.27794" lon="-3.9867"><ele>821.25</ele></trkpt>
   <trkpt lat="37.278079" lon="-3.986822"><ele>822.75</ele></trkpt>
   <trkpt lat="37.278206" lon="-3.986912"><ele>825.25</ele></trkpt>
   <trkpt lat="37.278432" lon="-3.987009"><ele>827.75</ele></trkpt>
   <trkpt lat="37.278516" lon="-3.987075"><ele>828.25</ele></trkpt>
   <trkpt lat="37.278567" lon="-3.98715"><ele>828.75</ele></trkpt>
   <trkpt lat="37.27863" lon="-3.987283"><ele>829</ele></trkpt>
   <trkpt lat="37.278701" lon="-3.987606"><ele>832.75</ele></trkpt>
   <trkpt lat="37.278797" lon="-3.987829"><ele>834.75</ele></trkpt>
   <trkpt lat="37.278928" lon="-3.988041"><ele>834.75</ele></trkpt>
   <trkpt lat="37.279072" lon="-3.988183"><ele>837.5</ele></trkpt>
   <trkpt lat="37.27915" lon="-3.988222"><ele>837.75</ele></trkpt>
   <trkpt lat="37.279265" lon="-3.988224"><ele>839</ele></trkpt>
   <trkpt lat="37.279622" lon="-3.988065"><ele>840</ele></trkpt>
   <trkpt lat="37.280053" lon="-3.987905"><ele>842.5</ele></trkpt>
   <trkpt lat="37.280187" lon="-3.987903"><ele>844</ele></trkpt>
   <trkpt lat="37.280293" lon="-3.987937"><ele>845.75</ele></trkpt>
   <trkpt lat="37.280372" lon="-3.987983"><ele>846</ele></trkpt>
   <trkpt lat="37.280559" lon="-3.988169"><ele>849</ele></trkpt>
   <trkpt lat="37.28065" lon="-3.988217"><ele>849.5</ele></trkpt>
   <trkpt lat="37.281182" lon="-3.988282"><ele>853.5</ele></trkpt>
   <trkpt lat="37.281739" lon="-3.98835"><ele>855.25</ele></trkpt>
   <trkpt lat="37.281873" lon="-3.988393"><ele>856.25</ele></trkpt>
   <trkpt lat="37.281958" lon="-3.988468"><ele>858.25</ele></trkpt>
   <trkpt lat="37.282024" lon="-3.988547"><ele>859</ele></trkpt>
   <trkpt lat="37.282218" lon="-3.9889"><ele>861</ele></trkpt>
   <trkpt lat="37.282296" lon="-3.98897"><ele>861.75</ele></trkpt>
   <trkpt lat="37.282376" lon="-3.988989"><ele>861.75</ele></trkpt>
   <trkpt lat="37.28244" lon="-3.988977"><ele>861.5</ele></trkpt>
   <trkpt lat="37.282685" lon="-3.98882"><ele>862.75</ele></trkpt>
   <trkpt lat="37.282789" lon="-3.988783"><ele>863.75</ele></trkpt>
   <trkpt lat="37.28294" lon="-3.988772"><ele>865.25</ele></trkpt>
   <trkpt lat="37.283222" lon="-3.988817"><ele>867.75</ele></trkpt>
   <trkpt lat="37.283315" lon="-3.988814"><ele>868</ele></trkpt>
   <trkpt lat="37.283378" lon="-3.988767"><ele>869</ele></trkpt>
   <trkpt lat="37.283417" lon="-3.988673"><ele>870.25</ele></trkpt>
   <trkpt lat="37.283418" lon="-3.988595"><ele>871</ele></trkpt>
   <trkpt lat="37.283391" lon="-3.9885"><ele>872</ele></trkpt>
   <trkpt lat="37.283059" lon="-3.988026"><ele>875.5</ele></trkpt>
   <trkpt lat="37.282842" lon="-3.987631"><ele>878.25</ele></trkpt>
   <trkpt lat="37.282778" lon="-3.987461"><ele>879.25</ele></trkpt>
   <trkpt lat="37.282757" lon="-3.987355"><ele>879.25</ele></trkpt>
   <trkpt lat="37.282766" lon="-3.987245"><ele>880.5</ele></trkpt>
   <trkpt lat="37.282809" lon="-3.987121"><ele>881.25</ele></trkpt>
   <trkpt lat="37.282885" lon="-3.987048"><ele>882</ele></trkpt>
   <trkpt lat="37.283399" lon="-3.986831"><ele>886</ele></trkpt>
   <trkpt lat="37.283598" lon="-3.986785"><ele>887.75</ele></trkpt>
   <trkpt lat="37.283786" lon="-3.98678"><ele>888.75</ele></trkpt>
   <trkpt lat="37.284183" lon="-3.986852"><ele>892.25</ele></trkpt>
   <trkpt lat="37.285379" lon="-3.987246"><ele>900</ele></trkpt>
   <trkpt lat="37.285506" lon="-3.987326"><ele>901.5</ele></trkpt>
   <trkpt lat="37.285636" lon="-3.987444"><ele>902.75</ele></trkpt>
   <trkpt lat="37.285791" lon="-3.987629"><ele>905.75</ele></trkpt>
   <trkpt lat="37.285989" lon="-3.98791"><ele>908.75</ele></trkpt>
   <trkpt lat="37.28632" lon="-3.988429"><ele>910.25</ele></trkpt>
   <trkpt lat="37.286448" lon="-3.988692"><ele>911.5</ele></trkpt>
   <trkpt lat="37.286785" lon="-3.989752"><ele>916.25</ele></trkpt>
   <trkpt lat="37.286848" lon="-3.989893"><ele>918</ele></trkpt>
   <trkpt lat="37.286882" lon="-3.98997"><ele>919.25</ele></trkpt>
   <trkpt lat="37.28695" lon="-3.990053"><ele>920.75</ele></trkpt>
   <trkpt lat="37.287033" lon="-3.990126"><ele>921.75</ele></trkpt>
   <trkpt lat="37.288026" lon="-3.990486"><ele>925.75</ele></trkpt>
   <trkpt lat="37.288414" lon="-3.99061"><ele>928.5</ele></trkpt>
   <trkpt lat="37.289157" lon="-3.990793"><ele>935.75</ele></trkpt>
   <trkpt lat="37.289241" lon="-3.990787"><ele>936.75</ele></trkpt>
   <trkpt lat="37.289302" lon="-3.990755"><ele>937.5</ele></trkpt>
   <trkpt lat="37.289341" lon="-3.990695"><ele>938.25</ele></trkpt>
   <trkpt lat="37.289369" lon="-3.990608"><ele>939.5</ele></trkpt>
   <trkpt lat="37.28937" lon="-3.990522"><ele>940.75</ele></trkpt>
   <trkpt lat="37.289335" lon="-3.990437"><ele>941.25</ele></trkpt>
   <trkpt lat="37.288994" lon="-3.989979"><ele>940.75</ele></trkpt>
   <trkpt lat="37.288912" lon="-3.989829"><ele>940.75</ele></trkpt>
   <trkpt lat="37.288873" lon="-3.989705"><ele>941.25</ele></trkpt>
   <trkpt lat="37.288869" lon="-3.989601"><ele>941.5</ele></trkpt>
   <trkpt lat="37.288887" lon="-3.98951"><ele>942.5</ele></trkpt>
   <trkpt lat="37.288929" lon="-3.989435"><ele>943.25</ele></trkpt>
   <trkpt lat="37.289004" lon="-3.98938"><ele>943.25</ele></trkpt>
   <trkpt lat="37.289124" lon="-3.989338"><ele>943.75</ele></trkpt>
   <trkpt lat="37.289305" lon="-3.989338"><ele>945.25</ele></trkpt>
   <trkpt lat="37.290179" lon="-3.989484"><ele>952.75</ele></trkpt>
   <trkpt lat="37.290283" lon="-3.989474"><ele>952.75</ele></trkpt>
   <trkpt lat="37.290351" lon="-3.989424"><ele>952</ele></trkpt>
   <trkpt lat="37.290394" lon="-3.989374"><ele>951.75</ele></trkpt>
   <trkpt lat="37.290432" lon="-3.989285"><ele>952</ele></trkpt>
   <trkpt lat="37.290446" lon="-3.989193"><ele>952.25</ele></trkpt>
   <trkpt lat="37.290445" lon="-3.989108"><ele>954</ele></trkpt>
   <trkpt lat="37.290417" lon="-3.989003"><ele>956</ele></trkpt>
   <trkpt lat="37.290186" lon="-3.988597"><ele>956.5</ele></trkpt>
   <trkpt lat="37.290144" lon="-3.988469"><ele>956.5</ele></trkpt>
   <trkpt lat="37.290137" lon="-3.988357"><ele>957.5</ele></trkpt>
   <trkpt lat="37.290157" lon="-3.988271"><ele>957.75</ele></trkpt>
   <trkpt lat="37.290202" lon="-3.988194"><ele>958.5</ele></trkpt>
   <trkpt lat="37.290262" lon="-3.988138"><ele>960</ele></trkpt>
   <trkpt lat="37.290932" lon="-3.987851"><ele>966.25</ele></trkpt>
   <trkpt lat="37.291141" lon="-3.987724"><ele>968.5</ele></trkpt>
   <trkpt lat="37.291208" lon="-3.98766"><ele>969.5</ele></trkpt>
   <trkpt lat="37.291252" lon="-3.987595"><ele>970</ele></trkpt>
   <trkpt lat="37.29128" lon="-3.98751"><ele>969.5</ele></trkpt>
   <trkpt lat="37.29128" lon="-3.987419"><ele>970</ele></trkpt>
   <trkpt lat="37.29113" lon="-3.986744"><ele>972.75</ele></trkpt>
   <trkpt lat="37.291125" lon="-3.98664"><ele>973.5</ele></trkpt>
   <trkpt lat="37.29114" lon="-3.986546"><ele>974.75</ele></trkpt>
   <trkpt lat="37.291182" lon="-3.986456"><ele>975.75</ele></trkpt>
   <trkpt lat="37.291237" lon="-3.986401"><ele>976</ele></trkpt>
   <trkpt lat="37.291311" lon="-3.986369"><ele>975.25</ele></trkpt>
   <trkpt lat="37.291423" lon="-3.986356"><ele>975.25</ele></trkpt>
   <trkpt lat="37.292129" lon="-3.986386"><ele>981</ele></trkpt>
   <trkpt lat="37.29226" lon="-3.986356"><ele>982.25</ele></trkpt>
   <trkpt lat="37.292362" lon="-3.986279"><ele>983.25</ele></trkpt>
   <trkpt lat="37.292527" lon="-3.98612"><ele>984.5</ele></trkpt>
   <trkpt lat="37.292635" lon="-3.98607"><ele>985.5</ele></trkpt>
   <trkpt lat="37.29273" lon="-3.986063"><ele>986.75</ele></trkpt>
   <trkpt lat="37.292822" lon="-3.986088"><ele>987</ele></trkpt>
   <trkpt lat="37.293139" lon="-3.986307"><ele>989</ele></trkpt>
   <trkpt lat="37.293502" lon="-3.986486"><ele>993.25</ele></trkpt>
   <trkpt lat="37.293654" lon="-3.986598"><ele>995.25</ele></trkpt>
   <trkpt lat="37.29396" lon="-3.986869"><ele>998.5</ele></trkpt>
   <trkpt lat="37.294063" lon="-3.986914"><ele>998.5</ele></trkpt>
   <trkpt lat="37.294162" lon="-3.986913"><ele>997.5</ele></trkpt>
   <trkpt lat="37.294231" lon="-3.986884"><ele>998.5</ele></trkpt>
   <trkpt lat="37.294306" lon="-3.986824"><ele>999.25</ele></trkpt>
   <trkpt lat="37.294527" lon="-3.986595"><ele>1001.5</ele></trkpt>
   <trkpt lat="37.294622" lon="-3.98654"><ele>1002.75</ele></trkpt>
   <trkpt lat="37.294733" lon="-3.98652"><ele>1004.5</ele></trkpt>
   <trkpt lat="37.294835" lon="-3.986528"><ele>1005</ele></trkpt>
   <trkpt lat="37.294975" lon="-3.986593"><ele>1005.75</ele></trkpt>
   <trkpt lat="37.297135" lon="-3.987968"><ele>1021</ele></trkpt>
   <trkpt lat="37.297247" lon="-3.988089"><ele>1021</ele></trkpt>
   <trkpt lat="37.297339" lon="-3.988246"><ele>1021.5</ele></trkpt>
   <trkpt lat="37.29774" lon="-3.989126"><ele>1024</ele></trkpt>
   <trkpt lat="37.29777" lon="-3.989276"><ele>1024</ele></trkpt>
   <trkpt lat="37.297763" lon="-3.989394"><ele>1024.25</ele></trkpt>
   <trkpt lat="37.297731" lon="-3.989533"><ele>1023.75</ele></trkpt>
   <trkpt lat="37.29735" lon="-3.990353"><ele>1027</ele></trkpt>
   <trkpt lat="37.297312" lon="-3.990506"><ele>1026.75</ele></trkpt>
   <trkpt lat="37.297313" lon="-3.990649"><ele>1027.5</ele></trkpt>
   <trkpt lat="37.29742" lon="-3.991216"><ele>1030.25</ele></trkpt>
   <trkpt lat="37.297448" lon="-3.991623"><ele>1030.5</ele></trkpt>
   <trkpt lat="37.297472" lon="-3.991727"><ele>1030</ele></trkpt>
   <trkpt lat="37.297528" lon="-3.991821"><ele>1029.25</ele></trkpt>
   <trkpt lat="37.297586" lon="-3.991866"><ele>1029.75</ele></trkpt>
   <trkpt lat="37.297611" lon="-3.991884"><ele>1029.75</ele></trkpt>
   <trkpt lat="37.297724" lon="-3.991919"><ele>1030.25</ele></trkpt>
   <trkpt lat="37.297878" lon="-3.991916"><ele>1031.5</ele></trkpt>
   <trkpt lat="37.298249" lon="-3.99185"><ele>1033.75</ele></trkpt>
   <trkpt lat="37.29837" lon="-3.991854"><ele>1034</ele></trkpt>
   <trkpt lat="37.298466" lon="-3.99188"><ele>1033.75</ele></trkpt>
   <trkpt lat="37.298692" lon="-3.991979"><ele>1034.25</ele></trkpt>
   <trkpt lat="37.299019" lon="-3.992167"><ele>1036</ele></trkpt>
   <trkpt lat="37.299295" lon="-3.992371"><ele>1036.25</ele></trkpt>
   <trkpt lat="37.299864" lon="-3.992825"><ele>1040.5</ele></trkpt>
   <trkpt lat="37.299977" lon="-3.992883"><ele>1041</ele></trkpt>
   <trkpt lat="37.300092" lon="-3.992906"><ele>1041.25</ele></trkpt>
   <trkpt lat="37.300401" lon="-3.992893"><ele>1041.75</ele></trkpt>
   <trkpt lat="37.300536" lon="-3.992925"><ele>1042.5</ele></trkpt>
   <trkpt lat="37.300641" lon="-3.99299"><ele>1041.75</ele></trkpt>
   <trkpt lat="37.300717" lon="-3.993062"><ele>1041.75</ele></trkpt>
   <trkpt lat="37.301323" lon="-3.993825"><ele>1041.25</ele></trkpt>
   <trkpt lat="37.301379" lon="-3.993937"><ele>1041.25</ele></trkpt>
   <trkpt lat="37.301409" lon="-3.994056"><ele>1041.25</ele></trkpt>
   <trkpt lat="37.301424" lon="-3.994177"><ele>1041.25</ele></trkpt>
   <trkpt lat="37.301424" lon="-3.99435"><ele>1040.5</ele></trkpt>
   <trkpt lat="37.301309" lon="-3.995088"><ele>1041.5</ele></trkpt>
   <trkpt lat="37.301263" lon="-3.995243"><ele>1041.75</ele></trkpt>
   <trkpt lat="37.301205" lon="-3.995378"><ele>1041.75</ele></trkpt>
   <trkpt lat="37.300967" lon="-3.995772"><ele>1041.5</ele></trkpt>
   <trkpt lat="37.300915" lon="-3.995904"><ele>1040.5</ele></trkpt>
   <trkpt lat="37.30089" lon="-3.996047"><ele>1039</ele></trkpt>
   <trkpt lat="37.300899" lon="-3.996172"><ele>1039.75</ele></trkpt>
   <trkpt lat="37.300932" lon="-3.996263"><ele>1041.75</ele></trkpt>
   <trkpt lat="37.30098" lon="-3.996322"><ele>1042.5</ele></trkpt>
   <trkpt lat="37.301071" lon="-3.996357"><ele>1042.25</ele></trkpt>
   <trkpt lat="37.301165" lon="-3.996355"><ele>1042.25</ele></trkpt>
   <trkpt lat="37.301456" lon="-3.996269"><ele>1043</ele></trkpt>
   <trkpt lat="37.302219" lon="-3.995851"><ele>1045.5</ele></trkpt>
   <trkpt lat="37.302363" lon="-3.99579"><ele>1044.75</ele></trkpt>
   <trkpt lat="37.302485" lon="-3.995766"><ele>1045.25</ele></trkpt>
   <trkpt lat="37.302822" lon="-3.995734"><ele>1045.25</ele></trkpt>
   <trkpt lat="37.302952" lon="-3.995686"><ele>1046.25</ele></trkpt>
   <trkpt lat="37.30326" lon="-3.99548"><ele>1045.5</ele></trkpt>
   <trkpt lat="37.30335" lon="-3.995433"><ele>1046.25</ele></trkpt>
   <trkpt lat="37.303449" lon="-3.99542"><ele>1046.75</ele></trkpt>
   <trkpt lat="37.303549" lon="-3.995423"><ele>1047.5</ele></trkpt>
   <trkpt lat="37.30396" lon="-3.995505"><ele>1048.25</ele></trkpt>
   <trkpt lat="37.304083" lon="-3.995505"><ele>1048.75</ele></trkpt>
   
  </trkseg>
 </trk>
</gpx>
