<?xml version="1.0" encoding="UTF-8"?>
<gpx 
 xmlns="http://www.topografix.com/GPX/1/1" 
 xmlns:xsi="http://www.w3.org/2001/XMLSchema-instance" 
 xsi:schemaLocation="http://www.topografix.com/GPX/1/1 http://www.topografix.com/GPX/1/1/gpx.xsd" 
 version="1.1" 
 creator="BRouter-Web 0.18.1">
 <trk>
  <name>Roccaraso (6.9km, trimmed to true climb span)</name>
  <trkseg>
   <trkpt lat="41.802075" lon="14.105693"><ele>808</ele></trkpt>
   <trkpt lat="41.802345" lon="14.105699"><ele>810.25</ele></trkpt>
   <trkpt lat="41.8027" lon="14.105921"><ele>813.75</ele></trkpt>
   <trkpt lat="41.803414" lon="14.106581"><ele>822</ele></trkpt>
   <trkpt lat="41.803608" lon="14.106727"><ele>823.75</ele></trkpt>
   <trkpt lat="41.803916" lon="14.106899"><ele>825.75</ele></trkpt>
   <trkpt lat="41.804223" lon="14.106949"><ele>827.5</ele></trkpt>
   <trkpt lat="41.804493" lon="14.10686"><ele>830</ele></trkpt>
   <trkpt lat="41.804925" lon="14.106606"><ele>830.25</ele></trkpt>
   <trkpt lat="41.805354" lon="14.106353"><ele>831.75</ele></trkpt>
   <trkpt lat="41.805638" lon="14.106302"><ele>835</ele></trkpt>
   <trkpt lat="41.805865" lon="14.106384"><ele>838</ele></trkpt>
   <trkpt lat="41.806116" lon="14.106607"><ele>841.5</ele></trkpt>
   <trkpt lat="41.806231" lon="14.106766"><ele>844</ele></trkpt>
   <trkpt lat="41.806236" lon="14.106866"><ele>845.25</ele></trkpt>
   <trkpt lat="41.806217" lon="14.107018"><ele>846.5</ele></trkpt>
   <trkpt lat="41.806174" lon="14.107269"><ele>846.5</ele></trkpt>
   <trkpt lat="41.806206" lon="14.107438"><ele>846.5</ele></trkpt>
   <trkpt lat="41.806271" lon="14.107567"><ele>846.75</ele></trkpt>
   <trkpt lat="41.806413" lon="14.107655"><ele>848.75</ele></trkpt>
   <trkpt lat="41.806522" lon="14.107651"><ele>850</ele></trkpt>
   <trkpt lat="41.80681" lon="14.107477"><ele>853.5</ele></trkpt>
   <trkpt lat="41.806913" lon="14.107427"><ele>854.25</ele></trkpt>
   <trkpt lat="41.806985" lon="14.107427"><ele>855</ele></trkpt>
   <trkpt lat="41.807267" lon="14.107556"><ele>858.5</ele></trkpt>
   <trkpt lat="41.80758" lon="14.107603"><ele>861</ele></trkpt>
   <trkpt lat="41.808148" lon="14.10746"><ele>867</ele></trkpt>
   <trkpt lat="41.808259" lon="14.10747"><ele>868.5</ele></trkpt>
   <trkpt lat="41.808316" lon="14.107635"><ele>870</ele></trkpt>
   <trkpt lat="41.808732" lon="14.109063"><ele>879.75</ele></trkpt>
   <trkpt lat="41.808813" lon="14.109145"><ele>881</ele></trkpt>
   <trkpt lat="41.808922" lon="14.109133"><ele>882.25</ele></trkpt>
   <trkpt lat="41.809338" lon="14.108708"><ele>887.25</ele></trkpt>
   <trkpt lat="41.810057" lon="14.108428"><ele>893.75</ele></trkpt>
   <trkpt lat="41.81017" lon="14.108346"><ele>894.75</ele></trkpt>
   <trkpt lat="41.810412" lon="14.107946"><ele>897.5</ele></trkpt>
   <trkpt lat="41.810549" lon="14.107857"><ele>899</ele></trkpt>
   <trkpt lat="41.811093" lon="14.107648"><ele>903.25</ele></trkpt>
   <trkpt lat="41.811443" lon="14.107616"><ele>905.75</ele></trkpt>
   <trkpt lat="41.81177" lon="14.107667"><ele>908.5</ele></trkpt>
   <trkpt lat="41.811992" lon="14.1078"><ele>910.25</ele></trkpt>
   <trkpt lat="41.813168" lon="14.108733"><ele>922</ele></trkpt>
   <trkpt lat="41.81327" lon="14.108792"><ele>922.75</ele></trkpt>
   <trkpt lat="41.813366" lon="14.108818"><ele>923.25</ele></trkpt>
   <trkpt lat="41.813543" lon="14.10881"><ele>924.75</ele></trkpt>
   <trkpt lat="41.813903" lon="14.108792"><ele>926.75</ele></trkpt>
   <trkpt lat="41.814103" lon="14.108783"><ele>927.75</ele></trkpt>
   <trkpt lat="41.814595" lon="14.108759"><ele>931.5</ele></trkpt>
   <trkpt lat="41.814709" lon="14.108717"><ele>932.5</ele></trkpt>
   <trkpt lat="41.814858" lon="14.108613"><ele>933.25</ele></trkpt>
   <trkpt lat="41.81507" lon="14.108423"><ele>939.25</ele></trkpt>
   <trkpt lat="41.815569" lon="14.107979"><ele>939.25</ele></trkpt>
   <trkpt lat="41.815887" lon="14.10755"><ele>941.75</ele></trkpt>
   <trkpt lat="41.816792" lon="14.106248"><ele>953</ele></trkpt>
   <trkpt lat="41.817088" lon="14.105829"><ele>957</ele></trkpt>
   <trkpt lat="41.817237" lon="14.105723"><ele>958.75</ele></trkpt>
   <trkpt lat="41.818353" lon="14.105202"><ele>970.25</ele></trkpt>
   <trkpt lat="41.818723" lon="14.104971"><ele>974.75</ele></trkpt>
   <trkpt lat="41.818834" lon="14.1049"><ele>976.25</ele></trkpt>
   <trkpt lat="41.819032" lon="14.104767"><ele>978.25</ele></trkpt>
   <trkpt lat="41.819472" lon="14.10442"><ele>982</ele></trkpt>
   <trkpt lat="41.819744" lon="14.104107"><ele>984</ele></trkpt>
   <trkpt lat="41.820129" lon="14.103387"><ele>987.25</ele></trkpt>
   <trkpt lat="41.820236" lon="14.103301"><ele>988.5</ele></trkpt>
   <trkpt lat="41.820465" lon="14.103243"><ele>991.25</ele></trkpt>
   <trkpt lat="41.820637" lon="14.103209"><ele>993.25</ele></trkpt>
   <trkpt lat="41.820764" lon="14.103154"><ele>994.5</ele></trkpt>
   <trkpt lat="41.821115" lon="14.102756"><ele>997</ele></trkpt>
   <trkpt lat="41.8213" lon="14.10257"><ele>999.75</ele></trkpt>
   <trkpt lat="41.821472" lon="14.102524"><ele>1001.5</ele></trkpt>
   <trkpt lat="41.822369" lon="14.102313"><ele>1008.5</ele></trkpt>
   <trkpt lat="41.822543" lon="14.102272"><ele>1010.25</ele></trkpt>
   <trkpt lat="41.823012" lon="14.102181"><ele>1016</ele></trkpt>
   <trkpt lat="41.824503" lon="14.101856"><ele>1029</ele></trkpt>
   <trkpt lat="41.825125" lon="14.101726"><ele>1033.5</ele></trkpt>
   <trkpt lat="41.825347" lon="14.101744"><ele>1036</ele></trkpt>
   <trkpt lat="41.825729" lon="14.101744"><ele>1040.25</ele></trkpt>
   <trkpt lat="41.826217" lon="14.101278"><ele>1045.25</ele></trkpt>
   <trkpt lat="41.826359" lon="14.101247"><ele>1047</ele></trkpt>
   <trkpt lat="41.826508" lon="14.101352"><ele>1049.5</ele></trkpt>
   <trkpt lat="41.827151" lon="14.102287"><ele>1058.75</ele></trkpt>
   <trkpt lat="41.8273" lon="14.102547"><ele>1060.75</ele></trkpt>
   <trkpt lat="41.827366" lon="14.102626"><ele>1061.25</ele></trkpt>
   <trkpt lat="41.827462" lon="14.102689"><ele>1062</ele></trkpt>
   <trkpt lat="41.827828" lon="14.102842"><ele>1066</ele></trkpt>
   <trkpt lat="41.827897" lon="14.102851"><ele>1067.25</ele></trkpt>
   <trkpt lat="41.827954" lon="14.102818"><ele>1068.25</ele></trkpt>
   <trkpt lat="41.82799" lon="14.102765"><ele>1068.75</ele></trkpt>
   <trkpt lat="41.82803" lon="14.102478"><ele>1069.75</ele></trkpt>
   <trkpt lat="41.828123" lon="14.101965"><ele>1074.5</ele></trkpt>
   <trkpt lat="41.82821" lon="14.101743"><ele>1075.5</ele></trkpt>
   <trkpt lat="41.828285" lon="14.101672"><ele>1076.25</ele></trkpt>
   <trkpt lat="41.828349" lon="14.101634"><ele>1077.5</ele></trkpt>
   <trkpt lat="41.8284" lon="14.101629"><ele>1079.5</ele></trkpt>
   <trkpt lat="41.828511" lon="14.101617"><ele>1083.5</ele></trkpt>
   <trkpt lat="41.828691" lon="14.10161"><ele>1085.75</ele></trkpt>
   <trkpt lat="41.828945" lon="14.101596"><ele>1082.5</ele></trkpt>
   <trkpt lat="41.829723" lon="14.101554"><ele>1091</ele></trkpt>
   <trkpt lat="41.829832" lon="14.101529"><ele>1092</ele></trkpt>
   <trkpt lat="41.829935" lon="14.101474"><ele>1093.25</ele></trkpt>
   <trkpt lat="41.830358" lon="14.101176"><ele>1098.75</ele></trkpt>
   <trkpt lat="41.830441" lon="14.101164"><ele>1099.75</ele></trkpt>
   <trkpt lat="41.830498" lon="14.101204"><ele>1100.5</ele></trkpt>
   <trkpt lat="41.830565" lon="14.101295"><ele>1101.75</ele></trkpt>
   <trkpt lat="41.830666" lon="14.101487"><ele>1103.25</ele></trkpt>
   <trkpt lat="41.830735" lon="14.101559"><ele>1104.5</ele></trkpt>
   <trkpt lat="41.830788" lon="14.101571"><ele>1105.25</ele></trkpt>
   <trkpt lat="41.830851" lon="14.101526"><ele>1105.75</ele></trkpt>
   <trkpt lat="41.830893" lon="14.101448"><ele>1106.25</ele></trkpt>
   <trkpt lat="41.830943" lon="14.101222"><ele>1108.25</ele></trkpt>
   <trkpt lat="41.831063" lon="14.100553"><ele>1113.25</ele></trkpt>
   <trkpt lat="41.83111" lon="14.100434"><ele>1114.75</ele></trkpt>
   <trkpt lat="41.831163" lon="14.100348"><ele>1116.25</ele></trkpt>
   <trkpt lat="41.831261" lon="14.100243"><ele>1118</ele></trkpt>
   <trkpt lat="41.831467" lon="14.10013"><ele>1120.5</ele></trkpt>
   <trkpt lat="41.831565" lon="14.1001"><ele>1121.5</ele></trkpt>
   <trkpt lat="41.831666" lon="14.100066"><ele>1122.75</ele></trkpt>
   <trkpt lat="41.831778" lon="14.100007"><ele>1123.75</ele></trkpt>
   <trkpt lat="41.831814" lon="14.099978"><ele>1124</ele></trkpt>
   <trkpt lat="41.831865" lon="14.099937"><ele>1124.5</ele></trkpt>
   <trkpt lat="41.831955" lon="14.099467"><ele>1126.75</ele></trkpt>
   <trkpt lat="41.832242" lon="14.097961"><ele>1135.75</ele></trkpt>
   <trkpt lat="41.832321" lon="14.097709"><ele>1138.25</ele></trkpt>
   <trkpt lat="41.832417" lon="14.097447"><ele>1140</ele></trkpt>
   <trkpt lat="41.832541" lon="14.097174"><ele>1141</ele></trkpt>
   <trkpt lat="41.832678" lon="14.096956"><ele>1141.25</ele></trkpt>
   <trkpt lat="41.832829" lon="14.096739"><ele>1143.25</ele></trkpt>
   <trkpt lat="41.834341" lon="14.095105"><ele>1158</ele></trkpt>
   <trkpt lat="41.834814" lon="14.094576"><ele>1163</ele></trkpt>
   <trkpt lat="41.835538" lon="14.093767"><ele>1168.75</ele></trkpt>
   <trkpt lat="41.835623" lon="14.093673"><ele>1169.75</ele></trkpt>
   <trkpt lat="41.835823" lon="14.093356"><ele>1171</ele></trkpt>
   <trkpt lat="41.835892" lon="14.093248"><ele>1172</ele></trkpt>
   <trkpt lat="41.835831" lon="14.093164"><ele>1171.5</ele></trkpt>
   <trkpt lat="41.83581" lon="14.09305"><ele>1171.75</ele></trkpt>
   <trkpt lat="41.8358" lon="14.093001"><ele>1171.5</ele></trkpt>
   <trkpt lat="41.83583" lon="14.092605"><ele>1170.75</ele></trkpt>
   <trkpt lat="41.835861" lon="14.092056"><ele>1169</ele></trkpt>
   <trkpt lat="41.835966" lon="14.091803"><ele>1168.5</ele></trkpt>
   <trkpt lat="41.836177" lon="14.091472"><ele>1168.5</ele></trkpt>
   <trkpt lat="41.836432" lon="14.091219"><ele>1167.25</ele></trkpt>
   <trkpt lat="41.836824" lon="14.090983"><ele>1166.75</ele></trkpt>
   <trkpt lat="41.838393" lon="14.090398"><ele>1166.5</ele></trkpt>
   <trkpt lat="41.838763" lon="14.09025"><ele>1167</ele></trkpt>
   <trkpt lat="41.838907" lon="14.090192"><ele>1167.5</ele></trkpt>
   <trkpt lat="41.839199" lon="14.090002"><ele>1165</ele></trkpt>
   <trkpt lat="41.839272" lon="14.089954"><ele>1165</ele></trkpt>
   <trkpt lat="41.839624" lon="14.089679"><ele>1164.5</ele></trkpt>
   <trkpt lat="41.839877" lon="14.089493"><ele>1166.25</ele></trkpt>
   <trkpt lat="41.840235" lon="14.08923"><ele>1167.75</ele></trkpt>
   <trkpt lat="41.840916" lon="14.088801"><ele>1169.25</ele></trkpt>
   <trkpt lat="41.841471" lon="14.088489"><ele>1170</ele></trkpt>
   <trkpt lat="41.841717" lon="14.088349"><ele>1170.75</ele></trkpt>
   <trkpt lat="41.841834" lon="14.088283"><ele>1171.25</ele></trkpt>
   <trkpt lat="41.84191" lon="14.088239"><ele>1171.5</ele></trkpt>
   <trkpt lat="41.842097" lon="14.088082"><ele>1174</ele></trkpt>
   <trkpt lat="41.8423" lon="14.087883"><ele>1176.5</ele></trkpt>
   <trkpt lat="41.842426" lon="14.087702"><ele>1178</ele></trkpt>
   <trkpt lat="41.843522" lon="14.085786"><ele>1191.75</ele></trkpt>
   <trkpt lat="41.843577" lon="14.085684"><ele>1194.5</ele></trkpt>
   <trkpt lat="41.843616" lon="14.085593"><ele>1196.5</ele></trkpt>
   <trkpt lat="41.843643" lon="14.085552"><ele>1197.25</ele></trkpt>
   <trkpt lat="41.844012" lon="14.085359"><ele>1198</ele></trkpt>
   <trkpt lat="41.844346" lon="14.085123"><ele>1199.25</ele></trkpt>
   <trkpt lat="41.844698" lon="14.08482"><ele>1200.25</ele></trkpt>
   <trkpt lat="41.844969" lon="14.084669"><ele>1200.5</ele></trkpt>
   <trkpt lat="41.845378" lon="14.08444"><ele>1199.25</ele></trkpt>
   <trkpt lat="41.845612" lon="14.084294"><ele>1200</ele></trkpt>
   <trkpt lat="41.846009" lon="14.084047"><ele>1202.25</ele></trkpt>
   <trkpt lat="41.846292" lon="14.083854"><ele>1204.75</ele></trkpt>
   <trkpt lat="41.846415" lon="14.083738"><ele>1206.25</ele></trkpt>
   <trkpt lat="41.846567" lon="14.083594"><ele>1207.75</ele></trkpt>
   <trkpt lat="41.846972" lon="14.083168"><ele>1209.5</ele></trkpt>
   <trkpt lat="41.847159" lon="14.083077"><ele>1210.5</ele></trkpt>
   <trkpt lat="41.84739" lon="14.082988"><ele>1211.25</ele></trkpt>
   <trkpt lat="41.847486" lon="14.082907"><ele>1211.25</ele></trkpt>
   <trkpt lat="41.847529" lon="14.082843"><ele>1211.5</ele></trkpt>
   <trkpt lat="41.84759" lon="14.082673"><ele>1212</ele></trkpt>
   <trkpt lat="41.847653" lon="14.082436"><ele>1213.5</ele></trkpt>
   <trkpt lat="41.847762" lon="14.082029"><ele>1215.75</ele></trkpt>
   <trkpt lat="41.847805" lon="14.081868"><ele>1216.75</ele></trkpt>
   <trkpt lat="41.847837" lon="14.081705"><ele>1218</ele></trkpt>
   <trkpt lat="41.84785" lon="14.081518"><ele>1219.5</ele></trkpt>
   <trkpt lat="41.847842" lon="14.081378"><ele>1220.5</ele></trkpt>
   <trkpt lat="41.847816" lon="14.081252"><ele>1221.5</ele></trkpt>
   <trkpt lat="41.847716" lon="14.080921"><ele>1224.75</ele></trkpt>
   <trkpt lat="41.847632" lon="14.080719"><ele>1226.75</ele></trkpt>
   <trkpt lat="41.847541" lon="14.08054"><ele>1227.75</ele></trkpt>
   <trkpt lat="41.847366" lon="14.080252"><ele>1232.25</ele></trkpt>
   <trkpt lat="41.847292" lon="14.080183"><ele>1232.25</ele></trkpt>
   <trkpt lat="41.847145" lon="14.080141"><ele>1233.25</ele></trkpt>
   <trkpt lat="41.847005" lon="14.080135"><ele>1234.75</ele></trkpt>
   <trkpt lat="41.846748" lon="14.080166"><ele>1237.25</ele></trkpt>
   <trkpt lat="41.846712" lon="14.080159"><ele>1237.5</ele></trkpt>
   <trkpt lat="41.846687" lon="14.080145"><ele>1237.75</ele></trkpt>
   <trkpt lat="41.846669" lon="14.080123"><ele>1237.75</ele></trkpt>
   <trkpt lat="41.846654" lon="14.080084"><ele>1238</ele></trkpt>
   <trkpt lat="41.846653" lon="14.080051"><ele>1238</ele></trkpt>
   <trkpt lat="41.846658" lon="14.080022"><ele>1238</ele></trkpt>
   <trkpt lat="41.846749" lon="14.079917"><ele>1237.25</ele></trkpt>
   <trkpt lat="41.846832" lon="14.079857"><ele>1237</ele></trkpt>
   <trkpt lat="41.847126" lon="14.07975"><ele>1236.5</ele></trkpt>
   <trkpt lat="41.84715" lon="14.079733"><ele>1236.5</ele></trkpt>
   <trkpt lat="41.847164" lon="14.079705"><ele>1236.75</ele></trkpt>
   <trkpt lat="41.847168" lon="14.079673"><ele>1237</ele></trkpt>
   <trkpt lat="41.847165" lon="14.079589"><ele>1238.25</ele></trkpt>
   <trkpt lat="41.847026" lon="14.078913"><ele>1241.25</ele></trkpt>
   <trkpt lat="41.846908" lon="14.07833"><ele>1246</ele></trkpt>
  </trkseg>
 </trk>
</gpx>
