<?xml version="1.0" encoding="UTF-8"?>
<!-- track-length = 14467 filtered ascend = 1042 plain-ascend = 923 cost=22101 energy=0.3kwh time=2h 46m 46s -->
<gpx 
 xmlns="http://www.topografix.com/GPX/1/1" 
 xmlns:xsi="http://www.w3.org/2001/XMLSchema-instance" 
 xsi:schemaLocation="http://www.topografix.com/GPX/1/1 http://www.topografix.com/GPX/1/1/gpx.xsd" 
 version="1.1" 
 creator="BRouter-Web 0.18.1">
 <trk>
  <name>Sierra de la Pandera</name>
  <trkseg>
   <trkpt lat="37.600317" lon="-3.81176"><ele>903.75</ele></trkpt>
   <trkpt lat="37.600352" lon="-3.811762"><ele>904</ele></trkpt>
   <trkpt lat="37.600508" lon="-3.811773"><ele>905.25</ele></trkpt>
   <trkpt lat="37.600561" lon="-3.811776"><ele>905.25</ele></trkpt>
   <trkpt lat="37.600826" lon="-3.811714"><ele>906.25</ele></trkpt>
   <trkpt lat="37.601149" lon="-3.811631"><ele>908.25</ele></trkpt>
   <trkpt lat="37.601314" lon="-3.811573"><ele>909.5</ele></trkpt>
   <trkpt lat="37.601473" lon="-3.811472"><ele>910.75</ele></trkpt>
   <trkpt lat="37.601667" lon="-3.811306"><ele>913</ele></trkpt>
   <trkpt lat="37.602115" lon="-3.810895"><ele>916.75</ele></trkpt>
   <trkpt lat="37.602307" lon="-3.810765"><ele>916.75</ele></trkpt>
   <trkpt lat="37.602496" lon="-3.810667"><ele>918.5</ele></trkpt>
   <trkpt lat="37.602785" lon="-3.810576"><ele>920.5</ele></trkpt>
   <trkpt lat="37.603197" lon="-3.810493"><ele>921.5</ele></trkpt>
   <trkpt lat="37.603499" lon="-3.81045"><ele>923.5</ele></trkpt>
   <trkpt lat="37.603702" lon="-3.810466"><ele>925</ele></trkpt>
   <trkpt lat="37.603914" lon="-3.810516"><ele>927</ele></trkpt>
   <trkpt lat="37.604176" lon="-3.810625"><ele>930</ele></trkpt>
   <trkpt lat="37.605243" lon="-3.811291"><ele>936</ele></trkpt>
   <trkpt lat="37.605918" lon="-3.811721"><ele>940.25</ele></trkpt>
   <trkpt lat="37.606172" lon="-3.811881"><ele>941.5</ele></trkpt>
   <trkpt lat="37.606693" lon="-3.812208"><ele>945.5</ele></trkpt>
   <trkpt lat="37.606871" lon="-3.812334"><ele>946</ele></trkpt>
   <trkpt lat="37.607062" lon="-3.812521"><ele>946.75</ele></trkpt>
   <trkpt lat="37.607241" lon="-3.812753"><ele>949.25</ele></trkpt>
   <trkpt lat="37.607683" lon="-3.813563"><ele>955.5</ele></trkpt>
   <trkpt lat="37.608077" lon="-3.814255"><ele>958.75</ele></trkpt>
   <trkpt lat="37.608321" lon="-3.814734"><ele>963.75</ele></trkpt>
   <trkpt lat="37.608371" lon="-3.814876"><ele>964.75</ele></trkpt>
   <trkpt lat="37.608437" lon="-3.815145"><ele>967</ele></trkpt>
   <trkpt lat="37.608441" lon="-3.81539"><ele>969.5</ele></trkpt>
   <trkpt lat="37.608417" lon="-3.815586"><ele>971</ele></trkpt>
   <trkpt lat="37.608369" lon="-3.815797"><ele>972</ele></trkpt>
   <trkpt lat="37.608275" lon="-3.816028"><ele>974.75</ele></trkpt>
   <trkpt lat="37.608123" lon="-3.816441"><ele>977.75</ele></trkpt>
   <trkpt lat="37.608087" lon="-3.816655"><ele>979.25</ele></trkpt>
   <trkpt lat="37.608082" lon="-3.816853"><ele>980.5</ele></trkpt>
   <trkpt lat="37.608122" lon="-3.817069"><ele>982.75</ele></trkpt>
   <trkpt lat="37.608212" lon="-3.817311"><ele>985.5</ele></trkpt>
   <trkpt lat="37.608344" lon="-3.817498"><ele>985</ele></trkpt>
   <trkpt lat="37.608676" lon="-3.817822"><ele>989.75</ele></trkpt>
   <trkpt lat="37.60894" lon="-3.818125"><ele>992.5</ele></trkpt>
   <trkpt lat="37.609103" lon="-3.818421"><ele>995.5</ele></trkpt>
   <trkpt lat="37.609167" lon="-3.818605"><ele>995.75</ele></trkpt>
   <trkpt lat="37.609237" lon="-3.818905"><ele>998</ele></trkpt>
   <trkpt lat="37.609339" lon="-3.81953"><ele>1003.75</ele></trkpt>
   <trkpt lat="37.609431" lon="-3.819879"><ele>1005.25</ele></trkpt>
   <trkpt lat="37.609558" lon="-3.820204"><ele>1008</ele></trkpt>
   <trkpt lat="37.609731" lon="-3.820457"><ele>1009.75</ele></trkpt>
   <trkpt lat="37.609898" lon="-3.820637"><ele>1012.5</ele></trkpt>
   <trkpt lat="37.610091" lon="-3.820784"><ele>1014.5</ele></trkpt>
   <trkpt lat="37.610334" lon="-3.82092"><ele>1017.25</ele></trkpt>
   <trkpt lat="37.612413" lon="-3.821873"><ele>1035</ele></trkpt>
   <trkpt lat="37.612617" lon="-3.821945"><ele>1037.75</ele></trkpt>
   <trkpt lat="37.61276" lon="-3.821968"><ele>1038.75</ele></trkpt>
   <trkpt lat="37.612909" lon="-3.821962"><ele>1040.25</ele></trkpt>
   <trkpt lat="37.613034" lon="-3.821944"><ele>1041.75</ele></trkpt>
   <trkpt lat="37.613298" lon="-3.821841"><ele>1042.25</ele></trkpt>
   <trkpt lat="37.61357" lon="-3.821704"><ele>1046.75</ele></trkpt>
   <trkpt lat="37.613735" lon="-3.821638"><ele>1048.25</ele></trkpt>
   <trkpt lat="37.613871" lon="-3.821601"><ele>1049.25</ele></trkpt>
   <trkpt lat="37.613986" lon="-3.821593"><ele>1050.25</ele></trkpt>
   <trkpt lat="37.614124" lon="-3.821606"><ele>1051.75</ele></trkpt>
   <trkpt lat="37.614243" lon="-3.82164"><ele>1053.25</ele></trkpt>
   <trkpt lat="37.614372" lon="-3.821699"><ele>1055.25</ele></trkpt>
   <trkpt lat="37.614496" lon="-3.821785"><ele>1055.5</ele></trkpt>
   <trkpt lat="37.61461" lon="-3.821895"><ele>1056.75</ele></trkpt>
   <trkpt lat="37.614702" lon="-3.822026"><ele>1059</ele></trkpt>
   <trkpt lat="37.614794" lon="-3.822199"><ele>1059</ele></trkpt>
   <trkpt lat="37.614848" lon="-3.822355"><ele>1059.75</ele></trkpt>
   <trkpt lat="37.614888" lon="-3.822541"><ele>1061.25</ele></trkpt>
   <trkpt lat="37.614905" lon="-3.822745"><ele>1063</ele></trkpt>
   <trkpt lat="37.614905" lon="-3.823152"><ele>1066.25</ele></trkpt>
   <trkpt lat="37.614914" lon="-3.823379"><ele>1069.5</ele></trkpt>
   <trkpt lat="37.614933" lon="-3.82357"><ele>1071</ele></trkpt>
   <trkpt lat="37.614976" lon="-3.823739"><ele>1073</ele></trkpt>
   <trkpt lat="37.615047" lon="-3.823917"><ele>1076.25</ele></trkpt>
   <trkpt lat="37.615129" lon="-3.824043"><ele>1078</ele></trkpt>
   <trkpt lat="37.615221" lon="-3.824148"><ele>1078.25</ele></trkpt>
   <trkpt lat="37.615319" lon="-3.82423"><ele>1079.5</ele></trkpt>
   <trkpt lat="37.615437" lon="-3.824298"><ele>1081.5</ele></trkpt>
   <trkpt lat="37.615552" lon="-3.824338"><ele>1082.25</ele></trkpt>
   <trkpt lat="37.615703" lon="-3.824363"><ele>1083.5</ele></trkpt>
   <trkpt lat="37.615923" lon="-3.824354"><ele>1085.75</ele></trkpt>
   <trkpt lat="37.616473" lon="-3.824312"><ele>1091.5</ele></trkpt>
   <trkpt lat="37.617413" lon="-3.82419"><ele>1099.5</ele></trkpt>
   <trkpt lat="37.617819" lon="-3.824153"><ele>1102.75</ele></trkpt>
   <trkpt lat="37.618491" lon="-3.824153"><ele>1109.5</ele></trkpt>
   <trkpt lat="37.618806" lon="-3.824191"><ele>1113.5</ele></trkpt>
   <trkpt lat="37.619137" lon="-3.824275"><ele>1117</ele></trkpt>
   <trkpt lat="37.619512" lon="-3.824453"><ele>1120.25</ele></trkpt>
   <trkpt lat="37.621406" lon="-3.825581"><ele>1141.25</ele></trkpt>
   <trkpt lat="37.621715" lon="-3.825708"><ele>1144.75</ele></trkpt>
   <trkpt lat="37.621928" lon="-3.825756"><ele>1146.5</ele></trkpt>
   <trkpt lat="37.622173" lon="-3.825766"><ele>1149</ele></trkpt>
   <trkpt lat="37.622346" lon="-3.825749"><ele>1150.75</ele></trkpt>
   <trkpt lat="37.622634" lon="-3.82568"><ele>1154.25</ele></trkpt>
   <trkpt lat="37.625753" lon="-3.824549"><ele>1175.75</ele></trkpt>
   <trkpt lat="37.626573" lon="-3.824252"><ele>1177.25</ele></trkpt>
   <trkpt lat="37.626731" lon="-3.824212"><ele>1175.5</ele></trkpt>
   <trkpt lat="37.626904" lon="-3.824193"><ele>1173.75</ele></trkpt>
   <trkpt lat="37.627131" lon="-3.824206"><ele>1172.25</ele></trkpt>
   <trkpt lat="37.627642" lon="-3.82433"><ele>1169</ele></trkpt>
   <trkpt lat="37.627818" lon="-3.824333"><ele>1168.5</ele></trkpt>
   <trkpt lat="37.627957" lon="-3.824301"><ele>1166.75</ele></trkpt>
   <trkpt lat="37.628064" lon="-3.824252"><ele>1165</ele></trkpt>
   <trkpt lat="37.628199" lon="-3.824155"><ele>1164.5</ele></trkpt>
   <trkpt lat="37.628313" lon="-3.824023"><ele>1163.5</ele></trkpt>
   <trkpt lat="37.6286" lon="-3.823529"><ele>1160.25</ele></trkpt>
   <trkpt lat="37.628723" lon="-3.823333"><ele>1158.75</ele></trkpt>
   <trkpt lat="37.628865" lon="-3.823188"><ele>1157.75</ele></trkpt>
   <trkpt lat="37.62902" lon="-3.823093"><ele>1158</ele></trkpt>
   <trkpt lat="37.629134" lon="-3.823047"><ele>1159.25</ele></trkpt>
   <trkpt lat="37.6293" lon="-3.823031"><ele>1159.75</ele></trkpt>
   <trkpt lat="37.629441" lon="-3.823048"><ele>1160.75</ele></trkpt>
   <trkpt lat="37.629618" lon="-3.823129"><ele>1160</ele></trkpt>
   <trkpt lat="37.629689" lon="-3.82318"><ele>1160</ele></trkpt>
   <trkpt lat="37.629837" lon="-3.823313"><ele>1160.5</ele></trkpt>
   <trkpt lat="37.629845" lon="-3.823237"><ele>1162.25</ele></trkpt>
   <trkpt lat="37.629838" lon="-3.823162"><ele>1163.75</ele></trkpt>
   <trkpt lat="37.629721" lon="-3.822861"><ele>1165.25</ele></trkpt>
   <trkpt lat="37.629664" lon="-3.822641"><ele>1167.25</ele></trkpt>
   <trkpt lat="37.629597" lon="-3.822257"><ele>1169.5</ele></trkpt>
   <trkpt lat="37.629563" lon="-3.821856"><ele>1172</ele></trkpt>
   <trkpt lat="37.629527" lon="-3.820791"><ele>1179.5</ele></trkpt>
   <trkpt lat="37.629539" lon="-3.820451"><ele>1181.5</ele></trkpt>
   <trkpt lat="37.62962" lon="-3.819909"><ele>1185.25</ele></trkpt>
   <trkpt lat="37.629694" lon="-3.819583"><ele>1188.25</ele></trkpt>
   <trkpt lat="37.629778" lon="-3.819365"><ele>1190.5</ele></trkpt>
   <trkpt lat="37.629916" lon="-3.819118"><ele>1192.5</ele></trkpt>
   <trkpt lat="37.629958" lon="-3.819008"><ele>1193.25</ele></trkpt>
   <trkpt lat="37.63026" lon="-3.817983"><ele>1199.5</ele></trkpt>
   <trkpt lat="37.63034" lon="-3.817678"><ele>1203.75</ele></trkpt>
   <trkpt lat="37.630523" lon="-3.816548"><ele>1211.25</ele></trkpt>
   <trkpt lat="37.630618" lon="-3.816147"><ele>1217</ele></trkpt>
   <trkpt lat="37.630682" lon="-3.815947"><ele>1220.25</ele></trkpt>
   <trkpt lat="37.630812" lon="-3.815662"><ele>1225.25</ele></trkpt>
   <trkpt lat="37.63082" lon="-3.815534"><ele>1225.25</ele></trkpt>
   <trkpt lat="37.630803" lon="-3.815436"><ele>1226.25</ele></trkpt>
   <trkpt lat="37.630741" lon="-3.815314"><ele>1227.5</ele></trkpt>
   <trkpt lat="37.630429" lon="-3.814973"><ele>1230</ele></trkpt>
   <trkpt lat="37.630341" lon="-3.814924"><ele>1230.75</ele></trkpt>
   <trkpt lat="37.630072" lon="-3.814875"><ele>1232.25</ele></trkpt>
   <trkpt lat="37.629995" lon="-3.814829"><ele>1233.5</ele></trkpt>
   <trkpt lat="37.629926" lon="-3.814745"><ele>1233.5</ele></trkpt>
   <trkpt lat="37.629844" lon="-3.814547"><ele>1235.75</ele></trkpt>
   <trkpt lat="37.62962" lon="-3.81367"><ele>1246</ele></trkpt>
   <trkpt lat="37.629604" lon="-3.813511"><ele>1247.25</ele></trkpt>
   <trkpt lat="37.629624" lon="-3.813328"><ele>1249.75</ele></trkpt>
   <trkpt lat="37.629653" lon="-3.813177"><ele>1250.5</ele></trkpt>
   <trkpt lat="37.629703" lon="-3.813073"><ele>1252.25</ele></trkpt>
   <trkpt lat="37.629864" lon="-3.81292"><ele>1256.75</ele></trkpt>
   <trkpt lat="37.62995" lon="-3.812802"><ele>1258.5</ele></trkpt>
   <trkpt lat="37.630011" lon="-3.812676"><ele>1261</ele></trkpt>
   <trkpt lat="37.630043" lon="-3.812539"><ele>1263</ele></trkpt>
   <trkpt lat="37.630054" lon="-3.812395"><ele>1264.75</ele></trkpt>
   <trkpt lat="37.630024" lon="-3.812268"><ele>1265.5</ele></trkpt>
   <trkpt lat="37.62989" lon="-3.811999"><ele>1268.25</ele></trkpt>
   <trkpt lat="37.629806" lon="-3.811659"><ele>1271.75</ele></trkpt>
   <trkpt lat="37.629577" lon="-3.811027"><ele>1278.75</ele></trkpt>
   <trkpt lat="37.629284" lon="-3.809445"><ele>1293</ele></trkpt>
   <trkpt lat="37.629241" lon="-3.809311"><ele>1293.5</ele></trkpt>
   <trkpt lat="37.629101" lon="-3.809086"><ele>1295.25</ele></trkpt>
   <trkpt lat="37.628851" lon="-3.808744"><ele>1298</ele></trkpt>
   <trkpt lat="37.6288" lon="-3.808649"><ele>1297.75</ele></trkpt>
   <trkpt lat="37.628772" lon="-3.808548"><ele>1297</ele></trkpt>
   <trkpt lat="37.628755" lon="-3.80841"><ele>1296.5</ele></trkpt>
   <trkpt lat="37.628742" lon="-3.808205"><ele>1297</ele></trkpt>
   <trkpt lat="37.628743" lon="-3.808059"><ele>1297.5</ele></trkpt>
   <trkpt lat="37.628753" lon="-3.807923"><ele>1299</ele></trkpt>
   <trkpt lat="37.628833" lon="-3.807593"><ele>1300.25</ele></trkpt>
   <trkpt lat="37.628872" lon="-3.807517"><ele>1300</ele></trkpt>
   <trkpt lat="37.628917" lon="-3.807487"><ele>1300.75</ele></trkpt>
   <trkpt lat="37.62897" lon="-3.807476"><ele>1302.25</ele></trkpt>
   <trkpt lat="37.629027" lon="-3.807496"><ele>1303</ele></trkpt>
   <trkpt lat="37.629074" lon="-3.807538"><ele>1303.25</ele></trkpt>
   <trkpt lat="37.629239" lon="-3.80782"><ele>1302.75</ele></trkpt>
   <trkpt lat="37.629297" lon="-3.8079"><ele>1303.25</ele></trkpt>
   <trkpt lat="37.629341" lon="-3.807949"><ele>1303.75</ele></trkpt>
   <trkpt lat="37.629405" lon="-3.807995"><ele>1305</ele></trkpt>
   <trkpt lat="37.629622" lon="-3.808089"><ele>1307.5</ele></trkpt>
   <trkpt lat="37.629788" lon="-3.808143"><ele>1308.5</ele></trkpt>
   <trkpt lat="37.629948" lon="-3.808175"><ele>1309.75</ele></trkpt>
   <trkpt lat="37.630011" lon="-3.808202"><ele>1310.25</ele></trkpt>
   <trkpt lat="37.630071" lon="-3.808247"><ele>1312</ele></trkpt>
   <trkpt lat="37.630146" lon="-3.808348"><ele>1312.25</ele></trkpt>
   <trkpt lat="37.6302" lon="-3.808407"><ele>1312.75</ele></trkpt>
   <trkpt lat="37.630534" lon="-3.808735"><ele>1316.5</ele></trkpt>
   <trkpt lat="37.630791" lon="-3.809059"><ele>1318.25</ele></trkpt>
   <trkpt lat="37.630965" lon="-3.80923"><ele>1319.5</ele></trkpt>
   <trkpt lat="37.631431" lon="-3.80961"><ele>1322.5</ele></trkpt>
   <trkpt lat="37.631565" lon="-3.809728"><ele>1322.25</ele></trkpt>
   <trkpt lat="37.631709" lon="-3.809895"><ele>1322.25</ele></trkpt>
   <trkpt lat="37.631792" lon="-3.809974"><ele>1323.25</ele></trkpt>
   <trkpt lat="37.631848" lon="-3.810008"><ele>1324</ele></trkpt>
   <trkpt lat="37.631926" lon="-3.81005"><ele>1324.75</ele></trkpt>
   <trkpt lat="37.632053" lon="-3.810071"><ele>1325.5</ele></trkpt>
   <trkpt lat="37.632238" lon="-3.810079"><ele>1327.5</ele></trkpt>
   <trkpt lat="37.632459" lon="-3.81012"><ele>1330</ele></trkpt>
   <trkpt lat="37.632569" lon="-3.810124"><ele>1329.75</ele></trkpt>
   <trkpt lat="37.632641" lon="-3.810104"><ele>1329.75</ele></trkpt>
   <trkpt lat="37.632845" lon="-3.809994"><ele>1331.25</ele></trkpt>
   <trkpt lat="37.632917" lon="-3.809963"><ele>1332</ele></trkpt>
   <trkpt lat="37.63299" lon="-3.809957"><ele>1332.5</ele></trkpt>
   <trkpt lat="37.63306" lon="-3.809962"><ele>1333</ele></trkpt>
   <trkpt lat="37.633173" lon="-3.809988"><ele>1334</ele></trkpt>
   <trkpt lat="37.63331" lon="-3.810047"><ele>1334.25</ele></trkpt>
   <trkpt lat="37.633509" lon="-3.810163"><ele>1336.5</ele></trkpt>
   <trkpt lat="37.633653" lon="-3.810272"><ele>1337</ele></trkpt>
   <trkpt lat="37.633696" lon="-3.810313"><ele>1337.5</ele></trkpt>
   <trkpt lat="37.633761" lon="-3.810423"><ele>1338.75</ele></trkpt>
   <trkpt lat="37.633855" lon="-3.810785"><ele>1341.75</ele></trkpt>
   <trkpt lat="37.633883" lon="-3.810936"><ele>1343</ele></trkpt>
   <trkpt lat="37.633881" lon="-3.811007"><ele>1343.25</ele></trkpt>
   <trkpt lat="37.633866" lon="-3.811079"><ele>1343.25</ele></trkpt>
   <trkpt lat="37.633838" lon="-3.811162"><ele>1343.75</ele></trkpt>
   <trkpt lat="37.633673" lon="-3.811372"><ele>1344</ele></trkpt>
   <trkpt lat="37.633611" lon="-3.811487"><ele>1344</ele></trkpt>
   <trkpt lat="37.63358" lon="-3.811641"><ele>1345</ele></trkpt>
   <trkpt lat="37.633584" lon="-3.811779"><ele>1345</ele></trkpt>
   <trkpt lat="37.633623" lon="-3.811925"><ele>1345.25</ele></trkpt>
   <trkpt lat="37.633773" lon="-3.812256"><ele>1346.75</ele></trkpt>
   <trkpt lat="37.633901" lon="-3.812579"><ele>1349</ele></trkpt>
   <trkpt lat="37.633973" lon="-3.812898"><ele>1350.5</ele></trkpt>
   <trkpt lat="37.634063" lon="-3.813161"><ele>1353</ele></trkpt>
   <trkpt lat="37.634302" lon="-3.813663"><ele>1355.75</ele></trkpt>
   <trkpt lat="37.634362" lon="-3.813898"><ele>1357</ele></trkpt>
   <trkpt lat="37.634406" lon="-3.814185"><ele>1357</ele></trkpt>
   <trkpt lat="37.634474" lon="-3.814387"><ele>1358.5</ele></trkpt>
   <trkpt lat="37.634908" lon="-3.815344"><ele>1363.75</ele></trkpt>
   <trkpt lat="37.635013" lon="-3.815537"><ele>1365.5</ele></trkpt>
   <trkpt lat="37.635048" lon="-3.815646"><ele>1366.25</ele></trkpt>
   <trkpt lat="37.635106" lon="-3.816028"><ele>1368.75</ele></trkpt>
   <trkpt lat="37.635121" lon="-3.816384"><ele>1370</ele></trkpt>
   <trkpt lat="37.635162" lon="-3.816574"><ele>1371.25</ele></trkpt>
   <trkpt lat="37.635216" lon="-3.816694"><ele>1372.25</ele></trkpt>
   <trkpt lat="37.63528" lon="-3.816765"><ele>1373.25</ele></trkpt>
   <trkpt lat="37.635437" lon="-3.816804"><ele>1374.5</ele></trkpt>
   <trkpt lat="37.635529" lon="-3.816808"><ele>1375.5</ele></trkpt>
   <trkpt lat="37.635592" lon="-3.816767"><ele>1376.75</ele></trkpt>
   <trkpt lat="37.635652" lon="-3.816691"><ele>1378.25</ele></trkpt>
   <trkpt lat="37.635696" lon="-3.816521"><ele>1380</ele></trkpt>
   <trkpt lat="37.635716" lon="-3.816328"><ele>1381.5</ele></trkpt>
   <trkpt lat="37.63572" lon="-3.815648"><ele>1384.5</ele></trkpt>
   <trkpt lat="37.635735" lon="-3.815517"><ele>1385</ele></trkpt>
   <trkpt lat="37.635803" lon="-3.815304"><ele>1386.25</ele></trkpt>
   <trkpt lat="37.635816" lon="-3.815204"><ele>1386.75</ele></trkpt>
   <trkpt lat="37.635813" lon="-3.815121"><ele>1387</ele></trkpt>
   <trkpt lat="37.635767" lon="-3.815"><ele>1386.25</ele></trkpt>
   <trkpt lat="37.635686" lon="-3.814844"><ele>1387.25</ele></trkpt>
   <trkpt lat="37.635399" lon="-3.814446"><ele>1389.5</ele></trkpt>
   <trkpt lat="37.635315" lon="-3.814293"><ele>1390.5</ele></trkpt>
   <trkpt lat="37.635272" lon="-3.814132"><ele>1392</ele></trkpt>
   <trkpt lat="37.635125" lon="-3.813337"><ele>1394.75</ele></trkpt>
   <trkpt lat="37.635049" lon="-3.812619"><ele>1399</ele></trkpt>
   <trkpt lat="37.635053" lon="-3.811668"><ele>1404.25</ele></trkpt>
   <trkpt lat="37.635076" lon="-3.811515"><ele>1404</ele></trkpt>
   <trkpt lat="37.635134" lon="-3.811331"><ele>1404.75</ele></trkpt>
   <trkpt lat="37.635217" lon="-3.811177"><ele>1405.75</ele></trkpt>
   <trkpt lat="37.63552" lon="-3.810816"><ele>1409</ele></trkpt>
   <trkpt lat="37.635628" lon="-3.810624"><ele>1411</ele></trkpt>
   <trkpt lat="37.635746" lon="-3.810342"><ele>1412.25</ele></trkpt>
   <trkpt lat="37.635873" lon="-3.810138"><ele>1412.5</ele></trkpt>
   <trkpt lat="37.636185" lon="-3.809813"><ele>1414.25</ele></trkpt>
   <trkpt lat="37.636408" lon="-3.809553"><ele>1417</ele></trkpt>
   <trkpt lat="37.636544" lon="-3.809417"><ele>1418.5</ele></trkpt>
   <trkpt lat="37.636665" lon="-3.809347"><ele>1420.25</ele></trkpt>
   <trkpt lat="37.637019" lon="-3.809211"><ele>1423.25</ele></trkpt>
   <trkpt lat="37.637871" lon="-3.809007"><ele>1433.25</ele></trkpt>
   <trkpt lat="37.638031" lon="-3.808942"><ele>1434.75</ele></trkpt>
   <trkpt lat="37.638177" lon="-3.808853"><ele>1436</ele></trkpt>
   <trkpt lat="37.638396" lon="-3.808629"><ele>1437.25</ele></trkpt>
   <trkpt lat="37.638477" lon="-3.808488"><ele>1438.25</ele></trkpt>
   <trkpt lat="37.638504" lon="-3.808401"><ele>1438.75</ele></trkpt>
   <trkpt lat="37.638511" lon="-3.808291"><ele>1439.5</ele></trkpt>
   <trkpt lat="37.638484" lon="-3.807955"><ele>1441.75</ele></trkpt>
   <trkpt lat="37.638441" lon="-3.807693"><ele>1443.75</ele></trkpt>
   <trkpt lat="37.638332" lon="-3.807252"><ele>1447.75</ele></trkpt>
   <trkpt lat="37.638329" lon="-3.807154"><ele>1448.75</ele></trkpt>
   <trkpt lat="37.638369" lon="-3.807029"><ele>1449.5</ele></trkpt>
   <trkpt lat="37.638425" lon="-3.806881"><ele>1451.5</ele></trkpt>
   <trkpt lat="37.638486" lon="-3.806782"><ele>1453</ele></trkpt>
   <trkpt lat="37.638737" lon="-3.806566"><ele>1456.5</ele></trkpt>
   <trkpt lat="37.639055" lon="-3.806219"><ele>1461.5</ele></trkpt>
   <trkpt lat="37.639607" lon="-3.805726"><ele>1468</ele></trkpt>
   <trkpt lat="37.639667" lon="-3.805619"><ele>1469.75</ele></trkpt>
   <trkpt lat="37.639686" lon="-3.805533"><ele>1471</ele></trkpt>
   <trkpt lat="37.639667" lon="-3.805435"><ele>1472.25</ele></trkpt>
   <trkpt lat="37.639621" lon="-3.805357"><ele>1473</ele></trkpt>
   <trkpt lat="37.639559" lon="-3.80531"><ele>1473.25</ele></trkpt>
   <trkpt lat="37.639469" lon="-3.805297"><ele>1472.75</ele></trkpt>
   <trkpt lat="37.63937" lon="-3.805314"><ele>1474.5</ele></trkpt>
   <trkpt lat="37.639068" lon="-3.805519"><ele>1480</ele></trkpt>
   <trkpt lat="37.638927" lon="-3.805565"><ele>1482.75</ele></trkpt>
   <trkpt lat="37.638793" lon="-3.805592"><ele>1484.5</ele></trkpt>
   <trkpt lat="37.638682" lon="-3.805585"><ele>1486.5</ele></trkpt>
   <trkpt lat="37.638516" lon="-3.805546"><ele>1490.25</ele></trkpt>
   <trkpt lat="37.638412" lon="-3.805531"><ele>1492</ele></trkpt>
   <trkpt lat="37.638286" lon="-3.805536"><ele>1494</ele></trkpt>
   <trkpt lat="37.638193" lon="-3.80556"><ele>1495.75</ele></trkpt>
   <trkpt lat="37.63806" lon="-3.80562"><ele>1497.5</ele></trkpt>
   <trkpt lat="37.637638" lon="-3.805879"><ele>1504.75</ele></trkpt>
   <trkpt lat="37.637449" lon="-3.805954"><ele>1507.25</ele></trkpt>
   <trkpt lat="37.637294" lon="-3.805974"><ele>1509.25</ele></trkpt>
   <trkpt lat="37.637078" lon="-3.805939"><ele>1512.25</ele></trkpt>
   <trkpt lat="37.636992" lon="-3.805938"><ele>1512.75</ele></trkpt>
   <trkpt lat="37.636787" lon="-3.806025"><ele>1517</ele></trkpt>
   <trkpt lat="37.636661" lon="-3.806047"><ele>1520.75</ele></trkpt>
   <trkpt lat="37.636414" lon="-3.80601"><ele>1524.75</ele></trkpt>
   <trkpt lat="37.636169" lon="-3.805915"><ele>1527.5</ele></trkpt>
   <trkpt lat="37.635826" lon="-3.805728"><ele>1533.25</ele></trkpt>
   <trkpt lat="37.635638" lon="-3.805585"><ele>1536</ele></trkpt>
   <trkpt lat="37.635505" lon="-3.805384"><ele>1539.25</ele></trkpt>
   <trkpt lat="37.635394" lon="-3.805104"><ele>1542.75</ele></trkpt>
   <trkpt lat="37.635308" lon="-3.804744"><ele>1546.5</ele></trkpt>
   <trkpt lat="37.635229" lon="-3.804258"><ele>1552.75</ele></trkpt>
   <trkpt lat="37.635182" lon="-3.8038"><ele>1558.75</ele></trkpt>
   <trkpt lat="37.635154" lon="-3.803664"><ele>1560.75</ele></trkpt>
   <trkpt lat="37.63474" lon="-3.802345"><ele>1578</ele></trkpt>
   <trkpt lat="37.634682" lon="-3.801916"><ele>1583.25</ele></trkpt>
   <trkpt lat="37.634506" lon="-3.80125"><ele>1591.75</ele></trkpt>
   <trkpt lat="37.634474" lon="-3.800991"><ele>1595</ele></trkpt>
   <trkpt lat="37.634468" lon="-3.800714"><ele>1597.75</ele></trkpt>
   <trkpt lat="37.634477" lon="-3.800605"><ele>1599.25</ele></trkpt>
   <trkpt lat="37.634497" lon="-3.800507"><ele>1600</ele></trkpt>
   <trkpt lat="37.634772" lon="-3.799727"><ele>1611.25</ele></trkpt>
   <trkpt lat="37.63479" lon="-3.799597"><ele>1613.75</ele></trkpt>
   <trkpt lat="37.634787" lon="-3.799491"><ele>1614.75</ele></trkpt>
   <trkpt lat="37.634765" lon="-3.799383"><ele>1615.75</ele></trkpt>
   <trkpt lat="37.634647" lon="-3.799139"><ele>1617.75</ele></trkpt>
   <trkpt lat="37.634296" lon="-3.798565"><ele>1625.75</ele></trkpt>
   <trkpt lat="37.633976" lon="-3.798133"><ele>1633.5</ele></trkpt>
   <trkpt lat="37.633688" lon="-3.79789"><ele>1637.25</ele></trkpt>
   <trkpt lat="37.633465" lon="-3.797565"><ele>1641.25</ele></trkpt>
   <trkpt lat="37.633357" lon="-3.797475"><ele>1642.25</ele></trkpt>
   <trkpt lat="37.633192" lon="-3.797426"><ele>1642.5</ele></trkpt>
   <trkpt lat="37.633131" lon="-3.797396"><ele>1643</ele></trkpt>
   <trkpt lat="37.633093" lon="-3.797339"><ele>1643.5</ele></trkpt>
   <trkpt lat="37.633068" lon="-3.79725"><ele>1644.5</ele></trkpt>
   <trkpt lat="37.633075" lon="-3.797177"><ele>1644.75</ele></trkpt>
   <trkpt lat="37.633122" lon="-3.797041"><ele>1645.25</ele></trkpt>
   <trkpt lat="37.633208" lon="-3.796934"><ele>1646.75</ele></trkpt>
   <trkpt lat="37.633309" lon="-3.796873"><ele>1649</ele></trkpt>
   <trkpt lat="37.633417" lon="-3.796856"><ele>1651.5</ele></trkpt>
   <trkpt lat="37.633544" lon="-3.796883"><ele>1653.5</ele></trkpt>
   <trkpt lat="37.633868" lon="-3.79705"><ele>1656.25</ele></trkpt>
   <trkpt lat="37.633998" lon="-3.797076"><ele>1658.25</ele></trkpt>
   <trkpt lat="37.634086" lon="-3.797043"><ele>1660.5</ele></trkpt>
   <trkpt lat="37.63417" lon="-3.796974"><ele>1663.5</ele></trkpt>
   <trkpt lat="37.634215" lon="-3.796875"><ele>1666.5</ele></trkpt>
   <trkpt lat="37.634241" lon="-3.79674"><ele>1670</ele></trkpt>
   <trkpt lat="37.634233" lon="-3.7966"><ele>1671.75</ele></trkpt>
   <trkpt lat="37.634189" lon="-3.796401"><ele>1672.75</ele></trkpt>
   <trkpt lat="37.633914" lon="-3.795715"><ele>1678.5</ele></trkpt>
   <trkpt lat="37.633811" lon="-3.795539"><ele>1682.5</ele></trkpt>
   <trkpt lat="37.633458" lon="-3.795171"><ele>1688.25</ele></trkpt>
   <trkpt lat="37.633281" lon="-3.795041"><ele>1690.75</ele></trkpt>
   <trkpt lat="37.633076" lon="-3.794945"><ele>1693.5</ele></trkpt>
   <trkpt lat="37.632763" lon="-3.794868"><ele>1696.25</ele></trkpt>
   <trkpt lat="37.632542" lon="-3.794774"><ele>1699</ele></trkpt>
   <trkpt lat="37.632425" lon="-3.794681"><ele>1699.75</ele></trkpt>
   <trkpt lat="37.632361" lon="-3.794588"><ele>1700.5</ele></trkpt>
   <trkpt lat="37.632346" lon="-3.7945"><ele>1702.75</ele></trkpt>
   <trkpt lat="37.63237" lon="-3.79441"><ele>1705.75</ele></trkpt>
   <trkpt lat="37.63242" lon="-3.79433"><ele>1708.75</ele></trkpt>
   <trkpt lat="37.632528" lon="-3.794248"><ele>1711.5</ele></trkpt>
   <trkpt lat="37.632805" lon="-3.794177"><ele>1713.75</ele></trkpt>
   <trkpt lat="37.632891" lon="-3.794133"><ele>1714.75</ele></trkpt>
   <trkpt lat="37.632948" lon="-3.794063"><ele>1715.25</ele></trkpt>
   <trkpt lat="37.633003" lon="-3.793963"><ele>1715</ele></trkpt>
   <trkpt lat="37.633054" lon="-3.793779"><ele>1715</ele></trkpt>
   <trkpt lat="37.633085" lon="-3.793625"><ele>1715.25</ele></trkpt>
   <trkpt lat="37.633118" lon="-3.79319"><ele>1721.75</ele></trkpt>
   <trkpt lat="37.633182" lon="-3.792933"><ele>1724.5</ele></trkpt>
   <trkpt lat="37.633249" lon="-3.792755"><ele>1725.75</ele></trkpt>
   <trkpt lat="37.633576" lon="-3.792257"><ele>1728.25</ele></trkpt>
   <trkpt lat="37.63376" lon="-3.79204"><ele>1731</ele></trkpt>
   <trkpt lat="37.634089" lon="-3.791891"><ele>1733.25</ele></trkpt>
   <trkpt lat="37.634664" lon="-3.791817"><ele>1735.25</ele></trkpt>
   <trkpt lat="37.634932" lon="-3.791676"><ele>1735</ele></trkpt>
   <trkpt lat="37.634995" lon="-3.791608"><ele>1734.75</ele></trkpt>
   <trkpt lat="37.635024" lon="-3.791528"><ele>1734.75</ele></trkpt>
   <trkpt lat="37.63504" lon="-3.791447"><ele>1735.25</ele></trkpt>
   <trkpt lat="37.635034" lon="-3.79136"><ele>1736</ele></trkpt>
   <trkpt lat="37.635011" lon="-3.791262"><ele>1736</ele></trkpt>
   <trkpt lat="37.634868" lon="-3.790989"><ele>1737.25</ele></trkpt>
   <trkpt lat="37.634837" lon="-3.790902"><ele>1736.75</ele></trkpt>
   <trkpt lat="37.63483" lon="-3.790829"><ele>1736.25</ele></trkpt>
   <trkpt lat="37.634849" lon="-3.790693"><ele>1738.5</ele></trkpt>
   <trkpt lat="37.634894" lon="-3.790548"><ele>1739.75</ele></trkpt>
   <trkpt lat="37.634961" lon="-3.790416"><ele>1740.5</ele></trkpt>
   <trkpt lat="37.63513" lon="-3.790225"><ele>1741</ele></trkpt>
   <trkpt lat="37.635204" lon="-3.790115"><ele>1741.5</ele></trkpt>
   <trkpt lat="37.635245" lon="-3.79002"><ele>1742.5</ele></trkpt>
   <trkpt lat="37.635343" lon="-3.789703"><ele>1744.25</ele></trkpt>
   <trkpt lat="37.63546" lon="-3.789515"><ele>1743.5</ele></trkpt>
   <trkpt lat="37.635493" lon="-3.789419"><ele>1744</ele></trkpt>
   <trkpt lat="37.6355" lon="-3.789339"><ele>1744.25</ele></trkpt>
   <trkpt lat="37.635483" lon="-3.789256"><ele>1744.75</ele></trkpt>
   <trkpt lat="37.635307" lon="-3.788789"><ele>1749.25</ele></trkpt>
   <trkpt lat="37.635225" lon="-3.788445"><ele>1751.5</ele></trkpt>
   <trkpt lat="37.635144" lon="-3.788277"><ele>1752.75</ele></trkpt>
   <trkpt lat="37.634985" lon="-3.788091"><ele>1755</ele></trkpt>
   <trkpt lat="37.634452" lon="-3.787601"><ele>1760.75</ele></trkpt>
   <trkpt lat="37.634407" lon="-3.787534"><ele>1761.25</ele></trkpt>
   <trkpt lat="37.634393" lon="-3.787451"><ele>1761.25</ele></trkpt>
   <trkpt lat="37.634399" lon="-3.787378"><ele>1761</ele></trkpt>
   <trkpt lat="37.634431" lon="-3.787306"><ele>1761.75</ele></trkpt>
   <trkpt lat="37.634489" lon="-3.787263"><ele>1762.75</ele></trkpt>
   <trkpt lat="37.634862" lon="-3.787149"><ele>1766.5</ele></trkpt>
   <trkpt lat="37.63496" lon="-3.787099"><ele>1767.75</ele></trkpt>
   <trkpt lat="37.635017" lon="-3.787022"><ele>1768.5</ele></trkpt>
   <trkpt lat="37.635072" lon="-3.786903"><ele>1769.75</ele></trkpt>
   <trkpt lat="37.635125" lon="-3.786656"><ele>1774</ele></trkpt>
   <trkpt lat="37.635133" lon="-3.786561"><ele>1775.25</ele></trkpt>
   <trkpt lat="37.635123" lon="-3.786458"><ele>1776.25</ele></trkpt>
   <trkpt lat="37.635093" lon="-3.786379"><ele>1777</ele></trkpt>
   <trkpt lat="37.634854" lon="-3.786026"><ele>1782.75</ele></trkpt>
   <trkpt lat="37.634455" lon="-3.785245"><ele>1792.75</ele></trkpt>
   <trkpt lat="37.634409" lon="-3.785071"><ele>1794.5</ele></trkpt>
   <trkpt lat="37.634396" lon="-3.78492"><ele>1796.25</ele></trkpt>
   <trkpt lat="37.634402" lon="-3.784794"><ele>1798</ele></trkpt>
   <trkpt lat="37.634426" lon="-3.784648"><ele>1801</ele></trkpt>
   <trkpt lat="37.634467" lon="-3.78448"><ele>1804.75</ele></trkpt>
   <trkpt lat="37.634789" lon="-3.783767"><ele>1810.5</ele></trkpt>
   <trkpt lat="37.634813" lon="-3.783624"><ele>1810.75</ele></trkpt>
   <trkpt lat="37.634816" lon="-3.78342"><ele>1812</ele></trkpt>
   <trkpt lat="37.634839" lon="-3.783134"><ele>1812.25</ele></trkpt>
   <trkpt lat="37.634824" lon="-3.782772"><ele>1813.5</ele></trkpt>
   <trkpt lat="37.634796" lon="-3.782625"><ele>1814</ele></trkpt>
   <trkpt lat="37.634739" lon="-3.782512"><ele>1816.25</ele></trkpt>
   <trkpt lat="37.634667" lon="-3.782407"><ele>1817</ele></trkpt>
   <trkpt lat="37.634485" lon="-3.782246"><ele>1819.25</ele></trkpt>
   <trkpt lat="37.634454" lon="-3.782171"><ele>1819.25</ele></trkpt>
   <trkpt lat="37.634407" lon="-3.781891"><ele>1819.5</ele></trkpt>
   <trkpt lat="37.634376" lon="-3.781788"><ele>1819.5</ele></trkpt>
   <trkpt lat="37.634301" lon="-3.781605"><ele>1819.5</ele></trkpt>
   <trkpt lat="37.634242" lon="-3.781462"><ele>1819.75</ele></trkpt>
   <trkpt lat="37.634223" lon="-3.781329"><ele>1819</ele></trkpt>
   <trkpt lat="37.634224" lon="-3.7812"><ele>1818.5</ele></trkpt>
   <trkpt lat="37.634324" lon="-3.780705"><ele>1819.5</ele></trkpt>
   <trkpt lat="37.63432" lon="-3.780566"><ele>1820.75</ele></trkpt>
   <trkpt lat="37.634297" lon="-3.780447"><ele>1819</ele></trkpt>
   <trkpt lat="37.634243" lon="-3.780344"><ele>1818</ele></trkpt>
   <trkpt lat="37.634153" lon="-3.780228"><ele>1816.5</ele></trkpt>
   <trkpt lat="37.633879" lon="-3.780017"><ele>1812.75</ele></trkpt>
   <trkpt lat="37.633687" lon="-3.779791"><ele>1809.75</ele></trkpt>
   <trkpt lat="37.63342" lon="-3.779382"><ele>1802.25</ele></trkpt>
   <trkpt lat="37.632875" lon="-3.778933"><ele>1791.25</ele></trkpt>
   <trkpt lat="37.632624" lon="-3.778739"><ele>1786.25</ele></trkpt>
   <trkpt lat="37.632474" lon="-3.778567"><ele>1788</ele></trkpt>
   <trkpt lat="37.632363" lon="-3.778406"><ele>1787.75</ele></trkpt>
   <trkpt lat="37.632284" lon="-3.778261"><ele>1790.25</ele></trkpt>
   <trkpt lat="37.63224" lon="-3.778124"><ele>1792.5</ele></trkpt>
   <trkpt lat="37.632098" lon="-3.77748"><ele>1797.5</ele></trkpt>
   <trkpt lat="37.632062" lon="-3.777234"><ele>1799.5</ele></trkpt>
   <trkpt lat="37.632017" lon="-3.777044"><ele>1800.5</ele></trkpt>
   <trkpt lat="37.631935" lon="-3.776769"><ele>1803</ele></trkpt>
   <trkpt lat="37.631919" lon="-3.776663"><ele>1803</ele></trkpt>
   <trkpt lat="37.631901" lon="-3.776409"><ele>1806</ele></trkpt>
   <trkpt lat="37.631828" lon="-3.776204"><ele>1806.5</ele></trkpt>
   <trkpt lat="37.631743" lon="-3.775822"><ele>1809</ele></trkpt>
   <trkpt lat="37.631642" lon="-3.775437"><ele>1810.75</ele></trkpt>
   <trkpt lat="37.631634" lon="-3.775298"><ele>1811.5</ele></trkpt>
   <trkpt lat="37.631663" lon="-3.775154"><ele>1813.25</ele></trkpt>
   <trkpt lat="37.631712" lon="-3.775039"><ele>1813.75</ele></trkpt>
   <trkpt lat="37.63182" lon="-3.774876"><ele>1814</ele></trkpt>
   <trkpt lat="37.63197" lon="-3.774677"><ele>1815.75</ele></trkpt>
   <trkpt lat="37.631983" lon="-3.77462"><ele>1815.75</ele></trkpt>
   <trkpt lat="37.631975" lon="-3.77454"><ele>1816</ele></trkpt>
   <trkpt lat="37.631933" lon="-3.774486"><ele>1816.75</ele></trkpt>
   <trkpt lat="37.631856" lon="-3.774455"><ele>1817.5</ele></trkpt>
   <trkpt lat="37.631804" lon="-3.774455"><ele>1818</ele></trkpt>
   <trkpt lat="37.631716" lon="-3.774469"><ele>1818.75</ele></trkpt>
   <trkpt lat="37.63165" lon="-3.774498"><ele>1819.5</ele></trkpt>
   <trkpt lat="37.631601" lon="-3.77455"><ele>1820.25</ele></trkpt>
   <trkpt lat="37.631575" lon="-3.774616"><ele>1821</ele></trkpt>
   <trkpt lat="37.631498" lon="-3.77492"><ele>1820.75</ele></trkpt>
   <trkpt lat="37.631467" lon="-3.774975"><ele>1820.75</ele></trkpt>
   <trkpt lat="37.631376" lon="-3.775142"><ele>1820.75</ele></trkpt>
   <trkpt lat="37.631309" lon="-3.775353"><ele>1819.5</ele></trkpt>
   <trkpt lat="37.631295" lon="-3.775507"><ele>1817.75</ele></trkpt>
    </trkseg>
 </trk>
</gpx>
