<?xml version="1.0" encoding="UTF-8"?>
<!-- track-length = 5100 filtered ascend = 310 plain-ascend = 245 cost=7619 energy=0.1kwh time=48m 56s -->
<gpx 
 xmlns="http://www.topografix.com/GPX/1/1" 
 xmlns:xsi="http://www.w3.org/2001/XMLSchema-instance" 
 xsi:schemaLocation="http://www.topografix.com/GPX/1/1 http://www.topografix.com/GPX/1/1/gpx.xsd" 
 version="1.1" 
 creator="BRouter-Web 0.18.1">
 <trk>
  <name>Chaumeil (5.1km)</name>
  <trkseg>
   <trkpt lat="45.461452" lon="1.880222"><ele>603.75</ele></trkpt>
   <trkpt lat="45.461636" lon="1.880173"><ele>603.75</ele></trkpt>
   <trkpt lat="45.461915" lon="1.880055"><ele>607</ele></trkpt>
   <trkpt lat="45.462086" lon="1.879966"><ele>609.25</ele></trkpt>
   <trkpt lat="45.462437" lon="1.879703"><ele>615</ele></trkpt>
   <trkpt lat="45.462549" lon="1.879642"><ele>615.75</ele></trkpt>
   <trkpt lat="45.462687" lon="1.879679"><ele>617.5</ele></trkpt>
   <trkpt lat="45.462921" lon="1.879836"><ele>620.25</ele></trkpt>
   <trkpt lat="45.463367" lon="1.879934"><ele>623.5</ele></trkpt>
   <trkpt lat="45.463796" lon="1.879904"><ele>624.5</ele></trkpt>
   <trkpt lat="45.464" lon="1.879947"><ele>625.75</ele></trkpt>
   <trkpt lat="45.464288" lon="1.880088"><ele>627</ele></trkpt>
   <trkpt lat="45.464654" lon="1.880089"><ele>629.75</ele></trkpt>
   <trkpt lat="45.465036" lon="1.880142"><ele>632.5</ele></trkpt>
   <trkpt lat="45.465131" lon="1.880135"><ele>632.75</ele></trkpt>
   <trkpt lat="45.4652" lon="1.880119"><ele>633</ele></trkpt>
   <trkpt lat="45.465297" lon="1.880055"><ele>633.5</ele></trkpt>
   <trkpt lat="45.465488" lon="1.87988"><ele>635</ele></trkpt>
   <trkpt lat="45.465674" lon="1.879649"><ele>636.5</ele></trkpt>
   <trkpt lat="45.46574" lon="1.879488"><ele>637.75</ele></trkpt>
   <trkpt lat="45.465779" lon="1.879284"><ele>638.5</ele></trkpt>
   <trkpt lat="45.465779" lon="1.879094"><ele>639.5</ele></trkpt>
   <trkpt lat="45.465803" lon="1.878853"><ele>641</ele></trkpt>
   <trkpt lat="45.465944" lon="1.878228"><ele>646.25</ele></trkpt>
   <trkpt lat="45.466013" lon="1.877863"><ele>650.25</ele></trkpt>
   <trkpt lat="45.466041" lon="1.877583"><ele>652.25</ele></trkpt>
   <trkpt lat="45.466054" lon="1.877311"><ele>654.75</ele></trkpt>
   <trkpt lat="45.466317" lon="1.87696"><ele>659</ele></trkpt>
   <trkpt lat="45.466414" lon="1.876905"><ele>661</ele></trkpt>
   <trkpt lat="45.466697" lon="1.877064"><ele>662</ele></trkpt>
   <trkpt lat="45.466859" lon="1.877098"><ele>663</ele></trkpt>
   <trkpt lat="45.466919" lon="1.877082"><ele>663.75</ele></trkpt>
   <trkpt lat="45.466969" lon="1.877023"><ele>664.5</ele></trkpt>
   <trkpt lat="45.466998" lon="1.876845"><ele>667</ele></trkpt>
   <trkpt lat="45.467024" lon="1.876614"><ele>670.25</ele></trkpt>
   <trkpt lat="45.467051" lon="1.87647"><ele>671.75</ele></trkpt>
   <trkpt lat="45.467103" lon="1.876403"><ele>673</ele></trkpt>
   <trkpt lat="45.467272" lon="1.876291"><ele>674.5</ele></trkpt>
   <trkpt lat="45.467502" lon="1.87609"><ele>678.75</ele></trkpt>
   <trkpt lat="45.467672" lon="1.875887"><ele>680.5</ele></trkpt>
   <trkpt lat="45.467761" lon="1.87576"><ele>682.75</ele></trkpt>
   <trkpt lat="45.467888" lon="1.875489"><ele>687</ele></trkpt>
   <trkpt lat="45.46798" lon="1.875167"><ele>691.5</ele></trkpt>
   <trkpt lat="45.468088" lon="1.874967"><ele>694.5</ele></trkpt>
   <trkpt lat="45.468211" lon="1.874852"><ele>697</ele></trkpt>
   <trkpt lat="45.468283" lon="1.874731"><ele>698.25</ele></trkpt>
   <trkpt lat="45.46835" lon="1.874511"><ele>699.75</ele></trkpt>
   <trkpt lat="45.468394" lon="1.874003"><ele>703</ele></trkpt>
   <trkpt lat="45.46842" lon="1.873583"><ele>703</ele></trkpt>
   <trkpt lat="45.468382" lon="1.873269"><ele>704.75</ele></trkpt>
   <trkpt lat="45.468304" lon="1.873182"><ele>705</ele></trkpt>
   <trkpt lat="45.468221" lon="1.87315"><ele>706.5</ele></trkpt>
   <trkpt lat="45.467882" lon="1.873154"><ele>709</ele></trkpt>
   <trkpt lat="45.467669" lon="1.873115"><ele>711.5</ele></trkpt>
   <trkpt lat="45.467436" lon="1.873137"><ele>714</ele></trkpt>
   <trkpt lat="45.467143" lon="1.87318"><ele>716</ele></trkpt>
   <trkpt lat="45.466902" lon="1.873132"><ele>716.25</ele></trkpt>
   <trkpt lat="45.46658" lon="1.873041"><ele>719.75</ele></trkpt>
   <trkpt lat="45.4664" lon="1.872914"><ele>722.75</ele></trkpt>
   <trkpt lat="45.466289" lon="1.872734"><ele>724.5</ele></trkpt>
   <trkpt lat="45.466259" lon="1.872613"><ele>725.5</ele></trkpt>
   <trkpt lat="45.466263" lon="1.872478"><ele>726.5</ele></trkpt>
   <trkpt lat="45.466288" lon="1.872363"><ele>727</ele></trkpt>
   <trkpt lat="45.466342" lon="1.872214"><ele>728.5</ele></trkpt>
   <trkpt lat="45.46642" lon="1.872058"><ele>730.25</ele></trkpt>
   <trkpt lat="45.46648" lon="1.871962"><ele>731.5</ele></trkpt>
   <trkpt lat="45.46653" lon="1.871843"><ele>732</ele></trkpt>
   <trkpt lat="45.466587" lon="1.871675"><ele>733</ele></trkpt>
   <trkpt lat="45.466638" lon="1.871469"><ele>734.5</ele></trkpt>
   <trkpt lat="45.466663" lon="1.871195"><ele>736.5</ele></trkpt>
   <trkpt lat="45.466668" lon="1.871035"><ele>737</ele></trkpt>
   <trkpt lat="45.466689" lon="1.870913"><ele>737.75</ele></trkpt>
   <trkpt lat="45.466771" lon="1.870725"><ele>739</ele></trkpt>
   <trkpt lat="45.467106" lon="1.870146"><ele>744.25</ele></trkpt>
   <trkpt lat="45.467284" lon="1.86965"><ele>748.75</ele></trkpt>
   <trkpt lat="45.467373" lon="1.869359"><ele>750.5</ele></trkpt>
   <trkpt lat="45.467359" lon="1.869241"><ele>750.75</ele></trkpt>
   <trkpt lat="45.467309" lon="1.869126"><ele>751.25</ele></trkpt>
   <trkpt lat="45.467185" lon="1.869013"><ele>752.25</ele></trkpt>
   <trkpt lat="45.466968" lon="1.868894"><ele>754</ele></trkpt>
   <trkpt lat="45.466775" lon="1.868774"><ele>757.75</ele></trkpt>
   <trkpt lat="45.466516" lon="1.868639"><ele>760.75</ele></trkpt>
   <trkpt lat="45.466411" lon="1.868574"><ele>762</ele></trkpt>
   <trkpt lat="45.46633" lon="1.868471"><ele>763</ele></trkpt>
   <trkpt lat="45.466279" lon="1.868335"><ele>764.5</ele></trkpt>
   <trkpt lat="45.466236" lon="1.868074"><ele>768.5</ele></trkpt>
   <trkpt lat="45.466215" lon="1.86783"><ele>771</ele></trkpt>
   <trkpt lat="45.466182" lon="1.86761"><ele>772.25</ele></trkpt>
   <trkpt lat="45.466136" lon="1.867377"><ele>772.75</ele></trkpt>
   <trkpt lat="45.466078" lon="1.86721"><ele>772</ele></trkpt>
   <trkpt lat="45.466033" lon="1.86712"><ele>776</ele></trkpt>
   <trkpt lat="45.46596" lon="1.866974"><ele>776</ele></trkpt>
   <trkpt lat="45.465894" lon="1.866779"><ele>778.5</ele></trkpt>
   <trkpt lat="45.465709" lon="1.865546"><ele>795</ele></trkpt>
   <trkpt lat="45.4657" lon="1.865072"><ele>800.5</ele></trkpt>
   <trkpt lat="45.465756" lon="1.864925"><ele>802.25</ele></trkpt>
   <trkpt lat="45.465881" lon="1.864768"><ele>802.5</ele></trkpt>
   <trkpt lat="45.466258" lon="1.86452"><ele>807</ele></trkpt>
   <trkpt lat="45.466506" lon="1.864444"><ele>809.25</ele></trkpt>
   <trkpt lat="45.466622" lon="1.864365"><ele>810.25</ele></trkpt>
   <trkpt lat="45.466845" lon="1.863915"><ele>815.25</ele></trkpt>
   <trkpt lat="45.466984" lon="1.863611"><ele>820</ele></trkpt>
   <trkpt lat="45.46716" lon="1.863306"><ele>823.25</ele></trkpt>
   <trkpt lat="45.467307" lon="1.863126"><ele>825.25</ele></trkpt>
   <trkpt lat="45.467435" lon="1.863009"><ele>827.5</ele></trkpt>
   <trkpt lat="45.467653" lon="1.862802"><ele>830.5</ele></trkpt>
   <trkpt lat="45.467786" lon="1.862609"><ele>833.75</ele></trkpt>
   <trkpt lat="45.467979" lon="1.862282"><ele>839</ele></trkpt>
   <trkpt lat="45.468111" lon="1.862001"><ele>843.25</ele></trkpt>
   <trkpt lat="45.468431" lon="1.861386"><ele>853.25</ele></trkpt>
   <trkpt lat="45.468473" lon="1.86128"><ele>855</ele></trkpt>
   <trkpt lat="45.468483" lon="1.861166"><ele>856.5</ele></trkpt>
   <trkpt lat="45.468449" lon="1.860362"><ele>865</ele></trkpt>
   <trkpt lat="45.468468" lon="1.860137"><ele>866.5</ele></trkpt>
   <trkpt lat="45.468582" lon="1.859653"><ele>866.5</ele></trkpt>
   <trkpt lat="45.468702" lon="1.859231"><ele>864.25</ele></trkpt>
   <trkpt lat="45.468975" lon="1.858512"><ele>861</ele></trkpt>
   <trkpt lat="45.469067" lon="1.858312"><ele>860.75</ele></trkpt>
   <trkpt lat="45.469248" lon="1.858027"><ele>859</ele></trkpt>
   <trkpt lat="45.469373" lon="1.857743"><ele>857.75</ele></trkpt>
   <trkpt lat="45.469434" lon="1.857291"><ele>855.25</ele></trkpt>
   <trkpt lat="45.469489" lon="1.857121"><ele>855</ele></trkpt>
   <trkpt lat="45.469657" lon="1.856706"><ele>852.25</ele></trkpt>
   <trkpt lat="45.470148" lon="1.855986"><ele>849.75</ele></trkpt>
   <trkpt lat="45.470508" lon="1.855604"><ele>847.25</ele></trkpt>
   <trkpt lat="45.470598" lon="1.85547"><ele>846</ele></trkpt>
   <trkpt lat="45.470917" lon="1.854906"><ele>846.75</ele></trkpt>
   <trkpt lat="45.470935" lon="1.85476"><ele>848</ele></trkpt>
   <trkpt lat="45.470916" lon="1.85465"><ele>848.75</ele></trkpt>
   <trkpt lat="45.47073" lon="1.854308"><ele>851</ele></trkpt>
   <trkpt lat="45.470634" lon="1.854233"><ele>851.5</ele></trkpt>
   <trkpt lat="45.470538" lon="1.854217"><ele>851.5</ele></trkpt>
   <trkpt lat="45.470263" lon="1.854375"><ele>852</ele></trkpt>
   <trkpt lat="45.469969" lon="1.854426"><ele>853.25</ele></trkpt>
   <trkpt lat="45.469717" lon="1.854383"><ele>855</ele></trkpt>
   <trkpt lat="45.469363" lon="1.854203"><ele>857.5</ele></trkpt>
   <trkpt lat="45.469164" lon="1.854047"><ele>859.5</ele></trkpt>
   <trkpt lat="45.468936" lon="1.853886"><ele>861</ele></trkpt>
   <trkpt lat="45.468769" lon="1.853834"><ele>862.25</ele></trkpt>
   <trkpt lat="45.468635" lon="1.853848"><ele>863</ele></trkpt>
   <trkpt lat="45.468542" lon="1.853839"><ele>864</ele></trkpt>
   <trkpt lat="45.468458" lon="1.853812"><ele>864.75</ele></trkpt>
   <trkpt lat="45.468394" lon="1.853772"><ele>865.5</ele></trkpt>
   <trkpt lat="45.468341" lon="1.853706"><ele>865.75</ele></trkpt>
   <trkpt lat="45.468318" lon="1.853636"><ele>865.75</ele></trkpt>
   <trkpt lat="45.4683" lon="1.853529"><ele>865.75</ele></trkpt>
   <trkpt lat="45.468294" lon="1.853225"><ele>866.25</ele></trkpt>
   <trkpt lat="45.4683" lon="1.852897"><ele>869.25</ele></trkpt>
   <trkpt lat="45.468313" lon="1.852807"><ele>870.25</ele></trkpt>
   <trkpt lat="45.468343" lon="1.852752"><ele>871.25</ele></trkpt>
   <trkpt lat="45.468384" lon="1.852717"><ele>872</ele></trkpt>
   <trkpt lat="45.468458" lon="1.852689"><ele>872.75</ele></trkpt>
   <trkpt lat="45.468853" lon="1.85258"><ele>877.25</ele></trkpt>
   <trkpt lat="45.468946" lon="1.852572"><ele>878.25</ele></trkpt>
   <trkpt lat="45.469053" lon="1.85258"><ele>879.5</ele></trkpt>
   <trkpt lat="45.469415" lon="1.852726"><ele>882.25</ele></trkpt>
   <trkpt lat="45.469584" lon="1.852759"><ele>883.75</ele></trkpt>
   <trkpt lat="45.469738" lon="1.852743"><ele>885.5</ele></trkpt>
   <trkpt lat="45.469874" lon="1.852718"><ele>886.25</ele></trkpt>
   <trkpt lat="45.470011" lon="1.852673"><ele>887.25</ele></trkpt>
   <trkpt lat="45.470258" lon="1.852511"><ele>889.75</ele></trkpt>
   <trkpt lat="45.470414" lon="1.852383"><ele>892.25</ele></trkpt>
   <trkpt lat="45.470571" lon="1.852256"><ele>892.25</ele></trkpt>
   <trkpt lat="45.4708" lon="1.852104"><ele>893.75</ele></trkpt>
   <trkpt lat="45.470942" lon="1.852045"><ele>894.5</ele></trkpt>
   <trkpt lat="45.471074" lon="1.852013"><ele>895</ele></trkpt>
   <trkpt lat="45.471507" lon="1.852029"><ele>896.5</ele></trkpt>
   <trkpt lat="45.471778" lon="1.852007"><ele>896.75</ele></trkpt>
  </trkseg>
 </trk>
</gpx>
