<?xml version="1.0" encoding="UTF-8"?>
<!-- track-length = 8185 filtered ascend = 505 plain-ascend = 498 cost=9441 energy=0.1kwh time=1h 24m 28s -->
<gpx 
 xmlns="http://www.topografix.com/GPX/1/1" 
 xmlns:xsi="http://www.w3.org/2001/XMLSchema-instance" 
 xsi:schemaLocation="http://www.topografix.com/GPX/1/1 http://www.topografix.com/GPX/1/1/gpx.xsd" 
 version="1.1" 
 creator="BRouter-Web 0.18.1">
 <trk>
  <name>Venta de la Cebada</name>
  <trkseg>
   <trkpt lat="36.841091" lon="-3.579349"><ele>316</ele></trkpt>
   <trkpt lat="36.841116" lon="-3.579507"><ele>317</ele></trkpt>
   <trkpt lat="36.841216" lon="-3.579871"><ele>320.5</ele></trkpt>
   <trkpt lat="36.841228" lon="-3.580117"><ele>321.5</ele></trkpt>
   <trkpt lat="36.841147" lon="-3.580577"><ele>322.25</ele></trkpt>
   <trkpt lat="36.841126" lon="-3.580844"><ele>322.75</ele></trkpt>
   <trkpt lat="36.841094" lon="-3.581006"><ele>323</ele></trkpt>
   <trkpt lat="36.840865" lon="-3.581863"><ele>322.25</ele></trkpt>
   <trkpt lat="36.840888" lon="-3.581939"><ele>323.75</ele></trkpt>
   <trkpt lat="36.840937" lon="-3.581986"><ele>324.25</ele></trkpt>
   <trkpt lat="36.84099" lon="-3.581912"><ele>325.5</ele></trkpt>
   <trkpt lat="36.841347" lon="-3.580703"><ele>335</ele></trkpt>
   <trkpt lat="36.841492" lon="-3.580276"><ele>340.5</ele></trkpt>
   <trkpt lat="36.841562" lon="-3.580018"><ele>340</ele></trkpt>
   <trkpt lat="36.841618" lon="-3.579599"><ele>342</ele></trkpt>
   <trkpt lat="36.841663" lon="-3.579162"><ele>346.75</ele></trkpt>
   <trkpt lat="36.841713" lon="-3.578971"><ele>348</ele></trkpt>
   <trkpt lat="36.841758" lon="-3.578878"><ele>349.5</ele></trkpt>
   <trkpt lat="36.841815" lon="-3.578803"><ele>349.5</ele></trkpt>
   <trkpt lat="36.842236" lon="-3.578416"><ele>358.25</ele></trkpt>
   <trkpt lat="36.842272" lon="-3.578366"><ele>359</ele></trkpt>
   <trkpt lat="36.84229" lon="-3.578306"><ele>359.25</ele></trkpt>
   <trkpt lat="36.8423" lon="-3.578186"><ele>359.5</ele></trkpt>
   <trkpt lat="36.842269" lon="-3.578065"><ele>358</ele></trkpt>
   <trkpt lat="36.842183" lon="-3.577972"><ele>358.25</ele></trkpt>
   <trkpt lat="36.842071" lon="-3.577922"><ele>358.5</ele></trkpt>
   <trkpt lat="36.841891" lon="-3.577883"><ele>357.75</ele></trkpt>
   <trkpt lat="36.841664" lon="-3.577772"><ele>359</ele></trkpt>
   <trkpt lat="36.841586" lon="-3.577708"><ele>359.75</ele></trkpt>
   <trkpt lat="36.841256" lon="-3.577203"><ele>364.25</ele></trkpt>
   <trkpt lat="36.841071" lon="-3.576958"><ele>368.5</ele></trkpt>
   <trkpt lat="36.841044" lon="-3.57692"><ele>368.5</ele></trkpt>
   <trkpt lat="36.840926" lon="-3.576724"><ele>371.25</ele></trkpt>
   <trkpt lat="36.840891" lon="-3.576591"><ele>372.75</ele></trkpt>
   <trkpt lat="36.840876" lon="-3.576465"><ele>373.5</ele></trkpt>
   <trkpt lat="36.840892" lon="-3.576312"><ele>375</ele></trkpt>
   <trkpt lat="36.84092" lon="-3.576142"><ele>377</ele></trkpt>
   <trkpt lat="36.840965" lon="-3.575958"><ele>378.75</ele></trkpt>
   <trkpt lat="36.841105" lon="-3.575161"><ele>385.5</ele></trkpt>
   <trkpt lat="36.841154" lon="-3.57498"><ele>388.25</ele></trkpt>
   <trkpt lat="36.841255" lon="-3.574682"><ele>391.75</ele></trkpt>
   <trkpt lat="36.841287" lon="-3.574527"><ele>394.25</ele></trkpt>
   <trkpt lat="36.8413" lon="-3.574419"><ele>395.25</ele></trkpt>
   <trkpt lat="36.841299" lon="-3.574335"><ele>395.5</ele></trkpt>
   <trkpt lat="36.841223" lon="-3.573877"><ele>398.75</ele></trkpt>
   <trkpt lat="36.841149" lon="-3.5734"><ele>402.75</ele></trkpt>
   <trkpt lat="36.841133" lon="-3.5732"><ele>402.5</ele></trkpt>
   <trkpt lat="36.841094" lon="-3.573001"><ele>402.75</ele></trkpt>
   <trkpt lat="36.84107" lon="-3.572942"><ele>403.75</ele></trkpt>
   <trkpt lat="36.841027" lon="-3.572884"><ele>404.75</ele></trkpt>
   <trkpt lat="36.840952" lon="-3.572828"><ele>405.5</ele></trkpt>
   <trkpt lat="36.840676" lon="-3.572717"><ele>406.75</ele></trkpt>
   <trkpt lat="36.840607" lon="-3.572663"><ele>408</ele></trkpt>
   <trkpt lat="36.84049" lon="-3.572537"><ele>408.75</ele></trkpt>
   <trkpt lat="36.840434" lon="-3.572457"><ele>408.25</ele></trkpt>
   <trkpt lat="36.840391" lon="-3.572368"><ele>408.75</ele></trkpt>
   <trkpt lat="36.840359" lon="-3.572284"><ele>409.75</ele></trkpt>
   <trkpt lat="36.840334" lon="-3.572188"><ele>411</ele></trkpt>
   <trkpt lat="36.840305" lon="-3.571999"><ele>412</ele></trkpt>
   <trkpt lat="36.840266" lon="-3.571813"><ele>413.5</ele></trkpt>
   <trkpt lat="36.840023" lon="-3.570961"><ele>420.75</ele></trkpt>
   <trkpt lat="36.84" lon="-3.570828"><ele>423</ele></trkpt>
   <trkpt lat="36.839982" lon="-3.57039"><ele>427.5</ele></trkpt>
   <trkpt lat="36.839861" lon="-3.569738"><ele>430</ele></trkpt>
   <trkpt lat="36.839844" lon="-3.569602"><ele>431.25</ele></trkpt>
   <trkpt lat="36.839844" lon="-3.569479"><ele>433</ele></trkpt>
   <trkpt lat="36.839926" lon="-3.568673"><ele>441</ele></trkpt>
   <trkpt lat="36.839947" lon="-3.568356"><ele>443</ele></trkpt>
   <trkpt lat="36.839943" lon="-3.568271"><ele>444</ele></trkpt>
   <trkpt lat="36.839914" lon="-3.568195"><ele>444.25</ele></trkpt>
   <trkpt lat="36.839889" lon="-3.568149"><ele>444.5</ele></trkpt>
   <trkpt lat="36.839857" lon="-3.568115"><ele>444.5</ele></trkpt>
   <trkpt lat="36.83961" lon="-3.56792"><ele>447</ele></trkpt>
   <trkpt lat="36.83953" lon="-3.567807"><ele>448</ele></trkpt>
   <trkpt lat="36.839491" lon="-3.567674"><ele>449</ele></trkpt>
   <trkpt lat="36.83947" lon="-3.567565"><ele>449.75</ele></trkpt>
   <trkpt lat="36.839463" lon="-3.567448"><ele>450.5</ele></trkpt>
   <trkpt lat="36.839467" lon="-3.567285"><ele>451</ele></trkpt>
   <trkpt lat="36.839553" lon="-3.566986"><ele>452.75</ele></trkpt>
   <trkpt lat="36.839809" lon="-3.566188"><ele>463</ele></trkpt>
   <trkpt lat="36.839956" lon="-3.565694"><ele>468.5</ele></trkpt>
   <trkpt lat="36.839966" lon="-3.565557"><ele>468</ele></trkpt>
   <trkpt lat="36.839952" lon="-3.565397"><ele>468.25</ele></trkpt>
   <trkpt lat="36.839735" lon="-3.564813"><ele>472.5</ele></trkpt>
   <trkpt lat="36.839701" lon="-3.564682"><ele>473.5</ele></trkpt>
   <trkpt lat="36.839683" lon="-3.564536"><ele>474.25</ele></trkpt>
   <trkpt lat="36.839702" lon="-3.564402"><ele>476</ele></trkpt>
   <trkpt lat="36.839737" lon="-3.564304"><ele>477.25</ele></trkpt>
   <trkpt lat="36.839797" lon="-3.564245"><ele>478</ele></trkpt>
   <trkpt lat="36.839868" lon="-3.564197"><ele>478.75</ele></trkpt>
   <trkpt lat="36.83996" lon="-3.564199"><ele>480</ele></trkpt>
   <trkpt lat="36.840063" lon="-3.564224"><ele>480.5</ele></trkpt>
   <trkpt lat="36.840485" lon="-3.564363"><ele>483</ele></trkpt>
   <trkpt lat="36.840526" lon="-3.564353"><ele>482.75</ele></trkpt>
   <trkpt lat="36.840674" lon="-3.564315"><ele>485</ele></trkpt>
   <trkpt lat="36.840763" lon="-3.564231"><ele>485.75</ele></trkpt>
   <trkpt lat="36.841004" lon="-3.564005"><ele>488.75</ele></trkpt>
   <trkpt lat="36.841138" lon="-3.56387"><ele>489.75</ele></trkpt>
   <trkpt lat="36.841247" lon="-3.563693"><ele>492</ele></trkpt>
   <trkpt lat="36.84133" lon="-3.563543"><ele>491.75</ele></trkpt>
   <trkpt lat="36.841503" lon="-3.563459"><ele>493.5</ele></trkpt>
   <trkpt lat="36.841819" lon="-3.563376"><ele>497.5</ele></trkpt>
   <trkpt lat="36.841906" lon="-3.56332"><ele>497.5</ele></trkpt>
   <trkpt lat="36.842197" lon="-3.563093"><ele>500.25</ele></trkpt>
   <trkpt lat="36.842297" lon="-3.563029"><ele>500.25</ele></trkpt>
   <trkpt lat="36.84241" lon="-3.56302"><ele>501</ele></trkpt>
   <trkpt lat="36.842864" lon="-3.56318"><ele>507.5</ele></trkpt>
   <trkpt lat="36.843062" lon="-3.563193"><ele>508.5</ele></trkpt>
   <trkpt lat="36.843454" lon="-3.563025"><ele>508.75</ele></trkpt>
   <trkpt lat="36.843752" lon="-3.563008"><ele>511.25</ele></trkpt>
   <trkpt lat="36.84405" lon="-3.563027"><ele>511.75</ele></trkpt>
   <trkpt lat="36.844159" lon="-3.562967"><ele>509.75</ele></trkpt>
   <trkpt lat="36.844368" lon="-3.562814"><ele>513.25</ele></trkpt>
   <trkpt lat="36.844509" lon="-3.562757"><ele>513</ele></trkpt>
   <trkpt lat="36.844708" lon="-3.562807"><ele>515</ele></trkpt>
   <trkpt lat="36.844951" lon="-3.562884"><ele>517.25</ele></trkpt>
   <trkpt lat="36.845034" lon="-3.562866"><ele>515.5</ele></trkpt>
   <trkpt lat="36.845109" lon="-3.562791"><ele>512.75</ele></trkpt>
   <trkpt lat="36.845238" lon="-3.562455"><ele>514.25</ele></trkpt>
   <trkpt lat="36.845325" lon="-3.562186"><ele>519.5</ele></trkpt>
   <trkpt lat="36.845437" lon="-3.561942"><ele>522</ele></trkpt>
   <trkpt lat="36.845663" lon="-3.561742"><ele>525</ele></trkpt>
   <trkpt lat="36.845736" lon="-3.561656"><ele>525.5</ele></trkpt>
   <trkpt lat="36.845798" lon="-3.561551"><ele>526</ele></trkpt>
   <trkpt lat="36.845979" lon="-3.561115"><ele>528.25</ele></trkpt>
   <trkpt lat="36.84616" lon="-3.560699"><ele>531</ele></trkpt>
   <trkpt lat="36.846347" lon="-3.560442"><ele>533</ele></trkpt>
   <trkpt lat="36.846572" lon="-3.560266"><ele>535</ele></trkpt>
   <trkpt lat="36.846675" lon="-3.560246"><ele>536.5</ele></trkpt>
   <trkpt lat="36.846783" lon="-3.560265"><ele>537.5</ele></trkpt>
   <trkpt lat="36.847141" lon="-3.560418"><ele>542.5</ele></trkpt>
   <trkpt lat="36.847237" lon="-3.560412"><ele>542.5</ele></trkpt>
   <trkpt lat="36.847301" lon="-3.560347"><ele>542.25</ele></trkpt>
   <trkpt lat="36.847358" lon="-3.560229"><ele>543</ele></trkpt>
   <trkpt lat="36.847473" lon="-3.559824"><ele>547.25</ele></trkpt>
   <trkpt lat="36.847515" lon="-3.559763"><ele>548.5</ele></trkpt>
   <trkpt lat="36.847542" lon="-3.559726"><ele>548.5</ele></trkpt>
   <trkpt lat="36.847632" lon="-3.559661"><ele>549.25</ele></trkpt>
   <trkpt lat="36.847773" lon="-3.559647"><ele>550.25</ele></trkpt>
   <trkpt lat="36.847953" lon="-3.559685"><ele>551.5</ele></trkpt>
   <trkpt lat="36.848193" lon="-3.559758"><ele>554.5</ele></trkpt>
   <trkpt lat="36.848367" lon="-3.559781"><ele>556.5</ele></trkpt>
   <trkpt lat="36.848549" lon="-3.559751"><ele>558.5</ele></trkpt>
   <trkpt lat="36.84934" lon="-3.559031"><ele>565.5</ele></trkpt>
   <trkpt lat="36.849424" lon="-3.558868"><ele>566.5</ele></trkpt>
   <trkpt lat="36.849437" lon="-3.558673"><ele>566.75</ele></trkpt>
   <trkpt lat="36.849351" lon="-3.558207"><ele>566.75</ele></trkpt>
   <trkpt lat="36.849347" lon="-3.558075"><ele>567.75</ele></trkpt>
   <trkpt lat="36.849377" lon="-3.55796"><ele>567.75</ele></trkpt>
   <trkpt lat="36.849432" lon="-3.557872"><ele>568.5</ele></trkpt>
   <trkpt lat="36.849505" lon="-3.55781"><ele>568</ele></trkpt>
   <trkpt lat="36.849593" lon="-3.557799"><ele>568</ele></trkpt>
   <trkpt lat="36.849663" lon="-3.55781"><ele>568.75</ele></trkpt>
   <trkpt lat="36.85026" lon="-3.558169"><ele>572</ele></trkpt>
   <trkpt lat="36.850568" lon="-3.558549"><ele>575.75</ele></trkpt>
   <trkpt lat="36.850628" lon="-3.558592"><ele>576.75</ele></trkpt>
   <trkpt lat="36.850731" lon="-3.558576"><ele>575.75</ele></trkpt>
   <trkpt lat="36.850813" lon="-3.558506"><ele>576</ele></trkpt>
   <trkpt lat="36.850845" lon="-3.558405"><ele>578</ele></trkpt>
   <trkpt lat="36.850825" lon="-3.558271"><ele>579</ele></trkpt>
   <trkpt lat="36.850594" lon="-3.557558"><ele>580.5</ele></trkpt>
   <trkpt lat="36.850582" lon="-3.557382"><ele>581.5</ele></trkpt>
   <trkpt lat="36.850589" lon="-3.557179"><ele>582</ele></trkpt>
   <trkpt lat="36.850635" lon="-3.556998"><ele>582.75</ele></trkpt>
   <trkpt lat="36.85072" lon="-3.556849"><ele>583.25</ele></trkpt>
   <trkpt lat="36.850935" lon="-3.55661"><ele>586.75</ele></trkpt>
   <trkpt lat="36.851349" lon="-3.55625"><ele>590.25</ele></trkpt>
   <trkpt lat="36.851507" lon="-3.556148"><ele>592.75</ele></trkpt>
   <trkpt lat="36.852125" lon="-3.555893"><ele>599.5</ele></trkpt>
   <trkpt lat="36.85225" lon="-3.555733"><ele>599.25</ele></trkpt>
   <trkpt lat="36.852282" lon="-3.555629"><ele>599</ele></trkpt>
   <trkpt lat="36.852297" lon="-3.555515"><ele>598.25</ele></trkpt>
   <trkpt lat="36.852275" lon="-3.555407"><ele>598.25</ele></trkpt>
   <trkpt lat="36.852229" lon="-3.555309"><ele>598.5</ele></trkpt>
   <trkpt lat="36.852159" lon="-3.555228"><ele>600.75</ele></trkpt>
   <trkpt lat="36.852081" lon="-3.555168"><ele>602.75</ele></trkpt>
   <trkpt lat="36.851892" lon="-3.555108"><ele>604</ele></trkpt>
   <trkpt lat="36.851511" lon="-3.554959"><ele>607.75</ele></trkpt>
   <trkpt lat="36.851092" lon="-3.554732"><ele>610.25</ele></trkpt>
   <trkpt lat="36.850989" lon="-3.554619"><ele>612.5</ele></trkpt>
   <trkpt lat="36.850938" lon="-3.554532"><ele>613</ele></trkpt>
   <trkpt lat="36.850924" lon="-3.554447"><ele>613.75</ele></trkpt>
   <trkpt lat="36.85092" lon="-3.55435"><ele>613.25</ele></trkpt>
   <trkpt lat="36.850936" lon="-3.55426"><ele>613.5</ele></trkpt>
   <trkpt lat="36.850961" lon="-3.554188"><ele>614</ele></trkpt>
   <trkpt lat="36.851008" lon="-3.554116"><ele>614.5</ele></trkpt>
   <trkpt lat="36.851421" lon="-3.553581"><ele>620.5</ele></trkpt>
   <trkpt lat="36.851475" lon="-3.553456"><ele>621.25</ele></trkpt>
   <trkpt lat="36.851492" lon="-3.553359"><ele>620.75</ele></trkpt>
   <trkpt lat="36.85152" lon="-3.552987"><ele>624.25</ele></trkpt>
   <trkpt lat="36.85153" lon="-3.552744"><ele>625.75</ele></trkpt>
   <trkpt lat="36.851521" lon="-3.552648"><ele>626.25</ele></trkpt>
   <trkpt lat="36.851501" lon="-3.552558"><ele>626.75</ele></trkpt>
   <trkpt lat="36.851463" lon="-3.552464"><ele>627.25</ele></trkpt>
   <trkpt lat="36.851308" lon="-3.552204"><ele>628.5</ele></trkpt>
   <trkpt lat="36.851262" lon="-3.552071"><ele>628.5</ele></trkpt>
   <trkpt lat="36.851125" lon="-3.551504"><ele>633.25</ele></trkpt>
   <trkpt lat="36.851045" lon="-3.551354"><ele>634.5</ele></trkpt>
   <trkpt lat="36.850783" lon="-3.551118"><ele>635.5</ele></trkpt>
   <trkpt lat="36.850631" lon="-3.550996"><ele>635.25</ele></trkpt>
   <trkpt lat="36.850567" lon="-3.550926"><ele>635.75</ele></trkpt>
   <trkpt lat="36.8505" lon="-3.5508"><ele>635.5</ele></trkpt>
   <trkpt lat="36.85047" lon="-3.55069"><ele>634.75</ele></trkpt>
   <trkpt lat="36.850459" lon="-3.550577"><ele>635</ele></trkpt>
   <trkpt lat="36.850485" lon="-3.55021"><ele>636.5</ele></trkpt>
   <trkpt lat="36.850517" lon="-3.550025"><ele>638</ele></trkpt>
   <trkpt lat="36.850578" lon="-3.549908"><ele>639</ele></trkpt>
   <trkpt lat="36.851259" lon="-3.548804"><ele>641</ele></trkpt>
   <trkpt lat="36.851414" lon="-3.548629"><ele>643</ele></trkpt>
   <trkpt lat="36.851615" lon="-3.548437"><ele>645.25</ele></trkpt>
   <trkpt lat="36.851741" lon="-3.548269"><ele>647.25</ele></trkpt>
   <trkpt lat="36.851774" lon="-3.548159"><ele>647.75</ele></trkpt>
   <trkpt lat="36.851832" lon="-3.547803"><ele>649.75</ele></trkpt>
   <trkpt lat="36.851867" lon="-3.547653"><ele>649.75</ele></trkpt>
   <trkpt lat="36.851924" lon="-3.547558"><ele>650.75</ele></trkpt>
   <trkpt lat="36.852005" lon="-3.547469"><ele>651.25</ele></trkpt>
   <trkpt lat="36.852096" lon="-3.547434"><ele>652.25</ele></trkpt>
   <trkpt lat="36.852538" lon="-3.547289"><ele>656.25</ele></trkpt>
   <trkpt lat="36.852628" lon="-3.547225"><ele>657.25</ele></trkpt>
   <trkpt lat="36.852697" lon="-3.54714"><ele>657.25</ele></trkpt>
   <trkpt lat="36.853297" lon="-3.546219"><ele>665.75</ele></trkpt>
   <trkpt lat="36.853439" lon="-3.54586"><ele>671.75</ele></trkpt>
   <trkpt lat="36.853537" lon="-3.545587"><ele>670.5</ele></trkpt>
   <trkpt lat="36.853604" lon="-3.545486"><ele>671</ele></trkpt>
   <trkpt lat="36.853685" lon="-3.545394"><ele>671.25</ele></trkpt>
   <trkpt lat="36.853777" lon="-3.545358"><ele>672</ele></trkpt>
   <trkpt lat="36.853885" lon="-3.54533"><ele>672.5</ele></trkpt>
   <trkpt lat="36.854733" lon="-3.545174"><ele>679.5</ele></trkpt>
   <trkpt lat="36.854877" lon="-3.545072"><ele>680.5</ele></trkpt>
   <trkpt lat="36.854957" lon="-3.544974"><ele>680.5</ele></trkpt>
   <trkpt lat="36.855231" lon="-3.544529"><ele>684.5</ele></trkpt>
   <trkpt lat="36.855351" lon="-3.544395"><ele>685.25</ele></trkpt>
   <trkpt lat="36.8555" lon="-3.544264"><ele>685.75</ele></trkpt>
   <trkpt lat="36.855853" lon="-3.544114"><ele>690.25</ele></trkpt>
   <trkpt lat="36.855951" lon="-3.544058"><ele>691.5</ele></trkpt>
   <trkpt lat="36.856813" lon="-3.543375"><ele>700.5</ele></trkpt>
   <trkpt lat="36.856978" lon="-3.543251"><ele>700.5</ele></trkpt>
   <trkpt lat="36.857096" lon="-3.543193"><ele>701</ele></trkpt>
   <trkpt lat="36.857409" lon="-3.543107"><ele>703.75</ele></trkpt>
   <trkpt lat="36.857927" lon="-3.543038"><ele>707.25</ele></trkpt>
   <trkpt lat="36.858108" lon="-3.542992"><ele>708.75</ele></trkpt>
   <trkpt lat="36.858349" lon="-3.542795"><ele>710.75</ele></trkpt>
   <trkpt lat="36.858527" lon="-3.542677"><ele>712</ele></trkpt>
   <trkpt lat="36.858663" lon="-3.542624"><ele>713</ele></trkpt>
   <trkpt lat="36.858775" lon="-3.542601"><ele>713.5</ele></trkpt>
   <trkpt lat="36.859745" lon="-3.542653"><ele>723.25</ele></trkpt>
   <trkpt lat="36.860078" lon="-3.542507"><ele>725</ele></trkpt>
   <trkpt lat="36.860239" lon="-3.542451"><ele>724.75</ele></trkpt>
   <trkpt lat="36.860478" lon="-3.542491"><ele>726.5</ele></trkpt>
   <trkpt lat="36.860689" lon="-3.542506"><ele>729.5</ele></trkpt>
   <trkpt lat="36.860807" lon="-3.542486"><ele>731</ele></trkpt>
   <trkpt lat="36.860984" lon="-3.542445"><ele>731.5</ele></trkpt>
   <trkpt lat="36.861149" lon="-3.542452"><ele>732.5</ele></trkpt>
   <trkpt lat="36.862012" lon="-3.542838"><ele>741.25</ele></trkpt>
   <trkpt lat="36.862117" lon="-3.54286"><ele>742</ele></trkpt>
   <trkpt lat="36.862207" lon="-3.542851"><ele>742</ele></trkpt>
   <trkpt lat="36.862791" lon="-3.542575"><ele>746</ele></trkpt>
   <trkpt lat="36.86291" lon="-3.542533"><ele>746.25</ele></trkpt>
   <trkpt lat="36.863746" lon="-3.542471"><ele>753.75</ele></trkpt>
   <trkpt lat="36.863889" lon="-3.54247"><ele>755</ele></trkpt>
   <trkpt lat="36.863971" lon="-3.54249"><ele>754.25</ele></trkpt>
   <trkpt lat="36.864053" lon="-3.542528"><ele>754.75</ele></trkpt>
   <trkpt lat="36.86453" lon="-3.543006"><ele>762.25</ele></trkpt>
   <trkpt lat="36.864579" lon="-3.543051"><ele>762.75</ele></trkpt>
   <trkpt lat="36.864665" lon="-3.543109"><ele>763.25</ele></trkpt>
   <trkpt lat="36.864738" lon="-3.543123"><ele>762.75</ele></trkpt>
   <trkpt lat="36.864811" lon="-3.543118"><ele>763.75</ele></trkpt>
   <trkpt lat="36.865013" lon="-3.543037"><ele>763.25</ele></trkpt>
   <trkpt lat="36.865096" lon="-3.54302"><ele>763</ele></trkpt>
   <trkpt lat="36.865179" lon="-3.543029"><ele>763.75</ele></trkpt>
   <trkpt lat="36.865329" lon="-3.543086"><ele>766.25</ele></trkpt>
   <trkpt lat="36.865637" lon="-3.543245"><ele>765.5</ele></trkpt>
   <trkpt lat="36.86608" lon="-3.54351"><ele>768.5</ele></trkpt>
   <trkpt lat="36.86623" lon="-3.543651"><ele>771.25</ele></trkpt>
   <trkpt lat="36.866474" lon="-3.543852"><ele>773.5</ele></trkpt>
   <trkpt lat="36.86656" lon="-3.543882"><ele>773</ele></trkpt>
   <trkpt lat="36.866645" lon="-3.543862"><ele>770.25</ele></trkpt>
   <trkpt lat="36.866767" lon="-3.543801"><ele>768.5</ele></trkpt>
   <trkpt lat="36.866825" lon="-3.54373"><ele>769.5</ele></trkpt>
   <trkpt lat="36.866871" lon="-3.543639"><ele>772</ele></trkpt>
   <trkpt lat="36.866882" lon="-3.543524"><ele>774.25</ele></trkpt>
   <trkpt lat="36.866823" lon="-3.543179"><ele>773.25</ele></trkpt>
   <trkpt lat="36.866825" lon="-3.543057"><ele>773.5</ele></trkpt>
   <trkpt lat="36.866867" lon="-3.542932"><ele>774</ele></trkpt>
   <trkpt lat="36.866944" lon="-3.542814"><ele>775.25</ele></trkpt>
   <trkpt lat="36.867202" lon="-3.542499"><ele>777.5</ele></trkpt>
   <trkpt lat="36.867332" lon="-3.542375"><ele>778</ele></trkpt>
   <trkpt lat="36.867465" lon="-3.542275"><ele>778.5</ele></trkpt>
   <trkpt lat="36.867997" lon="-3.542057"><ele>780.25</ele></trkpt>
   <trkpt lat="36.868228" lon="-3.542003"><ele>780.75</ele></trkpt>
   <trkpt lat="36.868468" lon="-3.542046"><ele>781</ele></trkpt>
   <trkpt lat="36.868674" lon="-3.542181"><ele>780</ele></trkpt>
   <trkpt lat="36.868913" lon="-3.54264"><ele>789.25</ele></trkpt>
   <trkpt lat="36.868974" lon="-3.542721"><ele>790.75</ele></trkpt>
   <trkpt lat="36.869069" lon="-3.542801"><ele>791.25</ele></trkpt>
   <trkpt lat="36.86914" lon="-3.542832"><ele>790.25</ele></trkpt>
   <trkpt lat="36.869211" lon="-3.54284"><ele>791.5</ele></trkpt>
   <trkpt lat="36.869327" lon="-3.542801"><ele>794</ele></trkpt>
   <trkpt lat="36.869417" lon="-3.542698"><ele>796.5</ele></trkpt>
   <trkpt lat="36.869491" lon="-3.54254"><ele>799.5</ele></trkpt>
   <trkpt lat="36.869807" lon="-3.541778"><ele>799.5</ele></trkpt>
   <trkpt lat="36.869879" lon="-3.541572"><ele>801</ele></trkpt>
   <trkpt lat="36.869904" lon="-3.541317"><ele>799</ele></trkpt>
   <trkpt lat="36.869932" lon="-3.541112"><ele>801.5</ele></trkpt>
   <trkpt lat="36.869974" lon="-3.540968"><ele>803.5</ele></trkpt>
   <trkpt lat="36.870061" lon="-3.540837"><ele>806.25</ele></trkpt>
   <trkpt lat="36.870444" lon="-3.540426"><ele>810.25</ele></trkpt>
   <trkpt lat="36.870557" lon="-3.540333"><ele>812</ele></trkpt>
   <trkpt lat="36.87065" lon="-3.540283"><ele>811.75</ele></trkpt>
   <trkpt lat="36.870784" lon="-3.540257"><ele>813</ele></trkpt>
   <trkpt lat="36.871034" lon="-3.540235"><ele>815.25</ele></trkpt>
   <trkpt lat="36.871132" lon="-3.540208"><ele>816</ele></trkpt>
   <trkpt lat="36.871203" lon="-3.540144"><ele>816.75</ele></trkpt>
   <trkpt lat="36.871269" lon="-3.540028"><ele>817.5</ele></trkpt>
   <trkpt lat="36.871317" lon="-3.539795"><ele>818</ele></trkpt>
   <trkpt lat="36.871382" lon="-3.539639"><ele>819.25</ele></trkpt>
   <trkpt lat="36.871441" lon="-3.539557"><ele>820</ele></trkpt>
   <trkpt lat="36.871512" lon="-3.539499"><ele>820.5</ele></trkpt>
   <trkpt lat="36.871743" lon="-3.539356"><ele>821.5</ele></trkpt>
   <trkpt lat="36.871828" lon="-3.53928"><ele>822</ele></trkpt>
   <trkpt lat="36.871879" lon="-3.539195"><ele>821.5</ele></trkpt>
   <trkpt lat="36.871909" lon="-3.53909"><ele>821.25</ele></trkpt>
   <trkpt lat="36.871927" lon="-3.538952"><ele>821.25</ele></trkpt>
   <trkpt lat="36.871932" lon="-3.53876"><ele>821.5</ele></trkpt>
   <trkpt lat="36.871945" lon="-3.538664"><ele>822</ele></trkpt>
   <trkpt lat="36.871974" lon="-3.538588"><ele>822.5</ele></trkpt>
   <trkpt lat="36.872005" lon="-3.53854"><ele>823</ele></trkpt>
   <trkpt lat="36.872046" lon="-3.538489"><ele>823.25</ele></trkpt>
    </trkseg>
 </trk>
</gpx>
